{
  "type": "FeatureCollection",
  "features": [
    {
      "type": "Feature",
      "properties": {
        "id": "hogakustenleden-section-1-hornoberget-lovvik",
        "trailSystemId": "hogakustenleden",
        "sectionId": "hogakustenleden-section-1-hornoberget-lovvik",
        "name": "Etapp 1 Hornöberget-Lövvik",
        "source": "candidate-normalized-geojson"
      },
      "geometry": {
        "type": "LineString",
        "coordinates": [
          [
            17.951727,
            62.803933
          ],
          [
            17.951302,
            62.803921
          ],
          [
            17.950949,
            62.803931
          ],
          [
            17.950719,
            62.803924
          ],
          [
            17.950494,
            62.803889
          ],
          [
            17.950381,
            62.803887
          ],
          [
            17.950323,
            62.803799
          ],
          [
            17.950151,
            62.803782
          ],
          [
            17.950018,
            62.803691
          ],
          [
            17.949466,
            62.80365
          ],
          [
            17.949433,
            62.803468
          ],
          [
            17.949331,
            62.80315
          ],
          [
            17.949276,
            62.802955
          ],
          [
            17.949186,
            62.802844
          ],
          [
            17.949041,
            62.80277
          ],
          [
            17.948857,
            62.802716
          ],
          [
            17.948657,
            62.802695
          ],
          [
            17.948504,
            62.802699
          ],
          [
            17.948309,
            62.802735
          ],
          [
            17.948134,
            62.8028
          ],
          [
            17.947942,
            62.802893
          ],
          [
            17.947802,
            62.803007
          ],
          [
            17.947679,
            62.803129
          ],
          [
            17.947602,
            62.803282
          ],
          [
            17.947539,
            62.803439
          ],
          [
            17.947473,
            62.803654
          ],
          [
            17.947424,
            62.803796
          ],
          [
            17.947051,
            62.804077
          ],
          [
            17.946895,
            62.804263
          ],
          [
            17.946747,
            62.804476
          ],
          [
            17.946709,
            62.804542
          ],
          [
            17.94669,
            62.804639
          ],
          [
            17.946695,
            62.804754
          ],
          [
            17.946628,
            62.804808
          ],
          [
            17.946608,
            62.80486
          ],
          [
            17.946637,
            62.804912
          ],
          [
            17.946729,
            62.804998
          ],
          [
            17.946762,
            62.805056
          ],
          [
            17.946865,
            62.805144
          ],
          [
            17.946972,
            62.805194
          ],
          [
            17.947101,
            62.805236
          ],
          [
            17.947204,
            62.80529
          ],
          [
            17.947264,
            62.805329
          ],
          [
            17.947459,
            62.805396
          ],
          [
            17.94761,
            62.805433
          ],
          [
            17.947728,
            62.805488
          ],
          [
            17.947801,
            62.805554
          ],
          [
            17.947858,
            62.805595
          ],
          [
            17.947875,
            62.805688
          ],
          [
            17.94786,
            62.805755
          ],
          [
            17.947884,
            62.805802
          ],
          [
            17.947956,
            62.805875
          ],
          [
            17.948165,
            62.806006
          ],
          [
            17.948404,
            62.806109
          ],
          [
            17.948673,
            62.806236
          ],
          [
            17.948811,
            62.806297
          ],
          [
            17.949022,
            62.806467
          ],
          [
            17.949199,
            62.80663
          ],
          [
            17.949401,
            62.806738
          ],
          [
            17.949589,
            62.806837
          ],
          [
            17.949677,
            62.806928
          ],
          [
            17.949831,
            62.807079
          ],
          [
            17.94994,
            62.80718
          ],
          [
            17.950039,
            62.807317
          ],
          [
            17.950157,
            62.807423
          ],
          [
            17.95024,
            62.807516
          ],
          [
            17.950317,
            62.807572
          ],
          [
            17.950374,
            62.807647
          ],
          [
            17.950396,
            62.807759
          ],
          [
            17.950455,
            62.807875
          ],
          [
            17.95051,
            62.807989
          ],
          [
            17.950541,
            62.808078
          ],
          [
            17.950585,
            62.808163
          ],
          [
            17.950602,
            62.808301
          ],
          [
            17.950653,
            62.808396
          ],
          [
            17.950657,
            62.808484
          ],
          [
            17.950646,
            62.808609
          ],
          [
            17.950589,
            62.808727
          ],
          [
            17.950484,
            62.808826
          ],
          [
            17.95033,
            62.808851
          ],
          [
            17.950172,
            62.808914
          ],
          [
            17.950156,
            62.808984
          ],
          [
            17.950122,
            62.809056
          ],
          [
            17.950149,
            62.809149
          ],
          [
            17.950205,
            62.809207
          ],
          [
            17.950303,
            62.809278
          ],
          [
            17.950408,
            62.809411
          ],
          [
            17.950503,
            62.809576
          ],
          [
            17.950568,
            62.809682
          ],
          [
            17.950668,
            62.809774
          ],
          [
            17.950857,
            62.809911
          ],
          [
            17.950992,
            62.810011
          ],
          [
            17.951057,
            62.810088
          ],
          [
            17.951111,
            62.8102
          ],
          [
            17.951161,
            62.810319
          ],
          [
            17.951171,
            62.810371
          ],
          [
            17.951148,
            62.810435
          ],
          [
            17.951085,
            62.810492
          ],
          [
            17.950966,
            62.810592
          ],
          [
            17.950822,
            62.810737
          ],
          [
            17.950731,
            62.810856
          ],
          [
            17.950684,
            62.81094
          ],
          [
            17.950717,
            62.811032
          ],
          [
            17.950871,
            62.811176
          ],
          [
            17.951113,
            62.811387
          ],
          [
            17.951338,
            62.811626
          ],
          [
            17.951425,
            62.811746
          ],
          [
            17.951485,
            62.811872
          ],
          [
            17.951509,
            62.811995
          ],
          [
            17.951532,
            62.81218
          ],
          [
            17.95149,
            62.812384
          ],
          [
            17.95145,
            62.812545
          ],
          [
            17.951403,
            62.812737
          ],
          [
            17.951377,
            62.812831
          ],
          [
            17.951308,
            62.813087
          ],
          [
            17.951288,
            62.813235
          ],
          [
            17.951275,
            62.81333
          ],
          [
            17.951287,
            62.813506
          ],
          [
            17.951422,
            62.813541
          ],
          [
            17.951744,
            62.813601
          ],
          [
            17.95154,
            62.813784
          ],
          [
            17.951464,
            62.813909
          ],
          [
            17.951384,
            62.81407
          ],
          [
            17.951323,
            62.814234
          ],
          [
            17.951293,
            62.814418
          ],
          [
            17.9513,
            62.81459
          ],
          [
            17.951324,
            62.814756
          ],
          [
            17.951375,
            62.815063
          ],
          [
            17.951467,
            62.815313
          ],
          [
            17.951564,
            62.81552
          ],
          [
            17.951643,
            62.815627
          ],
          [
            17.951841,
            62.815839
          ],
          [
            17.952099,
            62.816054
          ],
          [
            17.952285,
            62.816193
          ],
          [
            17.952511,
            62.816334
          ],
          [
            17.952947,
            62.81659
          ],
          [
            17.956189,
            62.818548
          ],
          [
            17.956477,
            62.818705
          ],
          [
            17.956736,
            62.818827
          ],
          [
            17.957097,
            62.81898
          ],
          [
            17.957348,
            62.819075
          ],
          [
            17.957627,
            62.819161
          ],
          [
            17.958129,
            62.819305
          ],
          [
            17.961022,
            62.820011
          ],
          [
            17.961551,
            62.820104
          ],
          [
            17.961866,
            62.820146
          ],
          [
            17.962234,
            62.820176
          ],
          [
            17.9626,
            62.820197
          ],
          [
            17.964293,
            62.820235
          ],
          [
            17.964809,
            62.820262
          ],
          [
            17.965287,
            62.820308
          ],
          [
            17.965732,
            62.82036
          ],
          [
            17.96621,
            62.82045
          ],
          [
            17.96722,
            62.820718
          ],
          [
            17.968114,
            62.820992
          ],
          [
            17.968376,
            62.821088
          ],
          [
            17.968578,
            62.821164
          ],
          [
            17.96878,
            62.821263
          ],
          [
            17.968974,
            62.821381
          ],
          [
            17.969107,
            62.821471
          ],
          [
            17.969276,
            62.821623
          ],
          [
            17.969422,
            62.821783
          ],
          [
            17.969719,
            62.822242
          ],
          [
            17.969883,
            62.8223
          ],
          [
            17.970097,
            62.822321
          ],
          [
            17.97028,
            62.822261
          ],
          [
            17.972145,
            62.821179
          ],
          [
            17.973494,
            62.820647
          ],
          [
            17.974868,
            62.820247
          ],
          [
            17.980795,
            62.818869
          ],
          [
            17.981634,
            62.818542
          ],
          [
            17.982146,
            62.818345
          ],
          [
            17.98258,
            62.818451
          ],
          [
            17.98279,
            62.818483
          ],
          [
            17.982848,
            62.818613
          ],
          [
            17.982924,
            62.818848
          ],
          [
            17.982971,
            62.818997
          ],
          [
            17.983079,
            62.819234
          ],
          [
            17.983332,
            62.81949
          ],
          [
            17.983752,
            62.819668
          ],
          [
            17.984399,
            62.819902
          ],
          [
            17.984947,
            62.820129
          ],
          [
            17.985279,
            62.820259
          ],
          [
            17.985436,
            62.820355
          ],
          [
            17.985576,
            62.820525
          ],
          [
            17.985672,
            62.820641
          ],
          [
            17.985751,
            62.820711
          ],
          [
            17.985857,
            62.820738
          ],
          [
            17.985978,
            62.820733
          ],
          [
            17.98605,
            62.820715
          ],
          [
            17.986223,
            62.820757
          ],
          [
            17.987249,
            62.820787
          ],
          [
            17.988397,
            62.8208
          ],
          [
            17.988607,
            62.82084
          ],
          [
            17.988759,
            62.820944
          ],
          [
            17.988764,
            62.821143
          ],
          [
            17.988934,
            62.821309
          ],
          [
            17.989318,
            62.821492
          ],
          [
            17.989656,
            62.821676
          ],
          [
            17.989743,
            62.821675
          ],
          [
            17.989808,
            62.821653
          ],
          [
            17.990148,
            62.821638
          ],
          [
            17.990519,
            62.821541
          ],
          [
            17.990593,
            62.82156
          ],
          [
            17.99071,
            62.821548
          ],
          [
            17.990742,
            62.821567
          ],
          [
            17.991037,
            62.821482
          ],
          [
            17.991158,
            62.821517
          ],
          [
            17.991584,
            62.821433
          ],
          [
            17.991844,
            62.821436
          ],
          [
            17.991908,
            62.82146
          ],
          [
            17.992197,
            62.82146
          ],
          [
            17.992328,
            62.821438
          ],
          [
            17.992493,
            62.82152
          ],
          [
            17.992585,
            62.821535
          ],
          [
            17.993025,
            62.821864
          ],
          [
            17.993198,
            62.821865
          ],
          [
            17.993245,
            62.821895
          ],
          [
            17.993573,
            62.82186
          ],
          [
            17.993666,
            62.821909
          ],
          [
            17.993767,
            62.821918
          ],
          [
            17.993779,
            62.821943
          ],
          [
            17.994131,
            62.821916
          ],
          [
            17.994391,
            62.82201
          ],
          [
            17.994714,
            62.822032
          ],
          [
            17.994933,
            62.82202
          ],
          [
            17.99506,
            62.821987
          ],
          [
            17.995216,
            62.822013
          ],
          [
            17.995312,
            62.821993
          ],
          [
            17.995614,
            62.822026
          ],
          [
            17.995853,
            62.822027
          ],
          [
            17.995995,
            62.821995
          ],
          [
            17.996367,
            62.821988
          ],
          [
            17.996439,
            62.822029
          ],
          [
            17.99678,
            62.82196
          ],
          [
            17.996882,
            62.821918
          ],
          [
            17.997045,
            62.821907
          ],
          [
            17.997091,
            62.821927
          ],
          [
            17.997375,
            62.821717
          ],
          [
            17.997522,
            62.821679
          ],
          [
            17.997712,
            62.821562
          ],
          [
            17.997763,
            62.821433
          ],
          [
            17.997869,
            62.82139
          ],
          [
            17.998211,
            62.821075
          ],
          [
            17.998504,
            62.820914
          ],
          [
            17.998817,
            62.820815
          ],
          [
            17.998879,
            62.820762
          ],
          [
            17.998884,
            62.820696
          ],
          [
            17.999456,
            62.820513
          ],
          [
            17.999499,
            62.820525
          ],
          [
            17.999691,
            62.820443
          ],
          [
            18.000007,
            62.820423
          ],
          [
            18.000108,
            62.820386
          ],
          [
            18.000167,
            62.820409
          ],
          [
            18.000277,
            62.820324
          ],
          [
            18.000563,
            62.820197
          ],
          [
            18.001117,
            62.820053
          ],
          [
            18.001482,
            62.81986
          ],
          [
            18.001592,
            62.819855
          ],
          [
            18.001688,
            62.819894
          ],
          [
            18.002081,
            62.819823
          ],
          [
            18.002182,
            62.819835
          ],
          [
            18.002431,
            62.819813
          ],
          [
            18.002625,
            62.819909
          ],
          [
            18.002712,
            62.819915
          ],
          [
            18.002773,
            62.819971
          ],
          [
            18.002939,
            62.820004
          ],
          [
            18.003091,
            62.819971
          ],
          [
            18.003159,
            62.819994
          ],
          [
            18.003157,
            62.820024
          ],
          [
            18.003254,
            62.820046
          ],
          [
            18.003375,
            62.820008
          ],
          [
            18.003803,
            62.819988
          ],
          [
            18.003937,
            62.819927
          ],
          [
            18.004345,
            62.819849
          ],
          [
            18.004407,
            62.819712
          ],
          [
            18.004482,
            62.81966
          ],
          [
            18.004458,
            62.819574
          ],
          [
            18.004549,
            62.819453
          ],
          [
            18.004932,
            62.819219
          ],
          [
            18.004961,
            62.819171
          ],
          [
            18.005039,
            62.819172
          ],
          [
            18.00517,
            62.819116
          ],
          [
            18.00546,
            62.819085
          ],
          [
            18.005519,
            62.819033
          ],
          [
            18.005855,
            62.81893
          ],
          [
            18.006013,
            62.818934
          ],
          [
            18.006025,
            62.818908
          ],
          [
            18.006137,
            62.818886
          ],
          [
            18.006204,
            62.818904
          ],
          [
            18.006328,
            62.818898
          ],
          [
            18.006824,
            62.818845
          ],
          [
            18.006932,
            62.818805
          ],
          [
            18.007205,
            62.818777
          ],
          [
            18.007299,
            62.818739
          ],
          [
            18.007486,
            62.81871
          ],
          [
            18.007809,
            62.818752
          ],
          [
            18.007909,
            62.818742
          ],
          [
            18.00799,
            62.818784
          ],
          [
            18.008145,
            62.818779
          ],
          [
            18.008177,
            62.818817
          ],
          [
            18.008388,
            62.818901
          ],
          [
            18.00862,
            62.8189
          ],
          [
            18.008611,
            62.818981
          ],
          [
            18.008563,
            62.819015
          ],
          [
            18.008594,
            62.81905
          ],
          [
            18.008818,
            62.819141
          ],
          [
            18.008992,
            62.819172
          ],
          [
            18.009392,
            62.819301
          ],
          [
            18.009557,
            62.819301
          ],
          [
            18.00991,
            62.819257
          ],
          [
            18.010114,
            62.819294
          ],
          [
            18.010153,
            62.81928
          ],
          [
            18.010385,
            62.819383
          ],
          [
            18.010582,
            62.819425
          ],
          [
            18.010887,
            62.81936
          ],
          [
            18.01111,
            62.819357
          ],
          [
            18.011391,
            62.819301
          ],
          [
            18.011454,
            62.819267
          ],
          [
            18.011603,
            62.8193
          ],
          [
            18.012325,
            62.819275
          ],
          [
            18.012745,
            62.819198
          ],
          [
            18.012773,
            62.81917
          ],
          [
            18.013129,
            62.81919
          ],
          [
            18.013272,
            62.819237
          ],
          [
            18.013297,
            62.819305
          ],
          [
            18.013494,
            62.819319
          ],
          [
            18.013521,
            62.819356
          ],
          [
            18.013571,
            62.819359
          ],
          [
            18.01389,
            62.819299
          ],
          [
            18.013987,
            62.819306
          ],
          [
            18.014125,
            62.819268
          ],
          [
            18.015003,
            62.819205
          ],
          [
            18.015194,
            62.819135
          ],
          [
            18.015549,
            62.819078
          ],
          [
            18.015618,
            62.819038
          ],
          [
            18.015947,
            62.818944
          ],
          [
            18.016682,
            62.818839
          ],
          [
            18.01695,
            62.81873
          ],
          [
            18.016933,
            62.818664
          ],
          [
            18.017122,
            62.818496
          ],
          [
            18.017201,
            62.818185
          ],
          [
            18.017294,
            62.818078
          ],
          [
            18.017231,
            62.817962
          ],
          [
            18.017335,
            62.817836
          ],
          [
            18.017339,
            62.817791
          ],
          [
            18.017294,
            62.817785
          ],
          [
            18.017343,
            62.81772
          ],
          [
            18.017504,
            62.81758
          ],
          [
            18.017658,
            62.817488
          ],
          [
            18.017785,
            62.817448
          ],
          [
            18.017828,
            62.81737
          ],
          [
            18.017976,
            62.817299
          ],
          [
            18.018013,
            62.817233
          ],
          [
            18.018172,
            62.817132
          ],
          [
            18.018211,
            62.817039
          ],
          [
            18.018247,
            62.81681
          ],
          [
            18.018265,
            62.816742
          ],
          [
            18.018317,
            62.816725
          ],
          [
            18.0183,
            62.81665
          ],
          [
            18.018334,
            62.816643
          ],
          [
            18.018302,
            62.816627
          ],
          [
            18.018333,
            62.816571
          ],
          [
            18.018294,
            62.816554
          ],
          [
            18.018327,
            62.816368
          ],
          [
            18.018296,
            62.816328
          ],
          [
            18.018356,
            62.816065
          ],
          [
            18.018341,
            62.816024
          ],
          [
            18.018289,
            62.816017
          ],
          [
            18.018243,
            62.8159
          ],
          [
            18.018289,
            62.815807
          ],
          [
            18.018057,
            62.815548
          ],
          [
            18.018058,
            62.815384
          ],
          [
            18.017941,
            62.815254
          ],
          [
            18.017952,
            62.815173
          ],
          [
            18.017842,
            62.81501
          ],
          [
            18.017867,
            62.814793
          ],
          [
            18.017671,
            62.81455
          ],
          [
            18.017642,
            62.814321
          ],
          [
            18.017511,
            62.814237
          ],
          [
            18.017488,
            62.814175
          ],
          [
            18.017314,
            62.81409
          ],
          [
            18.017226,
            62.813921
          ],
          [
            18.017292,
            62.813825
          ],
          [
            18.017255,
            62.813719
          ],
          [
            18.017329,
            62.813658
          ],
          [
            18.017244,
            62.813443
          ],
          [
            18.017394,
            62.813295
          ],
          [
            18.017318,
            62.813161
          ],
          [
            18.017377,
            62.813148
          ],
          [
            18.017527,
            62.812995
          ],
          [
            18.017724,
            62.812909
          ],
          [
            18.017892,
            62.8127
          ],
          [
            18.018355,
            62.812467
          ],
          [
            18.018701,
            62.812224
          ],
          [
            18.019059,
            62.812105
          ],
          [
            18.019222,
            62.812078
          ],
          [
            18.019261,
            62.812046
          ],
          [
            18.019602,
            62.811941
          ],
          [
            18.019619,
            62.811689
          ],
          [
            18.019717,
            62.811484
          ],
          [
            18.019779,
            62.811463
          ],
          [
            18.019781,
            62.811403
          ],
          [
            18.019851,
            62.811345
          ],
          [
            18.019833,
            62.811221
          ],
          [
            18.019948,
            62.811117
          ],
          [
            18.020055,
            62.811085
          ],
          [
            18.020112,
            62.811035
          ],
          [
            18.020056,
            62.810902
          ],
          [
            18.020148,
            62.810783
          ],
          [
            18.020257,
            62.810739
          ],
          [
            18.020315,
            62.810679
          ],
          [
            18.020724,
            62.810585
          ],
          [
            18.020783,
            62.810536
          ],
          [
            18.020989,
            62.810533
          ],
          [
            18.021306,
            62.810254
          ],
          [
            18.021414,
            62.8101
          ],
          [
            18.021425,
            62.809964
          ],
          [
            18.021571,
            62.809865
          ],
          [
            18.021909,
            62.80977
          ],
          [
            18.021982,
            62.809707
          ],
          [
            18.022355,
            62.809538
          ],
          [
            18.022834,
            62.809526
          ],
          [
            18.023318,
            62.809433
          ],
          [
            18.023604,
            62.809421
          ],
          [
            18.023761,
            62.80939
          ],
          [
            18.024128,
            62.809163
          ],
          [
            18.024658,
            62.809028
          ],
          [
            18.024909,
            62.809039
          ],
          [
            18.025113,
            62.809082
          ],
          [
            18.025669,
            62.809252
          ],
          [
            18.0258,
            62.809213
          ],
          [
            18.025896,
            62.809252
          ],
          [
            18.026071,
            62.809269
          ],
          [
            18.026358,
            62.809378
          ],
          [
            18.026496,
            62.809471
          ],
          [
            18.026847,
            62.809589
          ],
          [
            18.027062,
            62.809624
          ],
          [
            18.027195,
            62.809689
          ],
          [
            18.02741,
            62.809702
          ],
          [
            18.027707,
            62.809802
          ],
          [
            18.027799,
            62.809843
          ],
          [
            18.027903,
            62.809954
          ],
          [
            18.028017,
            62.809987
          ],
          [
            18.028432,
            62.809941
          ],
          [
            18.028704,
            62.810031
          ],
          [
            18.028862,
            62.810039
          ],
          [
            18.029045,
            62.810091
          ],
          [
            18.029205,
            62.810106
          ],
          [
            18.029588,
            62.810241
          ],
          [
            18.029641,
            62.810317
          ],
          [
            18.029886,
            62.810363
          ],
          [
            18.030181,
            62.810364
          ],
          [
            18.030295,
            62.810337
          ],
          [
            18.030287,
            62.810353
          ],
          [
            18.030521,
            62.810409
          ],
          [
            18.030602,
            62.810408
          ],
          [
            18.030567,
            62.8104
          ],
          [
            18.030634,
            62.810377
          ],
          [
            18.031039,
            62.810403
          ],
          [
            18.031501,
            62.810618
          ],
          [
            18.03155,
            62.810684
          ],
          [
            18.031701,
            62.810749
          ],
          [
            18.032167,
            62.810759
          ],
          [
            18.032571,
            62.810887
          ],
          [
            18.032918,
            62.810766
          ],
          [
            18.033236,
            62.810837
          ],
          [
            18.033539,
            62.81082
          ],
          [
            18.033859,
            62.810887
          ],
          [
            18.03396,
            62.810878
          ],
          [
            18.034055,
            62.810951
          ],
          [
            18.034431,
            62.81096
          ],
          [
            18.034688,
            62.810922
          ],
          [
            18.034846,
            62.811043
          ],
          [
            18.035526,
            62.811217
          ],
          [
            18.035896,
            62.81138
          ],
          [
            18.036177,
            62.811413
          ],
          [
            18.036466,
            62.811516
          ],
          [
            18.036584,
            62.811519
          ],
          [
            18.036641,
            62.811521
          ],
          [
            18.036715,
            62.811551
          ],
          [
            18.036838,
            62.811542
          ],
          [
            18.036926,
            62.81151
          ],
          [
            18.037237,
            62.811574
          ],
          [
            18.03745,
            62.811533
          ],
          [
            18.037628,
            62.811541
          ],
          [
            18.037782,
            62.811596
          ],
          [
            18.037841,
            62.811653
          ],
          [
            18.038278,
            62.811736
          ],
          [
            18.038773,
            62.81187
          ],
          [
            18.038863,
            62.811869
          ],
          [
            18.039137,
            62.8118
          ],
          [
            18.039293,
            62.811793
          ],
          [
            18.039656,
            62.811868
          ],
          [
            18.039825,
            62.811847
          ],
          [
            18.040125,
            62.811873
          ],
          [
            18.040433,
            62.811864
          ],
          [
            18.040951,
            62.811623
          ],
          [
            18.041057,
            62.811622
          ],
          [
            18.041274,
            62.811522
          ],
          [
            18.04152,
            62.811477
          ],
          [
            18.041959,
            62.811527
          ],
          [
            18.042162,
            62.811605
          ],
          [
            18.042178,
            62.811636
          ],
          [
            18.042626,
            62.81173
          ],
          [
            18.043039,
            62.811722
          ],
          [
            18.043255,
            62.811748
          ],
          [
            18.043568,
            62.811829
          ],
          [
            18.043773,
            62.811857
          ],
          [
            18.04386,
            62.811839
          ],
          [
            18.044106,
            62.811879
          ],
          [
            18.044189,
            62.811868
          ],
          [
            18.04429,
            62.811896
          ],
          [
            18.044386,
            62.811895
          ],
          [
            18.044523,
            62.811858
          ],
          [
            18.04474,
            62.811856
          ],
          [
            18.044793,
            62.811889
          ],
          [
            18.044829,
            62.81188
          ],
          [
            18.04526,
            62.81196
          ],
          [
            18.045307,
            62.811994
          ],
          [
            18.045396,
            62.811939
          ],
          [
            18.045452,
            62.811943
          ],
          [
            18.045456,
            62.811973
          ],
          [
            18.045644,
            62.812005
          ],
          [
            18.045686,
            62.812034
          ],
          [
            18.045887,
            62.812024
          ],
          [
            18.046034,
            62.812059
          ],
          [
            18.046081,
            62.8121
          ],
          [
            18.046267,
            62.812107
          ],
          [
            18.046345,
            62.812085
          ],
          [
            18.04646,
            62.812092
          ],
          [
            18.04665,
            62.812067
          ],
          [
            18.04676,
            62.812081
          ],
          [
            18.047082,
            62.812038
          ],
          [
            18.047331,
            62.811958
          ],
          [
            18.04784,
            62.811895
          ],
          [
            18.048286,
            62.811768
          ],
          [
            18.048644,
            62.811709
          ],
          [
            18.048873,
            62.811636
          ],
          [
            18.04901,
            62.811626
          ],
          [
            18.049035,
            62.811589
          ],
          [
            18.04947,
            62.811459
          ],
          [
            18.049793,
            62.811438
          ],
          [
            18.049961,
            62.811376
          ],
          [
            18.050098,
            62.811431
          ],
          [
            18.050268,
            62.811399
          ],
          [
            18.05063,
            62.811378
          ],
          [
            18.050779,
            62.811348
          ],
          [
            18.050807,
            62.8113
          ],
          [
            18.051141,
            62.811225
          ],
          [
            18.051286,
            62.811219
          ],
          [
            18.051253,
            62.811149
          ],
          [
            18.051319,
            62.81106
          ],
          [
            18.051438,
            62.810959
          ],
          [
            18.051594,
            62.810909
          ],
          [
            18.051713,
            62.810804
          ],
          [
            18.051974,
            62.810688
          ],
          [
            18.052028,
            62.810512
          ],
          [
            18.052162,
            62.81047
          ],
          [
            18.052279,
            62.810461
          ],
          [
            18.052389,
            62.810312
          ],
          [
            18.052498,
            62.810273
          ],
          [
            18.052481,
            62.810229
          ],
          [
            18.052869,
            62.809942
          ],
          [
            18.053427,
            62.80971
          ],
          [
            18.053558,
            62.809519
          ],
          [
            18.05368,
            62.80946
          ],
          [
            18.053885,
            62.809432
          ],
          [
            18.054056,
            62.809326
          ],
          [
            18.054254,
            62.809249
          ],
          [
            18.054606,
            62.809207
          ],
          [
            18.054716,
            62.809167
          ],
          [
            18.055467,
            62.809157
          ],
          [
            18.05564,
            62.809188
          ],
          [
            18.055856,
            62.809152
          ],
          [
            18.05597,
            62.808994
          ],
          [
            18.055973,
            62.8089
          ],
          [
            18.056126,
            62.808762
          ],
          [
            18.056127,
            62.808671
          ],
          [
            18.056244,
            62.808601
          ],
          [
            18.056276,
            62.808544
          ],
          [
            18.056644,
            62.808476
          ],
          [
            18.056716,
            62.808366
          ],
          [
            18.056866,
            62.808292
          ],
          [
            18.057401,
            62.808235
          ],
          [
            18.057657,
            62.808175
          ],
          [
            18.057677,
            62.808099
          ],
          [
            18.057856,
            62.808028
          ],
          [
            18.057866,
            62.80792
          ],
          [
            18.057956,
            62.80784
          ],
          [
            18.0579,
            62.807763
          ],
          [
            18.058056,
            62.80757
          ],
          [
            18.05821,
            62.807575
          ],
          [
            18.058504,
            62.807626
          ],
          [
            18.058997,
            62.80751
          ],
          [
            18.059457,
            62.807546
          ],
          [
            18.059811,
            62.807472
          ],
          [
            18.060117,
            62.807367
          ],
          [
            18.06047,
            62.807397
          ],
          [
            18.06061,
            62.807434
          ],
          [
            18.060962,
            62.807402
          ],
          [
            18.061102,
            62.807356
          ],
          [
            18.061289,
            62.807362
          ],
          [
            18.061414,
            62.807322
          ],
          [
            18.061493,
            62.807235
          ],
          [
            18.061643,
            62.807235
          ],
          [
            18.061782,
            62.80718
          ],
          [
            18.061831,
            62.807071
          ],
          [
            18.062151,
            62.806896
          ],
          [
            18.062258,
            62.806791
          ],
          [
            18.062367,
            62.806758
          ],
          [
            18.062658,
            62.806762
          ],
          [
            18.062881,
            62.806696
          ],
          [
            18.063169,
            62.80668
          ],
          [
            18.063247,
            62.806654
          ],
          [
            18.063283,
            62.806679
          ],
          [
            18.06335,
            62.806658
          ],
          [
            18.063583,
            62.806672
          ],
          [
            18.063772,
            62.806598
          ],
          [
            18.064148,
            62.80656
          ],
          [
            18.06432,
            62.806438
          ],
          [
            18.064662,
            62.80634
          ],
          [
            18.065201,
            62.806347
          ],
          [
            18.06541,
            62.806392
          ],
          [
            18.065973,
            62.806277
          ],
          [
            18.066136,
            62.80628
          ],
          [
            18.066321,
            62.806235
          ],
          [
            18.066422,
            62.806176
          ],
          [
            18.066735,
            62.806115
          ],
          [
            18.06683,
            62.806058
          ],
          [
            18.067309,
            62.805894
          ],
          [
            18.067345,
            62.80584
          ],
          [
            18.067713,
            62.805626
          ],
          [
            18.067963,
            62.805611
          ],
          [
            18.068188,
            62.80551
          ],
          [
            18.068298,
            62.805502
          ],
          [
            18.068667,
            62.805542
          ],
          [
            18.069261,
            62.80554100000001
          ],
          [
            18.06991583661534,
            62.80504347589088
          ],
          [
            18.07057067323068,
            62.80454594337353
          ],
          [
            18.07087898254395,
            62.80431169285731
          ],
          [
            18.07027064417234,
            62.80380196771153
          ],
          [
            18.06966230580072,
            62.80329223374057
          ],
          [
            18.06779857082373,
            62.80285957468794
          ],
          [
            18.0674114527647,
            62.80250593672659
          ],
          [
            18.06681140773176,
            62.80202530595525
          ],
          [
            18.067698,
            62.801672
          ],
          [
            18.068085,
            62.801529
          ],
          [
            18.068601,
            62.801356
          ]
        ]
      }
    }
  ]
}
