{
  "type": "FeatureCollection",
  "features": [
    {
      "type": "Feature",
      "properties": {
        "trailId": "hogakustenleden",
        "sectionId": "hogakustenleden-section-7-entre-syd-entre-nord",
        "candidateGeometry": true,
        "runtimeImportApproved": false,
        "sourceUrl": "https://www.naturkartan.se/sv/vasternorrlands-lan/etapp-7-entre-syd-entre-nord-skuleskogens-nationalpark-hoga-kusten-leden.gpx",
        "source": "Naturkartan GPX",
        "classification": "navigation-grade with stale-label caveats",
        "sourceComputedDistanceKm": 7.522,
        "lineCount": 1,
        "pointCount": 202,
        "reverseApplied": false,
        "densifyApplied": false,
        "buildPolicyNotes": null,
        "lastUpdated": "2026-04-30"
      },
      "geometry": {
        "type": "LineString",
        "coordinates": [
          [
            18.481745,
            63.085649
          ],
          [
            18.481776,
            63.085681
          ],
          [
            18.481981,
            63.085774
          ],
          [
            18.482166,
            63.085817
          ],
          [
            18.482418,
            63.085879
          ],
          [
            18.482487,
            63.085923
          ],
          [
            18.482555,
            63.085997
          ],
          [
            18.482659,
            63.086044
          ],
          [
            18.482879,
            63.086272
          ],
          [
            18.4832,
            63.086389
          ],
          [
            18.483629,
            63.086554
          ],
          [
            18.484187,
            63.08667
          ],
          [
            18.484445,
            63.086894
          ],
          [
            18.484917,
            63.087224
          ],
          [
            18.485217,
            63.087428
          ],
          [
            18.485668,
            63.087583
          ],
          [
            18.485968,
            63.087622
          ],
          [
            18.486397,
            63.08769
          ],
          [
            18.487063,
            63.087855
          ],
          [
            18.487921,
            63.088011
          ],
          [
            18.488543,
            63.088059
          ],
          [
            18.48996,
            63.08802
          ],
          [
            18.490668,
            63.088049
          ],
          [
            18.491118,
            63.088098
          ],
          [
            18.49159,
            63.088069
          ],
          [
            18.492041,
            63.088137
          ],
          [
            18.493243,
            63.088321
          ],
          [
            18.493586,
            63.088457
          ],
          [
            18.494079,
            63.088496
          ],
          [
            18.495217,
            63.088788
          ],
          [
            18.49556,
            63.088933
          ],
          [
            18.495951,
            63.089005
          ],
          [
            18.495976,
            63.089515
          ],
          [
            18.495406,
            63.089846
          ],
          [
            18.495431,
            63.090104
          ],
          [
            18.496025,
            63.090552
          ],
          [
            18.497215,
            63.091062
          ],
          [
            18.498676,
            63.091814
          ],
          [
            18.499717,
            63.092189
          ],
          [
            18.500386,
            63.092335
          ],
          [
            18.500832,
            63.092369
          ],
          [
            18.501117,
            63.093143
          ],
          [
            18.500956,
            63.093787
          ],
          [
            18.50056,
            63.09427
          ],
          [
            18.500126,
            63.094494
          ],
          [
            18.49962421838463,
            63.09470686000115
          ],
          [
            18.499308,
            63.094841
          ],
          [
            18.498862,
            63.095245
          ],
          [
            18.499061,
            63.095783
          ],
          [
            18.499358,
            63.096462
          ],
          [
            18.499507,
            63.096759
          ],
          [
            18.499308,
            63.097403
          ],
          [
            18.498726,
            63.098413
          ],
          [
            18.498491,
            63.099444
          ],
          [
            18.498094,
            63.100066
          ],
          [
            18.497643,
            63.100961
          ],
          [
            18.497574,
            63.101098
          ],
          [
            18.497091,
            63.102241
          ],
          [
            18.497087,
            63.102549
          ],
          [
            18.497078,
            63.103256
          ],
          [
            18.497425,
            63.104001
          ],
          [
            18.498095,
            63.104633
          ],
          [
            18.498372,
            63.105028
          ],
          [
            18.498339,
            63.105353
          ],
          [
            18.498396,
            63.105443
          ],
          [
            18.498417,
            63.105574
          ],
          [
            18.498292,
            63.105818
          ],
          [
            18.497913,
            63.106093
          ],
          [
            18.497673,
            63.106276
          ],
          [
            18.497721,
            63.106484
          ],
          [
            18.49798,
            63.106601
          ],
          [
            18.498757,
            63.106595
          ],
          [
            18.499044,
            63.106618
          ],
          [
            18.499293,
            63.106718
          ],
          [
            18.500115,
            63.107295
          ],
          [
            18.500595,
            63.107628
          ],
          [
            18.500403,
            63.107675
          ],
          [
            18.500144,
            63.107749
          ],
          [
            18.499957,
            63.107922
          ],
          [
            18.499913,
            63.108159
          ],
          [
            18.500004,
            63.108403
          ],
          [
            18.500255,
            63.108569
          ],
          [
            18.500241,
            63.108906
          ],
          [
            18.50042,
            63.109006
          ],
          [
            18.500218,
            63.109117
          ],
          [
            18.50025,
            63.109243
          ],
          [
            18.500239,
            63.109392
          ],
          [
            18.500084,
            63.109483
          ],
          [
            18.500156,
            63.109551
          ],
          [
            18.500774,
            63.109641
          ],
          [
            18.500961,
            63.109687
          ],
          [
            18.501035,
            63.109756
          ],
          [
            18.501279,
            63.109734
          ],
          [
            18.501381,
            63.109792
          ],
          [
            18.501301,
            63.109894
          ],
          [
            18.501373,
            63.109937
          ],
          [
            18.501435,
            63.109974
          ],
          [
            18.501535,
            63.109962
          ],
          [
            18.501787,
            63.109877
          ],
          [
            18.501986,
            63.109751
          ],
          [
            18.502222,
            63.109533
          ],
          [
            18.502275,
            63.109148
          ],
          [
            18.502172,
            63.108926
          ],
          [
            18.502148,
            63.108906
          ],
          [
            18.502172,
            63.108926
          ],
          [
            18.502656,
            63.109158
          ],
          [
            18.502969,
            63.109418
          ],
          [
            18.50306,
            63.109436
          ],
          [
            18.503541,
            63.109531
          ],
          [
            18.503586,
            63.109654
          ],
          [
            18.503896,
            63.109664
          ],
          [
            18.504094,
            63.109821
          ],
          [
            18.504688,
            63.110107
          ],
          [
            18.504835,
            63.110291
          ],
          [
            18.505053,
            63.110473
          ],
          [
            18.505291,
            63.11072
          ],
          [
            18.50526,
            63.111165
          ],
          [
            18.505399,
            63.111362
          ],
          [
            18.505874,
            63.111822
          ],
          [
            18.5059,
            63.1122
          ],
          [
            18.506804,
            63.112446
          ],
          [
            18.507262,
            63.112485
          ],
          [
            18.508105,
            63.112284
          ],
          [
            18.509952,
            63.112414
          ],
          [
            18.509997,
            63.112717
          ],
          [
            18.510191,
            63.113137
          ],
          [
            18.510395,
            63.113827
          ],
          [
            18.510677,
            63.114201
          ],
          [
            18.511075,
            63.114555
          ],
          [
            18.51155,
            63.114949
          ],
          [
            18.511908,
            63.115117
          ],
          [
            18.511923,
            63.115432
          ],
          [
            18.511821,
            63.115687
          ],
          [
            18.511711,
            63.115856
          ],
          [
            18.511645,
            63.116009
          ],
          [
            18.511733,
            63.116528
          ],
          [
            18.512135,
            63.117032
          ],
          [
            18.512362,
            63.117259
          ],
          [
            18.512953,
            63.117573
          ],
          [
            18.513385,
            63.117843
          ],
          [
            18.513787,
            63.118194
          ],
          [
            18.513998,
            63.118625
          ],
          [
            18.514262,
            63.118874
          ],
          [
            18.514612,
            63.119312
          ],
          [
            18.514773,
            63.11948
          ],
          [
            18.514751,
            63.11967
          ],
          [
            18.514576,
            63.119941
          ],
          [
            18.514598,
            63.120131
          ],
          [
            18.514832,
            63.12035
          ],
          [
            18.515087,
            63.120613
          ],
          [
            18.51546,
            63.120847
          ],
          [
            18.516089,
            63.121081
          ],
          [
            18.516922,
            63.121461
          ],
          [
            18.518785,
            63.122038
          ],
          [
            18.519165,
            63.122082
          ],
          [
            18.519421,
            63.122045
          ],
          [
            18.520042,
            63.121936
          ],
          [
            18.520503,
            63.121782
          ],
          [
            18.521131,
            63.121636
          ],
          [
            18.521599,
            63.121673
          ],
          [
            18.521771,
            63.121819
          ],
          [
            18.521887,
            63.121955
          ],
          [
            18.522301,
            63.121965
          ],
          [
            18.522476,
            63.121892
          ],
          [
            18.522865,
            63.121907
          ],
          [
            18.5234,
            63.121865
          ],
          [
            18.524091,
            63.121877
          ],
          [
            18.524296,
            63.121972
          ],
          [
            18.524625,
            63.122447
          ],
          [
            18.525216,
            63.123069
          ],
          [
            18.525348,
            63.123259
          ],
          [
            18.525407,
            63.123566
          ],
          [
            18.525407,
            63.123705
          ],
          [
            18.525553,
            63.123814
          ],
          [
            18.525874,
            63.123968
          ],
          [
            18.526159,
            63.124055
          ],
          [
            18.526649,
            63.124194
          ],
          [
            18.527051,
            63.124494
          ],
          [
            18.526949,
            63.124969
          ],
          [
            18.527029,
            63.125619
          ],
          [
            18.527044,
            63.126153
          ],
          [
            18.526788,
            63.126818
          ],
          [
            18.526042,
            63.12749
          ],
          [
            18.525005,
            63.128228
          ],
          [
            18.524748,
            63.128689
          ],
          [
            18.524418,
            63.129032
          ],
          [
            18.524223,
            63.129412
          ],
          [
            18.523879,
            63.129712
          ],
          [
            18.523265,
            63.12996
          ],
          [
            18.522651,
            63.13026
          ],
          [
            18.521957,
            63.130808
          ],
          [
            18.521106,
            63.131156
          ],
          [
            18.520457,
            63.1316
          ],
          [
            18.520048,
            63.132004
          ],
          [
            18.51942,
            63.132399
          ],
          [
            18.519152,
            63.132682
          ],
          [
            18.518754,
            63.133065
          ],
          [
            18.517853,
            63.133035
          ],
          [
            18.517017,
            63.133264
          ],
          [
            18.517045,
            63.133989
          ],
          [
            18.517112,
            63.134196
          ],
          [
            18.517448,
            63.134315
          ]
        ]
      }
    }
  ]
}
