{
  "type": "FeatureCollection",
  "features": [
    {
      "type": "Feature",
      "properties": {
        "id": "kungsleden-section-01-abisko-abiskojaure",
        "trailSystemId": "kungsleden",
        "sectionId": "kungsleden-section-01-abisko-abiskojaure",
        "name": "Abisko-Abiskojaure",
        "part": 1,
        "source": "candidate-normalized-geojson"
      },
      "geometry": {
        "type": "LineString",
        "coordinates": [
          [
            18.7789461,
            68.3587867
          ],
          [
            18.7779576,
            68.3591229
          ],
          [
            18.7768608,
            68.3593161
          ],
          [
            18.7762654,
            68.3593392
          ],
          [
            18.7757929,
            68.3591315
          ],
          [
            18.7753628,
            68.3586627
          ],
          [
            18.775585,
            68.358401
          ],
          [
            18.7751767,
            68.3581869
          ],
          [
            18.7743119,
            68.3580036
          ],
          [
            18.7738691,
            68.3577963
          ],
          [
            18.7734964,
            68.3574781
          ],
          [
            18.7727235,
            68.357096
          ],
          [
            18.772722,
            68.3569573
          ],
          [
            18.7719533,
            68.3565507
          ],
          [
            18.7718206,
            68.3563296
          ],
          [
            18.7720509,
            68.3561128
          ],
          [
            18.7705237,
            68.3558346
          ],
          [
            18.7681714,
            68.3558462
          ],
          [
            18.7673915,
            68.3557609
          ],
          [
            18.7670089,
            68.3556043
          ],
          [
            18.7668342,
            68.3551483
          ],
          [
            18.7664256,
            68.3548487
          ],
          [
            18.7667263,
            68.3542042
          ],
          [
            18.7668787,
            68.3520591
          ],
          [
            18.7672487,
            68.3511503
          ],
          [
            18.766929,
            68.350817
          ],
          [
            18.7668596,
            68.3501781
          ],
          [
            18.7670639,
            68.3485938
          ],
          [
            18.7673044,
            68.348145
          ],
          [
            18.7667991,
            68.3472783
          ],
          [
            18.7658114,
            68.3466445
          ],
          [
            18.7650529,
            68.3463478
          ],
          [
            18.7645164,
            68.3462654
          ],
          [
            18.7640268,
            68.3459557
          ],
          [
            18.7634756,
            68.345072
          ],
          [
            18.7640124,
            68.3437719
          ],
          [
            18.7640806,
            68.3421519
          ],
          [
            18.7642525,
            68.3418488
          ],
          [
            18.7650712,
            68.341506
          ],
          [
            18.765209,
            68.3410892
          ],
          [
            18.7647424,
            68.3408222
          ],
          [
            18.7642868,
            68.3402173
          ],
          [
            18.7633379,
            68.3399246
          ],
          [
            18.7627432,
            68.3395917
          ],
          [
            18.7620145,
            68.3395099
          ],
          [
            18.7606418,
            68.3391374
          ],
          [
            18.7597417,
            68.3380449
          ],
          [
            18.7585866,
            68.3374142
          ],
          [
            18.757784,
            68.336637
          ],
          [
            18.7585699,
            68.3350155
          ],
          [
            18.7583896,
            68.3347536
          ],
          [
            18.7587863,
            68.3343884
          ],
          [
            18.7588363,
            68.3340968
          ],
          [
            18.759572,
            68.333676
          ],
          [
            18.7602576,
            68.3329649
          ],
          [
            18.7608047,
            68.3328381
          ],
          [
            18.7610985,
            68.3326594
          ],
          [
            18.7622251,
            68.3325062
          ],
          [
            18.7623766,
            68.3323817
          ],
          [
            18.7623838,
            68.3317389
          ],
          [
            18.7628691,
            68.3307831
          ],
          [
            18.7622677,
            68.3300601
          ],
          [
            18.7622777,
            68.3298217
          ],
          [
            18.7617031,
            68.3296862
          ],
          [
            18.7601632,
            68.3290059
          ],
          [
            18.7591214,
            68.3289892
          ],
          [
            18.7578453,
            68.3288267
          ],
          [
            18.7567554,
            68.328928
          ],
          [
            18.7566042,
            68.3284949
          ],
          [
            18.7555576,
            68.3280003
          ],
          [
            18.7546321,
            68.3278527
          ],
          [
            18.753921,
            68.3278442
          ],
          [
            18.7535912,
            68.3277446
          ],
          [
            18.7531663,
            68.3272038
          ],
          [
            18.7527297,
            68.3269163
          ],
          [
            18.7524404,
            68.3264435
          ],
          [
            18.7518093,
            68.3259743
          ],
          [
            18.7508517,
            68.3254903
          ],
          [
            18.7497105,
            68.3251309
          ],
          [
            18.7484104,
            68.3241999
          ],
          [
            18.7464647,
            68.3236061
          ],
          [
            18.7455685,
            68.3229632
          ],
          [
            18.7453534,
            68.3226419
          ],
          [
            18.7434098,
            68.3215947
          ],
          [
            18.7429377,
            68.3212233
          ],
          [
            18.7431471,
            68.3205531
          ],
          [
            18.7423076,
            68.3202748
          ],
          [
            18.7418652,
            68.3197873
          ],
          [
            18.7395573,
            68.318492
          ],
          [
            18.7394904,
            68.3182931
          ],
          [
            18.7386077,
            68.3180815
          ],
          [
            18.7380252,
            68.3177479
          ],
          [
            18.7385913,
            68.3163209
          ],
          [
            18.7381982,
            68.3160711
          ],
          [
            18.734457,
            68.315911
          ],
          [
            18.7333449,
            68.3161154
          ],
          [
            18.7312001,
            68.3156294
          ],
          [
            18.7298192,
            68.3150375
          ],
          [
            18.7272259,
            68.3149495
          ],
          [
            18.7248264,
            68.3149659
          ],
          [
            18.7227201,
            68.3145613
          ],
          [
            18.7213865,
            68.3145538
          ],
          [
            18.720793,
            68.3144718
          ],
          [
            18.7197564,
            68.3141819
          ],
          [
            18.7193189,
            68.3137993
          ],
          [
            18.718153,
            68.3135835
          ],
          [
            18.717218,
            68.3134356
          ],
          [
            18.71477,
            68.3132884
          ],
          [
            18.7133953,
            68.3131072
          ],
          [
            18.7115095,
            68.3130336
          ],
          [
            18.709201,
            68.3130869
          ],
          [
            18.7070168,
            68.3129188
          ],
          [
            18.7033144,
            68.3127911
          ],
          [
            18.6990189,
            68.3129435
          ],
          [
            18.6960896,
            68.3126529
          ],
          [
            18.6935681,
            68.3122975
          ],
          [
            18.6917773,
            68.3118179
          ],
          [
            18.6905128,
            68.3118865
          ],
          [
            18.6898502,
            68.3118101
          ],
          [
            18.6882477,
            68.3119822
          ],
          [
            18.6870584,
            68.3118325
          ],
          [
            18.683194,
            68.3116014
          ],
          [
            18.6792794,
            68.3103941
          ],
          [
            18.6788342,
            68.3099012
          ],
          [
            18.6788728,
            68.3096521
          ],
          [
            18.6785912,
            68.3095186
          ],
          [
            18.6761261,
            68.3092016
          ],
          [
            18.6755761,
            68.3089999
          ],
          [
            18.6727529,
            68.3088196
          ],
          [
            18.6723363,
            68.3087336
          ],
          [
            18.6695448,
            68.3078419
          ],
          [
            18.6670561,
            68.3073635
          ],
          [
            18.666356,
            68.3070078
          ],
          [
            18.6627909,
            68.3062258
          ],
          [
            18.6603562,
            68.3052526
          ],
          [
            18.6584167,
            68.3047365
          ],
          [
            18.657205,
            68.3042825
          ],
          [
            18.6562133,
            68.3038826
          ],
          [
            18.6558866,
            68.3036525
          ],
          [
            18.6553263,
            68.3027256
          ],
          [
            18.6535726,
            68.3015564
          ],
          [
            18.6509823,
            68.3008372
          ],
          [
            18.6502713,
            68.3003965
          ],
          [
            18.6498358,
            68.2999327
          ],
          [
            18.6493038,
            68.2996181
          ],
          [
            18.6491753,
            68.2989328
          ],
          [
            18.6485199,
            68.298159
          ],
          [
            18.6458359,
            68.2975053
          ],
          [
            18.6434396,
            68.2966784
          ],
          [
            18.6426058,
            68.2966255
          ],
          [
            18.6409731,
            68.2963495
          ],
          [
            18.6378958,
            68.2962743
          ],
          [
            18.6368552,
            68.2960099
          ],
          [
            18.6357709,
            68.2955426
          ],
          [
            18.6334957,
            68.2950242
          ],
          [
            18.6327086,
            68.2946759
          ],
          [
            18.6297469,
            68.2941326
          ],
          [
            18.6253767,
            68.2931986
          ],
          [
            18.6224003,
            68.2923906
          ],
          [
            18.6215554,
            68.292252
          ],
          [
            18.6194514,
            68.2913952
          ],
          [
            18.6177894,
            68.2911551
          ],
          [
            18.6157246,
            68.2905763
          ],
          [
            18.6147074,
            68.2900079
          ],
          [
            18.6144079,
            68.2896414
          ],
          [
            18.6125429,
            68.2887935
          ],
          [
            18.6121455,
            68.288681
          ],
          [
            18.610259,
            68.2884826
          ],
          [
            18.6063512,
            68.2873648
          ],
          [
            18.6050546,
            68.2873066
          ],
          [
            18.604648,
            68.2872013
          ],
          [
            18.6041038,
            68.2869941
          ],
          [
            18.6032602,
            68.2868226
          ],
          [
            18.6020816,
            68.2863629
          ],
          [
            18.6006759,
            68.28601
          ],
          [
            18.5987136,
            68.2852823
          ],
          [
            18.5955392,
            68.2845621
          ],
          [
            18.594435,
            68.2842623
          ],
          [
            18.5932774,
            68.2837922
          ],
          [
            18.592241,
            68.2835299
          ],
          [
            18.591435,
            68.2835483
          ],
          [
            18.5906067,
            68.283815
          ],
          [
            18.5904188,
            68.283943
          ],
          [
            18.5907487,
            68.2841904
          ],
          [
            18.5906427,
            68.2843175
          ],
          [
            18.5898123,
            68.2846868
          ],
          [
            18.5897431,
            68.2853118
          ],
          [
            18.5902423,
            68.2856411
          ],
          [
            18.5904923,
            68.2860002
          ]
        ]
      }
    }
  ]
}
