{
  "type": "FeatureCollection",
  "features": [
    {
      "type": "Feature",
      "properties": {
        "id": "kungsleden-section-09-saltoluokta-sitojaure",
        "trailSystemId": "kungsleden",
        "sectionId": "kungsleden-section-09-saltoluokta-sitojaure",
        "name": "Saltoluokta-Sitojaure",
        "part": 1,
        "source": "candidate-normalized-geojson"
      },
      "geometry": {
        "type": "LineString",
        "coordinates": [
          [
            18.5207145,
            67.3941247
          ],
          [
            18.5201205,
            67.3939295
          ],
          [
            18.5202227,
            67.3934663
          ],
          [
            18.5198364,
            67.3931005
          ],
          [
            18.5199899,
            67.3925537
          ],
          [
            18.5198213,
            67.3923518
          ],
          [
            18.5188444,
            67.3919268
          ],
          [
            18.5184754,
            67.3913646
          ],
          [
            18.5169223,
            67.3903296
          ],
          [
            18.5161953,
            67.3900597
          ],
          [
            18.5151876,
            67.3894622
          ],
          [
            18.5130157,
            67.3886086
          ],
          [
            18.5128161,
            67.3885065
          ],
          [
            18.5129902,
            67.3883159
          ],
          [
            18.5112995,
            67.3875547
          ],
          [
            18.5109541,
            67.3870656
          ],
          [
            18.5099436,
            67.3865751
          ],
          [
            18.5095664,
            67.3854828
          ],
          [
            18.5095735,
            67.3851168
          ],
          [
            18.5099163,
            67.3847047
          ],
          [
            18.510846,
            67.3843462
          ],
          [
            18.5114349,
            67.3838952
          ],
          [
            18.5110884,
            67.3831964
          ],
          [
            18.5148075,
            67.3818087
          ],
          [
            18.5159903,
            67.3806232
          ],
          [
            18.5166671,
            67.3803596
          ],
          [
            18.5172027,
            67.3800123
          ],
          [
            18.5182795,
            67.3782066
          ],
          [
            18.5186145,
            67.3779731
          ],
          [
            18.5194986,
            67.3764436
          ],
          [
            18.520094,
            67.3758086
          ],
          [
            18.5199381,
            67.3757303
          ],
          [
            18.5199324,
            67.3754624
          ],
          [
            18.5202593,
            67.3736147
          ],
          [
            18.5222514,
            67.3705885
          ],
          [
            18.5227906,
            67.3702131
          ],
          [
            18.5230785,
            67.3692929
          ],
          [
            18.5234161,
            67.369084
          ],
          [
            18.5235744,
            67.3685417
          ],
          [
            18.5229343,
            67.3673699
          ],
          [
            18.5206864,
            67.3648785
          ],
          [
            18.519319,
            67.3620154
          ],
          [
            18.5172198,
            67.3600273
          ],
          [
            18.516326,
            67.3595071
          ],
          [
            18.5156217,
            67.3589276
          ],
          [
            18.5138387,
            67.3570391
          ],
          [
            18.5130867,
            67.356496
          ],
          [
            18.5121006,
            67.3552433
          ],
          [
            18.5115463,
            67.3541749
          ],
          [
            18.5105131,
            67.3527723
          ],
          [
            18.5102698,
            67.3512055
          ],
          [
            18.5104836,
            67.3499257
          ],
          [
            18.508995,
            67.3476882
          ],
          [
            18.5079403,
            67.3455325
          ],
          [
            18.506608,
            67.3436249
          ],
          [
            18.5049129,
            67.3417251
          ],
          [
            18.5045979,
            67.3400763
          ],
          [
            18.5037387,
            67.3385699
          ],
          [
            18.5041791,
            67.3368895
          ],
          [
            18.5039617,
            67.3359127
          ],
          [
            18.5033381,
            67.3348759
          ],
          [
            18.5039247,
            67.333323
          ],
          [
            18.5050543,
            67.331524
          ],
          [
            18.5055069,
            67.3301074
          ],
          [
            18.5050609,
            67.3297164
          ],
          [
            18.5029027,
            67.3287695
          ],
          [
            18.5026141,
            67.328443
          ],
          [
            18.5023687,
            67.3277504
          ],
          [
            18.5008935,
            67.3262625
          ],
          [
            18.4998985,
            67.3243485
          ],
          [
            18.4989566,
            67.3230763
          ],
          [
            18.4983282,
            67.3214298
          ],
          [
            18.498578,
            67.321074
          ],
          [
            18.4980267,
            67.3208217
          ],
          [
            18.4978918,
            67.3204937
          ],
          [
            18.4975181,
            67.3202337
          ],
          [
            18.4969348,
            67.3194711
          ],
          [
            18.4964207,
            67.319166
          ],
          [
            18.4961597,
            67.3186998
          ],
          [
            18.495405,
            67.3180565
          ],
          [
            18.4946984,
            67.3171248
          ],
          [
            18.4934943,
            67.316164
          ],
          [
            18.4932651,
            67.3157068
          ],
          [
            18.4922804,
            67.3147631
          ],
          [
            18.4916193,
            67.3133083
          ],
          [
            18.4918528,
            67.3129138
          ],
          [
            18.4918031,
            67.3125777
          ],
          [
            18.4909987,
            67.3111969
          ],
          [
            18.4902537,
            67.3103868
          ],
          [
            18.4900412,
            67.3099511
          ],
          [
            18.4900386,
            67.3090666
          ],
          [
            18.4894709,
            67.3085749
          ],
          [
            18.4887393,
            67.3073918
          ],
          [
            18.4883137,
            67.3069756
          ],
          [
            18.4877947,
            67.3056881
          ],
          [
            18.4875144,
            67.3053813
          ],
          [
            18.4873819,
            67.3050132
          ],
          [
            18.4876214,
            67.3043531
          ],
          [
            18.4872701,
            67.3038766
          ],
          [
            18.4869788,
            67.3026594
          ],
          [
            18.4865546,
            67.3022574
          ],
          [
            18.4865737,
            67.3019346
          ],
          [
            18.4857797,
            67.3015164
          ],
          [
            18.4854416,
            67.3011156
          ],
          [
            18.4851573,
            67.3004343
          ],
          [
            18.4846711,
            67.3001227
          ],
          [
            18.4838676,
            67.2999318
          ],
          [
            18.4837494,
            67.2997804
          ],
          [
            18.4817514,
            67.2989662
          ],
          [
            18.4806308,
            67.2983328
          ],
          [
            18.4785621,
            67.2973984
          ],
          [
            18.4729012,
            67.295423
          ],
          [
            18.4709974,
            67.2944247
          ],
          [
            18.4695823,
            67.2933668
          ],
          [
            18.4677618,
            67.2914081
          ],
          [
            18.4664221,
            67.2904786
          ],
          [
            18.4655524,
            67.2893555
          ],
          [
            18.4647189,
            67.2877577
          ],
          [
            18.4636307,
            67.2863585
          ],
          [
            18.4633926,
            67.2857879
          ],
          [
            18.4598927,
            67.2825216
          ],
          [
            18.4595624,
            67.2818853
          ],
          [
            18.4591221,
            67.2814605
          ],
          [
            18.4590992,
            67.2809158
          ],
          [
            18.4576756,
            67.2798095
          ],
          [
            18.4571367,
            67.279561
          ],
          [
            18.4570127,
            67.2792481
          ],
          [
            18.4556337,
            67.2789038
          ],
          [
            18.4540905,
            67.2780524
          ],
          [
            18.4527319,
            67.2775741
          ],
          [
            18.4514504,
            67.2764152
          ],
          [
            18.4514124,
            67.2757557
          ],
          [
            18.4523511,
            67.2738282
          ],
          [
            18.4533038,
            67.2727995
          ],
          [
            18.4532722,
            67.2725711
          ],
          [
            18.4541522,
            67.2719968
          ],
          [
            18.4544259,
            67.2714374
          ],
          [
            18.454327,
            67.2712505
          ],
          [
            18.4552258,
            67.2699925
          ],
          [
            18.4555031,
            67.26888
          ],
          [
            18.4554401,
            67.2677922
          ],
          [
            18.4561414,
            67.2673528
          ],
          [
            18.4565257,
            67.2667963
          ],
          [
            18.4575824,
            67.2658228
          ],
          [
            18.4578616,
            67.2653084
          ],
          [
            18.457364,
            67.264828
          ],
          [
            18.4571654,
            67.2643111
          ],
          [
            18.4574705,
            67.2639698
          ],
          [
            18.4571324,
            67.2629757
          ],
          [
            18.4571623,
            67.262462
          ],
          [
            18.4552525,
            67.2606051
          ],
          [
            18.4546995,
            67.2595122
          ],
          [
            18.4540314,
            67.2589911
          ],
          [
            18.4530226,
            67.2576729
          ],
          [
            18.4524771,
            67.2572388
          ],
          [
            18.4525292,
            67.2569745
          ],
          [
            18.4522182,
            67.2567428
          ],
          [
            18.4521747,
            67.2563493
          ],
          [
            18.4512578,
            67.2555289
          ],
          [
            18.4505766,
            67.2544459
          ],
          [
            18.4507329,
            67.2534541
          ],
          [
            18.450499,
            67.2523662
          ],
          [
            18.4505877,
            67.2508194
          ],
          [
            18.4504315,
            67.250114
          ],
          [
            18.4499066,
            67.249612
          ],
          [
            18.4490947,
            67.2484999
          ],
          [
            18.4490635,
            67.2482376
          ],
          [
            18.4480927,
            67.2471051
          ],
          [
            18.4475272,
            67.2455214
          ],
          [
            18.4454273,
            67.2432119
          ],
          [
            18.4443204,
            67.2423523
          ],
          [
            18.4436522,
            67.2414952
          ],
          [
            18.4436187,
            67.240506
          ],
          [
            18.4439955,
            67.23995
          ],
          [
            18.4449194,
            67.2376517
          ],
          [
            18.4440878,
            67.2372325
          ],
          [
            18.4437105,
            67.2366212
          ],
          [
            18.4431121,
            67.2362206
          ],
          [
            18.4422286,
            67.2347689
          ],
          [
            18.4414584,
            67.2338834
          ],
          [
            18.4410858,
            67.2326673
          ]
        ]
      }
    }
  ]
}
