{
  "type": "FeatureCollection",
  "features": [
    {
      "type": "Feature",
      "properties": {
        "id": "kungsleden-section-20-sjnulttjie-ravfallsstugan",
        "trailSystemId": "kungsleden",
        "sectionId": "kungsleden-section-20-sjnulttjie-ravfallsstugan",
        "name": "Sjnulttjie raststuga-Rävfallsstugan",
        "part": 1,
        "source": "candidate-normalized-geojson"
      },
      "geometry": {
        "type": "MultiLineString",
        "coordinates": [
          [
            [
              16.3839067,
              66.2109839
            ],
            [
              16.3856834,
              66.2085265
            ],
            [
              16.3860178,
              66.2073731
            ],
            [
              16.3855737,
              66.206837
            ],
            [
              16.385299,
              66.2058704
            ],
            [
              16.3841228,
              66.2051341
            ],
            [
              16.3832117,
              66.2043378
            ],
            [
              16.3835806,
              66.2034858
            ],
            [
              16.3828579,
              66.201892
            ],
            [
              16.3824923,
              66.2003093
            ],
            [
              16.380461,
              66.1985945
            ],
            [
              16.3788358,
              66.1967852
            ],
            [
              16.3775155,
              66.196175
            ],
            [
              16.3761689,
              66.1953074
            ],
            [
              16.3758755,
              66.1947657
            ],
            [
              16.374902,
              66.1936839
            ],
            [
              16.3737102,
              66.1915354
            ],
            [
              16.3732715,
              66.1912646
            ],
            [
              16.37137,
              66.1908379
            ],
            [
              16.370932,
              66.1906117
            ],
            [
              16.3693926,
              66.1890369
            ],
            [
              16.3677563,
              66.1877918
            ],
            [
              16.3667118,
              66.187223
            ],
            [
              16.364495,
              66.1852597
            ],
            [
              16.3644704,
              66.1843313
            ],
            [
              16.3651936,
              66.1836784
            ],
            [
              16.3657031,
              66.1833849
            ],
            [
              16.3662094,
              66.1831353
            ],
            [
              16.3681545,
              66.182529
            ],
            [
              16.3694619,
              66.1819422
            ],
            [
              16.3710632,
              66.1814604
            ],
            [
              16.3715427,
              66.181225
            ],
            [
              16.3715223,
              66.1802469
            ],
            [
              16.3710147,
              66.1797971
            ],
            [
              16.371056,
              66.1794969
            ],
            [
              16.3705739,
              66.178435
            ],
            [
              16.3680127,
              66.1763991
            ],
            [
              16.3663923,
              66.1748774
            ],
            [
              16.3625371,
              66.1719593
            ],
            [
              16.3624625,
              66.1717423
            ],
            [
              16.3615536,
              66.1712134
            ],
            [
              16.3606155,
              66.1709254
            ],
            [
              16.3591375,
              66.1710282
            ],
            [
              16.3586966,
              66.1709821
            ],
            [
              16.3580475,
              66.1710428
            ],
            [
              16.3578589,
              66.1711262
            ],
            [
              16.3568273,
              66.1711126
            ],
            [
              16.3548108,
              66.1705563
            ],
            [
              16.3543081,
              66.17034
            ],
            [
              16.3507569,
              66.1696808
            ],
            [
              16.3493057,
              66.1689681
            ],
            [
              16.3481238,
              66.16808
            ],
            [
              16.3475471,
              66.1673402
            ],
            [
              16.3479836,
              66.1668658
            ],
            [
              16.3481079,
              66.1661737
            ],
            [
              16.3487473,
              66.1654348
            ],
            [
              16.3487942,
              66.1636651
            ],
            [
              16.3490171,
              66.1631711
            ],
            [
              16.3505031,
              66.1617587
            ],
            [
              16.3513382,
              66.1612304
            ],
            [
              16.3519146,
              66.160264
            ],
            [
              16.3520478,
              66.1592145
            ],
            [
              16.3525055,
              66.1583912
            ],
            [
              16.3544214,
              66.157145
            ],
            [
              16.3542801,
              66.1560253
            ],
            [
              16.3547871,
              66.1548513
            ],
            [
              16.3552498,
              66.1522252
            ],
            [
              16.3561658,
              66.1508713
            ],
            [
              16.3581719,
              66.1484749
            ],
            [
              16.3613407,
              66.1423244
            ],
            [
              16.3613473,
              66.1411066
            ],
            [
              16.3617455,
              66.1392778
            ],
            [
              16.3621046,
              66.1386534
            ],
            [
              16.3608787,
              66.1364596
            ],
            [
              16.360877,
              66.1357455
            ],
            [
              16.3602152,
              66.1350089
            ],
            [
              16.3602675,
              66.1345296
            ],
            [
              16.3607125,
              66.1338303
            ],
            [
              16.3606726,
              66.13345
            ],
            [
              16.3612114,
              66.1322106
            ],
            [
              16.3610676,
              66.1318654
            ],
            [
              16.3603479,
              66.1310725
            ],
            [
              16.360113,
              66.129806
            ],
            [
              16.3596897,
              66.1288339
            ],
            [
              16.3594067,
              66.1286971
            ],
            [
              16.3595863,
              66.128588
            ],
            [
              16.3600185,
              66.1274118
            ],
            [
              16.3601807,
              66.1259775
            ],
            [
              16.3596124,
              66.1256893
            ],
            [
              16.359317,
              66.125233
            ],
            [
              16.3587861,
              66.1249436
            ],
            [
              16.3585733,
              66.124475
            ],
            [
              16.3575914,
              66.1239088
            ],
            [
              16.3570968,
              66.1232215
            ],
            [
              16.356162,
              66.1223718
            ],
            [
              16.3518101,
              66.1199217
            ],
            [
              16.3505528,
              66.119439
            ],
            [
              16.3482237,
              66.118093
            ],
            [
              16.3469044,
              66.1174325
            ],
            [
              16.3432659,
              66.1161687
            ],
            [
              16.3423276,
              66.1155738
            ],
            [
              16.3413149,
              66.1146695
            ],
            [
              16.3381311,
              66.1130999
            ],
            [
              16.3341108,
              66.1116942
            ],
            [
              16.3304878,
              66.1106045
            ],
            [
              16.327757,
              66.1095956
            ]
          ],
          [
            [
              16.3321066,
              66.1110643
            ],
            [
              16.330044,
              66.1104363
            ],
            [
              16.3280822,
              66.1096511
            ],
            [
              16.3264057,
              66.1091107
            ],
            [
              16.3228729,
              66.1070022
            ],
            [
              16.3208216,
              66.1060074
            ],
            [
              16.3198505,
              66.1054174
            ],
            [
              16.3190953,
              66.1046264
            ],
            [
              16.3173588,
              66.1033179
            ],
            [
              16.3154755,
              66.1016037
            ],
            [
              16.3131482,
              66.100294
            ],
            [
              16.3120844,
              66.0999109
            ],
            [
              16.3114142,
              66.0995629
            ],
            [
              16.3100736,
              66.099137
            ],
            [
              16.3083341,
              66.0981147
            ],
            [
              16.3076587,
              66.097035
            ],
            [
              16.3065902,
              66.0959646
            ],
            [
              16.305421,
              66.0938179
            ],
            [
              16.3038562,
              66.0925532
            ],
            [
              16.302421,
              66.0916416
            ],
            [
              16.3018943,
              66.0915294
            ],
            [
              16.3011159,
              66.0910257
            ],
            [
              16.3009413,
              66.090779
            ],
            [
              16.299888,
              66.0905316
            ],
            [
              16.298541,
              66.089933
            ],
            [
              16.2978633,
              66.0894782
            ],
            [
              16.2967573,
              66.0891008
            ],
            [
              16.2901259,
              66.0860398
            ],
            [
              16.2888782,
              66.0853651
            ],
            [
              16.2870485,
              66.0846296
            ],
            [
              16.2814029,
              66.0820086
            ],
            [
              16.280036,
              66.0807083
            ],
            [
              16.2777095,
              66.0775613
            ],
            [
              16.277374,
              66.0781304
            ],
            [
              16.2754415,
              66.0789548
            ],
            [
              16.2731111,
              66.0793693
            ],
            [
              16.2725153,
              66.0795594
            ],
            [
              16.2710004,
              66.0797161
            ],
            [
              16.2700769,
              66.0799214
            ],
            [
              16.2684502,
              66.0807289
            ],
            [
              16.2680412,
              66.0807963
            ],
            [
              16.267318,
              66.0810729
            ],
            [
              16.266597,
              66.0812177
            ],
            [
              16.264873,
              66.0813066
            ],
            [
              16.2638743,
              66.0811977
            ],
            [
              16.2633329,
              66.0809362
            ],
            [
              16.2607369,
              66.0803193
            ],
            [
              16.2598706,
              66.0799047
            ],
            [
              16.2588809,
              66.079061
            ],
            [
              16.2587075,
              66.0785966
            ],
            [
              16.2588869,
              66.0781683
            ],
            [
              16.2587985,
              66.0778836
            ],
            [
              16.2584748,
              66.0777239
            ],
            [
              16.2535505,
              66.0772542
            ],
            [
              16.2521382,
              66.076785
            ],
            [
              16.2518934,
              66.0766232
            ],
            [
              16.2518317,
              66.0760824
            ],
            [
              16.2516395,
              66.0759202
            ],
            [
              16.2512663,
              66.0758235
            ],
            [
              16.2474302,
              66.0757655
            ],
            [
              16.2425499,
              66.0754959
            ],
            [
              16.2401964,
              66.0754412
            ],
            [
              16.238628,
              66.0756568
            ],
            [
              16.2379705,
              66.0759401
            ],
            [
              16.2373325,
              66.0760022
            ],
            [
              16.2364902,
              66.0759006
            ],
            [
              16.2352443,
              66.0758833
            ],
            [
              16.2342092,
              66.0760625
            ],
            [
              16.2330162,
              66.0760614
            ],
            [
              16.2323383,
              66.0761914
            ],
            [
              16.2295515,
              66.0763682
            ],
            [
              16.2287417,
              66.0763595
            ],
            [
              16.2287224,
              66.0762596
            ],
            [
              16.2281403,
              66.076193
            ],
            [
              16.2276392,
              66.0763536
            ],
            [
              16.2272072,
              66.0763584
            ],
            [
              16.2264045,
              66.0762052
            ],
            [
              16.2246193,
              66.0762562
            ],
            [
              16.223737,
              66.0761505
            ],
            [
              16.2201306,
              66.0767001
            ],
            [
              16.2191765,
              66.0769272
            ],
            [
              16.218271,
              66.0772519
            ],
            [
              16.2163019,
              66.0769666
            ],
            [
              16.2119019,
              66.0770499
            ],
            [
              16.2072815,
              66.0776085
            ],
            [
              16.2070533,
              66.0775769
            ],
            [
              16.2056818,
              66.0769204
            ],
            [
              16.2048414,
              66.0768641
            ],
            [
              16.2045782,
              66.0767389
            ],
            [
              16.2045346,
              66.0755937
            ],
            [
              16.2039975,
              66.0746504
            ],
            [
              16.2021054,
              66.073792
            ],
            [
              16.201365,
              66.0732814
            ],
            [
              16.1994852,
              66.0728666
            ],
            [
              16.1980131,
              66.0723374
            ],
            [
              16.1974926,
              66.0723343
            ],
            [
              16.1963051,
              66.0725714
            ],
            [
              16.1956683,
              66.0725835
            ],
            [
              16.1944509,
              66.0724315
            ],
            [
              16.1937556,
              66.0724416
            ],
            [
              16.1915195,
              66.0727628
            ],
            [
              16.1904269,
              66.07303
            ],
            [
              16.1833186,
              66.0734666
            ],
            [
              16.1815019,
              66.0739499
            ],
            [
              16.1772686,
              66.0746333
            ],
            [
              16.1754596,
              66.0750109
            ],
            [
              16.1734353,
              66.0752332
            ],
            [
              16.1716606,
              66.0756343
            ],
            [
              16.16997,
              66.075748
            ],
            [
              16.1691321,
              66.0756475
            ],
            [
              16.1686703,
              66.0754611
            ],
            [
              16.1674903,
              66.0752326
            ],
            [
              16.1668032,
              66.0752319
            ],
            [
              16.1653156,
              66.0756289
            ],
            [
              16.1646456,
              66.0760019
            ],
            [
              16.1643593,
              66.0764551
            ],
            [
              16.1634554,
              66.0771504
            ],
            [
              16.1625759,
              66.0774182
            ],
            [
              16.1610881,
              66.0774947
            ],
            [
              16.1602748,
              66.0776136
            ],
            [
              16.1596577,
              66.0778675
            ],
            [
              16.1591618,
              66.0778949
            ],
            [
              16.158374,
              66.078508
            ],
            [
              16.1572367,
              66.0789078
            ],
            [
              16.1566026,
              66.0793457
            ],
            [
              16.1553302,
              66.080996
            ],
            [
              16.1545293,
              66.0815529
            ],
            [
              16.1531177,
              66.0821981
            ],
            [
              16.1521768,
              66.0823808
            ],
            [
              16.1514464,
              66.0826517
            ],
            [
              16.1504297,
              66.0832242
            ],
            [
              16.1494332,
              66.0831558
            ],
            [
              16.1484323,
              66.0833189
            ],
            [
              16.1469877,
              66.0841101
            ],
            [
              16.1436374,
              66.0852927
            ],
            [
              16.1426174,
              66.0854699
            ],
            [
              16.1401762,
              66.0856536
            ],
            [
              16.1386212,
              66.0860763
            ],
            [
              16.1373619,
              66.0861833
            ],
            [
              16.1366517,
              66.0870209
            ],
            [
              16.1352309,
              66.0881392
            ],
            [
              16.1349682,
              66.088205
            ],
            [
              16.1338816,
              66.0888776
            ],
            [
              16.1335594,
              66.0889339
            ],
            [
              16.1332358,
              66.0892876
            ],
            [
              16.1332351,
              66.0894932
            ],
            [
              16.1318881,
              66.0902875
            ],
            [
              16.1310217,
              66.0904954
            ],
            [
              16.1292252,
              66.0911393
            ],
            [
              16.1283074,
              66.0912997
            ],
            [
              16.1277012,
              66.0914958
            ],
            [
              16.1275441,
              66.0917265
            ],
            [
              16.1262768,
              66.0926579
            ],
            [
              16.1244539,
              66.0934915
            ],
            [
              16.1235829,
              66.0941566
            ],
            [
              16.1223488,
              66.0946206
            ],
            [
              16.1210553,
              66.0954212
            ],
            [
              16.1206674,
              66.0954349
            ]
          ]
        ]
      }
    }
  ]
}
