{
  "type": "FeatureCollection",
  "features": [
    {
      "type": "Feature",
      "properties": {
        "id": "kungsleden-section-19-adolfstrom-sjnulttjie",
        "trailSystemId": "kungsleden",
        "sectionId": "kungsleden-section-19-adolfstrom-sjnulttjie",
        "name": "Adolfström-Sjnulttjie raststuga",
        "part": 1,
        "source": "candidate-normalized-geojson"
      },
      "geometry": {
        "type": "LineString",
        "coordinates": [
          [
            16.6490127,
            66.2783945
          ],
          [
            16.6486208,
            66.2787772
          ],
          [
            16.6494254,
            66.2789744
          ],
          [
            16.6484636,
            66.279166
          ],
          [
            16.6480943,
            66.2793604
          ],
          [
            16.6477338,
            66.2796855
          ],
          [
            16.6478594,
            66.2799131
          ],
          [
            16.6476613,
            66.2801536
          ],
          [
            16.6477151,
            66.2805425
          ],
          [
            16.6463166,
            66.2813115
          ],
          [
            16.6455792,
            66.281429
          ],
          [
            16.6445223,
            66.2813944
          ],
          [
            16.6430285,
            66.2816129
          ],
          [
            16.6379464,
            66.2835008
          ],
          [
            16.6365842,
            66.2838444
          ],
          [
            16.6359811,
            66.2838928
          ],
          [
            16.6354616,
            66.2840837
          ],
          [
            16.6346488,
            66.2841767
          ],
          [
            16.6338272,
            66.2845414
          ],
          [
            16.632684,
            66.2847861
          ],
          [
            16.6321181,
            66.2848059
          ],
          [
            16.6315244,
            66.2850503
          ],
          [
            16.6307497,
            66.2851565
          ],
          [
            16.6305593,
            66.2853292
          ],
          [
            16.629104,
            66.2854973
          ],
          [
            16.6280416,
            66.2859501
          ],
          [
            16.6267932,
            66.2861685
          ],
          [
            16.6261648,
            66.2864337
          ],
          [
            16.6257993,
            66.2869954
          ],
          [
            16.6253248,
            66.2872799
          ],
          [
            16.6233537,
            66.2878363
          ],
          [
            16.6223062,
            66.2879807
          ],
          [
            16.6213138,
            66.2883474
          ],
          [
            16.6206966,
            66.2884717
          ],
          [
            16.620561,
            66.2886867
          ],
          [
            16.6195543,
            66.2889023
          ],
          [
            16.6183441,
            66.2895016
          ],
          [
            16.6176244,
            66.2897008
          ],
          [
            16.6171695,
            66.2899822
          ],
          [
            16.6165596,
            66.2900668
          ],
          [
            16.6155802,
            66.2904037
          ],
          [
            16.615551,
            66.2908819
          ],
          [
            16.6160937,
            66.2915528
          ],
          [
            16.6159548,
            66.2917642
          ],
          [
            16.611986,
            66.2933026
          ],
          [
            16.6116753,
            66.2938018
          ],
          [
            16.6109052,
            66.294343
          ],
          [
            16.609861,
            66.294677
          ],
          [
            16.6094989,
            66.2946607
          ],
          [
            16.608721,
            66.2948495
          ],
          [
            16.6082498,
            66.2948222
          ],
          [
            16.6074004,
            66.2945833
          ],
          [
            16.6063346,
            66.2948206
          ],
          [
            16.6051142,
            66.2954542
          ],
          [
            16.6045379,
            66.2959879
          ],
          [
            16.60404,
            66.2961718
          ],
          [
            16.6037619,
            66.2964267
          ],
          [
            16.6027495,
            66.2965917
          ],
          [
            16.6019815,
            66.2968123
          ],
          [
            16.6010931,
            66.2968267
          ],
          [
            16.6004717,
            66.2969417
          ],
          [
            16.5986738,
            66.2968683
          ],
          [
            16.5970835,
            66.2970847
          ],
          [
            16.5964342,
            66.2974474
          ],
          [
            16.595897,
            66.2975682
          ],
          [
            16.5953359,
            66.2978853
          ],
          [
            16.5932292,
            66.2986219
          ],
          [
            16.5933158,
            66.299014
          ],
          [
            16.5929612,
            66.2991749
          ],
          [
            16.5925348,
            66.2996145
          ],
          [
            16.5924015,
            66.3000139
          ],
          [
            16.5916684,
            66.3006232
          ],
          [
            16.5910667,
            66.300731
          ],
          [
            16.5897189,
            66.3012014
          ],
          [
            16.5886222,
            66.301425
          ],
          [
            16.5877044,
            66.3017876
          ],
          [
            16.5872522,
            66.3018572
          ],
          [
            16.586762,
            66.3017872
          ],
          [
            16.5859693,
            66.3014946
          ],
          [
            16.5853921,
            66.3014153
          ],
          [
            16.5836816,
            66.3013487
          ],
          [
            16.5825128,
            66.3014254
          ],
          [
            16.5821002,
            66.3013725
          ],
          [
            16.5812218,
            66.3009878
          ],
          [
            16.5787552,
            66.3002389
          ],
          [
            16.5774302,
            66.3000104
          ],
          [
            16.5767393,
            66.2997967
          ],
          [
            16.5754147,
            66.2989035
          ],
          [
            16.5747136,
            66.2988743
          ],
          [
            16.574018,
            66.2986828
          ],
          [
            16.5705251,
            66.2980478
          ],
          [
            16.5697609,
            66.2980373
          ],
          [
            16.5683486,
            66.2976252
          ],
          [
            16.566929,
            66.2968791
          ],
          [
            16.5667765,
            66.2966878
          ],
          [
            16.5670362,
            66.2962748
          ],
          [
            16.5678442,
            66.2958116
          ],
          [
            16.5678445,
            66.2952738
          ],
          [
            16.5671697,
            66.2948999
          ],
          [
            16.5666376,
            66.2943134
          ],
          [
            16.5657186,
            66.2937981
          ],
          [
            16.5658178,
            66.2935949
          ],
          [
            16.565416,
            66.2934089
          ],
          [
            16.5651898,
            66.293022
          ],
          [
            16.5637351,
            66.292443
          ],
          [
            16.5627609,
            66.2921742
          ],
          [
            16.5621772,
            66.2917653
          ],
          [
            16.561501,
            66.2916827
          ],
          [
            16.5600696,
            66.2917821
          ],
          [
            16.5586314,
            66.2916556
          ],
          [
            16.5580727,
            66.2914692
          ],
          [
            16.5571099,
            66.2909494
          ],
          [
            16.5568632,
            66.2906996
          ],
          [
            16.5570349,
            66.2901493
          ],
          [
            16.5568862,
            66.2897707
          ],
          [
            16.5561629,
            66.2895081
          ],
          [
            16.5552534,
            66.2887011
          ],
          [
            16.5555571,
            66.2881686
          ],
          [
            16.5553035,
            66.287616
          ],
          [
            16.5547738,
            66.2871148
          ],
          [
            16.5544362,
            66.286984
          ],
          [
            16.5534344,
            66.2860271
          ],
          [
            16.5521102,
            66.2863238
          ],
          [
            16.5517483,
            66.2865297
          ],
          [
            16.5504443,
            66.2869744
          ],
          [
            16.5496851,
            66.2870981
          ],
          [
            16.5492107,
            66.2870746
          ],
          [
            16.5476876,
            66.2873816
          ],
          [
            16.5474406,
            66.2874772
          ],
          [
            16.5472583,
            66.2877508
          ],
          [
            16.5460669,
            66.2876759
          ],
          [
            16.5443682,
            66.2877022
          ],
          [
            16.5435181,
            66.2875023
          ],
          [
            16.5430265,
            66.2874844
          ],
          [
            16.5408797,
            66.2878497
          ],
          [
            16.5403423,
            66.2880297
          ],
          [
            16.5401246,
            66.288245
          ],
          [
            16.5392916,
            66.2883728
          ],
          [
            16.538171,
            66.2884344
          ],
          [
            16.5368024,
            66.2882636
          ],
          [
            16.533854,
            66.2884663
          ],
          [
            16.5327008,
            66.288826
          ],
          [
            16.532217,
            66.2891032
          ],
          [
            16.5311701,
            66.289355
          ],
          [
            16.5303662,
            66.2896506
          ],
          [
            16.5287267,
            66.2896508
          ],
          [
            16.5281646,
            66.2894938
          ],
          [
            16.5277453,
            66.2891445
          ],
          [
            16.5278779,
            66.2888498
          ],
          [
            16.5275484,
            66.2882278
          ],
          [
            16.5269449,
            66.287971
          ],
          [
            16.526053,
            66.2878603
          ],
          [
            16.5258054,
            66.2875931
          ],
          [
            16.5245152,
            66.287283
          ],
          [
            16.524167,
            66.2873188
          ],
          [
            16.5233733,
            66.2878788
          ],
          [
            16.5223574,
            66.2880978
          ],
          [
            16.5219178,
            66.2886435
          ],
          [
            16.5212745,
            66.2889439
          ],
          [
            16.5210053,
            66.2890238
          ],
          [
            16.5204243,
            66.2890317
          ],
          [
            16.5193009,
            66.288911
          ],
          [
            16.5173458,
            66.2885695
          ],
          [
            16.5166073,
            66.2883635
          ],
          [
            16.5154594,
            66.2871047
          ],
          [
            16.5147801,
            66.2869061
          ],
          [
            16.5132795,
            66.2868366
          ],
          [
            16.5120152,
            66.286968
          ],
          [
            16.5109401,
            66.2866626
          ],
          [
            16.5097245,
            66.286472
          ],
          [
            16.508659,
            66.2861454
          ],
          [
            16.5076107,
            66.2860057
          ],
          [
            16.5071541,
            66.2858483
          ],
          [
            16.5067189,
            66.2853222
          ],
          [
            16.5049216,
            66.2843108
          ],
          [
            16.5048081,
            66.2839057
          ],
          [
            16.504416,
            66.2836605
          ],
          [
            16.5040996,
            66.2832434
          ],
          [
            16.5024965,
            66.2823304
          ],
          [
            16.499889,
            66.2815652
          ],
          [
            16.4989125,
            66.2814831
          ],
          [
            16.4980567,
            66.2815516
          ],
          [
            16.4944405,
            66.2813461
          ],
          [
            16.4941366,
            66.281185
          ],
          [
            16.4926754,
            66.2807804
          ],
          [
            16.4926445,
            66.2806757
          ],
          [
            16.4920328,
            66.2804123
          ],
          [
            16.4918702,
            66.2801052
          ],
          [
            16.4911367,
            66.2797102
          ],
          [
            16.4902192,
            66.2797634
          ],
          [
            16.4886409,
            66.2800909
          ],
          [
            16.4876445,
            66.2801044
          ],
          [
            16.4874268,
            66.2804577
          ],
          [
            16.4876194,
            66.2806182
          ],
          [
            16.4887512,
            66.2805906
          ],
          [
            16.4889215,
            66.2806519
          ],
          [
            16.4878727,
            66.2810307
          ],
          [
            16.4874908,
            66.2814448
          ],
          [
            16.4866286,
            66.2814843
          ],
          [
            16.4855681,
            66.2817552
          ],
          [
            16.4849315,
            66.2818122
          ],
          [
            16.4840999,
            66.2817487
          ],
          [
            16.4828425,
            66.2815045
          ],
          [
            16.4818214,
            66.2814992
          ],
          [
            16.4806875,
            66.2816193
          ],
          [
            16.4799837,
            66.2816164
          ],
          [
            16.4786454,
            66.2813665
          ],
          [
            16.4777519,
            66.2808621
          ],
          [
            16.4770132,
            66.2806731
          ],
          [
            16.4734629,
            66.2801424
          ],
          [
            16.4730838,
            66.2800251
          ],
          [
            16.4710653,
            66.2799706
          ],
          [
            16.4702103,
            66.2796447
          ],
          [
            16.4678355,
            66.279388
          ],
          [
            16.4666926,
            66.2789031
          ],
          [
            16.4655178,
            66.2788322
          ],
          [
            16.4631253,
            66.2782993
          ],
          [
            16.4598999,
            66.278094
          ],
          [
            16.4586757,
            66.2778935
          ],
          [
            16.4582278,
            66.2777206
          ],
          [
            16.4557288,
            66.2779738
          ],
          [
            16.4540264,
            66.2778836
          ],
          [
            16.453818,
            66.2778306
          ],
          [
            16.4534011,
            66.2774
          ],
          [
            16.4523264,
            66.2767713
          ],
          [
            16.4518728,
            66.2766168
          ],
          [
            16.4488717,
            66.2761276
          ],
          [
            16.4474255,
            66.2761364
          ],
          [
            16.4459184,
            66.2757558
          ],
          [
            16.4445961,
            66.2757544
          ],
          [
            16.4431614,
            66.2755966
          ],
          [
            16.4409759,
            66.2758486
          ],
          [
            16.4392428,
            66.2756943
          ],
          [
            16.4384106,
            66.2754246
          ],
          [
            16.4366127,
            66.2738077
          ],
          [
            16.4335982,
            66.2728939
          ],
          [
            16.431977,
            66.2726383
          ],
          [
            16.428239,
            66.2718138
          ],
          [
            16.4179273,
            66.269986
          ],
          [
            16.4143502,
            66.2692071
          ],
          [
            16.4128506,
            66.2685072
          ],
          [
            16.4118989,
            66.2685675
          ],
          [
            16.4108037,
            66.2685091
          ],
          [
            16.4080534,
            66.2680281
          ],
          [
            16.4066742,
            66.2676872
          ],
          [
            16.4051516,
            66.2676116
          ],
          [
            16.4046784,
            66.2674337
          ],
          [
            16.4041158,
            66.2670255
          ],
          [
            16.4034138,
            66.266776
          ],
          [
            16.3988295,
            66.2660713
          ],
          [
            16.3972674,
            66.2655399
          ],
          [
            16.396341,
            66.2653535
          ],
          [
            16.3953333,
            66.2653008
          ],
          [
            16.3923407,
            66.264301
          ],
          [
            16.3920712,
            66.2631449
          ],
          [
            16.3913584,
            66.2617097
          ],
          [
            16.3906715,
            66.2612337
          ],
          [
            16.3898545,
            66.2603117
          ],
          [
            16.3890897,
            66.2598292
          ],
          [
            16.3874964,
            66.2581578
          ],
          [
            16.3873844,
            66.2576204
          ],
          [
            16.387521,
            66.2554332
          ],
          [
            16.3856899,
            66.2540797
          ],
          [
            16.3850732,
            66.2534428
          ],
          [
            16.3861616,
            66.2518573
          ],
          [
            16.3859223,
            66.251201
          ],
          [
            16.3861553,
            66.2504422
          ],
          [
            16.3860548,
            66.2500785
          ],
          [
            16.3857025,
            66.2497205
          ],
          [
            16.3850585,
            66.2494151
          ],
          [
            16.3840786,
            66.2486833
          ],
          [
            16.3841632,
            66.2484604
          ],
          [
            16.3835444,
            66.2472754
          ],
          [
            16.3827976,
            66.246867
          ],
          [
            16.3820251,
            66.2462656
          ],
          [
            16.3820243,
            66.2459919
          ],
          [
            16.3814943,
            66.245432
          ],
          [
            16.3802119,
            66.2448443
          ],
          [
            16.3797452,
            66.2443342
          ],
          [
            16.3791161,
            66.2428019
          ],
          [
            16.3793021,
            66.2416004
          ],
          [
            16.3797294,
            66.2409819
          ],
          [
            16.3795034,
            66.2399875
          ],
          [
            16.3790814,
            66.23917
          ],
          [
            16.3793742,
            66.2373835
          ],
          [
            16.3792571,
            66.2371424
          ],
          [
            16.3783943,
            66.2364101
          ],
          [
            16.37861,
            66.2361813
          ],
          [
            16.3800759,
            66.2356576
          ],
          [
            16.3804503,
            66.2347259
          ],
          [
            16.3796201,
            66.2335691
          ],
          [
            16.3781631,
            66.2326745
          ],
          [
            16.3770282,
            66.23172
          ],
          [
            16.376492,
            66.2309526
          ],
          [
            16.3763324,
            66.2303765
          ],
          [
            16.3765267,
            66.2300316
          ],
          [
            16.3770292,
            66.2297773
          ],
          [
            16.3774553,
            66.229334
          ],
          [
            16.3777011,
            66.2285106
          ],
          [
            16.3767824,
            66.2267801
          ],
          [
            16.3758464,
            66.2258357
          ],
          [
            16.3759687,
            66.2249834
          ],
          [
            16.3752947,
            66.2245344
          ],
          [
            16.3756182,
            66.2224713
          ],
          [
            16.3750188,
            66.2207593
          ],
          [
            16.3753716,
            66.2197178
          ],
          [
            16.3755744,
            66.2193601
          ],
          [
            16.3761725,
            66.2189127
          ],
          [
            16.3767625,
            66.2180104
          ],
          [
            16.3767699,
            66.2175019
          ],
          [
            16.3764847,
            66.2173827
          ],
          [
            16.3764892,
            66.2172801
          ],
          [
            16.3770404,
            66.2168728
          ],
          [
            16.3772475,
            66.2162887
          ],
          [
            16.3779109,
            66.215594
          ],
          [
            16.379339,
            66.2146527
          ],
          [
            16.3800207,
            66.2139869
          ],
          [
            16.3806655,
            66.2137277
          ],
          [
            16.3809681,
            66.2134791
          ],
          [
            16.3810849,
            66.2129497
          ],
          [
            16.383457,
            66.2115441
          ],
          [
            16.3839067,
            66.2109839
          ]
        ]
      }
    }
  ]
}
