{
  "type": "FeatureCollection",
  "features": [
    {
      "type": "Feature",
      "properties": {
        "id": "kungsleden-section-02-abiskojaure-alesjaure",
        "trailSystemId": "kungsleden",
        "sectionId": "kungsleden-section-02-abiskojaure-alesjaure",
        "name": "Abiskojaure-Alesjaure",
        "part": 1,
        "source": "candidate-normalized-geojson"
      },
      "geometry": {
        "type": "LineString",
        "coordinates": [
          [
            18.5904923,
            68.2860002
          ],
          [
            18.5902423,
            68.2856411
          ],
          [
            18.589821,
            68.2854347
          ],
          [
            18.5897234,
            68.2851546
          ],
          [
            18.5898123,
            68.2846868
          ],
          [
            18.5905761,
            68.2843748
          ],
          [
            18.5907487,
            68.2841904
          ],
          [
            18.5904188,
            68.283943
          ],
          [
            18.590394,
            68.2836955
          ],
          [
            18.5908728,
            68.283307
          ],
          [
            18.5897298,
            68.2823948
          ],
          [
            18.5897662,
            68.2819684
          ],
          [
            18.5914019,
            68.2813624
          ],
          [
            18.591386,
            68.2812316
          ],
          [
            18.5906445,
            68.2807055
          ],
          [
            18.5911783,
            68.2803643
          ],
          [
            18.5911185,
            68.280216
          ],
          [
            18.5902513,
            68.279653
          ],
          [
            18.5902241,
            68.2795103
          ],
          [
            18.5891421,
            68.279059
          ],
          [
            18.5881729,
            68.278335
          ],
          [
            18.5871576,
            68.2781358
          ],
          [
            18.5862468,
            68.2777022
          ],
          [
            18.585794,
            68.2773045
          ],
          [
            18.585823,
            68.276998
          ],
          [
            18.5854105,
            68.2767504
          ],
          [
            18.582724,
            68.2758527
          ],
          [
            18.5822379,
            68.2755298
          ],
          [
            18.5818829,
            68.2748363
          ],
          [
            18.5821821,
            68.2746132
          ],
          [
            18.581656,
            68.2741615
          ],
          [
            18.5808962,
            68.2727733
          ],
          [
            18.58023,
            68.2723179
          ],
          [
            18.5792575,
            68.2704927
          ],
          [
            18.5795667,
            68.27015
          ],
          [
            18.5799549,
            68.2691662
          ],
          [
            18.580165,
            68.2665594
          ],
          [
            18.5802368,
            68.2663405
          ],
          [
            18.5806231,
            68.26609
          ],
          [
            18.5807864,
            68.2654595
          ],
          [
            18.5824084,
            68.2639886
          ],
          [
            18.582854,
            68.2638064
          ],
          [
            18.5844551,
            68.2634384
          ],
          [
            18.5847788,
            68.2630873
          ],
          [
            18.5844793,
            68.2628264
          ],
          [
            18.5836219,
            68.2624869
          ],
          [
            18.5822269,
            68.2620773
          ],
          [
            18.5844701,
            68.2613569
          ],
          [
            18.5862357,
            68.2610378
          ],
          [
            18.5883809,
            68.259773
          ],
          [
            18.5887707,
            68.2592983
          ],
          [
            18.5883692,
            68.2584674
          ],
          [
            18.5895181,
            68.256864
          ],
          [
            18.5903944,
            68.2562878
          ],
          [
            18.592165,
            68.2557546
          ],
          [
            18.5947675,
            68.2546738
          ],
          [
            18.5963686,
            68.2536337
          ],
          [
            18.5987125,
            68.2505581
          ],
          [
            18.5994902,
            68.2484551
          ],
          [
            18.6000403,
            68.2460432
          ],
          [
            18.6011632,
            68.2437565
          ],
          [
            18.6012151,
            68.2422186
          ],
          [
            18.6006709,
            68.2403153
          ],
          [
            18.6000655,
            68.2395252
          ],
          [
            18.599533,
            68.2373438
          ],
          [
            18.5990548,
            68.236649
          ],
          [
            18.5984187,
            68.2361213
          ],
          [
            18.597324,
            68.234502
          ],
          [
            18.5950138,
            68.2331273
          ],
          [
            18.5937996,
            68.2326269
          ],
          [
            18.5917439,
            68.23154
          ],
          [
            18.587924,
            68.2298636
          ],
          [
            18.5853889,
            68.2290107
          ],
          [
            18.5837168,
            68.2280809
          ],
          [
            18.5824452,
            68.2271047
          ],
          [
            18.5778418,
            68.2249516
          ],
          [
            18.573842,
            68.2228219
          ],
          [
            18.5723236,
            68.222309
          ],
          [
            18.5718271,
            68.2219524
          ],
          [
            18.5690431,
            68.2208105
          ],
          [
            18.5617097,
            68.2163642
          ],
          [
            18.5618887,
            68.2159307
          ],
          [
            18.561631,
            68.2157382
          ],
          [
            18.56079,
            68.2153199
          ],
          [
            18.5593145,
            68.2149565
          ],
          [
            18.5583075,
            68.2143522
          ],
          [
            18.5578835,
            68.2142088
          ],
          [
            18.5575783,
            68.2138687
          ],
          [
            18.555182,
            68.2125642
          ],
          [
            18.5514863,
            68.2102989
          ],
          [
            18.5510741,
            68.2101558
          ],
          [
            18.5483432,
            68.2097824
          ],
          [
            18.5439555,
            68.2094507
          ],
          [
            18.5421564,
            68.2088176
          ],
          [
            18.5414034,
            68.2079357
          ],
          [
            18.5396052,
            68.2071077
          ],
          [
            18.537987,
            68.2064756
          ],
          [
            18.5334839,
            68.20523
          ],
          [
            18.5317796,
            68.2045902
          ],
          [
            18.52927,
            68.2043331
          ],
          [
            18.5255031,
            68.203536
          ],
          [
            18.5219581,
            68.2026331
          ],
          [
            18.5203744,
            68.2018993
          ],
          [
            18.5188635,
            68.201415
          ],
          [
            18.5161278,
            68.2007827
          ],
          [
            18.5149912,
            68.2004186
          ],
          [
            18.513974,
            68.2001974
          ],
          [
            18.5113657,
            68.1999157
          ],
          [
            18.5067342,
            68.1988945
          ],
          [
            18.5043208,
            68.1985343
          ],
          [
            18.5033462,
            68.1982516
          ],
          [
            18.502236,
            68.1976974
          ],
          [
            18.4980533,
            68.196857
          ],
          [
            18.4968784,
            68.1963005
          ],
          [
            18.4961854,
            68.1954834
          ],
          [
            18.4951652,
            68.1946766
          ],
          [
            18.4948716,
            68.1940366
          ],
          [
            18.4951336,
            68.1938452
          ],
          [
            18.4950308,
            68.1937393
          ],
          [
            18.4939505,
            68.1929678
          ],
          [
            18.4928015,
            68.1923875
          ],
          [
            18.4909152,
            68.1918542
          ],
          [
            18.4903827,
            68.191596
          ],
          [
            18.4880342,
            68.189519
          ],
          [
            18.4880024,
            68.1893237
          ],
          [
            18.4875939,
            68.1889727
          ],
          [
            18.4871204,
            68.1887684
          ],
          [
            18.485744,
            68.1874278
          ],
          [
            18.485375,
            68.1872267
          ],
          [
            18.4850502,
            68.1867834
          ],
          [
            18.4842296,
            68.186525
          ],
          [
            18.4815137,
            68.1861328
          ],
          [
            18.476227,
            68.1838058
          ],
          [
            18.4756037,
            68.1836161
          ],
          [
            18.4715244,
            68.1830528
          ],
          [
            18.4701348,
            68.1827148
          ],
          [
            18.4695399,
            68.1823474
          ],
          [
            18.465548,
            68.1810144
          ],
          [
            18.4640359,
            68.1806802
          ],
          [
            18.4630583,
            68.1802331
          ],
          [
            18.4620489,
            68.1795065
          ],
          [
            18.460799,
            68.178908
          ],
          [
            18.4601281,
            68.1781735
          ],
          [
            18.4594594,
            68.177838
          ],
          [
            18.4582245,
            68.1765876
          ],
          [
            18.4563112,
            68.1752177
          ],
          [
            18.4559668,
            68.1747837
          ],
          [
            18.4547797,
            68.1738244
          ],
          [
            18.4539595,
            68.1733673
          ],
          [
            18.4526338,
            68.1720915
          ],
          [
            18.4495791,
            68.1701888
          ],
          [
            18.4468679,
            68.1682416
          ],
          [
            18.4438517,
            68.1667802
          ],
          [
            18.4421132,
            68.1662554
          ],
          [
            18.4391187,
            68.1651263
          ],
          [
            18.437359,
            68.1641278
          ],
          [
            18.4357075,
            68.1629589
          ],
          [
            18.43389,
            68.1622092
          ],
          [
            18.4314365,
            68.1608397
          ],
          [
            18.4295841,
            68.1600403
          ],
          [
            18.428931,
            68.1599749
          ],
          [
            18.4277888,
            68.1595085
          ],
          [
            18.4268804,
            68.1592813
          ],
          [
            18.4246164,
            68.1578384
          ],
          [
            18.4230488,
            68.1571981
          ],
          [
            18.4229177,
            68.156585
          ],
          [
            18.423174,
            68.1558721
          ],
          [
            18.4228608,
            68.1547346
          ],
          [
            18.4216512,
            68.1537903
          ],
          [
            18.4212796,
            68.1532005
          ],
          [
            18.4197576,
            68.1522108
          ],
          [
            18.4187186,
            68.1512245
          ],
          [
            18.4167701,
            68.1498569
          ],
          [
            18.4167288,
            68.1495458
          ],
          [
            18.4161156,
            68.1492274
          ],
          [
            18.416357,
            68.1486648
          ],
          [
            18.4162989,
            68.1479445
          ],
          [
            18.4159232,
            68.1475304
          ],
          [
            18.4148518,
            68.1468039
          ],
          [
            18.4147433,
            68.1463357
          ],
          [
            18.4143707,
            68.1458758
          ],
          [
            18.4143293,
            68.1441806
          ],
          [
            18.4145674,
            68.1432217
          ],
          [
            18.4150409,
            68.1427087
          ],
          [
            18.4147046,
            68.1419724
          ],
          [
            18.414933,
            68.1412048
          ],
          [
            18.4142446,
            68.1407417
          ],
          [
            18.4131475,
            68.1403026
          ],
          [
            18.411433,
            68.1381912
          ],
          [
            18.4119079,
            68.1371004
          ],
          [
            18.4130676,
            68.1368237
          ],
          [
            18.4137793,
            68.1367943
          ]
        ]
      }
    }
  ]
}
