{
  "type": "FeatureCollection",
  "features": [
    {
      "type": "Feature",
      "properties": {
        "trailId": "vikingaleden",
        "sectionId": "vikingaleden-etapp-6-harg-gimo",
        "candidateGeometry": true,
        "runtimeImportApproved": false,
        "sourceUrl": "https://www.naturkartan.se/sv/uppsala-lan/vikingaleden-etapp-6-harg-till-gimo.gpx",
        "source": "naturkartan_section_gpx",
        "classification": null,
        "sourceComputedDistanceKm": 14.164,
        "lineCount": 1,
        "pointCount": 189,
        "componentSelectionApplied": false,
        "selectedComponentIndexes": null,
        "reverseApplied": false,
        "densifyApplied": false,
        "buildPolicyNotes": null,
        "lastUpdated": "2026-04-30"
      },
      "geometry": {
        "type": "LineString",
        "coordinates": [
          [
            18.39218,
            60.188155
          ],
          [
            18.392278,
            60.188011
          ],
          [
            18.392449,
            60.187797
          ],
          [
            18.392621,
            60.187584
          ],
          [
            18.392664,
            60.187371
          ],
          [
            18.392578,
            60.187157
          ],
          [
            18.392567,
            60.187172
          ],
          [
            18.392565,
            60.187172
          ],
          [
            18.393706,
            60.18592
          ],
          [
            18.39357,
            60.185838
          ],
          [
            18.393056,
            60.185981
          ],
          [
            18.392886,
            60.185909
          ],
          [
            18.391385,
            60.184799
          ],
          [
            18.391021,
            60.184482
          ],
          [
            18.390683,
            60.184031
          ],
          [
            18.390124,
            60.183559
          ],
          [
            18.387842,
            60.182853
          ],
          [
            18.387256,
            60.18279
          ],
          [
            18.386948,
            60.182525
          ],
          [
            18.386615,
            60.182395
          ],
          [
            18.385262,
            60.182088
          ],
          [
            18.385159,
            60.181997
          ],
          [
            18.385049,
            60.181205
          ],
          [
            18.384624,
            60.18052
          ],
          [
            18.383609,
            60.179619
          ],
          [
            18.383291,
            60.179504
          ],
          [
            18.382721,
            60.179167
          ],
          [
            18.382721,
            60.179167
          ],
          [
            18.381664,
            60.179131
          ],
          [
            18.38135,
            60.178973
          ],
          [
            18.380888,
            60.178846
          ],
          [
            18.379548,
            60.178694
          ],
          [
            18.377603,
            60.178625
          ],
          [
            18.376528,
            60.178648
          ],
          [
            18.375625,
            60.178854
          ],
          [
            18.374859,
            60.179395
          ],
          [
            18.373587,
            60.179994
          ],
          [
            18.372687,
            60.180024
          ],
          [
            18.372002,
            60.180233
          ],
          [
            18.371007,
            60.180274
          ],
          [
            18.370818,
            60.180331
          ],
          [
            18.370558,
            60.180584
          ],
          [
            18.370178,
            60.181342
          ],
          [
            18.369798,
            60.181801
          ],
          [
            18.369296,
            60.18233
          ],
          [
            18.368492,
            60.182793
          ],
          [
            18.366777,
            60.182825
          ],
          [
            18.366471,
            60.182916
          ],
          [
            18.364602,
            60.18277
          ],
          [
            18.364252,
            60.182827
          ],
          [
            18.364093,
            60.182978
          ],
          [
            18.363704,
            60.183962
          ],
          [
            18.363069,
            60.184283
          ],
          [
            18.36271,
            60.184609
          ],
          [
            18.36271,
            60.184609
          ],
          [
            18.362299,
            60.184775
          ],
          [
            18.361929,
            60.184861
          ],
          [
            18.359973,
            60.185021
          ],
          [
            18.357826,
            60.184888
          ],
          [
            18.35701,
            60.18476
          ],
          [
            18.355968,
            60.18501
          ],
          [
            18.354213,
            60.185265
          ],
          [
            18.352935,
            60.185596
          ],
          [
            18.35147,
            60.184753
          ],
          [
            18.350978,
            60.184116
          ],
          [
            18.349944,
            60.183837
          ],
          [
            18.349619,
            60.183696
          ],
          [
            18.348962,
            60.183578
          ],
          [
            18.348348,
            60.183241
          ],
          [
            18.346951,
            60.183198
          ],
          [
            18.344708,
            60.183254
          ],
          [
            18.34414,
            60.183139
          ],
          [
            18.342531,
            60.183138
          ],
          [
            18.340826,
            60.183041
          ],
          [
            18.340072,
            60.183052
          ],
          [
            18.33947,
            60.182957
          ],
          [
            18.33947,
            60.182957
          ],
          [
            18.339247,
            60.182851
          ],
          [
            18.340311,
            60.18164
          ],
          [
            18.340674,
            60.180231
          ],
          [
            18.340664,
            60.17978
          ],
          [
            18.340664,
            60.17978
          ],
          [
            18.340562,
            60.17964
          ],
          [
            18.340126,
            60.179389
          ],
          [
            18.338873,
            60.178877
          ],
          [
            18.337736,
            60.179347
          ],
          [
            18.33653,
            60.179712
          ],
          [
            18.335446,
            60.179756
          ],
          [
            18.334387,
            60.179571
          ],
          [
            18.333971,
            60.179387
          ],
          [
            18.33253,
            60.178085
          ],
          [
            18.33187,
            60.177305
          ],
          [
            18.330965,
            60.176731
          ],
          [
            18.330362,
            60.176439
          ],
          [
            18.329242,
            60.175573
          ],
          [
            18.328265,
            60.174561
          ],
          [
            18.325955,
            60.175049
          ],
          [
            18.325626,
            60.175066
          ],
          [
            18.32518,
            60.174996
          ],
          [
            18.320947,
            60.173755
          ],
          [
            18.320529,
            60.173678
          ],
          [
            18.316432,
            60.173542
          ],
          [
            18.315941,
            60.173435
          ],
          [
            18.313892,
            60.172692
          ],
          [
            18.308651,
            60.172792
          ],
          [
            18.308651,
            60.172792
          ],
          [
            18.308138,
            60.172871
          ],
          [
            18.307942,
            60.173007
          ],
          [
            18.307883,
            60.173172
          ],
          [
            18.307883,
            60.174326
          ],
          [
            18.307748,
            60.175065
          ],
          [
            18.307387,
            60.175333
          ],
          [
            18.30717,
            60.17539
          ],
          [
            18.306438,
            60.175217
          ],
          [
            18.304038,
            60.17484
          ],
          [
            18.303158,
            60.174808
          ],
          [
            18.303158,
            60.174808
          ],
          [
            18.302064,
            60.17468
          ],
          [
            18.300626,
            60.174669
          ],
          [
            18.295498,
            60.174306
          ],
          [
            18.29524,
            60.173207
          ],
          [
            18.294897,
            60.172833
          ],
          [
            18.293859,
            60.171988
          ],
          [
            18.290137,
            60.171477
          ],
          [
            18.289557,
            60.171221
          ],
          [
            18.289266,
            60.170917
          ],
          [
            18.289104,
            60.170561
          ],
          [
            18.289241,
            60.170227
          ],
          [
            18.286704,
            60.169435
          ],
          [
            18.286704,
            60.169435
          ],
          [
            18.28509,
            60.169002
          ],
          [
            18.2831,
            60.169678
          ],
          [
            18.282307,
            60.169852
          ],
          [
            18.281911,
            60.169887
          ],
          [
            18.280083,
            60.169737
          ],
          [
            18.271353,
            60.170026
          ],
          [
            18.27103,
            60.170013
          ],
          [
            18.269745,
            60.169793
          ],
          [
            18.264079,
            60.169203
          ],
          [
            18.262346,
            60.169043
          ],
          [
            18.261565,
            60.169003
          ],
          [
            18.261159,
            60.169038
          ],
          [
            18.261159,
            60.169038
          ],
          [
            18.260399,
            60.169444
          ],
          [
            18.259415,
            60.169773
          ],
          [
            18.258453,
            60.170312
          ],
          [
            18.257927,
            60.170286
          ],
          [
            18.256185,
            60.169895
          ],
          [
            18.255266,
            60.169899
          ],
          [
            18.254622,
            60.170133
          ],
          [
            18.254105,
            60.170568
          ],
          [
            18.253017,
            60.170987
          ],
          [
            18.244814,
            60.171431
          ],
          [
            18.243388,
            60.171738
          ],
          [
            18.241121,
            60.172128
          ],
          [
            18.240151,
            60.172449
          ],
          [
            18.239573,
            60.172579
          ],
          [
            18.233611,
            60.173644
          ],
          [
            18.23302,
            60.173617
          ],
          [
            18.232123,
            60.173165
          ],
          [
            18.230776,
            60.172715
          ],
          [
            18.229975,
            60.172677
          ],
          [
            18.228792,
            60.173171
          ],
          [
            18.227298,
            60.173536
          ],
          [
            18.227298,
            60.173536
          ],
          [
            18.226442,
            60.17354
          ],
          [
            18.226259,
            60.173593
          ],
          [
            18.224813,
            60.174277
          ],
          [
            18.223797,
            60.174686
          ],
          [
            18.223593,
            60.174698
          ],
          [
            18.220107,
            60.174562
          ],
          [
            18.219358,
            60.174408
          ],
          [
            18.218113,
            60.173896
          ],
          [
            18.217312,
            60.17349
          ],
          [
            18.215997,
            60.172406
          ],
          [
            18.214633,
            60.172032
          ],
          [
            18.213458,
            60.171624
          ],
          [
            18.211215,
            60.17077
          ],
          [
            18.210354,
            60.170328
          ],
          [
            18.209111,
            60.169974
          ],
          [
            18.20786,
            60.169433
          ],
          [
            18.206919,
            60.169144
          ],
          [
            18.206603,
            60.169091
          ],
          [
            18.205095,
            60.169136
          ],
          [
            18.203774,
            60.168917
          ],
          [
            18.20113,
            60.168839
          ],
          [
            18.2001,
            60.169167
          ],
          [
            18.199739,
            60.169214
          ],
          [
            18.198579,
            60.169228
          ]
        ]
      }
    }
  ]
}
