{
  "type": "FeatureCollection",
  "features": [
    {
      "type": "Feature",
      "properties": {
        "trailId": "vikingaleden",
        "sectionId": "vikingaleden-etapp-12-marma-alvkarleby",
        "candidateGeometry": true,
        "runtimeImportApproved": false,
        "sourceUrl": "https://www.outdooractive.com/en/download.tour.gpx?i=25622316&project=outdooractive",
        "source": "outdooractive_paxwalk_vikingaleden_section_gpx",
        "classification": null,
        "sourceComputedDistanceKm": 13.313,
        "lineCount": 1,
        "pointCount": 165,
        "componentSelectionApplied": false,
        "selectedComponentIndexes": null,
        "reverseApplied": false,
        "densifyApplied": false,
        "buildPolicyNotes": null,
        "lastUpdated": "2026-04-30"
      },
      "geometry": {
        "type": "LineString",
        "coordinates": [
          [
            17.41946,
            60.485868,
            21.94139
          ],
          [
            17.419931,
            60.486081,
            22.39201
          ],
          [
            17.420652,
            60.486082,
            24.79352
          ],
          [
            17.420849,
            60.486273,
            25.12016
          ],
          [
            17.421305,
            60.486427,
            26.45342
          ],
          [
            17.422225,
            60.487931,
            24.67023
          ],
          [
            17.422838,
            60.489381,
            26.52056
          ],
          [
            17.422477,
            60.490042,
            25.48121
          ],
          [
            17.421754,
            60.490726,
            23.68026
          ],
          [
            17.421038,
            60.491915,
            26.39229
          ],
          [
            17.419992,
            60.493104,
            28.86205
          ],
          [
            17.417962,
            60.493471,
            25.03401
          ],
          [
            17.417249,
            60.493712,
            25.14536
          ],
          [
            17.416512,
            60.494039,
            25.38292
          ],
          [
            17.416075,
            60.494565,
            26.08621
          ],
          [
            17.41564,
            60.495529,
            25.48271
          ],
          [
            17.41566,
            60.496404,
            25.15259
          ],
          [
            17.416327,
            60.49694,
            26.78988
          ],
          [
            17.417055,
            60.497199,
            28.24856
          ],
          [
            17.418199,
            60.497252,
            30.46773
          ],
          [
            17.419976,
            60.497229,
            32.69484
          ],
          [
            17.42159,
            60.497667,
            32.54773
          ],
          [
            17.422806,
            60.498111,
            33.87551
          ],
          [
            17.423434,
            60.498466,
            34.73484
          ],
          [
            17.423453,
            60.498723,
            33.96908
          ],
          [
            17.425081,
            60.500902,
            33.89654
          ],
          [
            17.425802,
            60.501741,
            35.04852
          ],
          [
            17.426034,
            60.502221,
            35.08637
          ],
          [
            17.427427,
            60.504292,
            33.90302
          ],
          [
            17.427303,
            60.504832,
            31.25903
          ],
          [
            17.427077,
            60.505204,
            29.96106
          ],
          [
            17.427134,
            60.505765,
            29.7271
          ],
          [
            17.427541,
            60.506023,
            30.46822
          ],
          [
            17.427748,
            60.506401,
            31.09844
          ],
          [
            17.428547,
            60.507108,
            33.42678
          ],
          [
            17.429394,
            60.507261,
            35.99398
          ],
          [
            17.429611,
            60.507375,
            36.6044
          ],
          [
            17.430038,
            60.507897,
            37.30455
          ],
          [
            17.430513,
            60.509849,
            37.16287
          ],
          [
            17.430383,
            60.510108,
            37.04292
          ],
          [
            17.427605,
            60.511056,
            32.30714
          ],
          [
            17.424561,
            60.51153,
            30.07416
          ],
          [
            17.423789,
            60.511905,
            30.31656
          ],
          [
            17.42311,
            60.5124,
            30.4096
          ],
          [
            17.422756,
            60.51242,
            30.47868
          ],
          [
            17.421232,
            60.513526,
            30.95398
          ],
          [
            17.419337,
            60.51471,
            29.95434
          ],
          [
            17.416383,
            60.51622,
            29.25654
          ],
          [
            17.415592,
            60.516798,
            29.79402
          ],
          [
            17.414041,
            60.517116,
            30.10996
          ],
          [
            17.413073,
            60.517402,
            30.70279
          ],
          [
            17.411874,
            60.517433,
            30.87123
          ],
          [
            17.410921,
            60.518155,
            31.10579
          ],
          [
            17.410132,
            60.518382,
            30.20103
          ],
          [
            17.409519,
            60.518835,
            29.24496
          ],
          [
            17.408598,
            60.519318,
            28.43001
          ],
          [
            17.407757,
            60.519848,
            28.48648
          ],
          [
            17.407757,
            60.520054,
            28.79077
          ],
          [
            17.40801,
            60.52044,
            29.61366
          ],
          [
            17.407468,
            60.520788,
            29.97479
          ],
          [
            17.406959,
            60.520966,
            29.98889
          ],
          [
            17.405748,
            60.521135,
            29.72044
          ],
          [
            17.404757,
            60.521153,
            29.42029
          ],
          [
            17.40274,
            60.520874,
            28.49971
          ],
          [
            17.402054,
            60.520929,
            28.28886
          ],
          [
            17.40016,
            60.520888,
            26.07283
          ],
          [
            17.398475,
            60.520744,
            23.46342
          ],
          [
            17.39813,
            60.520834,
            22.52323
          ],
          [
            17.397989,
            60.521142,
            20.72732
          ],
          [
            17.3982,
            60.521374,
            20.01929
          ],
          [
            17.400078,
            60.52205,
            22.66338
          ],
          [
            17.400183,
            60.522254,
            22.16875
          ],
          [
            17.402644,
            60.523453,
            23.28455
          ],
          [
            17.404504,
            60.523978,
            25.31267
          ],
          [
            17.405372,
            60.524411,
            23.39681
          ],
          [
            17.407433,
            60.524992,
            19.00293
          ],
          [
            17.408682,
            60.525267,
            21.68043
          ],
          [
            17.409269,
            60.525345,
            23.65647
          ],
          [
            17.410043,
            60.525714,
            24.1874
          ],
          [
            17.410617,
            60.526129,
            23.56805
          ],
          [
            17.411139,
            60.526598,
            20.773
          ],
          [
            17.411482,
            60.527067,
            16.40205
          ],
          [
            17.412266,
            60.527179,
            15.97544
          ],
          [
            17.414195,
            60.527256,
            16.84282
          ],
          [
            17.418659,
            60.527687,
            19.47672
          ],
          [
            17.420018,
            60.527681,
            20.98357
          ],
          [
            17.4213,
            60.527757,
            19.49822
          ],
          [
            17.422599,
            60.527961,
            17.96054
          ],
          [
            17.426083,
            60.529053,
            12.79925
          ],
          [
            17.427429,
            60.529209,
            13.04551
          ],
          [
            17.428913,
            60.529259,
            14.95348
          ],
          [
            17.429208,
            60.529415,
            14.39475
          ],
          [
            17.430163,
            60.529619,
            15.44169
          ],
          [
            17.430566,
            60.529894,
            15.34381
          ],
          [
            17.432194,
            60.530725,
            16.55713
          ],
          [
            17.432879,
            60.530897,
            17.45868
          ],
          [
            17.433655,
            60.531684,
            16.21803
          ],
          [
            17.433309,
            60.532044,
            13.02234
          ],
          [
            17.434518,
            60.533943,
            11.82368
          ],
          [
            17.434715,
            60.534607,
            11.04738
          ],
          [
            17.434514,
            60.535175,
            9.16517
          ],
          [
            17.433889,
            60.535482,
            7.07044
          ],
          [
            17.434176,
            60.537434,
            6.61882
          ],
          [
            17.432644,
            60.539062,
            6.84009
          ],
          [
            17.43257,
            60.539302,
            6.90109
          ],
          [
            17.43273,
            60.539844,
            6.90009
          ],
          [
            17.433257,
            60.540309,
            6.93605
          ],
          [
            17.434988,
            60.541285,
            11.01205
          ],
          [
            17.435175,
            60.541583,
            12.08235
          ],
          [
            17.434887,
            60.542234,
            11.68203
          ],
          [
            17.43491,
            60.543026,
            13.42578
          ],
          [
            17.435119,
            60.543816,
            16.56848
          ],
          [
            17.43507,
            60.544163,
            17.41644
          ],
          [
            17.434922,
            60.544372,
            17.49288
          ],
          [
            17.43398,
            60.544904,
            15.79856
          ],
          [
            17.432928,
            60.545269,
            12.26362
          ],
          [
            17.432661,
            60.545925,
            12.14253
          ],
          [
            17.433078,
            60.546835,
            15.46488
          ],
          [
            17.433055,
            60.547359,
            15.99546
          ],
          [
            17.432755,
            60.547801,
            14.65477
          ],
          [
            17.432755,
            60.547931,
            14.74828
          ],
          [
            17.433192,
            60.548188,
            17.60957
          ],
          [
            17.433461,
            60.548639,
            19.25904
          ],
          [
            17.434198,
            60.548853,
            22.79935
          ],
          [
            17.435071,
            60.548948,
            24.99721
          ],
          [
            17.436218,
            60.548897,
            26.82791
          ],
          [
            17.436381,
            60.549008,
            27.02135
          ],
          [
            17.434241,
            60.550467,
            15.76267
          ],
          [
            17.434423,
            60.551009,
            14.28792
          ],
          [
            17.435354,
            60.551911,
            14.32201
          ],
          [
            17.435844,
            60.552183,
            14.48136
          ],
          [
            17.437433,
            60.55281,
            15.6731
          ],
          [
            17.438971,
            60.553235,
            18.82808
          ],
          [
            17.440095,
            60.553674,
            20.7543
          ],
          [
            17.440472,
            60.554116,
            19.69704
          ],
          [
            17.440648,
            60.554789,
            17.3243
          ],
          [
            17.440995,
            60.555168,
            17.6957
          ],
          [
            17.442682,
            60.555888,
            23.62186
          ],
          [
            17.443412,
            60.556066,
            24.68404
          ],
          [
            17.443746,
            60.556325,
            24.87222
          ],
          [
            17.4439,
            60.556667,
            24.83841
          ],
          [
            17.442731,
            60.557386,
            23.12474
          ],
          [
            17.442639,
            60.5575,
            22.8339
          ],
          [
            17.443197,
            60.558167,
            22.83841
          ],
          [
            17.444537,
            60.558275,
            23.43491
          ],
          [
            17.444236,
            60.558666,
            22.84814
          ],
          [
            17.444094,
            60.559761,
            23.60917
          ],
          [
            17.444273,
            60.560675,
            26.55495
          ],
          [
            17.443768,
            60.561205,
            26.45035
          ],
          [
            17.44325,
            60.561341,
            24.85154
          ],
          [
            17.441465,
            60.56135,
            13.8496
          ],
          [
            17.441186,
            60.560414,
            13.50341
          ],
          [
            17.440962,
            60.560227,
            12.51739
          ],
          [
            17.440537,
            60.560131,
            10.67474
          ],
          [
            17.439934,
            60.560069,
            8.82378
          ],
          [
            17.438665,
            60.560077,
            6.23735
          ],
          [
            17.436342,
            60.559837,
            8.33323
          ],
          [
            17.43631,
            60.561439,
            8.17408
          ],
          [
            17.436135,
            60.563403,
            13.82594
          ],
          [
            17.43621,
            60.563924,
            14.98759
          ],
          [
            17.436764,
            60.564392,
            14.34087
          ],
          [
            17.43849,
            60.565131,
            9.95099
          ],
          [
            17.437675,
            60.565525,
            14.05064
          ],
          [
            17.437417,
            60.565455,
            15.02729
          ],
          [
            17.437749,
            60.565495,
            13.69275
          ]
        ]
      }
    }
  ]
}
