{
  "type": "FeatureCollection",
  "features": [
    {
      "type": "Feature",
      "properties": {
        "trailId": "vikingaleden",
        "sectionId": "vikingaleden-etapp-1-grisslehamn-trastabron",
        "candidateGeometry": true,
        "runtimeImportApproved": false,
        "sourceUrl": "https://www.naturkartan.se/sv/stockholms-lan/vikingaleden-etapp-1-grisslehamn-till-trastabron.gpx",
        "source": "naturkartan_section_gpx",
        "classification": null,
        "sourceComputedDistanceKm": 8.144,
        "lineCount": 1,
        "pointCount": 193,
        "componentSelectionApplied": false,
        "selectedComponentIndexes": null,
        "reverseApplied": false,
        "densifyApplied": false,
        "buildPolicyNotes": null,
        "lastUpdated": "2026-04-30"
      },
      "geometry": {
        "type": "LineString",
        "coordinates": [
          [
            18.813549,
            60.099926
          ],
          [
            18.813342,
            60.100268
          ],
          [
            18.812061,
            60.100157
          ],
          [
            18.811302,
            60.100121
          ],
          [
            18.809037,
            60.100084
          ],
          [
            18.808896,
            60.100192
          ],
          [
            18.808627,
            60.100313
          ],
          [
            18.808262,
            60.100429
          ],
          [
            18.80707,
            60.100693
          ],
          [
            18.80707,
            60.100693
          ],
          [
            18.806918,
            60.100499
          ],
          [
            18.806783,
            60.100153
          ],
          [
            18.806847,
            60.099667
          ],
          [
            18.806791,
            60.099243
          ],
          [
            18.806303,
            60.098957
          ],
          [
            18.805582,
            60.098732
          ],
          [
            18.80488,
            60.098644
          ],
          [
            18.80455,
            60.098488
          ],
          [
            18.804193,
            60.098135
          ],
          [
            18.803947,
            60.097805
          ],
          [
            18.803632,
            60.097703
          ],
          [
            18.800861,
            60.097051
          ],
          [
            18.80066,
            60.097009
          ],
          [
            18.80047,
            60.09701
          ],
          [
            18.800286,
            60.096939
          ],
          [
            18.799636,
            60.096846
          ],
          [
            18.798972,
            60.096907
          ],
          [
            18.798743,
            60.096593
          ],
          [
            18.798134,
            60.09607
          ],
          [
            18.798081,
            60.095957
          ],
          [
            18.798157,
            60.09563
          ],
          [
            18.797944,
            60.095499
          ],
          [
            18.797415,
            60.09536
          ],
          [
            18.797193,
            60.095129
          ],
          [
            18.79733,
            60.094955
          ],
          [
            18.797039,
            60.094906
          ],
          [
            18.796661,
            60.094696
          ],
          [
            18.796661,
            60.094696
          ],
          [
            18.796467,
            60.09466
          ],
          [
            18.795872,
            60.094738
          ],
          [
            18.795464,
            60.094868
          ],
          [
            18.79461,
            60.09507
          ],
          [
            18.794527,
            60.095173
          ],
          [
            18.79455,
            60.095364
          ],
          [
            18.794384,
            60.09561
          ],
          [
            18.79378,
            60.095863
          ],
          [
            18.793564,
            60.095863
          ],
          [
            18.792915,
            60.095753
          ],
          [
            18.79252,
            60.095768
          ],
          [
            18.791927,
            60.095882
          ],
          [
            18.791323,
            60.096157
          ],
          [
            18.790476,
            60.096336
          ],
          [
            18.790028,
            60.0965
          ],
          [
            18.789932,
            60.096313
          ],
          [
            18.78922,
            60.096444
          ],
          [
            18.788412,
            60.09666
          ],
          [
            18.787058,
            60.096504
          ],
          [
            18.787058,
            60.096504
          ],
          [
            18.78679,
            60.09651
          ],
          [
            18.786442,
            60.09645
          ],
          [
            18.786076,
            60.096478
          ],
          [
            18.784555,
            60.096336
          ],
          [
            18.784212,
            60.096207
          ],
          [
            18.782986,
            60.095993
          ],
          [
            18.782122,
            60.095585
          ],
          [
            18.7818,
            60.095276
          ],
          [
            18.781338,
            60.095036
          ],
          [
            18.780157,
            60.09467
          ],
          [
            18.77915,
            60.094128
          ],
          [
            18.778934,
            60.093834
          ],
          [
            18.778894,
            60.093468
          ],
          [
            18.77881,
            60.093246
          ],
          [
            18.778454,
            60.09301
          ],
          [
            18.777752,
            60.092415
          ],
          [
            18.777668,
            60.092003
          ],
          [
            18.777668,
            60.092003
          ],
          [
            18.777546,
            60.091805
          ],
          [
            18.777319,
            60.09158
          ],
          [
            18.777375,
            60.090981
          ],
          [
            18.777015,
            60.090684
          ],
          [
            18.776731,
            60.09059
          ],
          [
            18.776471,
            60.090408
          ],
          [
            18.776402,
            60.090195
          ],
          [
            18.776288,
            60.090057
          ],
          [
            18.776227,
            60.08962
          ],
          [
            18.776027,
            60.08939
          ],
          [
            18.775894,
            60.089135
          ],
          [
            18.775713,
            60.089074
          ],
          [
            18.775313,
            60.089079
          ],
          [
            18.774333,
            60.08893
          ],
          [
            18.774302,
            60.088802
          ],
          [
            18.773898,
            60.088267
          ],
          [
            18.773585,
            60.087956
          ],
          [
            18.773325,
            60.087609
          ],
          [
            18.773321,
            60.08742
          ],
          [
            18.77343,
            60.087182
          ],
          [
            18.773568,
            60.085781
          ],
          [
            18.773485,
            60.085256
          ],
          [
            18.773514,
            60.084904
          ],
          [
            18.773848,
            60.084468
          ],
          [
            18.774038,
            60.084305
          ],
          [
            18.774973,
            60.08374
          ],
          [
            18.775268,
            60.083453
          ],
          [
            18.775407,
            60.083084
          ],
          [
            18.77543,
            60.082485
          ],
          [
            18.775567,
            60.081784
          ],
          [
            18.775886,
            60.081046
          ],
          [
            18.775326,
            60.080289
          ],
          [
            18.774368,
            60.079329
          ],
          [
            18.774168,
            60.078726
          ],
          [
            18.774039,
            60.077862
          ],
          [
            18.774626,
            60.077072
          ],
          [
            18.774752,
            60.076824
          ],
          [
            18.774626,
            60.076582
          ],
          [
            18.774354,
            60.076252
          ],
          [
            18.774321,
            60.075882
          ],
          [
            18.773768,
            60.075445
          ],
          [
            18.772284,
            60.074962
          ],
          [
            18.77191,
            60.074807
          ],
          [
            18.771518,
            60.074569
          ],
          [
            18.771712,
            60.074101
          ],
          [
            18.771685,
            60.073969
          ],
          [
            18.771608,
            60.073852
          ],
          [
            18.770839,
            60.073582
          ],
          [
            18.770678,
            60.073482
          ],
          [
            18.770678,
            60.073482
          ],
          [
            18.770603,
            60.073344
          ],
          [
            18.770661,
            60.07324
          ],
          [
            18.770866,
            60.07309
          ],
          [
            18.770914,
            60.072857
          ],
          [
            18.770809,
            60.072719
          ],
          [
            18.770399,
            60.072528
          ],
          [
            18.770342,
            60.072384
          ],
          [
            18.770368,
            60.072211
          ],
          [
            18.770551,
            60.071854
          ],
          [
            18.77044,
            60.071232
          ],
          [
            18.770794,
            60.07074
          ],
          [
            18.770702,
            60.070088
          ],
          [
            18.770739,
            60.069874
          ],
          [
            18.770926,
            60.069466
          ],
          [
            18.77114,
            60.069396
          ],
          [
            18.770968,
            60.068698
          ],
          [
            18.771127,
            60.068081
          ],
          [
            18.77168,
            60.067426
          ],
          [
            18.772992,
            60.066423
          ],
          [
            18.773954,
            60.065595
          ],
          [
            18.773954,
            60.065595
          ],
          [
            18.774208,
            60.065325
          ],
          [
            18.773556,
            60.065322
          ],
          [
            18.773066,
            60.065366
          ],
          [
            18.77264,
            60.06528
          ],
          [
            18.772051,
            60.064996
          ],
          [
            18.771401,
            60.064536
          ],
          [
            18.771287,
            60.064004
          ],
          [
            18.771215,
            60.063918
          ],
          [
            18.770959,
            60.063808
          ],
          [
            18.770231,
            60.063212
          ],
          [
            18.76975,
            60.062986
          ],
          [
            18.769643,
            60.062875
          ],
          [
            18.769675,
            60.062471
          ],
          [
            18.769445,
            60.061903
          ],
          [
            18.769526,
            60.061366
          ],
          [
            18.769755,
            60.061176
          ],
          [
            18.769922,
            60.060889
          ],
          [
            18.769922,
            60.060889
          ],
          [
            18.769945,
            60.060604
          ],
          [
            18.770156,
            60.06001
          ],
          [
            18.770319,
            60.059849
          ],
          [
            18.770882,
            60.059477
          ],
          [
            18.771341,
            60.059396
          ],
          [
            18.771461,
            60.059308
          ],
          [
            18.77177,
            60.058921
          ],
          [
            18.772131,
            60.058582
          ],
          [
            18.772131,
            60.058582
          ],
          [
            18.772291,
            60.058218
          ],
          [
            18.772626,
            60.05795
          ],
          [
            18.773897,
            60.057182
          ],
          [
            18.774153,
            60.056767
          ],
          [
            18.773989,
            60.056559
          ],
          [
            18.773601,
            60.056438
          ],
          [
            18.773281,
            60.056254
          ],
          [
            18.772931,
            60.055826
          ],
          [
            18.772722,
            60.055698
          ],
          [
            18.772391,
            60.055603
          ],
          [
            18.771936,
            60.055046
          ],
          [
            18.771517,
            60.054431
          ],
          [
            18.771517,
            60.054431
          ],
          [
            18.770108,
            60.054543
          ],
          [
            18.768417,
            60.054533
          ],
          [
            18.767649,
            60.054487
          ],
          [
            18.766734,
            60.054402
          ],
          [
            18.765229,
            60.054186
          ],
          [
            18.763052,
            60.053765
          ]
        ]
      }
    }
  ]
}
