{
  "type": "FeatureCollection",
  "features": [
    {
      "type": "Feature",
      "properties": {
        "trailId": "vikingaleden",
        "sectionId": "vikingaleden-etapp-4-haverodal-sanda",
        "candidateGeometry": true,
        "runtimeImportApproved": false,
        "sourceUrl": "https://www.naturkartan.se/sv/stockholms-lan/vikingaleden-etapp-4-haverodal-till-sanda.gpx",
        "source": "naturkartan_section_gpx",
        "classification": null,
        "sourceComputedDistanceKm": 14.893,
        "lineCount": 1,
        "pointCount": 219,
        "componentSelectionApplied": false,
        "selectedComponentIndexes": null,
        "reverseApplied": false,
        "densifyApplied": false,
        "buildPolicyNotes": null,
        "lastUpdated": "2026-04-30"
      },
      "geometry": {
        "type": "LineString",
        "coordinates": [
          [
            18.605292,
            60.026231
          ],
          [
            18.605231,
            60.026198
          ],
          [
            18.605076,
            60.026197
          ],
          [
            18.603369,
            60.024931
          ],
          [
            18.602386,
            60.025157
          ],
          [
            18.601489,
            60.024775
          ],
          [
            18.600754,
            60.024678
          ],
          [
            18.600754,
            60.024678
          ],
          [
            18.600131,
            60.024793
          ],
          [
            18.599454,
            60.025063
          ],
          [
            18.598183,
            60.025025
          ],
          [
            18.597624,
            60.02489
          ],
          [
            18.590279,
            60.027066
          ],
          [
            18.590279,
            60.027066
          ],
          [
            18.590225,
            60.027966
          ],
          [
            18.590541,
            60.028745
          ],
          [
            18.590672,
            60.030207
          ],
          [
            18.590568,
            60.030559
          ],
          [
            18.590161,
            60.030895
          ],
          [
            18.59015,
            60.031054
          ],
          [
            18.590563,
            60.031671
          ],
          [
            18.590563,
            60.031671
          ],
          [
            18.590405,
            60.032026
          ],
          [
            18.590049,
            60.03222
          ],
          [
            18.589227,
            60.032424
          ],
          [
            18.588544,
            60.032703
          ],
          [
            18.587984,
            60.033086
          ],
          [
            18.586867,
            60.034559
          ],
          [
            18.585799,
            60.035417
          ],
          [
            18.584897,
            60.035116
          ],
          [
            18.584897,
            60.035116
          ],
          [
            18.584532,
            60.035151
          ],
          [
            18.583597,
            60.03546
          ],
          [
            18.582548,
            60.035505
          ],
          [
            18.579748,
            60.035254
          ],
          [
            18.579748,
            60.035254
          ],
          [
            18.578224,
            60.035381
          ],
          [
            18.577151,
            60.035359
          ],
          [
            18.571374,
            60.041348
          ],
          [
            18.571374,
            60.041348
          ],
          [
            18.570741,
            60.041061
          ],
          [
            18.568997,
            60.040629
          ],
          [
            18.568545,
            60.040607
          ],
          [
            18.56789,
            60.040404
          ],
          [
            18.566851,
            60.040206
          ],
          [
            18.566467,
            60.040247
          ],
          [
            18.566467,
            60.040247
          ],
          [
            18.5655,
            60.040524
          ],
          [
            18.565134,
            60.040796
          ],
          [
            18.564226,
            60.040944
          ],
          [
            18.563122,
            60.042718
          ],
          [
            18.562441,
            60.042959
          ],
          [
            18.561764,
            60.043059
          ],
          [
            18.560744,
            60.04305
          ],
          [
            18.560325,
            60.042952
          ],
          [
            18.559423,
            60.042966
          ],
          [
            18.558197,
            60.043542
          ],
          [
            18.557812,
            60.04405
          ],
          [
            18.557671,
            60.04457
          ],
          [
            18.556775,
            60.04564
          ],
          [
            18.556515,
            60.045743
          ],
          [
            18.555864,
            60.04578
          ],
          [
            18.554512,
            60.045441
          ],
          [
            18.554033,
            60.045497
          ],
          [
            18.552777,
            60.04628
          ],
          [
            18.551844,
            60.047243
          ],
          [
            18.551844,
            60.047243
          ],
          [
            18.550815,
            60.047656
          ],
          [
            18.549141,
            60.047859
          ],
          [
            18.548258,
            60.04773
          ],
          [
            18.547194,
            60.047778
          ],
          [
            18.546273,
            60.047418
          ],
          [
            18.545876,
            60.047351
          ],
          [
            18.545511,
            60.047415
          ],
          [
            18.545295,
            60.04761
          ],
          [
            18.544023,
            60.047959
          ],
          [
            18.542102,
            60.048289
          ],
          [
            18.541293,
            60.048342
          ],
          [
            18.541293,
            60.048342
          ],
          [
            18.540346,
            60.048671
          ],
          [
            18.540187,
            60.048825
          ],
          [
            18.540284,
            60.04919
          ],
          [
            18.540046,
            60.049554
          ],
          [
            18.539776,
            60.049739
          ],
          [
            18.538872,
            60.050092
          ],
          [
            18.537699,
            60.051028
          ],
          [
            18.537527,
            60.051472
          ],
          [
            18.536046,
            60.051671
          ],
          [
            18.535804,
            60.051853
          ],
          [
            18.535796,
            60.05216
          ],
          [
            18.533763,
            60.053272
          ],
          [
            18.533763,
            60.053272
          ],
          [
            18.533516,
            60.053684
          ],
          [
            18.532594,
            60.053837
          ],
          [
            18.532194,
            60.054105
          ],
          [
            18.531889,
            60.055315
          ],
          [
            18.531167,
            60.056278
          ],
          [
            18.531211,
            60.056884
          ],
          [
            18.530738,
            60.057217
          ],
          [
            18.530596,
            60.057516
          ],
          [
            18.531078,
            60.05845
          ],
          [
            18.530227,
            60.059255
          ],
          [
            18.529949,
            60.059742
          ],
          [
            18.529099,
            60.060638
          ],
          [
            18.529044,
            60.060907
          ],
          [
            18.528742,
            60.061203
          ],
          [
            18.528742,
            60.061203
          ],
          [
            18.527775,
            60.061734
          ],
          [
            18.527369,
            60.062139
          ],
          [
            18.526522,
            60.064151
          ],
          [
            18.526725,
            60.064932
          ],
          [
            18.527301,
            60.065762
          ],
          [
            18.52783,
            60.065933
          ],
          [
            18.528074,
            60.066124
          ],
          [
            18.52824,
            60.067171
          ],
          [
            18.528824,
            60.067549
          ],
          [
            18.529152,
            60.068062
          ],
          [
            18.529063,
            60.06823
          ],
          [
            18.528454,
            60.068451
          ],
          [
            18.528342,
            60.068786
          ],
          [
            18.528605,
            60.069114
          ],
          [
            18.528417,
            60.069721
          ],
          [
            18.528487,
            60.070471
          ],
          [
            18.527927,
            60.071316
          ],
          [
            18.528011,
            60.071642
          ],
          [
            18.527743,
            60.071892
          ],
          [
            18.527741,
            60.07279
          ],
          [
            18.528059,
            60.073318
          ],
          [
            18.527988,
            60.07373
          ],
          [
            18.528157,
            60.074089
          ],
          [
            18.528049,
            60.074417
          ],
          [
            18.52741,
            60.074847
          ],
          [
            18.52741,
            60.074847
          ],
          [
            18.526763,
            60.075045
          ],
          [
            18.525934,
            60.075175
          ],
          [
            18.525414,
            60.075433
          ],
          [
            18.52437,
            60.076295
          ],
          [
            18.524444,
            60.076769
          ],
          [
            18.523789,
            60.077269
          ],
          [
            18.523331,
            60.077874
          ],
          [
            18.521376,
            60.078693
          ],
          [
            18.521284,
            60.078809
          ],
          [
            18.521284,
            60.078809
          ],
          [
            18.521339,
            60.079346
          ],
          [
            18.520991,
            60.079799
          ],
          [
            18.520819,
            60.081063
          ],
          [
            18.519757,
            60.08162
          ],
          [
            18.519244,
            60.082712
          ],
          [
            18.519244,
            60.082712
          ],
          [
            18.519042,
            60.082903
          ],
          [
            18.518424,
            60.083194
          ],
          [
            18.517033,
            60.083675
          ],
          [
            18.515482,
            60.084769
          ],
          [
            18.514776,
            60.084929
          ],
          [
            18.513779,
            60.084994
          ],
          [
            18.512565,
            60.085483
          ],
          [
            18.511236,
            60.085769
          ],
          [
            18.511236,
            60.085769
          ],
          [
            18.510691,
            60.086013
          ],
          [
            18.509999,
            60.086102
          ],
          [
            18.509429,
            60.086063
          ],
          [
            18.508207,
            60.085585
          ],
          [
            18.50714,
            60.085492
          ],
          [
            18.506058,
            60.085655
          ],
          [
            18.505338,
            60.085616
          ],
          [
            18.503917,
            60.085385
          ],
          [
            18.501652,
            60.08531
          ],
          [
            18.501652,
            60.08531
          ],
          [
            18.500947,
            60.085104
          ],
          [
            18.499391,
            60.085117
          ],
          [
            18.497265,
            60.086209
          ],
          [
            18.496782,
            60.086636
          ],
          [
            18.495318,
            60.086936
          ],
          [
            18.494745,
            60.08732
          ],
          [
            18.492367,
            60.087162
          ],
          [
            18.490447,
            60.087408
          ],
          [
            18.489677,
            60.087707
          ],
          [
            18.487048,
            60.088067
          ],
          [
            18.486507,
            60.088259
          ],
          [
            18.485934,
            60.088219
          ],
          [
            18.4838,
            60.089214
          ],
          [
            18.483097,
            60.0897
          ],
          [
            18.481373,
            60.089798
          ],
          [
            18.481178,
            60.090197
          ],
          [
            18.480228,
            60.090763
          ],
          [
            18.478424,
            60.09111
          ],
          [
            18.476726,
            60.091542
          ],
          [
            18.475523,
            60.09221
          ],
          [
            18.47458,
            60.092376
          ],
          [
            18.472667,
            60.092968
          ],
          [
            18.470877,
            60.093255
          ],
          [
            18.470154,
            60.093218
          ],
          [
            18.468848,
            60.093399
          ],
          [
            18.468161,
            60.093647
          ],
          [
            18.466858,
            60.093721
          ],
          [
            18.465843,
            60.094032
          ],
          [
            18.465843,
            60.094032
          ],
          [
            18.465635,
            60.094215
          ],
          [
            18.465889,
            60.094933
          ],
          [
            18.465591,
            60.095443
          ],
          [
            18.46471,
            60.095951
          ],
          [
            18.464054,
            60.096167
          ],
          [
            18.462846,
            60.096327
          ],
          [
            18.462447,
            60.09645
          ],
          [
            18.461866,
            60.097669
          ],
          [
            18.459623,
            60.098821
          ],
          [
            18.459623,
            60.098821
          ],
          [
            18.459399,
            60.099052
          ],
          [
            18.459252,
            60.100231
          ],
          [
            18.459502,
            60.100577
          ],
          [
            18.460024,
            60.100977
          ],
          [
            18.460028,
            60.102236
          ],
          [
            18.459311,
            60.10295
          ],
          [
            18.459511,
            60.103063
          ],
          [
            18.459616,
            60.103294
          ],
          [
            18.459706,
            60.103636
          ],
          [
            18.459659,
            60.104238
          ],
          [
            18.460044,
            60.104886
          ],
          [
            18.460012,
            60.10489
          ]
        ]
      }
    }
  ]
}
