{
  "type": "Feature",
  "properties": {
    "schemaVersion": "candidate-kungsleden-geometry/v1",
    "trailId": "kungsleden",
    "sectionId": "kungsleden-section-18-jackvik-adolfstrom",
    "sectionNumber": 18,
    "name": "Jäckvik-Adolfström",
    "from": "Jäckvik",
    "to": "Adolfström",
    "source": "Naturvardsverket/Lansstyrelsen Leder WFS official state-trail geometry",
    "sourceCrs": "EPSG:3006",
    "outputCrs": "EPSG:4326",
    "generatedAt": "2026-04-30",
    "simplificationToleranceMeters": 5,
    "runtimeImportApproved": false
  },
  "geometry": {
    "type": "LineString",
    "coordinates": [
      [
        16.9577285,
        66.3838776
      ],
      [
        16.9556153,
        66.3830055
      ],
      [
        16.9545524,
        66.3822779
      ],
      [
        16.9531787,
        66.3816204
      ],
      [
        16.9527125,
        66.3812476
      ],
      [
        16.9522677,
        66.3810995
      ],
      [
        16.9517968,
        66.3810498
      ],
      [
        16.9506412,
        66.3810601
      ],
      [
        16.9490625,
        66.3809138
      ],
      [
        16.9482459,
        66.3804169
      ],
      [
        16.9478743,
        66.3802853
      ],
      [
        16.9467677,
        66.3801771
      ],
      [
        16.9466669,
        66.3799847
      ],
      [
        16.9456526,
        66.3796831
      ],
      [
        16.9456556,
        66.3794652
      ],
      [
        16.9462276,
        66.3791637
      ],
      [
        16.9462778,
        66.3789808
      ],
      [
        16.945502,
        66.3785715
      ],
      [
        16.9448026,
        66.3783796
      ],
      [
        16.9442928,
        66.378017
      ],
      [
        16.943732,
        66.3777958
      ],
      [
        16.9435991,
        66.3775579
      ],
      [
        16.9425619,
        66.3767345
      ],
      [
        16.9419788,
        66.3765138
      ],
      [
        16.9406575,
        66.3762472
      ],
      [
        16.940429,
        66.3761137
      ],
      [
        16.9396706,
        66.3759266
      ],
      [
        16.9384884,
        66.3753473
      ],
      [
        16.9373972,
        66.3753422
      ],
      [
        16.9365851,
        66.3750759
      ],
      [
        16.9355521,
        66.3749587
      ],
      [
        16.9343767,
        66.3745203
      ],
      [
        16.9319628,
        66.3739817
      ],
      [
        16.9310557,
        66.3735695
      ],
      [
        16.9303562,
        66.3730336
      ],
      [
        16.9298322,
        66.3729148
      ],
      [
        16.9280724,
        66.3720361
      ],
      [
        16.9264386,
        66.3705629
      ],
      [
        16.9251671,
        66.3701169
      ],
      [
        16.9235615,
        66.3696941
      ],
      [
        16.9229065,
        66.3693463
      ],
      [
        16.9223628,
        66.368521
      ],
      [
        16.9210676,
        66.3681178
      ],
      [
        16.9204656,
        66.367788
      ],
      [
        16.9197016,
        66.3670535
      ],
      [
        16.9197326,
        66.3664374
      ],
      [
        16.9185613,
        66.3654168
      ],
      [
        16.9159589,
        66.3646703
      ],
      [
        16.9142346,
        66.3640722
      ],
      [
        16.9125357,
        66.3633384
      ],
      [
        16.9117511,
        66.3631634
      ],
      [
        16.9099794,
        66.3625627
      ],
      [
        16.9045788,
        66.3612238
      ],
      [
        16.9025224,
        66.3605882
      ],
      [
        16.9015938,
        66.3604633
      ],
      [
        16.9005846,
        66.3605533
      ],
      [
        16.8984538,
        66.3605302
      ],
      [
        16.8969633,
        66.3603891
      ],
      [
        16.8946373,
        66.3599643
      ],
      [
        16.8936585,
        66.3597095
      ],
      [
        16.8928521,
        66.3593873
      ],
      [
        16.8913849,
        66.3590512
      ],
      [
        16.8888086,
        66.358214
      ],
      [
        16.8874196,
        66.3581503
      ],
      [
        16.885371,
        66.3581974
      ],
      [
        16.8814653,
        66.3578143
      ],
      [
        16.8792005,
        66.357723
      ],
      [
        16.8760301,
        66.3573491
      ],
      [
        16.8741995,
        66.3570417
      ],
      [
        16.870985,
        66.3561653
      ],
      [
        16.8669818,
        66.3554025
      ],
      [
        16.8610693,
        66.3552502
      ],
      [
        16.8591409,
        66.35506
      ],
      [
        16.8575768,
        66.3546357
      ],
      [
        16.8558931,
        66.3543641
      ],
      [
        16.851768,
        66.3533459
      ],
      [
        16.848523,
        66.3530213
      ],
      [
        16.8473261,
        66.3526849
      ],
      [
        16.846306,
        66.3525208
      ],
      [
        16.8454947,
        66.3521287
      ],
      [
        16.8437432,
        66.3517161
      ],
      [
        16.8432409,
        66.3515119
      ],
      [
        16.8425518,
        66.3514738
      ],
      [
        16.8409006,
        66.3515874
      ],
      [
        16.840016,
        66.351874
      ],
      [
        16.8387113,
        66.3521016
      ],
      [
        16.8364997,
        66.352042
      ],
      [
        16.835943,
        66.3519095
      ],
      [
        16.8355539,
        66.3514929
      ],
      [
        16.8350062,
        66.3512551
      ],
      [
        16.8343986,
        66.3507848
      ],
      [
        16.8337435,
        66.3507494
      ],
      [
        16.8331868,
        66.3505955
      ],
      [
        16.8325453,
        66.3505819
      ],
      [
        16.8311006,
        66.3503571
      ],
      [
        16.829955,
        66.3499741
      ],
      [
        16.8294836,
        66.3499787
      ],
      [
        16.826154,
        66.3496146
      ],
      [
        16.8254282,
        66.3496858
      ],
      [
        16.8236384,
        66.3495435
      ],
      [
        16.8227499,
        66.3493108
      ],
      [
        16.8226434,
        66.3491897
      ],
      [
        16.820836,
        66.3487644
      ],
      [
        16.8202538,
        66.3484724
      ],
      [
        16.8194022,
        66.3482476
      ],
      [
        16.8191554,
        66.3478047
      ],
      [
        16.8181444,
        66.3475103
      ],
      [
        16.8174336,
        66.3470197
      ],
      [
        16.8174169,
        66.3468911
      ],
      [
        16.8169616,
        66.3466835
      ],
      [
        16.816775,
        66.3463757
      ],
      [
        16.8157239,
        66.3462489
      ],
      [
        16.8138933,
        66.3458512
      ],
      [
        16.8130345,
        66.3455081
      ],
      [
        16.8120162,
        66.3454345
      ],
      [
        16.8110668,
        66.3450106
      ],
      [
        16.8102025,
        66.3450473
      ],
      [
        16.8098506,
        66.3449442
      ],
      [
        16.8087678,
        66.3448952
      ],
      [
        16.8082926,
        66.3447236
      ],
      [
        16.808279,
        66.3446187
      ],
      [
        16.8068636,
        66.3443872
      ],
      [
        16.8065038,
        66.3440467
      ],
      [
        16.8065208,
        66.3438669
      ],
      [
        16.8060218,
        66.3434692
      ],
      [
        16.8065242,
        66.343284
      ],
      [
        16.8063035,
        66.3429094
      ],
      [
        16.8062832,
        66.3421344
      ],
      [
        16.8058758,
        66.3415515
      ],
      [
        16.8054074,
        66.3413798
      ],
      [
        16.8048508,
        66.3413526
      ],
      [
        16.802795,
        66.3409206
      ],
      [
        16.8003998,
        66.3405871
      ],
      [
        16.799318,
        66.3403419
      ],
      [
        16.7975393,
        66.339654
      ],
      [
        16.795686,
        66.3394769
      ],
      [
        16.7945896,
        66.3389388
      ],
      [
        16.7923523,
        66.3384071
      ],
      [
        16.7895524,
        66.3372837
      ],
      [
        16.7890568,
        66.3365466
      ],
      [
        16.7884798,
        66.3363
      ],
      [
        16.7879605,
        66.3358436
      ],
      [
        16.7873155,
        66.3357088
      ],
      [
        16.7871153,
        66.3355861
      ],
      [
        16.7860936,
        66.3354036
      ],
      [
        16.7849836,
        66.334907
      ],
      [
        16.783622,
        66.3346893
      ],
      [
        16.7834841,
        66.3346148
      ],
      [
        16.7837069,
        66.3341252
      ],
      [
        16.7835531,
        66.333991
      ],
      [
        16.7828583,
        66.3338207
      ],
      [
        16.7824711,
        66.3335546
      ],
      [
        16.7811134,
        66.3333928
      ],
      [
        16.7791139,
        66.3333098
      ],
      [
        16.7780956,
        66.3331969
      ],
      [
        16.7775918,
        66.3329265
      ],
      [
        16.7762765,
        66.3325625
      ],
      [
        16.7721555,
        66.3324496
      ],
      [
        16.7703947,
        66.3322687
      ],
      [
        16.7701242,
        66.3322154
      ],
      [
        16.769509,
        66.3316257
      ],
      [
        16.7674034,
        66.3315703
      ],
      [
        16.7668518,
        66.3314383
      ],
      [
        16.7667298,
        66.331317
      ],
      [
        16.7668412,
        66.3310955
      ],
      [
        16.7674458,
        66.3306612
      ],
      [
        16.7676142,
        66.3303206
      ],
      [
        16.7684694,
        66.3295093
      ],
      [
        16.7691165,
        66.3293602
      ],
      [
        16.7693445,
        66.3288513
      ],
      [
        16.7691946,
        66.3286554
      ],
      [
        16.769737,
        66.3278803
      ],
      [
        16.7700818,
        66.3276375
      ],
      [
        16.7700499,
        66.3267176
      ],
      [
        16.7703151,
        66.3264301
      ],
      [
        16.770225,
        66.3259616
      ],
      [
        16.7699651,
        66.3257444
      ],
      [
        16.7692544,
        66.3255144
      ],
      [
        16.7692862,
        66.3250821
      ],
      [
        16.768724,
        66.3245688
      ],
      [
        16.7689043,
        66.3242621
      ],
      [
        16.7687824,
        66.3239128
      ],
      [
        16.7691184,
        66.3233036
      ],
      [
        16.7689792,
        66.3229533
      ],
      [
        16.7694001,
        66.3223685
      ],
      [
        16.7693424,
        66.3222336
      ],
      [
        16.7696072,
        66.3220577
      ],
      [
        16.7693764,
        66.3207886
      ],
      [
        16.7687247,
        66.3203715
      ],
      [
        16.7688095,
        66.3200443
      ],
      [
        16.7685176,
        66.3196435
      ],
      [
        16.7686126,
        66.3188064
      ],
      [
        16.7683411,
        66.3184165
      ],
      [
        16.7679711,
        66.318257
      ],
      [
        16.7668591,
        66.3181557
      ],
      [
        16.7659545,
        66.317428
      ],
      [
        16.7651295,
        66.3172114
      ],
      [
        16.7646267,
        66.3166513
      ],
      [
        16.763107,
        66.3158805
      ],
      [
        16.7627133,
        66.3155219
      ],
      [
        16.7626914,
        66.3152176
      ],
      [
        16.7624521,
        66.3149636
      ],
      [
        16.7615698,
        66.3144331
      ],
      [
        16.7603338,
        66.3142102
      ],
      [
        16.7603813,
        66.3138325
      ],
      [
        16.7595226,
        66.3136852
      ],
      [
        16.7590819,
        66.3134705
      ],
      [
        16.7593577,
        66.3129144
      ],
      [
        16.7590342,
        66.3126459
      ],
      [
        16.7583278,
        66.3125871
      ],
      [
        16.7574566,
        66.3126613
      ],
      [
        16.7570306,
        66.312602
      ],
      [
        16.7560979,
        66.3123056
      ],
      [
        16.7555384,
        66.3122493
      ],
      [
        16.7551678,
        66.3119662
      ],
      [
        16.7547435,
        66.3119215
      ],
      [
        16.7538101,
        66.3120344
      ],
      [
        16.7529085,
        66.3120451
      ],
      [
        16.7515642,
        66.3124855
      ],
      [
        16.751084,
        66.3125351
      ],
      [
        16.7502566,
        66.3123604
      ],
      [
        16.7494823,
        66.3119918
      ],
      [
        16.7477558,
        66.3114877
      ],
      [
        16.7464529,
        66.311336
      ],
      [
        16.7447313,
        66.3114477
      ],
      [
        16.7437326,
        66.3116078
      ],
      [
        16.742802,
        66.3115879
      ],
      [
        16.7411396,
        66.3109967
      ],
      [
        16.7392515,
        66.3106302
      ],
      [
        16.7382279,
        66.3102615
      ],
      [
        16.7364803,
        66.3098452
      ],
      [
        16.7356997,
        66.3094953
      ],
      [
        16.7343091,
        66.3090827
      ],
      [
        16.7334473,
        66.3082269
      ],
      [
        16.7327512,
        66.3077608
      ],
      [
        16.7315661,
        66.3076142
      ],
      [
        16.7298839,
        66.307188
      ],
      [
        16.7277873,
        66.3070182
      ],
      [
        16.7241658,
        66.3063988
      ],
      [
        16.7231963,
        66.3061624
      ],
      [
        16.7230222,
        66.3058926
      ],
      [
        16.7212737,
        66.305503
      ],
      [
        16.7203124,
        66.3051333
      ],
      [
        16.7190776,
        66.3049035
      ],
      [
        16.7185555,
        66.3047104
      ],
      [
        16.7175031,
        66.3045971
      ],
      [
        16.7171799,
        66.3044639
      ],
      [
        16.7162932,
        66.304424
      ],
      [
        16.7150087,
        66.3040177
      ],
      [
        16.712332,
        66.3037646
      ],
      [
        16.7112298,
        66.3037579
      ],
      [
        16.7090504,
        66.3035914
      ],
      [
        16.7073764,
        66.3033083
      ],
      [
        16.7065974,
        66.3029952
      ],
      [
        16.7043434,
        66.302792
      ],
      [
        16.7033241,
        66.3025789
      ],
      [
        16.7008628,
        66.3023091
      ],
      [
        16.7004567,
        66.3021925
      ],
      [
        16.6984264,
        66.3021892
      ],
      [
        16.6965287,
        66.3019427
      ],
      [
        16.6954763,
        66.3017096
      ],
      [
        16.6951237,
        66.3014712
      ],
      [
        16.6940164,
        66.3014529
      ],
      [
        16.6933747,
        66.3013186
      ],
      [
        16.693014,
        66.3012013
      ],
      [
        16.6928708,
        66.3010308
      ],
      [
        16.6914601,
        66.3005916
      ],
      [
        16.6909933,
        66.3005362
      ],
      [
        16.6889408,
        66.3004701
      ],
      [
        16.6883362,
        66.3005661
      ],
      [
        16.687005,
        66.300436
      ],
      [
        16.6862412,
        66.3005106
      ],
      [
        16.6854881,
        66.3004914
      ],
      [
        16.6830431,
        66.3002548
      ],
      [
        16.6809004,
        66.3001759
      ],
      [
        16.6789471,
        66.2999362
      ],
      [
        16.6777329,
        66.2994077
      ],
      [
        16.6764697,
        66.2991507
      ],
      [
        16.6766206,
        66.2978847
      ],
      [
        16.6755025,
        66.2965054
      ],
      [
        16.6742891,
        66.2957287
      ],
      [
        16.673716,
        66.2950405
      ],
      [
        16.6735931,
        66.2938313
      ],
      [
        16.6743796,
        66.292134
      ],
      [
        16.6743024,
        66.2918836
      ],
      [
        16.6739366,
        66.2916296
      ],
      [
        16.6741022,
        66.2911135
      ],
      [
        16.6740032,
        66.2906526
      ],
      [
        16.6725463,
        66.2895364
      ],
      [
        16.6725234,
        66.2891893
      ],
      [
        16.6715959,
        66.2884857
      ],
      [
        16.6702212,
        66.2879171
      ],
      [
        16.6700721,
        66.2875982
      ],
      [
        16.6692302,
        66.287238
      ],
      [
        16.6685471,
        66.2868075
      ],
      [
        16.6680864,
        66.2858669
      ],
      [
        16.6675176,
        66.2853571
      ],
      [
        16.6663622,
        66.2851121
      ],
      [
        16.6649861,
        66.2851239
      ],
      [
        16.66384,
        66.2849512
      ],
      [
        16.6633293,
        66.2849936
      ],
      [
        16.6630214,
        66.284855
      ],
      [
        16.6630292,
        66.2846027
      ],
      [
        16.6639843,
        66.2835737
      ],
      [
        16.6639916,
        66.2830881
      ],
      [
        16.6637521,
        66.2827745
      ],
      [
        16.6637065,
        66.2823195
      ],
      [
        16.6633562,
        66.2818259
      ],
      [
        16.6624824,
        66.2813309
      ],
      [
        16.6623517,
        66.2810306
      ],
      [
        16.6620462,
        66.2808493
      ],
      [
        16.662315,
        66.2803631
      ],
      [
        16.6611688,
        66.2796119
      ],
      [
        16.6612039,
        66.2794458
      ],
      [
        16.660229,
        66.2783122
      ],
      [
        16.6600828,
        66.2777724
      ]
    ]
  }
}
