{
  "type": "FeatureCollection",
  "features": [
    {
      "type": "Feature",
      "properties": {
        "trailId": "hoglandsleden",
        "sectionId": "hoglandsleden-ho07-hogarps-kulturreservat-lemnhult",
        "candidateGeometry": true,
        "runtimeImportApproved": false,
        "sourceUrl": "https://www.naturkartan.se/sv/jonkopings-lan/ho7-hogarps-kulturreservat-lemnhult.gpx",
        "source": "official GPX",
        "classification": "navigation-grade",
        "sourceComputedDistanceKm": 21.664,
        "lineCount": 1,
        "pointCount": 770,
        "componentSelectionApplied": false,
        "selectedComponentIndexes": null,
        "reverseApplied": false,
        "densifyApplied": false,
        "buildPolicyNotes": null,
        "lastUpdated": "2026-04-30"
      },
      "geometry": {
        "type": "LineString",
        "coordinates": [
          [
            15.493296,
            57.334852
          ],
          [
            15.4933,
            57.33474
          ],
          [
            15.49315,
            57.33449
          ],
          [
            15.49305,
            57.33429
          ],
          [
            15.49301,
            57.33414
          ],
          [
            15.493,
            57.33395
          ],
          [
            15.49301,
            57.33376
          ],
          [
            15.49305,
            57.33365
          ],
          [
            15.49314,
            57.33346
          ],
          [
            15.49326,
            57.3333
          ],
          [
            15.49333,
            57.33315
          ],
          [
            15.49337,
            57.33301
          ],
          [
            15.49338,
            57.33284
          ],
          [
            15.49338,
            57.33237
          ],
          [
            15.49346,
            57.33211
          ],
          [
            15.49369,
            57.33177
          ],
          [
            15.49382,
            57.33164
          ],
          [
            15.49385,
            57.33154
          ],
          [
            15.49383,
            57.33143
          ],
          [
            15.49379,
            57.33135
          ],
          [
            15.49365,
            57.33113
          ],
          [
            15.49351,
            57.33091
          ],
          [
            15.49344,
            57.3308
          ],
          [
            15.49334,
            57.33071
          ],
          [
            15.49319,
            57.33061
          ],
          [
            15.49286,
            57.33041
          ],
          [
            15.49237,
            57.33043
          ],
          [
            15.49197,
            57.33041
          ],
          [
            15.4913,
            57.33033
          ],
          [
            15.49071,
            57.33023
          ],
          [
            15.4898,
            57.33005
          ],
          [
            15.48901,
            57.32988
          ],
          [
            15.48853,
            57.32975
          ],
          [
            15.48827,
            57.32967
          ],
          [
            15.488,
            57.32956
          ],
          [
            15.48777,
            57.32944
          ],
          [
            15.48744,
            57.32925
          ],
          [
            15.48689,
            57.32889
          ],
          [
            15.48666,
            57.32873
          ],
          [
            15.4861,
            57.32829
          ],
          [
            15.48566,
            57.32796
          ],
          [
            15.48518,
            57.32769
          ],
          [
            15.4849,
            57.32756
          ],
          [
            15.48451,
            57.32743
          ],
          [
            15.48393,
            57.32724
          ],
          [
            15.48331,
            57.32702
          ],
          [
            15.48275,
            57.32685
          ],
          [
            15.48246,
            57.32676
          ],
          [
            15.48219,
            57.32659
          ],
          [
            15.48203,
            57.32639
          ],
          [
            15.48181,
            57.32606
          ],
          [
            15.48153,
            57.32567
          ],
          [
            15.48123,
            57.32527
          ],
          [
            15.48111,
            57.32507
          ],
          [
            15.48091,
            57.32473
          ],
          [
            15.48075,
            57.3245
          ],
          [
            15.48054,
            57.32426
          ],
          [
            15.47977,
            57.32364
          ],
          [
            15.47964,
            57.32368
          ],
          [
            15.47924,
            57.32375
          ],
          [
            15.47856,
            57.32384
          ],
          [
            15.47813,
            57.32389
          ],
          [
            15.47736,
            57.3239
          ],
          [
            15.47701,
            57.32392
          ],
          [
            15.47667,
            57.32398
          ],
          [
            15.47609,
            57.3242
          ],
          [
            15.47571,
            57.32425
          ],
          [
            15.47539,
            57.32424
          ],
          [
            15.47498,
            57.32416
          ],
          [
            15.47425,
            57.32402
          ],
          [
            15.47407,
            57.32395
          ],
          [
            15.47368,
            57.32408
          ],
          [
            15.47322,
            57.32418
          ],
          [
            15.47278,
            57.32425
          ],
          [
            15.47212,
            57.32434
          ],
          [
            15.47131,
            57.32441
          ],
          [
            15.47027,
            57.32449
          ],
          [
            15.46888,
            57.32457
          ],
          [
            15.46825,
            57.3246
          ],
          [
            15.46681,
            57.32465
          ],
          [
            15.46613,
            57.3247
          ],
          [
            15.46481,
            57.32483
          ],
          [
            15.46435,
            57.32484
          ],
          [
            15.46417,
            57.32482
          ],
          [
            15.46335,
            57.32466
          ],
          [
            15.46288,
            57.3246
          ],
          [
            15.46209,
            57.32458
          ],
          [
            15.46157,
            57.32456
          ],
          [
            15.46126,
            57.32458
          ],
          [
            15.46099,
            57.32461
          ],
          [
            15.46015,
            57.32481
          ],
          [
            15.45894,
            57.32507
          ],
          [
            15.45788,
            57.3252
          ],
          [
            15.45691,
            57.32524
          ],
          [
            15.45661,
            57.32523
          ],
          [
            15.4557,
            57.32521
          ],
          [
            15.4552,
            57.32529
          ],
          [
            15.45385,
            57.32553
          ],
          [
            15.45353,
            57.32558
          ],
          [
            15.45321,
            57.32554
          ],
          [
            15.45279,
            57.32546
          ],
          [
            15.45227,
            57.32535
          ],
          [
            15.45143,
            57.32517
          ],
          [
            15.45119,
            57.32514
          ],
          [
            15.45088,
            57.32514
          ],
          [
            15.45051,
            57.32507
          ],
          [
            15.44906,
            57.32473
          ],
          [
            15.44867,
            57.32462
          ],
          [
            15.44795,
            57.32424
          ],
          [
            15.44742,
            57.32401
          ],
          [
            15.44705,
            57.32392
          ],
          [
            15.44609,
            57.32378
          ],
          [
            15.4459,
            57.32371
          ],
          [
            15.44553,
            57.32353
          ],
          [
            15.44508,
            57.32323
          ],
          [
            15.44483,
            57.32309
          ],
          [
            15.4445,
            57.32299
          ],
          [
            15.44404,
            57.32294
          ],
          [
            15.44318,
            57.32283
          ],
          [
            15.44211,
            57.3227
          ],
          [
            15.44063,
            57.32257
          ],
          [
            15.44024,
            57.32259
          ],
          [
            15.43976,
            57.32268
          ],
          [
            15.43904,
            57.32288
          ],
          [
            15.43852,
            57.32295
          ],
          [
            15.43804,
            57.32294
          ],
          [
            15.43769,
            57.32293
          ],
          [
            15.43644,
            57.32292
          ],
          [
            15.43638,
            57.32249
          ],
          [
            15.43636,
            57.3224
          ],
          [
            15.43563,
            57.32167
          ],
          [
            15.43561,
            57.32165
          ],
          [
            15.43561,
            57.32157
          ],
          [
            15.43529,
            57.32113
          ],
          [
            15.43505,
            57.32083
          ],
          [
            15.43481,
            57.32051
          ],
          [
            15.43471,
            57.32015
          ],
          [
            15.43451,
            57.31962
          ],
          [
            15.43438,
            57.31957
          ],
          [
            15.43405,
            57.31957
          ],
          [
            15.43386,
            57.31953
          ],
          [
            15.43375,
            57.31935
          ],
          [
            15.4337,
            57.31904
          ],
          [
            15.43342,
            57.3192
          ],
          [
            15.43285,
            57.31949
          ],
          [
            15.43168,
            57.3201
          ],
          [
            15.43122,
            57.32033
          ],
          [
            15.43055,
            57.32063
          ],
          [
            15.42919,
            57.32131
          ],
          [
            15.42836,
            57.3218
          ],
          [
            15.42819,
            57.32197
          ],
          [
            15.42752,
            57.32196
          ],
          [
            15.42676,
            57.32196
          ],
          [
            15.42617,
            57.32217
          ],
          [
            15.4254,
            57.32259
          ],
          [
            15.42505,
            57.32273
          ],
          [
            15.42427,
            57.32297
          ],
          [
            15.42313,
            57.32327
          ],
          [
            15.42184,
            57.32345
          ],
          [
            15.42136,
            57.32339
          ],
          [
            15.42108,
            57.32329
          ],
          [
            15.42072,
            57.32305
          ],
          [
            15.42059,
            57.32296
          ],
          [
            15.42045,
            57.32288
          ],
          [
            15.41998,
            57.32269
          ],
          [
            15.41964,
            57.32257
          ],
          [
            15.41923,
            57.32245
          ],
          [
            15.41922,
            57.32245
          ],
          [
            15.419,
            57.32239
          ],
          [
            15.41861,
            57.32229
          ],
          [
            15.41802,
            57.32216
          ],
          [
            15.41753,
            57.32207
          ],
          [
            15.41702,
            57.322
          ],
          [
            15.41641,
            57.32195
          ],
          [
            15.41575,
            57.3219
          ],
          [
            15.41482,
            57.32183
          ],
          [
            15.41409,
            57.32179
          ],
          [
            15.41373,
            57.32177
          ],
          [
            15.41334,
            57.32178
          ],
          [
            15.41274,
            57.32181
          ],
          [
            15.41192,
            57.32189
          ],
          [
            15.41133,
            57.32194
          ],
          [
            15.41014,
            57.32208
          ],
          [
            15.40963,
            57.32213
          ],
          [
            15.40927,
            57.32216
          ],
          [
            15.4087,
            57.32218
          ],
          [
            15.40821,
            57.32218
          ],
          [
            15.40772,
            57.32216
          ],
          [
            15.4073,
            57.32212
          ],
          [
            15.40692,
            57.32207
          ],
          [
            15.40649,
            57.322
          ],
          [
            15.40602,
            57.32191
          ],
          [
            15.4056,
            57.3218
          ],
          [
            15.40516,
            57.32169
          ],
          [
            15.4047,
            57.32157
          ],
          [
            15.40422,
            57.32146
          ],
          [
            15.40386,
            57.32137
          ],
          [
            15.40337,
            57.32126
          ],
          [
            15.40289,
            57.32115
          ],
          [
            15.40238,
            57.32107
          ],
          [
            15.40191,
            57.32101
          ],
          [
            15.4012,
            57.32092
          ],
          [
            15.40036,
            57.32083
          ],
          [
            15.39965,
            57.32075
          ],
          [
            15.39891,
            57.32067
          ],
          [
            15.39837,
            57.32062
          ],
          [
            15.39791,
            57.32057
          ],
          [
            15.39739,
            57.32053
          ],
          [
            15.39694,
            57.32052
          ],
          [
            15.39643,
            57.32052
          ],
          [
            15.39593,
            57.32056
          ],
          [
            15.39547,
            57.32061
          ],
          [
            15.395,
            57.32067
          ],
          [
            15.3946,
            57.32075
          ],
          [
            15.39402,
            57.32088
          ],
          [
            15.39358,
            57.32101
          ],
          [
            15.39316,
            57.32115
          ],
          [
            15.39282,
            57.32129
          ],
          [
            15.39247,
            57.32144
          ],
          [
            15.39211,
            57.32162
          ],
          [
            15.39172,
            57.32185
          ],
          [
            15.39096,
            57.32235
          ],
          [
            15.39013,
            57.32289
          ],
          [
            15.38936,
            57.3234
          ],
          [
            15.38885,
            57.32373
          ],
          [
            15.3884,
            57.32402
          ],
          [
            15.38791,
            57.32435
          ],
          [
            15.38739,
            57.32409
          ],
          [
            15.38695,
            57.32386
          ],
          [
            15.38656,
            57.32363
          ],
          [
            15.3863,
            57.32344
          ],
          [
            15.38613,
            57.32319
          ],
          [
            15.38601,
            57.32299
          ],
          [
            15.38581,
            57.32264
          ],
          [
            15.38563,
            57.32231
          ],
          [
            15.38556,
            57.32208
          ],
          [
            15.38564,
            57.32169
          ],
          [
            15.38569,
            57.3214
          ],
          [
            15.38577,
            57.32091
          ],
          [
            15.38587,
            57.32044
          ],
          [
            15.38595,
            57.31995
          ],
          [
            15.38603,
            57.31947
          ],
          [
            15.38606,
            57.31902
          ],
          [
            15.38608,
            57.3185
          ],
          [
            15.38595,
            57.31844
          ],
          [
            15.3859,
            57.3183
          ],
          [
            15.38581,
            57.31809
          ],
          [
            15.38573,
            57.31795
          ],
          [
            15.38567,
            57.31779
          ],
          [
            15.38554,
            57.31761
          ],
          [
            15.38527,
            57.31733
          ],
          [
            15.38521,
            57.31717
          ],
          [
            15.38522,
            57.31701
          ],
          [
            15.38529,
            57.31687
          ],
          [
            15.38552,
            57.31655
          ],
          [
            15.38595,
            57.31628
          ],
          [
            15.38603,
            57.3162
          ],
          [
            15.38602,
            57.31614
          ],
          [
            15.38581,
            57.31598
          ],
          [
            15.38568,
            57.31582
          ],
          [
            15.38558,
            57.31554
          ],
          [
            15.38542,
            57.31526
          ],
          [
            15.38522,
            57.31511
          ],
          [
            15.38487,
            57.31495
          ],
          [
            15.38441,
            57.31479
          ],
          [
            15.3839,
            57.31467
          ],
          [
            15.38328,
            57.31452
          ],
          [
            15.38308,
            57.31445
          ],
          [
            15.38281,
            57.31434
          ],
          [
            15.38249,
            57.3142
          ],
          [
            15.38205,
            57.314
          ],
          [
            15.38177,
            57.31395
          ],
          [
            15.38151,
            57.31399
          ],
          [
            15.38137,
            57.31393
          ],
          [
            15.38117,
            57.31384
          ],
          [
            15.38116,
            57.31376
          ],
          [
            15.38104,
            57.31365
          ],
          [
            15.38088,
            57.31356
          ],
          [
            15.38063,
            57.31348
          ],
          [
            15.37983,
            57.31322
          ],
          [
            15.37916,
            57.31308
          ],
          [
            15.37874,
            57.31297
          ],
          [
            15.37846,
            57.31286
          ],
          [
            15.37831,
            57.31261
          ],
          [
            15.3782,
            57.31242
          ],
          [
            15.37821,
            57.3123
          ],
          [
            15.37822,
            57.31217
          ],
          [
            15.37831,
            57.31198
          ],
          [
            15.3785,
            57.31171
          ],
          [
            15.37854,
            57.31161
          ],
          [
            15.37855,
            57.31153
          ],
          [
            15.37849,
            57.31134
          ],
          [
            15.37847,
            57.31127
          ],
          [
            15.37861,
            57.3111
          ],
          [
            15.37881,
            57.31095
          ],
          [
            15.37896,
            57.31079
          ],
          [
            15.379,
            57.31066
          ],
          [
            15.37904,
            57.3104
          ],
          [
            15.37907,
            57.31027
          ],
          [
            15.3792,
            57.31011
          ],
          [
            15.37934,
            57.30986
          ],
          [
            15.37936,
            57.30977
          ],
          [
            15.37929,
            57.30968
          ],
          [
            15.37924,
            57.30959
          ],
          [
            15.37928,
            57.30947
          ],
          [
            15.37938,
            57.30935
          ],
          [
            15.3794,
            57.30912
          ],
          [
            15.37945,
            57.30899
          ],
          [
            15.37945,
            57.30885
          ],
          [
            15.37943,
            57.3087
          ],
          [
            15.37945,
            57.30859
          ],
          [
            15.37956,
            57.30841
          ],
          [
            15.37967,
            57.30829
          ],
          [
            15.37985,
            57.30822
          ],
          [
            15.38011,
            57.30812
          ],
          [
            15.38027,
            57.30805
          ],
          [
            15.38037,
            57.30794
          ],
          [
            15.38063,
            57.30783
          ],
          [
            15.38088,
            57.30775
          ],
          [
            15.38109,
            57.30766
          ],
          [
            15.38122,
            57.30753
          ],
          [
            15.38135,
            57.30737
          ],
          [
            15.38143,
            57.30728
          ],
          [
            15.38141,
            57.30711
          ],
          [
            15.38134,
            57.30698
          ],
          [
            15.38125,
            57.30686
          ],
          [
            15.38127,
            57.30676
          ],
          [
            15.38149,
            57.30655
          ],
          [
            15.38162,
            57.30639
          ],
          [
            15.38155,
            57.30626
          ],
          [
            15.38142,
            57.30605
          ],
          [
            15.38123,
            57.30587
          ],
          [
            15.38103,
            57.30571
          ],
          [
            15.38077,
            57.3056
          ],
          [
            15.3805,
            57.30548
          ],
          [
            15.38036,
            57.3054
          ],
          [
            15.38048,
            57.30524
          ],
          [
            15.38061,
            57.30508
          ],
          [
            15.38066,
            57.30492
          ],
          [
            15.38063,
            57.30467
          ],
          [
            15.38056,
            57.30446
          ],
          [
            15.38046,
            57.30428
          ],
          [
            15.38036,
            57.30414
          ],
          [
            15.37989,
            57.3041
          ],
          [
            15.37915,
            57.30404
          ],
          [
            15.37831,
            57.30397
          ],
          [
            15.37777,
            57.30394
          ],
          [
            15.37736,
            57.3039
          ],
          [
            15.3771,
            57.30388
          ],
          [
            15.3765,
            57.3038
          ],
          [
            15.37578,
            57.30368
          ],
          [
            15.37512,
            57.30356
          ],
          [
            15.37423,
            57.30341
          ],
          [
            15.37406,
            57.30337
          ],
          [
            15.37387,
            57.30331
          ],
          [
            15.3734,
            57.30311
          ],
          [
            15.37296,
            57.30293
          ],
          [
            15.37256,
            57.30275
          ],
          [
            15.37232,
            57.30268
          ],
          [
            15.3722,
            57.30266
          ],
          [
            15.37198,
            57.30266
          ],
          [
            15.37142,
            57.30277
          ],
          [
            15.37107,
            57.30285
          ],
          [
            15.37073,
            57.30294
          ],
          [
            15.37051,
            57.303
          ],
          [
            15.37013,
            57.30315
          ],
          [
            15.36975,
            57.30285
          ],
          [
            15.36946,
            57.30267
          ],
          [
            15.3692,
            57.30256
          ],
          [
            15.3689,
            57.30247
          ],
          [
            15.36813,
            57.30235
          ],
          [
            15.36772,
            57.30227
          ],
          [
            15.36739,
            57.30217
          ],
          [
            15.36707,
            57.30204
          ],
          [
            15.36685,
            57.30191
          ],
          [
            15.36662,
            57.30177
          ],
          [
            15.36639,
            57.30163
          ],
          [
            15.36604,
            57.30146
          ],
          [
            15.36538,
            57.30116
          ],
          [
            15.36498,
            57.30098
          ],
          [
            15.36476,
            57.30085
          ],
          [
            15.36453,
            57.3007
          ],
          [
            15.36427,
            57.30054
          ],
          [
            15.36411,
            57.30048
          ],
          [
            15.36393,
            57.30045
          ],
          [
            15.36369,
            57.30044
          ],
          [
            15.36284,
            57.30043
          ],
          [
            15.36256,
            57.30039
          ],
          [
            15.36203,
            57.30027
          ],
          [
            15.36145,
            57.30013
          ],
          [
            15.36124,
            57.30007
          ],
          [
            15.36113,
            57.3
          ],
          [
            15.36115,
            57.29977
          ],
          [
            15.36065,
            57.29975
          ],
          [
            15.36035,
            57.29975
          ],
          [
            15.36,
            57.29975
          ],
          [
            15.35943,
            57.29984
          ],
          [
            15.35924,
            57.29986
          ],
          [
            15.35867,
            57.29975
          ],
          [
            15.35819,
            57.2997
          ],
          [
            15.35772,
            57.29961
          ],
          [
            15.3575,
            57.29958
          ],
          [
            15.35721,
            57.29957
          ],
          [
            15.35675,
            57.29953
          ],
          [
            15.35635,
            57.29951
          ],
          [
            15.35589,
            57.29941
          ],
          [
            15.35567,
            57.29933
          ],
          [
            15.35548,
            57.29922
          ],
          [
            15.35516,
            57.29908
          ],
          [
            15.35481,
            57.29891
          ],
          [
            15.35449,
            57.29876
          ],
          [
            15.35445,
            57.29869
          ],
          [
            15.35434,
            57.29859
          ],
          [
            15.35417,
            57.29857
          ],
          [
            15.35378,
            57.29856
          ],
          [
            15.35324,
            57.29855
          ],
          [
            15.35275,
            57.29854
          ],
          [
            15.35259,
            57.29859
          ],
          [
            15.35234,
            57.29861
          ],
          [
            15.3522,
            57.29867
          ],
          [
            15.35203,
            57.29869
          ],
          [
            15.35158,
            57.29863
          ],
          [
            15.35122,
            57.29856
          ],
          [
            15.35104,
            57.29848
          ],
          [
            15.35079,
            57.2984
          ],
          [
            15.35046,
            57.29835
          ],
          [
            15.35013,
            57.29835
          ],
          [
            15.3498,
            57.29835
          ],
          [
            15.34945,
            57.29835
          ],
          [
            15.34917,
            57.29836
          ],
          [
            15.34896,
            57.29829
          ],
          [
            15.34868,
            57.29823
          ],
          [
            15.3484,
            57.29823
          ],
          [
            15.34803,
            57.29818
          ],
          [
            15.34766,
            57.29818
          ],
          [
            15.34752,
            57.2982
          ],
          [
            15.34713,
            57.29835
          ],
          [
            15.34665,
            57.29845
          ],
          [
            15.34593,
            57.29862
          ],
          [
            15.3455,
            57.29869
          ],
          [
            15.34536,
            57.29908
          ],
          [
            15.34519,
            57.29952
          ],
          [
            15.34488,
            57.29953
          ],
          [
            15.34477,
            57.29982
          ],
          [
            15.34461,
            57.3001
          ],
          [
            15.3445,
            57.30054
          ],
          [
            15.34448,
            57.30072
          ],
          [
            15.34417,
            57.30092
          ],
          [
            15.3437,
            57.30125
          ],
          [
            15.34323,
            57.30155
          ],
          [
            15.34271,
            57.30192
          ],
          [
            15.34234,
            57.30233
          ],
          [
            15.34227,
            57.30266
          ],
          [
            15.34225,
            57.30282
          ],
          [
            15.34239,
            57.30313
          ],
          [
            15.3431,
            57.30381
          ],
          [
            15.34335,
            57.30406
          ],
          [
            15.34352,
            57.30419
          ],
          [
            15.34375,
            57.30424
          ],
          [
            15.34337,
            57.30493
          ],
          [
            15.34305,
            57.30544
          ],
          [
            15.3429,
            57.30564
          ],
          [
            15.34244,
            57.30584
          ],
          [
            15.34177,
            57.30634
          ],
          [
            15.3411,
            57.30722
          ],
          [
            15.34097,
            57.3075
          ],
          [
            15.34074,
            57.30777
          ],
          [
            15.33903,
            57.3076
          ],
          [
            15.339,
            57.30792
          ],
          [
            15.33875,
            57.30821
          ],
          [
            15.33778,
            57.30819
          ],
          [
            15.33659,
            57.30797
          ],
          [
            15.33509,
            57.30803
          ],
          [
            15.33434,
            57.3081
          ],
          [
            15.33322,
            57.30781
          ],
          [
            15.33262,
            57.30802
          ],
          [
            15.33226,
            57.30811
          ],
          [
            15.33173,
            57.30815
          ],
          [
            15.33116,
            57.30822
          ],
          [
            15.33055,
            57.30814
          ],
          [
            15.32993,
            57.30818
          ],
          [
            15.32954,
            57.30816
          ],
          [
            15.32921,
            57.30806
          ],
          [
            15.32883,
            57.30793
          ],
          [
            15.32848,
            57.30778
          ],
          [
            15.32801,
            57.30772
          ],
          [
            15.32739,
            57.30764
          ],
          [
            15.32699,
            57.30768
          ],
          [
            15.32649,
            57.30767
          ],
          [
            15.32589,
            57.30768
          ],
          [
            15.32447,
            57.30784
          ],
          [
            15.32412,
            57.30782
          ],
          [
            15.32371,
            57.30774
          ],
          [
            15.32343,
            57.3077
          ],
          [
            15.32179,
            57.30772
          ],
          [
            15.32143,
            57.30772
          ],
          [
            15.32086,
            57.30758
          ],
          [
            15.31958,
            57.30704
          ],
          [
            15.31871,
            57.30668
          ],
          [
            15.31808,
            57.30667
          ],
          [
            15.31757,
            57.30671
          ],
          [
            15.31694,
            57.30687
          ],
          [
            15.31625,
            57.30715
          ],
          [
            15.31575,
            57.30745
          ],
          [
            15.3152,
            57.30767
          ],
          [
            15.31444,
            57.30793
          ],
          [
            15.31433,
            57.30802
          ],
          [
            15.31426,
            57.30828
          ],
          [
            15.31408,
            57.30837
          ],
          [
            15.31355,
            57.30848
          ],
          [
            15.31294,
            57.30857
          ],
          [
            15.3129,
            57.30847
          ],
          [
            15.31296,
            57.30836
          ],
          [
            15.31306,
            57.30817
          ],
          [
            15.31328,
            57.3078
          ],
          [
            15.31342,
            57.30764
          ],
          [
            15.31333,
            57.30757
          ],
          [
            15.31302,
            57.30751
          ],
          [
            15.31282,
            57.30754
          ],
          [
            15.31258,
            57.30787
          ],
          [
            15.31228,
            57.30844
          ],
          [
            15.31181,
            57.30882
          ],
          [
            15.31111,
            57.30906
          ],
          [
            15.31059,
            57.30877
          ],
          [
            15.3101,
            57.30859
          ],
          [
            15.30916,
            57.30843
          ],
          [
            15.30868,
            57.3083
          ],
          [
            15.30809,
            57.30807
          ],
          [
            15.30723,
            57.30764
          ],
          [
            15.30679,
            57.30741
          ],
          [
            15.30588,
            57.30717
          ],
          [
            15.3054,
            57.30704
          ],
          [
            15.30504,
            57.30702
          ],
          [
            15.30422,
            57.30709
          ],
          [
            15.3032,
            57.30783
          ],
          [
            15.30294,
            57.30771
          ],
          [
            15.30217,
            57.30732
          ],
          [
            15.30039,
            57.30649
          ],
          [
            15.29934,
            57.30591
          ],
          [
            15.29902,
            57.30598
          ],
          [
            15.29877,
            57.30603
          ],
          [
            15.29852,
            57.30607
          ],
          [
            15.29826,
            57.30608
          ],
          [
            15.29768,
            57.30606
          ],
          [
            15.297,
            57.30606
          ],
          [
            15.29668,
            57.30616
          ],
          [
            15.29631,
            57.30628
          ],
          [
            15.29579,
            57.30646
          ],
          [
            15.29554,
            57.30631
          ],
          [
            15.29539,
            57.30627
          ],
          [
            15.29483,
            57.30628
          ],
          [
            15.29457,
            57.30626
          ],
          [
            15.29418,
            57.30622
          ],
          [
            15.29394,
            57.30617
          ],
          [
            15.29377,
            57.30614
          ],
          [
            15.2936,
            57.30611
          ],
          [
            15.29333,
            57.30608
          ],
          [
            15.29321,
            57.30604
          ],
          [
            15.29314,
            57.30595
          ],
          [
            15.29304,
            57.3059
          ],
          [
            15.29291,
            57.30588
          ],
          [
            15.29255,
            57.30583
          ],
          [
            15.29222,
            57.30579
          ],
          [
            15.29203,
            57.30576
          ],
          [
            15.29214,
            57.30569
          ],
          [
            15.29226,
            57.3056
          ],
          [
            15.29232,
            57.30547
          ],
          [
            15.29235,
            57.3054
          ],
          [
            15.29246,
            57.30522
          ],
          [
            15.29251,
            57.30511
          ],
          [
            15.29265,
            57.30499
          ],
          [
            15.29275,
            57.30489
          ],
          [
            15.29283,
            57.30477
          ],
          [
            15.29289,
            57.30466
          ],
          [
            15.29292,
            57.30455
          ],
          [
            15.29313,
            57.30448
          ],
          [
            15.29337,
            57.30441
          ],
          [
            15.29365,
            57.30436
          ],
          [
            15.29386,
            57.30423
          ],
          [
            15.29399,
            57.30408
          ],
          [
            15.29401,
            57.30398
          ],
          [
            15.29402,
            57.30387
          ],
          [
            15.29412,
            57.3038
          ],
          [
            15.29435,
            57.30371
          ],
          [
            15.29452,
            57.30363
          ],
          [
            15.2947,
            57.30355
          ],
          [
            15.29467,
            57.30348
          ],
          [
            15.29459,
            57.30331
          ],
          [
            15.29447,
            57.30311
          ],
          [
            15.2943,
            57.30275
          ],
          [
            15.29403,
            57.3025
          ],
          [
            15.29378,
            57.30237
          ],
          [
            15.29347,
            57.30226
          ],
          [
            15.29296,
            57.30216
          ],
          [
            15.29279,
            57.30203
          ],
          [
            15.29262,
            57.30183
          ],
          [
            15.29245,
            57.30168
          ],
          [
            15.29218,
            57.30162
          ],
          [
            15.29187,
            57.30155
          ],
          [
            15.29152,
            57.30153
          ],
          [
            15.29111,
            57.30154
          ],
          [
            15.29074,
            57.3016
          ],
          [
            15.29054,
            57.30171
          ],
          [
            15.29037,
            57.30184
          ],
          [
            15.29011,
            57.30182
          ],
          [
            15.28996,
            57.30185
          ],
          [
            15.28962,
            57.30191
          ],
          [
            15.28942,
            57.302
          ],
          [
            15.28925,
            57.30204
          ],
          [
            15.28908,
            57.30207
          ],
          [
            15.28886,
            57.30209
          ],
          [
            15.28872,
            57.30205
          ],
          [
            15.28847,
            57.30207
          ],
          [
            15.2881,
            57.30217
          ],
          [
            15.28786,
            57.3022
          ],
          [
            15.28761,
            57.30223
          ],
          [
            15.28739,
            57.30223
          ],
          [
            15.28708,
            57.30217
          ],
          [
            15.28686,
            57.30212
          ],
          [
            15.28664,
            57.30215
          ],
          [
            15.28654,
            57.30214
          ],
          [
            15.28615,
            57.30202
          ],
          [
            15.28593,
            57.30197
          ],
          [
            15.28578,
            57.30198
          ],
          [
            15.2857,
            57.30195
          ],
          [
            15.28557,
            57.30187
          ],
          [
            15.28541,
            57.30185
          ],
          [
            15.28525,
            57.30186
          ],
          [
            15.28512,
            57.30179
          ],
          [
            15.28499,
            57.30174
          ],
          [
            15.28481,
            57.30174
          ],
          [
            15.28454,
            57.30177
          ],
          [
            15.2843,
            57.30178
          ],
          [
            15.28393,
            57.30177
          ],
          [
            15.2839,
            57.30168
          ],
          [
            15.2839,
            57.30154
          ],
          [
            15.28375,
            57.30155
          ],
          [
            15.28347,
            57.30157
          ],
          [
            15.28335,
            57.30156
          ],
          [
            15.28326,
            57.30152
          ],
          [
            15.28309,
            57.30135
          ],
          [
            15.28306,
            57.30124
          ],
          [
            15.28317,
            57.30102
          ],
          [
            15.28324,
            57.30088
          ],
          [
            15.28332,
            57.30071
          ],
          [
            15.28331,
            57.30059
          ],
          [
            15.2833,
            57.30047
          ],
          [
            15.28322,
            57.30034
          ],
          [
            15.28317,
            57.30022
          ],
          [
            15.28316,
            57.29996
          ],
          [
            15.28317,
            57.29979
          ],
          [
            15.28322,
            57.29952
          ],
          [
            15.28331,
            57.2993
          ],
          [
            15.28337,
            57.29919
          ],
          [
            15.2835,
            57.29913
          ],
          [
            15.28368,
            57.29908
          ],
          [
            15.2839,
            57.29897
          ],
          [
            15.28401,
            57.2989
          ],
          [
            15.28432,
            57.29865
          ],
          [
            15.28446,
            57.29862
          ],
          [
            15.28461,
            57.29856
          ],
          [
            15.2849,
            57.2984
          ],
          [
            15.28511,
            57.29832
          ],
          [
            15.28512,
            57.29815
          ],
          [
            15.28513,
            57.29793
          ],
          [
            15.28523,
            57.29769
          ],
          [
            15.28534,
            57.29761
          ],
          [
            15.28545,
            57.2974
          ],
          [
            15.2856,
            57.29715
          ],
          [
            15.28569,
            57.29701
          ],
          [
            15.28582,
            57.2969
          ],
          [
            15.28601,
            57.2968
          ],
          [
            15.2862,
            57.29671
          ],
          [
            15.28646,
            57.29661
          ],
          [
            15.28658,
            57.29655
          ],
          [
            15.28664,
            57.29639
          ],
          [
            15.2867,
            57.29629
          ],
          [
            15.28674,
            57.29617
          ],
          [
            15.2868,
            57.29608
          ],
          [
            15.28693,
            57.29597
          ],
          [
            15.28708,
            57.29585
          ],
          [
            15.287,
            57.2958
          ],
          [
            15.28692,
            57.29574
          ],
          [
            15.28674,
            57.29562
          ],
          [
            15.28642,
            57.29544
          ],
          [
            15.28612,
            57.29537
          ],
          [
            15.28591,
            57.29533
          ],
          [
            15.28561,
            57.29535
          ],
          [
            15.28543,
            57.29528
          ],
          [
            15.2853,
            57.2952
          ],
          [
            15.28513,
            57.29505
          ],
          [
            15.28494,
            57.2949
          ],
          [
            15.28475,
            57.29475
          ],
          [
            15.28454,
            57.29462
          ],
          [
            15.28417,
            57.29446
          ],
          [
            15.28402,
            57.29439
          ],
          [
            15.28386,
            57.29428
          ],
          [
            15.28377,
            57.29419
          ],
          [
            15.28369,
            57.29401
          ],
          [
            15.28355,
            57.29386
          ],
          [
            15.28343,
            57.29376
          ],
          [
            15.28328,
            57.29368
          ],
          [
            15.28304,
            57.29357
          ],
          [
            15.28283,
            57.29339
          ],
          [
            15.2826,
            57.2932
          ],
          [
            15.28236,
            57.29304
          ],
          [
            15.28214,
            57.29288
          ],
          [
            15.28199,
            57.29273
          ],
          [
            15.28184,
            57.29258
          ],
          [
            15.2817,
            57.29242
          ],
          [
            15.28165,
            57.29235
          ],
          [
            15.28151,
            57.2922
          ],
          [
            15.28134,
            57.29205
          ],
          [
            15.28095,
            57.29184
          ],
          [
            15.28063,
            57.2916
          ],
          [
            15.28049,
            57.29148
          ],
          [
            15.2804,
            57.29138
          ],
          [
            15.28027,
            57.29131
          ],
          [
            15.28011,
            57.29126
          ],
          [
            15.27972,
            57.29113
          ],
          [
            15.27928,
            57.29094
          ],
          [
            15.27902,
            57.29087
          ],
          [
            15.27865,
            57.29083
          ],
          [
            15.27845,
            57.29082
          ],
          [
            15.27816,
            57.29086
          ],
          [
            15.27791,
            57.29088
          ],
          [
            15.278,
            57.29028
          ],
          [
            15.27805,
            57.28997
          ],
          [
            15.27786,
            57.28991
          ],
          [
            15.2778,
            57.28977
          ],
          [
            15.2777,
            57.28968
          ],
          [
            15.27754,
            57.28967
          ],
          [
            15.27736,
            57.28969
          ],
          [
            15.27716,
            57.28973
          ],
          [
            15.27689,
            57.2898
          ],
          [
            15.2767,
            57.28987
          ],
          [
            15.27664,
            57.28992
          ],
          [
            15.27622,
            57.28998
          ],
          [
            15.27601,
            57.28999
          ],
          [
            15.27586,
            57.28998
          ],
          [
            15.27579,
            57.28992
          ],
          [
            15.27566,
            57.28986
          ],
          [
            15.27553,
            57.28986
          ],
          [
            15.27531,
            57.28984
          ],
          [
            15.27523,
            57.28982
          ],
          [
            15.27492,
            57.28972
          ],
          [
            15.27469,
            57.28966
          ],
          [
            15.27451,
            57.28967
          ],
          [
            15.27412,
            57.28962
          ],
          [
            15.27403,
            57.28954
          ],
          [
            15.27399,
            57.28941
          ],
          [
            15.2739,
            57.2894
          ],
          [
            15.2735,
            57.28943
          ],
          [
            15.27313,
            57.28941
          ],
          [
            15.27271,
            57.28937
          ],
          [
            15.27216,
            57.28933
          ],
          [
            15.27199,
            57.28929
          ],
          [
            15.27182,
            57.28923
          ],
          [
            15.27137,
            57.28902
          ],
          [
            15.27104,
            57.28889
          ],
          [
            15.27057,
            57.28871
          ],
          [
            15.27027,
            57.28858
          ],
          [
            15.27003,
            57.28844
          ],
          [
            15.26972,
            57.28824
          ],
          [
            15.26936,
            57.28797
          ],
          [
            15.26832,
            57.28719
          ],
          [
            15.26784,
            57.2874
          ],
          [
            15.26732,
            57.28762
          ],
          [
            15.26734,
            57.28763
          ],
          [
            15.26696,
            57.2878
          ]
        ]
      }
    }
  ]
}
