{
  "type": "FeatureCollection",
  "features": [
    {
      "type": "Feature",
      "properties": {
        "trailId": "hoglandsleden",
        "sectionId": "hoglandsleden-ho21-byarum-skillingaryd",
        "candidateGeometry": true,
        "runtimeImportApproved": false,
        "sourceUrl": "https://www.naturkartan.se/sv/jonkopings-lan/ho21-byarum-skillingaryd.gpx",
        "source": "official GPX",
        "classification": "navigation-grade",
        "sourceComputedDistanceKm": 16.324923,
        "lineCount": 1,
        "pointCount": 597,
        "componentSelectionApplied": false,
        "selectedComponentIndexes": null,
        "reverseApplied": false,
        "densifyApplied": false,
        "buildPolicyNotes": null,
        "lastUpdated": "2026-04-30"
      },
      "geometry": {
        "type": "LineString",
        "coordinates": [
          [
            14.13979,
            57.5329
          ],
          [
            14.13958,
            57.53293
          ],
          [
            14.13944,
            57.53295
          ],
          [
            14.13935,
            57.53282
          ],
          [
            14.13921,
            57.53281
          ],
          [
            14.13923,
            57.5327
          ],
          [
            14.13921,
            57.53268
          ],
          [
            14.139221,
            57.532676
          ],
          [
            14.13906,
            57.53241
          ],
          [
            14.13845,
            57.53152
          ],
          [
            14.13814,
            57.53102
          ],
          [
            14.13784,
            57.53037
          ],
          [
            14.1377,
            57.53008
          ],
          [
            14.13765,
            57.52995
          ],
          [
            14.13763,
            57.52984
          ],
          [
            14.13765,
            57.5297
          ],
          [
            14.13723,
            57.52943
          ],
          [
            14.1367,
            57.52912
          ],
          [
            14.1364,
            57.52904
          ],
          [
            14.13597,
            57.52894
          ],
          [
            14.13579,
            57.52888
          ],
          [
            14.1356,
            57.52879
          ],
          [
            14.13527,
            57.52846
          ],
          [
            14.13485,
            57.52809
          ],
          [
            14.13454,
            57.52788
          ],
          [
            14.13427,
            57.52772
          ],
          [
            14.13372,
            57.52743
          ],
          [
            14.13327,
            57.52724
          ],
          [
            14.13285,
            57.52707
          ],
          [
            14.13205,
            57.52676
          ],
          [
            14.13189,
            57.52666
          ],
          [
            14.13124,
            57.52623
          ],
          [
            14.13083,
            57.526
          ],
          [
            14.13023,
            57.52572
          ],
          [
            14.12975,
            57.5255
          ],
          [
            14.12942,
            57.52545
          ],
          [
            14.12915,
            57.52537
          ],
          [
            14.12887,
            57.52529
          ],
          [
            14.12871,
            57.52523
          ],
          [
            14.12857,
            57.52515
          ],
          [
            14.12811,
            57.5248
          ],
          [
            14.12794,
            57.52471
          ],
          [
            14.1274,
            57.52446
          ],
          [
            14.12728,
            57.52436
          ],
          [
            14.12683,
            57.52389
          ],
          [
            14.12655,
            57.52367
          ],
          [
            14.1264,
            57.52353
          ],
          [
            14.12638,
            57.52347
          ],
          [
            14.12639,
            57.52339
          ],
          [
            14.12628,
            57.52318
          ],
          [
            14.12616,
            57.52293
          ],
          [
            14.12608,
            57.52262
          ],
          [
            14.12611,
            57.52226
          ],
          [
            14.12611,
            57.52225
          ],
          [
            14.12607,
            57.52207
          ],
          [
            14.12607,
            57.52183
          ],
          [
            14.12612,
            57.52161
          ],
          [
            14.12613,
            57.52122
          ],
          [
            14.12599,
            57.52094
          ],
          [
            14.12565,
            57.5208
          ],
          [
            14.12525,
            57.5206
          ],
          [
            14.12501,
            57.52054
          ],
          [
            14.12474,
            57.52053
          ],
          [
            14.12448,
            57.52057
          ],
          [
            14.1242,
            57.52059
          ],
          [
            14.12393,
            57.52058
          ],
          [
            14.12328,
            57.52039
          ],
          [
            14.12294,
            57.52004
          ],
          [
            14.1228,
            57.51982
          ],
          [
            14.12272,
            57.51963
          ],
          [
            14.12264,
            57.51934
          ],
          [
            14.12243,
            57.51892
          ],
          [
            14.12202,
            57.51869
          ],
          [
            14.12175,
            57.51842
          ],
          [
            14.12155,
            57.5181
          ],
          [
            14.12138,
            57.51785
          ],
          [
            14.12117,
            57.5176
          ],
          [
            14.12097,
            57.51745
          ],
          [
            14.12063,
            57.51735
          ],
          [
            14.12031,
            57.51732
          ],
          [
            14.11957,
            57.51731
          ],
          [
            14.11892,
            57.51736
          ],
          [
            14.11833,
            57.51744
          ],
          [
            14.11779,
            57.51757
          ],
          [
            14.11752,
            57.51744
          ],
          [
            14.11749,
            57.51726
          ],
          [
            14.11737,
            57.51691
          ],
          [
            14.11724,
            57.51675
          ],
          [
            14.11674,
            57.51639
          ],
          [
            14.11561,
            57.51597
          ],
          [
            14.11501,
            57.51586
          ],
          [
            14.11424,
            57.51571
          ],
          [
            14.11384,
            57.51546
          ],
          [
            14.11371,
            57.51525
          ],
          [
            14.11368,
            57.5151
          ],
          [
            14.11378,
            57.51427
          ],
          [
            14.11389,
            57.51344
          ],
          [
            14.11397,
            57.51269
          ],
          [
            14.11349,
            57.51275
          ],
          [
            14.1125,
            57.51289
          ],
          [
            14.11178,
            57.51294
          ],
          [
            14.11076,
            57.51277
          ],
          [
            14.11047,
            57.51225
          ],
          [
            14.10993,
            57.51249
          ],
          [
            14.10879,
            57.51297
          ],
          [
            14.10767,
            57.51217
          ],
          [
            14.10754,
            57.51204
          ],
          [
            14.10656,
            57.51159
          ],
          [
            14.10619,
            57.51151
          ],
          [
            14.10465,
            57.51135
          ],
          [
            14.10348,
            57.51124
          ],
          [
            14.103,
            57.51124
          ],
          [
            14.10267,
            57.51122
          ],
          [
            14.10227,
            57.51109
          ],
          [
            14.10166,
            57.51076
          ],
          [
            14.10133,
            57.51067
          ],
          [
            14.10098,
            57.51065
          ],
          [
            14.10019,
            57.51064
          ],
          [
            14.09971,
            57.51066
          ],
          [
            14.09929,
            57.51065
          ],
          [
            14.09906,
            57.51071
          ],
          [
            14.09889,
            57.51073
          ],
          [
            14.09841,
            57.51068
          ],
          [
            14.09826,
            57.51062
          ],
          [
            14.09808,
            57.51052
          ],
          [
            14.09784,
            57.51034
          ],
          [
            14.0977,
            57.51024
          ],
          [
            14.09758,
            57.51019
          ],
          [
            14.09735,
            57.51014
          ],
          [
            14.09723,
            57.51008
          ],
          [
            14.09697,
            57.50981
          ],
          [
            14.09675,
            57.5096
          ],
          [
            14.09667,
            57.50948
          ],
          [
            14.09629,
            57.50933
          ],
          [
            14.09615,
            57.50924
          ],
          [
            14.0961,
            57.50916
          ],
          [
            14.09599,
            57.50891
          ],
          [
            14.09597,
            57.50875
          ],
          [
            14.09598,
            57.5086
          ],
          [
            14.09595,
            57.50834
          ],
          [
            14.09592,
            57.50817
          ],
          [
            14.09577,
            57.50771
          ],
          [
            14.09571,
            57.50757
          ],
          [
            14.09557,
            57.5074
          ],
          [
            14.09544,
            57.50731
          ],
          [
            14.09512,
            57.50723
          ],
          [
            14.09499,
            57.50717
          ],
          [
            14.09489,
            57.5071
          ],
          [
            14.09464,
            57.50684
          ],
          [
            14.09452,
            57.50674
          ],
          [
            14.09435,
            57.50666
          ],
          [
            14.09425,
            57.5066
          ],
          [
            14.09419,
            57.50653
          ],
          [
            14.09403,
            57.50625
          ],
          [
            14.0939,
            57.50599
          ],
          [
            14.0938,
            57.50586
          ],
          [
            14.09353,
            57.50555
          ],
          [
            14.09338,
            57.50536
          ],
          [
            14.09329,
            57.50515
          ],
          [
            14.09309,
            57.50484
          ],
          [
            14.09302,
            57.50469
          ],
          [
            14.09301,
            57.5045
          ],
          [
            14.09311,
            57.50421
          ],
          [
            14.0931,
            57.50393
          ],
          [
            14.09306,
            57.50371
          ],
          [
            14.09315,
            57.50321
          ],
          [
            14.09313,
            57.50311
          ],
          [
            14.09307,
            57.50299
          ],
          [
            14.09271,
            57.50259
          ],
          [
            14.09264,
            57.50247
          ],
          [
            14.09265,
            57.50238
          ],
          [
            14.09272,
            57.50229
          ],
          [
            14.09244,
            57.50224
          ],
          [
            14.09223,
            57.50218
          ],
          [
            14.09209,
            57.50212
          ],
          [
            14.09189,
            57.50201
          ],
          [
            14.09153,
            57.50172
          ],
          [
            14.09084,
            57.50123
          ],
          [
            14.09024,
            57.5008
          ],
          [
            14.09004,
            57.5007
          ],
          [
            14.08954,
            57.50052
          ],
          [
            14.08925,
            57.50038
          ],
          [
            14.08916,
            57.50031
          ],
          [
            14.0891,
            57.50021
          ],
          [
            14.0891,
            57.50012
          ],
          [
            14.08913,
            57.50002
          ],
          [
            14.08899,
            57.5
          ],
          [
            14.08842,
            57.50009
          ],
          [
            14.08825,
            57.5
          ],
          [
            14.08797,
            57.49992
          ],
          [
            14.08755,
            57.4998
          ],
          [
            14.08739,
            57.49976
          ],
          [
            14.0872,
            57.49973
          ],
          [
            14.08708,
            57.49962
          ],
          [
            14.08674,
            57.49947
          ],
          [
            14.08638,
            57.49933
          ],
          [
            14.08611,
            57.49922
          ],
          [
            14.08568,
            57.49892
          ],
          [
            14.08547,
            57.49876
          ],
          [
            14.08539,
            57.49863
          ],
          [
            14.08521,
            57.49852
          ],
          [
            14.08475,
            57.49836
          ],
          [
            14.0842,
            57.49803
          ],
          [
            14.08393,
            57.49778
          ],
          [
            14.08396,
            57.49767
          ],
          [
            14.0841,
            57.49759
          ],
          [
            14.08494,
            57.49729
          ],
          [
            14.08597,
            57.49691
          ],
          [
            14.08635,
            57.49674
          ],
          [
            14.08652,
            57.49658
          ],
          [
            14.08674,
            57.49625
          ],
          [
            14.08693,
            57.49605
          ],
          [
            14.08708,
            57.49595
          ],
          [
            14.08737,
            57.49572
          ],
          [
            14.08781,
            57.49533
          ],
          [
            14.0881,
            57.49505
          ],
          [
            14.08838,
            57.49481
          ],
          [
            14.08871,
            57.49463
          ],
          [
            14.0891,
            57.49444
          ],
          [
            14.08961,
            57.4942
          ],
          [
            14.09013,
            57.49398
          ],
          [
            14.09027,
            57.49392
          ],
          [
            14.09033,
            57.49383
          ],
          [
            14.09031,
            57.49364
          ],
          [
            14.09018,
            57.49338
          ],
          [
            14.09005,
            57.49291
          ],
          [
            14.08997,
            57.49285
          ],
          [
            14.08977,
            57.49274
          ],
          [
            14.08963,
            57.4927
          ],
          [
            14.08939,
            57.49268
          ],
          [
            14.08956,
            57.49245
          ],
          [
            14.08957,
            57.49232
          ],
          [
            14.08947,
            57.49227
          ],
          [
            14.0893,
            57.49223
          ],
          [
            14.08904,
            57.49222
          ],
          [
            14.08874,
            57.49218
          ],
          [
            14.08818,
            57.49199
          ],
          [
            14.08724,
            57.49171
          ],
          [
            14.08675,
            57.49157
          ],
          [
            14.08635,
            57.49146
          ],
          [
            14.08625,
            57.49141
          ],
          [
            14.0862,
            57.49135
          ],
          [
            14.08621,
            57.49103
          ],
          [
            14.08618,
            57.49091
          ],
          [
            14.08618,
            57.49083
          ],
          [
            14.08625,
            57.49063
          ],
          [
            14.0864,
            57.49034
          ],
          [
            14.08652,
            57.49009
          ],
          [
            14.08658,
            57.48989
          ],
          [
            14.08684,
            57.4898
          ],
          [
            14.08711,
            57.48967
          ],
          [
            14.08783,
            57.48921
          ],
          [
            14.08884,
            57.48859
          ],
          [
            14.08928,
            57.48829
          ],
          [
            14.08993,
            57.48781
          ],
          [
            14.09062,
            57.4873
          ],
          [
            14.09095,
            57.48702
          ],
          [
            14.09116,
            57.48681
          ],
          [
            14.09132,
            57.48663
          ],
          [
            14.09158,
            57.48623
          ],
          [
            14.09191,
            57.48567
          ],
          [
            14.09213,
            57.48536
          ],
          [
            14.09243,
            57.48502
          ],
          [
            14.09294,
            57.48457
          ],
          [
            14.09341,
            57.4842
          ],
          [
            14.09407,
            57.48366
          ],
          [
            14.0945,
            57.48332
          ],
          [
            14.09496,
            57.48295
          ],
          [
            14.0953,
            57.48267
          ],
          [
            14.09561,
            57.4824
          ],
          [
            14.09488,
            57.48234
          ],
          [
            14.09411,
            57.4823
          ],
          [
            14.0934,
            57.48227
          ],
          [
            14.09319,
            57.48223
          ],
          [
            14.09305,
            57.48219
          ],
          [
            14.09293,
            57.48212
          ],
          [
            14.09285,
            57.48206
          ],
          [
            14.09275,
            57.48198
          ],
          [
            14.09253,
            57.48174
          ],
          [
            14.0923,
            57.48152
          ],
          [
            14.09197,
            57.48125
          ],
          [
            14.09115,
            57.48128
          ],
          [
            14.09109,
            57.48115
          ],
          [
            14.09099,
            57.48086
          ],
          [
            14.09095,
            57.48065
          ],
          [
            14.09089,
            57.48052
          ],
          [
            14.09079,
            57.48044
          ],
          [
            14.09039,
            57.48034
          ],
          [
            14.09019,
            57.48028
          ],
          [
            14.09002,
            57.48019
          ],
          [
            14.08994,
            57.4801
          ],
          [
            14.0899,
            57.47994
          ],
          [
            14.08986,
            57.47959
          ],
          [
            14.08986,
            57.47938
          ],
          [
            14.08983,
            57.47929
          ],
          [
            14.08963,
            57.47911
          ],
          [
            14.08952,
            57.47896
          ],
          [
            14.0895,
            57.47892
          ],
          [
            14.08959,
            57.47869
          ],
          [
            14.08958,
            57.47839
          ],
          [
            14.08955,
            57.47822
          ],
          [
            14.08945,
            57.47786
          ],
          [
            14.08926,
            57.47739
          ],
          [
            14.0891,
            57.47699
          ],
          [
            14.08895,
            57.47671
          ],
          [
            14.08898,
            57.47653
          ],
          [
            14.08898,
            57.47638
          ],
          [
            14.08911,
            57.4763
          ],
          [
            14.08934,
            57.47622
          ],
          [
            14.08944,
            57.47615
          ],
          [
            14.08946,
            57.47606
          ],
          [
            14.08942,
            57.47561
          ],
          [
            14.0897,
            57.47558
          ],
          [
            14.08987,
            57.47556
          ],
          [
            14.08997,
            57.47554
          ],
          [
            14.09009,
            57.47546
          ],
          [
            14.0905,
            57.47512
          ],
          [
            14.09076,
            57.47493
          ],
          [
            14.09102,
            57.4748
          ],
          [
            14.09146,
            57.47465
          ],
          [
            14.09185,
            57.47455
          ],
          [
            14.09249,
            57.47444
          ],
          [
            14.09273,
            57.47442
          ],
          [
            14.09327,
            57.47444
          ],
          [
            14.09388,
            57.47443
          ],
          [
            14.09444,
            57.47439
          ],
          [
            14.09518,
            57.47436
          ],
          [
            14.09557,
            57.47438
          ],
          [
            14.09588,
            57.4744
          ],
          [
            14.0961,
            57.47439
          ],
          [
            14.09626,
            57.47436
          ],
          [
            14.09604,
            57.474
          ],
          [
            14.09588,
            57.47359
          ],
          [
            14.09561,
            57.47281
          ],
          [
            14.09547,
            57.47242
          ],
          [
            14.09504,
            57.47239
          ],
          [
            14.09513,
            57.47231
          ],
          [
            14.09527,
            57.47219
          ],
          [
            14.0953,
            57.47206
          ],
          [
            14.09519,
            57.47181
          ],
          [
            14.0951,
            57.47154
          ],
          [
            14.09501,
            57.47132
          ],
          [
            14.09474,
            57.47096
          ],
          [
            14.09469,
            57.47081
          ],
          [
            14.09472,
            57.4707
          ],
          [
            14.09482,
            57.47061
          ],
          [
            14.09493,
            57.47056
          ],
          [
            14.09496,
            57.4705
          ],
          [
            14.09492,
            57.47032
          ],
          [
            14.09485,
            57.47027
          ],
          [
            14.09473,
            57.47017
          ],
          [
            14.09465,
            57.47007
          ],
          [
            14.09453,
            57.47003
          ],
          [
            14.09401,
            57.47006
          ],
          [
            14.09379,
            57.47006
          ],
          [
            14.0937,
            57.47004
          ],
          [
            14.09351,
            57.46976
          ],
          [
            14.09331,
            57.46951
          ],
          [
            14.09327,
            57.46943
          ],
          [
            14.09327,
            57.46934
          ],
          [
            14.09308,
            57.46922
          ],
          [
            14.09286,
            57.46902
          ],
          [
            14.0927,
            57.46887
          ],
          [
            14.09245,
            57.46873
          ],
          [
            14.09237,
            57.46859
          ],
          [
            14.09232,
            57.46851
          ],
          [
            14.09219,
            57.46836
          ],
          [
            14.09209,
            57.46825
          ],
          [
            14.09203,
            57.4681
          ],
          [
            14.09195,
            57.468
          ],
          [
            14.09175,
            57.46783
          ],
          [
            14.09159,
            57.46766
          ],
          [
            14.09155,
            57.4676
          ],
          [
            14.09154,
            57.46752
          ],
          [
            14.09144,
            57.46737
          ],
          [
            14.09133,
            57.46729
          ],
          [
            14.09122,
            57.46712
          ],
          [
            14.09122,
            57.46706
          ],
          [
            14.09116,
            57.46699
          ],
          [
            14.09113,
            57.46697
          ],
          [
            14.09108,
            57.46693
          ],
          [
            14.09102,
            57.46678
          ],
          [
            14.09098,
            57.46667
          ],
          [
            14.09095,
            57.4666
          ],
          [
            14.09078,
            57.46641
          ],
          [
            14.09073,
            57.4663
          ],
          [
            14.09047,
            57.46597
          ],
          [
            14.09022,
            57.46564
          ],
          [
            14.09016,
            57.46547
          ],
          [
            14.09009,
            57.46529
          ],
          [
            14.09003,
            57.46517
          ],
          [
            14.0898,
            57.46491
          ],
          [
            14.08966,
            57.46479
          ],
          [
            14.08954,
            57.46468
          ],
          [
            14.08935,
            57.46452
          ],
          [
            14.08902,
            57.46419
          ],
          [
            14.08889,
            57.46397
          ],
          [
            14.08886,
            57.46367
          ],
          [
            14.08826,
            57.46343
          ],
          [
            14.08801,
            57.4633
          ],
          [
            14.08777,
            57.46315
          ],
          [
            14.08749,
            57.4629
          ],
          [
            14.08723,
            57.46257
          ],
          [
            14.08699,
            57.46211
          ],
          [
            14.08686,
            57.46197
          ],
          [
            14.08668,
            57.46185
          ],
          [
            14.08648,
            57.46177
          ],
          [
            14.08514,
            57.46158
          ],
          [
            14.0834,
            57.46131
          ],
          [
            14.08298,
            57.4611
          ],
          [
            14.08273,
            57.46089
          ],
          [
            14.08257,
            57.46067
          ],
          [
            14.08243,
            57.46023
          ],
          [
            14.08235,
            57.46006
          ],
          [
            14.08219,
            57.45984
          ],
          [
            14.08184,
            57.4595
          ],
          [
            14.08169,
            57.4593
          ],
          [
            14.0816,
            57.4591
          ],
          [
            14.08148,
            57.45867
          ],
          [
            14.08137,
            57.45841
          ],
          [
            14.08118,
            57.45814
          ],
          [
            14.0809,
            57.45791
          ],
          [
            14.08035,
            57.45754
          ],
          [
            14.07993,
            57.4572
          ],
          [
            14.07973,
            57.45694
          ],
          [
            14.07942,
            57.45645
          ],
          [
            14.07937,
            57.45624
          ],
          [
            14.0794,
            57.45608
          ],
          [
            14.07961,
            57.45539
          ],
          [
            14.07961,
            57.45511
          ],
          [
            14.07951,
            57.45476
          ],
          [
            14.08006,
            57.45447
          ],
          [
            14.08027,
            57.45429
          ],
          [
            14.08038,
            57.45393
          ],
          [
            14.08061,
            57.45366
          ],
          [
            14.0807,
            57.45309
          ],
          [
            14.0808,
            57.45276
          ],
          [
            14.08088,
            57.45225
          ],
          [
            14.08103,
            57.45123
          ],
          [
            14.08087,
            57.4509
          ],
          [
            14.08085,
            57.45072
          ],
          [
            14.08015,
            57.4506
          ],
          [
            14.07991,
            57.45048
          ],
          [
            14.0797,
            57.45025
          ],
          [
            14.0792,
            57.44968
          ],
          [
            14.07907,
            57.44945
          ],
          [
            14.07895,
            57.44908
          ],
          [
            14.0786,
            57.44873
          ],
          [
            14.07838,
            57.44857
          ],
          [
            14.07824,
            57.44844
          ],
          [
            14.07794,
            57.44805
          ],
          [
            14.07744,
            57.44761
          ],
          [
            14.07701,
            57.44732
          ],
          [
            14.07676,
            57.44717
          ],
          [
            14.07666,
            57.44702
          ],
          [
            14.07669,
            57.44686
          ],
          [
            14.07664,
            57.44675
          ],
          [
            14.07645,
            57.44665
          ],
          [
            14.07608,
            57.44652
          ],
          [
            14.07594,
            57.44644
          ],
          [
            14.07578,
            57.44632
          ],
          [
            14.07559,
            57.44612
          ],
          [
            14.07543,
            57.44591
          ],
          [
            14.0753,
            57.44572
          ],
          [
            14.07635,
            57.44512
          ],
          [
            14.07623,
            57.44494
          ],
          [
            14.07619,
            57.44483
          ],
          [
            14.07611,
            57.44452
          ],
          [
            14.07604,
            57.44435
          ],
          [
            14.07595,
            57.44414
          ],
          [
            14.07578,
            57.44397
          ],
          [
            14.07564,
            57.44384
          ],
          [
            14.07555,
            57.44375
          ],
          [
            14.07547,
            57.44363
          ],
          [
            14.07535,
            57.44335
          ],
          [
            14.0753,
            57.44316
          ],
          [
            14.07523,
            57.44284
          ],
          [
            14.07525,
            57.44265
          ],
          [
            14.07527,
            57.44243
          ],
          [
            14.07518,
            57.44219
          ],
          [
            14.07519,
            57.44196
          ],
          [
            14.07525,
            57.44177
          ],
          [
            14.07526,
            57.44163
          ],
          [
            14.07519,
            57.44142
          ],
          [
            14.07513,
            57.44126
          ],
          [
            14.07512,
            57.44106
          ],
          [
            14.07511,
            57.44086
          ],
          [
            14.0751,
            57.44067
          ],
          [
            14.07509,
            57.44048
          ],
          [
            14.07509,
            57.44022
          ],
          [
            14.07511,
            57.43987
          ],
          [
            14.07507,
            57.43979
          ],
          [
            14.07526,
            57.43943
          ],
          [
            14.07534,
            57.43927
          ],
          [
            14.07542,
            57.43913
          ],
          [
            14.07544,
            57.43903
          ],
          [
            14.0754,
            57.43893
          ],
          [
            14.07532,
            57.43884
          ],
          [
            14.07528,
            57.43872
          ],
          [
            14.07534,
            57.43861
          ],
          [
            14.07555,
            57.43843
          ],
          [
            14.07561,
            57.43831
          ],
          [
            14.07561,
            57.43822
          ],
          [
            14.07556,
            57.4381
          ],
          [
            14.07541,
            57.43791
          ],
          [
            14.0753,
            57.43777
          ],
          [
            14.0752,
            57.43746
          ],
          [
            14.07507,
            57.43724
          ],
          [
            14.07495,
            57.43704
          ],
          [
            14.07484,
            57.43673
          ],
          [
            14.07474,
            57.43663
          ],
          [
            14.0746,
            57.4365
          ],
          [
            14.07444,
            57.43629
          ],
          [
            14.07445,
            57.43619
          ],
          [
            14.07445,
            57.43601
          ],
          [
            14.0744,
            57.43585
          ],
          [
            14.07427,
            57.43573
          ],
          [
            14.07399,
            57.43564
          ],
          [
            14.07312,
            57.43549
          ],
          [
            14.07278,
            57.43542
          ],
          [
            14.07268,
            57.43546
          ],
          [
            14.07248,
            57.4355
          ],
          [
            14.07228,
            57.43553
          ],
          [
            14.07206,
            57.43553
          ],
          [
            14.07175,
            57.43553
          ],
          [
            14.07135,
            57.4355
          ],
          [
            14.07107,
            57.43546
          ],
          [
            14.07066,
            57.43536
          ],
          [
            14.07051,
            57.43534
          ],
          [
            14.07034,
            57.43535
          ],
          [
            14.07021,
            57.43538
          ],
          [
            14.07002,
            57.43547
          ],
          [
            14.06981,
            57.43557
          ],
          [
            14.06958,
            57.43572
          ],
          [
            14.06938,
            57.43588
          ],
          [
            14.06928,
            57.43602
          ],
          [
            14.06919,
            57.43614
          ],
          [
            14.06905,
            57.43625
          ],
          [
            14.06878,
            57.43638
          ],
          [
            14.06855,
            57.43646
          ],
          [
            14.0682,
            57.43656
          ],
          [
            14.06774,
            57.43667
          ],
          [
            14.06712,
            57.43676
          ],
          [
            14.06674,
            57.43685
          ],
          [
            14.06654,
            57.43692
          ],
          [
            14.06634,
            57.43702
          ],
          [
            14.0661,
            57.43707
          ],
          [
            14.06571,
            57.43712
          ],
          [
            14.06542,
            57.43711
          ],
          [
            14.06518,
            57.43706
          ],
          [
            14.06504,
            57.43703
          ],
          [
            14.06491,
            57.43697
          ],
          [
            14.06481,
            57.43688
          ],
          [
            14.06477,
            57.4368
          ],
          [
            14.06489,
            57.43665
          ],
          [
            14.06493,
            57.43648
          ],
          [
            14.06495,
            57.43623
          ],
          [
            14.06503,
            57.43601
          ],
          [
            14.06517,
            57.43587
          ],
          [
            14.06527,
            57.43575
          ],
          [
            14.06534,
            57.43559
          ],
          [
            14.06542,
            57.43541
          ],
          [
            14.0655,
            57.43517
          ],
          [
            14.06547,
            57.43486
          ],
          [
            14.06543,
            57.43463
          ],
          [
            14.06546,
            57.43455
          ],
          [
            14.06551,
            57.43449
          ],
          [
            14.06562,
            57.43441
          ],
          [
            14.06574,
            57.43432
          ],
          [
            14.06595,
            57.43405
          ],
          [
            14.06601,
            57.43395
          ],
          [
            14.06608,
            57.43367
          ],
          [
            14.06611,
            57.43324
          ],
          [
            14.06613,
            57.43296
          ],
          [
            14.06625,
            57.43271
          ],
          [
            14.0665,
            57.43234
          ],
          [
            14.06669,
            57.43192
          ],
          [
            14.06687,
            57.4318
          ],
          [
            14.06723,
            57.43159
          ],
          [
            14.0675,
            57.43153
          ],
          [
            14.06785,
            57.43144
          ],
          [
            14.06818,
            57.43131
          ],
          [
            14.06854,
            57.43116
          ],
          [
            14.06882,
            57.43099
          ],
          [
            14.06892,
            57.43086
          ],
          [
            14.06926,
            57.43083
          ],
          [
            14.06915,
            57.4307
          ],
          [
            14.06907,
            57.43042
          ],
          [
            14.06901,
            57.43021
          ],
          [
            14.06896,
            57.43004
          ],
          [
            14.06888,
            57.42979
          ],
          [
            14.06873,
            57.42965
          ],
          [
            14.0686,
            57.42959
          ],
          [
            14.06844,
            57.42953
          ],
          [
            14.06832,
            57.42865
          ],
          [
            14.068268,
            57.42855
          ],
          [
            14.06858,
            57.42848
          ]
        ]
      }
    }
  ]
}
