<?xml version="1.0" encoding="UTF-8"?>
<gpx xmlns="http://www.topografix.com/GPX/1/1" xmlns:xsi="http://www.w3.org/2001/XMLSchema-instance" version="1.1" creator="GPX RubyGem 1.0.0 -- http://dougfales.github.io/gpx/" xsi:schemaLocation="http://www.topografix.com/GPX/1/1 http://www.topografix.com/GPX/1/1/gpx.xsd">
  <metadata>
    <name>Höglandsleden etapp HÖ10 Ramkvilla - Asa - En del av Smålandsleden by Naturkartan</name>
    <time>2026-04-30T16:50:07+00:00</time>
  </metadata>
  <trk>
    <name>Höglandsleden etapp HÖ10 Ramkvilla - Asa - En del av Smålandsleden by Naturkartan</name>
    <trkseg>
      <trkpt lat="57.20565" lon="14.94369"/>
      <trkpt lat="57.20562" lon="14.94359"/>
      <trkpt lat="57.20561" lon="14.94355"/>
      <trkpt lat="57.2056" lon="14.94354"/>
      <trkpt lat="57.20552" lon="14.94324"/>
      <trkpt lat="57.20552" lon="14.94321"/>
      <trkpt lat="57.205529" lon="14.943201"/>
      <trkpt lat="57.20536" lon="14.94255"/>
      <trkpt lat="57.20519" lon="14.94193"/>
      <trkpt lat="57.2051" lon="14.94162"/>
      <trkpt lat="57.20503" lon="14.94123"/>
      <trkpt lat="57.20495" lon="14.94077"/>
      <trkpt lat="57.20487" lon="14.94028"/>
      <trkpt lat="57.20477" lon="14.93979"/>
      <trkpt lat="57.20465" lon="14.93921"/>
      <trkpt lat="57.20452" lon="14.93856"/>
      <trkpt lat="57.20432" lon="14.93748"/>
      <trkpt lat="57.20414" lon="14.93646"/>
      <trkpt lat="57.20399" lon="14.93557"/>
      <trkpt lat="57.20386" lon="14.93477"/>
      <trkpt lat="57.20375" lon="14.93409"/>
      <trkpt lat="57.20365" lon="14.93352"/>
      <trkpt lat="57.20358" lon="14.93312"/>
      <trkpt lat="57.20349" lon="14.93257"/>
      <trkpt lat="57.2034" lon="14.93196"/>
      <trkpt lat="57.20335" lon="14.93155"/>
      <trkpt lat="57.20328" lon="14.9309"/>
      <trkpt lat="57.2032" lon="14.9303"/>
      <trkpt lat="57.20314" lon="14.92982"/>
      <trkpt lat="57.20307" lon="14.9294"/>
      <trkpt lat="57.20302" lon="14.92912"/>
      <trkpt lat="57.20286" lon="14.92845"/>
      <trkpt lat="57.20275" lon="14.92796"/>
      <trkpt lat="57.20267" lon="14.92767"/>
      <trkpt lat="57.20263" lon="14.92742"/>
      <trkpt lat="57.20261" lon="14.92719"/>
      <trkpt lat="57.20261" lon="14.92698"/>
      <trkpt lat="57.20262" lon="14.92675"/>
      <trkpt lat="57.20267" lon="14.92648"/>
      <trkpt lat="57.20283" lon="14.92586"/>
      <trkpt lat="57.20296" lon="14.92535"/>
      <trkpt lat="57.20313" lon="14.92462"/>
      <trkpt lat="57.2032" lon="14.92438"/>
      <trkpt lat="57.20334" lon="14.92417"/>
      <trkpt lat="57.2035" lon="14.92397"/>
      <trkpt lat="57.20367" lon="14.92378"/>
      <trkpt lat="57.20377" lon="14.92363"/>
      <trkpt lat="57.20383" lon="14.92339"/>
      <trkpt lat="57.20384" lon="14.92285"/>
      <trkpt lat="57.20382" lon="14.92248"/>
      <trkpt lat="57.20374" lon="14.92216"/>
      <trkpt lat="57.20357" lon="14.9216"/>
      <trkpt lat="57.20345" lon="14.92107"/>
      <trkpt lat="57.20338" lon="14.92073"/>
      <trkpt lat="57.20326" lon="14.92034"/>
      <trkpt lat="57.20303" lon="14.91968"/>
      <trkpt lat="57.20286" lon="14.91914"/>
      <trkpt lat="57.20281" lon="14.91847"/>
      <trkpt lat="57.20278" lon="14.91768"/>
      <trkpt lat="57.20277" lon="14.91697"/>
      <trkpt lat="57.20277" lon="14.91603"/>
      <trkpt lat="57.20276" lon="14.91542"/>
      <trkpt lat="57.20271" lon="14.91448"/>
      <trkpt lat="57.20265" lon="14.91347"/>
      <trkpt lat="57.20264" lon="14.91304"/>
      <trkpt lat="57.20267" lon="14.91273"/>
      <trkpt lat="57.20276" lon="14.91216"/>
      <trkpt lat="57.20289" lon="14.91134"/>
      <trkpt lat="57.20292" lon="14.91106"/>
      <trkpt lat="57.20291" lon="14.91079"/>
      <trkpt lat="57.20285" lon="14.91032"/>
      <trkpt lat="57.20271" lon="14.90956"/>
      <trkpt lat="57.20267" lon="14.90927"/>
      <trkpt lat="57.20267" lon="14.90892"/>
      <trkpt lat="57.20278" lon="14.90825"/>
      <trkpt lat="57.20294" lon="14.90731"/>
      <trkpt lat="57.20316" lon="14.90621"/>
      <trkpt lat="57.20321" lon="14.90588"/>
      <trkpt lat="57.20329" lon="14.90489"/>
      <trkpt lat="57.20335" lon="14.90431"/>
      <trkpt lat="57.20342" lon="14.90387"/>
      <trkpt lat="57.20348" lon="14.90341"/>
      <trkpt lat="57.20359" lon="14.90276"/>
      <trkpt lat="57.20367" lon="14.90244"/>
      <trkpt lat="57.20377" lon="14.90218"/>
      <trkpt lat="57.204" lon="14.90185"/>
      <trkpt lat="57.20429" lon="14.90158"/>
      <trkpt lat="57.20439" lon="14.90142"/>
      <trkpt lat="57.20446" lon="14.90119"/>
      <trkpt lat="57.2045" lon="14.90097"/>
      <trkpt lat="57.20455" lon="14.90031"/>
      <trkpt lat="57.20459" lon="14.89974"/>
      <trkpt lat="57.20463" lon="14.89957"/>
      <trkpt lat="57.20463" lon="14.89945"/>
      <trkpt lat="57.20458" lon="14.89904"/>
      <trkpt lat="57.20451" lon="14.89859"/>
      <trkpt lat="57.20448" lon="14.89806"/>
      <trkpt lat="57.20447" lon="14.8974"/>
      <trkpt lat="57.20448" lon="14.89682"/>
      <trkpt lat="57.20449" lon="14.89622"/>
      <trkpt lat="57.20449" lon="14.89574"/>
      <trkpt lat="57.20453" lon="14.89531"/>
      <trkpt lat="57.20456" lon="14.89511"/>
      <trkpt lat="57.20465" lon="14.89476"/>
      <trkpt lat="57.20467" lon="14.89457"/>
      <trkpt lat="57.20468" lon="14.89421"/>
      <trkpt lat="57.20467" lon="14.89396"/>
      <trkpt lat="57.20467" lon="14.89379"/>
      <trkpt lat="57.20469" lon="14.89361"/>
      <trkpt lat="57.20476" lon="14.89335"/>
      <trkpt lat="57.20487" lon="14.8928"/>
      <trkpt lat="57.20498" lon="14.89228"/>
      <trkpt lat="57.20502" lon="14.89216"/>
      <trkpt lat="57.20513" lon="14.892"/>
      <trkpt lat="57.20537" lon="14.89163"/>
      <trkpt lat="57.20559" lon="14.89131"/>
      <trkpt lat="57.20566" lon="14.89116"/>
      <trkpt lat="57.20566" lon="14.89116"/>
      <trkpt lat="57.20571" lon="14.89093"/>
      <trkpt lat="57.20578" lon="14.89052"/>
      <trkpt lat="57.20581" lon="14.89027"/>
      <trkpt lat="57.20582" lon="14.88994"/>
      <trkpt lat="57.2058" lon="14.8896"/>
      <trkpt lat="57.20579" lon="14.88916"/>
      <trkpt lat="57.20581" lon="14.8889"/>
      <trkpt lat="57.20584" lon="14.88867"/>
      <trkpt lat="57.20592" lon="14.88831"/>
      <trkpt lat="57.20603" lon="14.88786"/>
      <trkpt lat="57.20605" lon="14.88772"/>
      <trkpt lat="57.20606" lon="14.88751"/>
      <trkpt lat="57.20607" lon="14.88709"/>
      <trkpt lat="57.20609" lon="14.88688"/>
      <trkpt lat="57.20609" lon="14.88687"/>
      <trkpt lat="57.20618" lon="14.88639"/>
      <trkpt lat="57.20621" lon="14.88622"/>
      <trkpt lat="57.20627" lon="14.88598"/>
      <trkpt lat="57.20631" lon="14.88575"/>
      <trkpt lat="57.20634" lon="14.88551"/>
      <trkpt lat="57.20616" lon="14.88534"/>
      <trkpt lat="57.20604" lon="14.88522"/>
      <trkpt lat="57.20593" lon="14.88513"/>
      <trkpt lat="57.20581" lon="14.88507"/>
      <trkpt lat="57.20552" lon="14.88495"/>
      <trkpt lat="57.20521" lon="14.88482"/>
      <trkpt lat="57.20509" lon="14.88475"/>
      <trkpt lat="57.20494" lon="14.88445"/>
      <trkpt lat="57.20474" lon="14.88425"/>
      <trkpt lat="57.20449" lon="14.88404"/>
      <trkpt lat="57.2043" lon="14.88394"/>
      <trkpt lat="57.20412" lon="14.8838"/>
      <trkpt lat="57.2038" lon="14.88347"/>
      <trkpt lat="57.2036" lon="14.88325"/>
      <trkpt lat="57.20334" lon="14.88288"/>
      <trkpt lat="57.20326" lon="14.88267"/>
      <trkpt lat="57.20314" lon="14.88256"/>
      <trkpt lat="57.20306" lon="14.88256"/>
      <trkpt lat="57.20291" lon="14.88267"/>
      <trkpt lat="57.20276" lon="14.88268"/>
      <trkpt lat="57.2026" lon="14.88243"/>
      <trkpt lat="57.20247" lon="14.88218"/>
      <trkpt lat="57.20234" lon="14.88196"/>
      <trkpt lat="57.20225" lon="14.88182"/>
      <trkpt lat="57.20218" lon="14.88176"/>
      <trkpt lat="57.20206" lon="14.8817"/>
      <trkpt lat="57.20186" lon="14.88156"/>
      <trkpt lat="57.20173" lon="14.88132"/>
      <trkpt lat="57.20166" lon="14.8811"/>
      <trkpt lat="57.20156" lon="14.88079"/>
      <trkpt lat="57.20149" lon="14.88077"/>
      <trkpt lat="57.20142" lon="14.88054"/>
      <trkpt lat="57.20114" lon="14.88015"/>
      <trkpt lat="57.20103" lon="14.88005"/>
      <trkpt lat="57.201" lon="14.87989"/>
      <trkpt lat="57.20096" lon="14.87984"/>
      <trkpt lat="57.20075" lon="14.87967"/>
      <trkpt lat="57.2007" lon="14.87958"/>
      <trkpt lat="57.20068" lon="14.87906"/>
      <trkpt lat="57.20066" lon="14.87866"/>
      <trkpt lat="57.2004" lon="14.87752"/>
      <trkpt lat="57.20024" lon="14.87687"/>
      <trkpt lat="57.20016" lon="14.87675"/>
      <trkpt lat="57.20013" lon="14.87672"/>
      <trkpt lat="57.20004" lon="14.87674"/>
      <trkpt lat="57.2" lon="14.87673"/>
      <trkpt lat="57.1997" lon="14.87632"/>
      <trkpt lat="57.19965" lon="14.87569"/>
      <trkpt lat="57.19962" lon="14.87547"/>
      <trkpt lat="57.19956" lon="14.87529"/>
      <trkpt lat="57.19952" lon="14.87522"/>
      <trkpt lat="57.19946" lon="14.87517"/>
      <trkpt lat="57.19943" lon="14.87512"/>
      <trkpt lat="57.19941" lon="14.87481"/>
      <trkpt lat="57.19945" lon="14.87448"/>
      <trkpt lat="57.1996" lon="14.87382"/>
      <trkpt lat="57.1997" lon="14.87335"/>
      <trkpt lat="57.19976" lon="14.87326"/>
      <trkpt lat="57.1999" lon="14.87312"/>
      <trkpt lat="57.19999" lon="14.87298"/>
      <trkpt lat="57.20075" lon="14.87192"/>
      <trkpt lat="57.20112" lon="14.8715"/>
      <trkpt lat="57.20131" lon="14.87129"/>
      <trkpt lat="57.20115" lon="14.87056"/>
      <trkpt lat="57.20104" lon="14.87025"/>
      <trkpt lat="57.20096" lon="14.87009"/>
      <trkpt lat="57.20066" lon="14.86984"/>
      <trkpt lat="57.20056" lon="14.86975"/>
      <trkpt lat="57.20053" lon="14.86955"/>
      <trkpt lat="57.20055" lon="14.86936"/>
      <trkpt lat="57.20063" lon="14.8692"/>
      <trkpt lat="57.20078" lon="14.86894"/>
      <trkpt lat="57.20088" lon="14.86874"/>
      <trkpt lat="57.20098" lon="14.86851"/>
      <trkpt lat="57.20109" lon="14.86809"/>
      <trkpt lat="57.20119" lon="14.86771"/>
      <trkpt lat="57.20123" lon="14.86749"/>
      <trkpt lat="57.20127" lon="14.86724"/>
      <trkpt lat="57.20122" lon="14.86706"/>
      <trkpt lat="57.20116" lon="14.86692"/>
      <trkpt lat="57.20106" lon="14.86681"/>
      <trkpt lat="57.20094" lon="14.86674"/>
      <trkpt lat="57.20082" lon="14.86669"/>
      <trkpt lat="57.20073" lon="14.86656"/>
      <trkpt lat="57.20065" lon="14.86641"/>
      <trkpt lat="57.2006" lon="14.86633"/>
      <trkpt lat="57.20052" lon="14.86632"/>
      <trkpt lat="57.2004" lon="14.86633"/>
      <trkpt lat="57.20031" lon="14.86597"/>
      <trkpt lat="57.20021" lon="14.86556"/>
      <trkpt lat="57.20016" lon="14.86503"/>
      <trkpt lat="57.2001" lon="14.86452"/>
      <trkpt lat="57.20006" lon="14.86433"/>
      <trkpt lat="57.20001" lon="14.86424"/>
      <trkpt lat="57.19991" lon="14.86415"/>
      <trkpt lat="57.19985" lon="14.86409"/>
      <trkpt lat="57.19984" lon="14.86385"/>
      <trkpt lat="57.19988" lon="14.86308"/>
      <trkpt lat="57.20012" lon="14.86262"/>
      <trkpt lat="57.20024" lon="14.86224"/>
      <trkpt lat="57.20023" lon="14.8621"/>
      <trkpt lat="57.20014" lon="14.86198"/>
      <trkpt lat="57.20006" lon="14.86197"/>
      <trkpt lat="57.19987" lon="14.862"/>
      <trkpt lat="57.1998" lon="14.86204"/>
      <trkpt lat="57.19953" lon="14.86164"/>
      <trkpt lat="57.19949" lon="14.86151"/>
      <trkpt lat="57.19948" lon="14.86084"/>
      <trkpt lat="57.19943" lon="14.86067"/>
      <trkpt lat="57.19949" lon="14.86011"/>
      <trkpt lat="57.19947" lon="14.85999"/>
      <trkpt lat="57.19942" lon="14.85984"/>
      <trkpt lat="57.19938" lon="14.85953"/>
      <trkpt lat="57.19941" lon="14.85927"/>
      <trkpt lat="57.19948" lon="14.85911"/>
      <trkpt lat="57.19941" lon="14.85892"/>
      <trkpt lat="57.19982" lon="14.8577"/>
      <trkpt lat="57.1998" lon="14.85653"/>
      <trkpt lat="57.19968" lon="14.85598"/>
      <trkpt lat="57.1995" lon="14.85509"/>
      <trkpt lat="57.19944" lon="14.85484"/>
      <trkpt lat="57.19938" lon="14.85467"/>
      <trkpt lat="57.19944" lon="14.85424"/>
      <trkpt lat="57.19942" lon="14.854"/>
      <trkpt lat="57.19939" lon="14.8536"/>
      <trkpt lat="57.19935" lon="14.85307"/>
      <trkpt lat="57.19929" lon="14.85234"/>
      <trkpt lat="57.19926" lon="14.85197"/>
      <trkpt lat="57.19924" lon="14.85159"/>
      <trkpt lat="57.19923" lon="14.85128"/>
      <trkpt lat="57.19924" lon="14.85079"/>
      <trkpt lat="57.19926" lon="14.85041"/>
      <trkpt lat="57.19927" lon="14.84974"/>
      <trkpt lat="57.19927" lon="14.84918"/>
      <trkpt lat="57.19927" lon="14.84885"/>
      <trkpt lat="57.19922" lon="14.84863"/>
      <trkpt lat="57.19906" lon="14.84801"/>
      <trkpt lat="57.19898" lon="14.84768"/>
      <trkpt lat="57.19888" lon="14.84726"/>
      <trkpt lat="57.19883" lon="14.84682"/>
      <trkpt lat="57.1988" lon="14.84635"/>
      <trkpt lat="57.19878" lon="14.8457"/>
      <trkpt lat="57.19875" lon="14.84507"/>
      <trkpt lat="57.19877" lon="14.84448"/>
      <trkpt lat="57.19879" lon="14.84398"/>
      <trkpt lat="57.19876" lon="14.8436"/>
      <trkpt lat="57.19863" lon="14.84313"/>
      <trkpt lat="57.19851" lon="14.8426"/>
      <trkpt lat="57.19839" lon="14.84211"/>
      <trkpt lat="57.19818" lon="14.84165"/>
      <trkpt lat="57.19796" lon="14.84119"/>
      <trkpt lat="57.19781" lon="14.84089"/>
      <trkpt lat="57.19761" lon="14.84045"/>
      <trkpt lat="57.19739" lon="14.83996"/>
      <trkpt lat="57.19725" lon="14.83966"/>
      <trkpt lat="57.19693" lon="14.839"/>
      <trkpt lat="57.19673" lon="14.83876"/>
      <trkpt lat="57.19755" lon="14.8375"/>
      <trkpt lat="57.19774" lon="14.83731"/>
      <trkpt lat="57.19788" lon="14.83709"/>
      <trkpt lat="57.19821" lon="14.83685"/>
      <trkpt lat="57.19829" lon="14.83682"/>
      <trkpt lat="57.1984" lon="14.83686"/>
      <trkpt lat="57.19854" lon="14.83678"/>
      <trkpt lat="57.19873" lon="14.83673"/>
      <trkpt lat="57.19905" lon="14.83678"/>
      <trkpt lat="57.19929" lon="14.83676"/>
      <trkpt lat="57.19954" lon="14.8367"/>
      <trkpt lat="57.1997" lon="14.83662"/>
      <trkpt lat="57.1998" lon="14.83642"/>
      <trkpt lat="57.19988" lon="14.83618"/>
      <trkpt lat="57.20014" lon="14.83577"/>
      <trkpt lat="57.20029" lon="14.83554"/>
      <trkpt lat="57.20043" lon="14.83506"/>
      <trkpt lat="57.20052" lon="14.83488"/>
      <trkpt lat="57.20059" lon="14.83479"/>
      <trkpt lat="57.20073" lon="14.83474"/>
      <trkpt lat="57.20093" lon="14.83452"/>
      <trkpt lat="57.20106" lon="14.83439"/>
      <trkpt lat="57.20124" lon="14.83416"/>
      <trkpt lat="57.20135" lon="14.83398"/>
      <trkpt lat="57.20141" lon="14.83385"/>
      <trkpt lat="57.20145" lon="14.83369"/>
      <trkpt lat="57.20149" lon="14.83347"/>
      <trkpt lat="57.2015" lon="14.8331"/>
      <trkpt lat="57.20152" lon="14.83292"/>
      <trkpt lat="57.20162" lon="14.83273"/>
      <trkpt lat="57.2017" lon="14.83264"/>
      <trkpt lat="57.2017" lon="14.83263"/>
      <trkpt lat="57.20167" lon="14.83229"/>
      <trkpt lat="57.20163" lon="14.83212"/>
      <trkpt lat="57.20138" lon="14.83132"/>
      <trkpt lat="57.20119" lon="14.83072"/>
      <trkpt lat="57.20099" lon="14.83002"/>
      <trkpt lat="57.20079" lon="14.82939"/>
      <trkpt lat="57.20056" lon="14.82877"/>
      <trkpt lat="57.19965" lon="14.82682"/>
      <trkpt lat="57.19942" lon="14.82655"/>
      <trkpt lat="57.19912" lon="14.82625"/>
      <trkpt lat="57.19893" lon="14.82602"/>
      <trkpt lat="57.1988" lon="14.82583"/>
      <trkpt lat="57.19866" lon="14.82551"/>
      <trkpt lat="57.19858" lon="14.82522"/>
      <trkpt lat="57.19871" lon="14.82511"/>
      <trkpt lat="57.19879" lon="14.82504"/>
      <trkpt lat="57.19888" lon="14.82486"/>
      <trkpt lat="57.19896" lon="14.82465"/>
      <trkpt lat="57.19895" lon="14.82432"/>
      <trkpt lat="57.19893" lon="14.82415"/>
      <trkpt lat="57.19884" lon="14.82375"/>
      <trkpt lat="57.19877" lon="14.82338"/>
      <trkpt lat="57.19855" lon="14.82302"/>
      <trkpt lat="57.19832" lon="14.82261"/>
      <trkpt lat="57.19819" lon="14.82249"/>
      <trkpt lat="57.1981" lon="14.82246"/>
      <trkpt lat="57.19805" lon="14.82249"/>
      <trkpt lat="57.19793" lon="14.82239"/>
      <trkpt lat="57.1978" lon="14.82225"/>
      <trkpt lat="57.19765" lon="14.8221"/>
      <trkpt lat="57.19757" lon="14.82207"/>
      <trkpt lat="57.19752" lon="14.82207"/>
      <trkpt lat="57.19749" lon="14.822"/>
      <trkpt lat="57.19746" lon="14.82157"/>
      <trkpt lat="57.19741" lon="14.82126"/>
      <trkpt lat="57.19735" lon="14.82096"/>
      <trkpt lat="57.19728" lon="14.82069"/>
      <trkpt lat="57.19717" lon="14.82046"/>
      <trkpt lat="57.19711" lon="14.82036"/>
      <trkpt lat="57.19707" lon="14.82038"/>
      <trkpt lat="57.19705" lon="14.82042"/>
      <trkpt lat="57.197" lon="14.82032"/>
      <trkpt lat="57.19693" lon="14.82017"/>
      <trkpt lat="57.19684" lon="14.82015"/>
      <trkpt lat="57.19672" lon="14.82015"/>
      <trkpt lat="57.19662" lon="14.82017"/>
      <trkpt lat="57.19646" lon="14.82024"/>
      <trkpt lat="57.19634" lon="14.82035"/>
      <trkpt lat="57.19628" lon="14.82029"/>
      <trkpt lat="57.19604" lon="14.82007"/>
      <trkpt lat="57.19596" lon="14.82"/>
      <trkpt lat="57.19586" lon="14.81997"/>
      <trkpt lat="57.19575" lon="14.82"/>
      <trkpt lat="57.19563" lon="14.82008"/>
      <trkpt lat="57.19554" lon="14.81969"/>
      <trkpt lat="57.19544" lon="14.81953"/>
      <trkpt lat="57.19541" lon="14.81936"/>
      <trkpt lat="57.19538" lon="14.81903"/>
      <trkpt lat="57.19532" lon="14.8188"/>
      <trkpt lat="57.19521" lon="14.81865"/>
      <trkpt lat="57.19511" lon="14.81855"/>
      <trkpt lat="57.19503" lon="14.81855"/>
      <trkpt lat="57.19494" lon="14.8186"/>
      <trkpt lat="57.19483" lon="14.8186"/>
      <trkpt lat="57.19472" lon="14.81854"/>
      <trkpt lat="57.19453" lon="14.81836"/>
      <trkpt lat="57.19439" lon="14.81839"/>
      <trkpt lat="57.19427" lon="14.8184"/>
      <trkpt lat="57.19416" lon="14.81845"/>
      <trkpt lat="57.19407" lon="14.81854"/>
      <trkpt lat="57.1938" lon="14.81901"/>
      <trkpt lat="57.19374" lon="14.81914"/>
      <trkpt lat="57.19352" lon="14.81927"/>
      <trkpt lat="57.19335" lon="14.81941"/>
      <trkpt lat="57.19316" lon="14.8196"/>
      <trkpt lat="57.19303" lon="14.81972"/>
      <trkpt lat="57.19296" lon="14.81984"/>
      <trkpt lat="57.19286" lon="14.82062"/>
      <trkpt lat="57.19282" lon="14.82076"/>
      <trkpt lat="57.19274" lon="14.82083"/>
      <trkpt lat="57.19259" lon="14.82084"/>
      <trkpt lat="57.1924" lon="14.82074"/>
      <trkpt lat="57.19226" lon="14.82061"/>
      <trkpt lat="57.1921" lon="14.82045"/>
      <trkpt lat="57.19201" lon="14.82042"/>
      <trkpt lat="57.19194" lon="14.82044"/>
      <trkpt lat="57.19188" lon="14.8205"/>
      <trkpt lat="57.19181" lon="14.8206"/>
      <trkpt lat="57.19148" lon="14.82009"/>
      <trkpt lat="57.1911" lon="14.8195"/>
      <trkpt lat="57.19086" lon="14.81915"/>
      <trkpt lat="57.19063" lon="14.81944"/>
      <trkpt lat="57.19023" lon="14.81996"/>
      <trkpt lat="57.19011" lon="14.82012"/>
      <trkpt lat="57.18998" lon="14.82023"/>
      <trkpt lat="57.18991" lon="14.82027"/>
      <trkpt lat="57.1899" lon="14.81994"/>
      <trkpt lat="57.18986" lon="14.81984"/>
      <trkpt lat="57.18977" lon="14.81968"/>
      <trkpt lat="57.18976" lon="14.81953"/>
      <trkpt lat="57.18984" lon="14.81913"/>
      <trkpt lat="57.18984" lon="14.81888"/>
      <trkpt lat="57.1898" lon="14.81876"/>
      <trkpt lat="57.18945" lon="14.81855"/>
      <trkpt lat="57.18936" lon="14.81832"/>
      <trkpt lat="57.1893" lon="14.81808"/>
      <trkpt lat="57.18916" lon="14.81785"/>
      <trkpt lat="57.18898" lon="14.81769"/>
      <trkpt lat="57.18888" lon="14.81773"/>
      <trkpt lat="57.18879" lon="14.81771"/>
      <trkpt lat="57.18872" lon="14.81766"/>
      <trkpt lat="57.18815" lon="14.81685"/>
      <trkpt lat="57.18782" lon="14.81637"/>
      <trkpt lat="57.1876" lon="14.81601"/>
      <trkpt lat="57.1873" lon="14.8155"/>
      <trkpt lat="57.1872" lon="14.81512"/>
      <trkpt lat="57.18725" lon="14.81486"/>
      <trkpt lat="57.18717" lon="14.81478"/>
      <trkpt lat="57.18696" lon="14.81456"/>
      <trkpt lat="57.18672" lon="14.81448"/>
      <trkpt lat="57.18651" lon="14.81445"/>
      <trkpt lat="57.18625" lon="14.81418"/>
      <trkpt lat="57.18579" lon="14.81348"/>
      <trkpt lat="57.18553" lon="14.81296"/>
      <trkpt lat="57.18552" lon="14.81279"/>
      <trkpt lat="57.18553" lon="14.81271"/>
      <trkpt lat="57.18562" lon="14.81249"/>
      <trkpt lat="57.18565" lon="14.81241"/>
      <trkpt lat="57.18594" lon="14.81186"/>
      <trkpt lat="57.18606" lon="14.81179"/>
      <trkpt lat="57.18615" lon="14.81175"/>
      <trkpt lat="57.18627" lon="14.81167"/>
      <trkpt lat="57.18638" lon="14.81164"/>
      <trkpt lat="57.18657" lon="14.81148"/>
      <trkpt lat="57.18664" lon="14.81121"/>
      <trkpt lat="57.18664" lon="14.81106"/>
      <trkpt lat="57.18659" lon="14.81094"/>
      <trkpt lat="57.18656" lon="14.81087"/>
      <trkpt lat="57.18646" lon="14.81081"/>
      <trkpt lat="57.18635" lon="14.81074"/>
      <trkpt lat="57.18629" lon="14.81072"/>
      <trkpt lat="57.1862" lon="14.81064"/>
      <trkpt lat="57.18612" lon="14.81054"/>
      <trkpt lat="57.186" lon="14.8104"/>
      <trkpt lat="57.18569" lon="14.81027"/>
      <trkpt lat="57.1853" lon="14.80998"/>
      <trkpt lat="57.18521" lon="14.80994"/>
      <trkpt lat="57.18512" lon="14.81001"/>
      <trkpt lat="57.18504" lon="14.81007"/>
      <trkpt lat="57.18496" lon="14.81"/>
      <trkpt lat="57.18482" lon="14.80995"/>
      <trkpt lat="57.18464" lon="14.80997"/>
      <trkpt lat="57.18447" lon="14.80982"/>
      <trkpt lat="57.18434" lon="14.80969"/>
      <trkpt lat="57.18427" lon="14.80954"/>
      <trkpt lat="57.18419" lon="14.80942"/>
      <trkpt lat="57.18386" lon="14.80915"/>
      <trkpt lat="57.18376" lon="14.80911"/>
      <trkpt lat="57.18357" lon="14.80907"/>
      <trkpt lat="57.18336" lon="14.80901"/>
      <trkpt lat="57.18323" lon="14.80895"/>
      <trkpt lat="57.18307" lon="14.80884"/>
      <trkpt lat="57.18289" lon="14.80859"/>
      <trkpt lat="57.18287" lon="14.80846"/>
      <trkpt lat="57.18288" lon="14.80813"/>
      <trkpt lat="57.18284" lon="14.80799"/>
      <trkpt lat="57.18281" lon="14.80782"/>
      <trkpt lat="57.1828" lon="14.80768"/>
      <trkpt lat="57.1828" lon="14.80705"/>
      <trkpt lat="57.18274" lon="14.8064"/>
      <trkpt lat="57.18288" lon="14.80601"/>
      <trkpt lat="57.18304" lon="14.80554"/>
      <trkpt lat="57.18319" lon="14.80509"/>
      <trkpt lat="57.18323" lon="14.8049"/>
      <trkpt lat="57.18321" lon="14.80469"/>
      <trkpt lat="57.1831" lon="14.80454"/>
      <trkpt lat="57.18296" lon="14.8044"/>
      <trkpt lat="57.18251" lon="14.80396"/>
      <trkpt lat="57.18219" lon="14.80366"/>
      <trkpt lat="57.18178" lon="14.8033"/>
      <trkpt lat="57.18176" lon="14.80282"/>
      <trkpt lat="57.18173" lon="14.80246"/>
      <trkpt lat="57.18161" lon="14.80187"/>
      <trkpt lat="57.18152" lon="14.80143"/>
      <trkpt lat="57.18141" lon="14.80128"/>
      <trkpt lat="57.18113" lon="14.80093"/>
      <trkpt lat="57.1808" lon="14.80065"/>
      <trkpt lat="57.18069" lon="14.80053"/>
      <trkpt lat="57.18043" lon="14.80009"/>
      <trkpt lat="57.1803" lon="14.79991"/>
      <trkpt lat="57.18027" lon="14.7998"/>
      <trkpt lat="57.18025" lon="14.79967"/>
      <trkpt lat="57.18022" lon="14.79911"/>
      <trkpt lat="57.18007" lon="14.79803"/>
      <trkpt lat="57.18001" lon="14.79774"/>
      <trkpt lat="57.17997" lon="14.79769"/>
      <trkpt lat="57.17992" lon="14.79767"/>
      <trkpt lat="57.1797" lon="14.79777"/>
      <trkpt lat="57.17946" lon="14.79784"/>
      <trkpt lat="57.17939" lon="14.79793"/>
      <trkpt lat="57.17907" lon="14.79851"/>
      <trkpt lat="57.17879" lon="14.79895"/>
      <trkpt lat="57.17872" lon="14.7993"/>
      <trkpt lat="57.17862" lon="14.79956"/>
      <trkpt lat="57.17855" lon="14.79969"/>
      <trkpt lat="57.17849" lon="14.79973"/>
      <trkpt lat="57.1784" lon="14.79976"/>
      <trkpt lat="57.17828" lon="14.7997"/>
      <trkpt lat="57.17818" lon="14.79979"/>
      <trkpt lat="57.1781" lon="14.79981"/>
      <trkpt lat="57.17808" lon="14.79988"/>
      <trkpt lat="57.17806" lon="14.79999"/>
      <trkpt lat="57.17802" lon="14.80005"/>
      <trkpt lat="57.1776" lon="14.80006"/>
      <trkpt lat="57.17725" lon="14.80001"/>
      <trkpt lat="57.17717" lon="14.79999"/>
      <trkpt lat="57.17712" lon="14.79993"/>
      <trkpt lat="57.17712" lon="14.7998"/>
      <trkpt lat="57.17714" lon="14.79971"/>
      <trkpt lat="57.17712" lon="14.7996"/>
      <trkpt lat="57.17714" lon="14.79946"/>
      <trkpt lat="57.17711" lon="14.79941"/>
      <trkpt lat="57.17696" lon="14.79932"/>
      <trkpt lat="57.17682" lon="14.79925"/>
      <trkpt lat="57.1767" lon="14.79922"/>
      <trkpt lat="57.17664" lon="14.79917"/>
      <trkpt lat="57.17661" lon="14.79905"/>
      <trkpt lat="57.17658" lon="14.79899"/>
      <trkpt lat="57.17653" lon="14.79896"/>
      <trkpt lat="57.17645" lon="14.79898"/>
      <trkpt lat="57.17642" lon="14.799"/>
      <trkpt lat="57.17604" lon="14.79915"/>
      <trkpt lat="57.17575" lon="14.79936"/>
      <trkpt lat="57.17546" lon="14.79961"/>
      <trkpt lat="57.1754" lon="14.79959"/>
      <trkpt lat="57.17533" lon="14.79951"/>
      <trkpt lat="57.17529" lon="14.7994"/>
      <trkpt lat="57.17525" lon="14.79925"/>
      <trkpt lat="57.17521" lon="14.79914"/>
      <trkpt lat="57.1751" lon="14.7986"/>
      <trkpt lat="57.17501" lon="14.79838"/>
      <trkpt lat="57.17482" lon="14.79795"/>
      <trkpt lat="57.17471" lon="14.79774"/>
      <trkpt lat="57.17471" lon="14.79761"/>
      <trkpt lat="57.17463" lon="14.79727"/>
      <trkpt lat="57.17456" lon="14.79711"/>
      <trkpt lat="57.17442" lon="14.79687"/>
      <trkpt lat="57.17436" lon="14.79684"/>
      <trkpt lat="57.17427" lon="14.79667"/>
      <trkpt lat="57.17401" lon="14.79635"/>
      <trkpt lat="57.17387" lon="14.79614"/>
      <trkpt lat="57.17382" lon="14.79608"/>
      <trkpt lat="57.17379" lon="14.79603"/>
      <trkpt lat="57.17378" lon="14.79593"/>
      <trkpt lat="57.1738" lon="14.79552"/>
      <trkpt lat="57.17382" lon="14.79521"/>
      <trkpt lat="57.17267" lon="14.79508"/>
      <trkpt lat="57.17257" lon="14.7951"/>
      <trkpt lat="57.17251" lon="14.79514"/>
      <trkpt lat="57.1724" lon="14.79527"/>
      <trkpt lat="57.1719" lon="14.79633"/>
      <trkpt lat="57.1714" lon="14.79741"/>
      <trkpt lat="57.17119" lon="14.79781"/>
      <trkpt lat="57.17109" lon="14.79793"/>
      <trkpt lat="57.17097" lon="14.79803"/>
      <trkpt lat="57.17076" lon="14.79815"/>
      <trkpt lat="57.17045" lon="14.79829"/>
      <trkpt lat="57.17026" lon="14.79833"/>
      <trkpt lat="57.17005" lon="14.79833"/>
      <trkpt lat="57.16967" lon="14.79823"/>
      <trkpt lat="57.16958" lon="14.79825"/>
      <trkpt lat="57.16939" lon="14.79859"/>
      <trkpt lat="57.16848" lon="14.79869"/>
      <trkpt lat="57.16826" lon="14.79867"/>
      <trkpt lat="57.16807" lon="14.79859"/>
      <trkpt lat="57.16749" lon="14.7982"/>
      <trkpt lat="57.1664" lon="14.79753"/>
      <trkpt lat="57.16626" lon="14.79718"/>
      <trkpt lat="57.16616" lon="14.79634"/>
      <trkpt lat="57.16615" lon="14.796"/>
      <trkpt lat="57.16623" lon="14.79449"/>
      <trkpt lat="57.16621" lon="14.79423"/>
      <trkpt lat="57.16611" lon="14.7937"/>
      <trkpt lat="57.16609" lon="14.79372"/>
      <trkpt lat="57.16604" lon="14.79351"/>
      <trkpt lat="57.16611" lon="14.7934"/>
      <trkpt lat="57.16638" lon="14.79304"/>
      <trkpt lat="57.16682" lon="14.79267"/>
      <trkpt lat="57.16725" lon="14.7923"/>
      <trkpt lat="57.16725" lon="14.79227"/>
      <trkpt lat="57.16725" lon="14.79227"/>
      <trkpt lat="57.16723" lon="14.79113"/>
      <trkpt lat="57.16721" lon="14.78998"/>
      <trkpt lat="57.16722" lon="14.78847"/>
      <trkpt lat="57.16722" lon="14.78695"/>
      <trkpt lat="57.16722" lon="14.78672"/>
      <trkpt lat="57.16724" lon="14.78571"/>
      <trkpt lat="57.16723" lon="14.78543"/>
    </trkseg>
  </trk>
</gpx>
