<?xml version="1.0" encoding="UTF-8"?>
<gpx xmlns="http://www.topografix.com/GPX/1/1" xmlns:xsi="http://www.w3.org/2001/XMLSchema-instance" version="1.1" creator="GPX RubyGem 1.0.0 -- http://dougfales.github.io/gpx/" xsi:schemaLocation="http://www.topografix.com/GPX/1/1 http://www.topografix.com/GPX/1/1/gpx.xsd">
  <metadata>
    <name>Höglandsleden etapp HÖ19 Tomtabacken - Hok - En del av Smålandsleden by Naturkartan</name>
    <time>2026-04-30T16:50:07+00:00</time>
  </metadata>
  <trk>
    <name>Höglandsleden etapp HÖ19 Tomtabacken - Hok - En del av Smålandsleden by Naturkartan</name>
    <trkseg>
      <trkpt lat="57.501" lon="14.46514"/>
      <trkpt lat="57.5009" lon="14.46513"/>
      <trkpt lat="57.50079" lon="14.4651"/>
      <trkpt lat="57.500791" lon="14.465052"/>
      <trkpt lat="57.50067" lon="14.46502"/>
      <trkpt lat="57.50027" lon="14.4649"/>
      <trkpt lat="57.49995" lon="14.4648"/>
      <trkpt lat="57.49982" lon="14.46476"/>
      <trkpt lat="57.49953" lon="14.46468"/>
      <trkpt lat="57.49912" lon="14.46458"/>
      <trkpt lat="57.49874" lon="14.46461"/>
      <trkpt lat="57.49841" lon="14.46466"/>
      <trkpt lat="57.49813" lon="14.46472"/>
      <trkpt lat="57.49757" lon="14.46479"/>
      <trkpt lat="57.49752" lon="14.46438"/>
      <trkpt lat="57.49749" lon="14.46394"/>
      <trkpt lat="57.49749" lon="14.46367"/>
      <trkpt lat="57.49751" lon="14.4634"/>
      <trkpt lat="57.49758" lon="14.46288"/>
      <trkpt lat="57.49762" lon="14.46257"/>
      <trkpt lat="57.49759" lon="14.46239"/>
      <trkpt lat="57.49753" lon="14.46226"/>
      <trkpt lat="57.4973" lon="14.4619"/>
      <trkpt lat="57.49715" lon="14.46165"/>
      <trkpt lat="57.49699" lon="14.46121"/>
      <trkpt lat="57.49692" lon="14.46098"/>
      <trkpt lat="57.4969" lon="14.46077"/>
      <trkpt lat="57.4969" lon="14.46011"/>
      <trkpt lat="57.49688" lon="14.45978"/>
      <trkpt lat="57.49682" lon="14.45941"/>
      <trkpt lat="57.49676" lon="14.45904"/>
      <trkpt lat="57.49675" lon="14.45882"/>
      <trkpt lat="57.49676" lon="14.45855"/>
      <trkpt lat="57.49676" lon="14.45817"/>
      <trkpt lat="57.4967" lon="14.45791"/>
      <trkpt lat="57.49663" lon="14.45757"/>
      <trkpt lat="57.4966" lon="14.45735"/>
      <trkpt lat="57.49661" lon="14.45707"/>
      <trkpt lat="57.49669" lon="14.45678"/>
      <trkpt lat="57.49685" lon="14.45652"/>
      <trkpt lat="57.497" lon="14.45617"/>
      <trkpt lat="57.49708" lon="14.45599"/>
      <trkpt lat="57.49725" lon="14.45576"/>
      <trkpt lat="57.49732" lon="14.45563"/>
      <trkpt lat="57.49738" lon="14.45548"/>
      <trkpt lat="57.49743" lon="14.45522"/>
      <trkpt lat="57.4975" lon="14.4549"/>
      <trkpt lat="57.49757" lon="14.45455"/>
      <trkpt lat="57.49765" lon="14.45433"/>
      <trkpt lat="57.49778" lon="14.45406"/>
      <trkpt lat="57.49787" lon="14.45375"/>
      <trkpt lat="57.49789" lon="14.45352"/>
      <trkpt lat="57.4979" lon="14.4528"/>
      <trkpt lat="57.49813" lon="14.45282"/>
      <trkpt lat="57.49849" lon="14.45286"/>
      <trkpt lat="57.4988" lon="14.45293"/>
      <trkpt lat="57.49881" lon="14.45227"/>
      <trkpt lat="57.49888" lon="14.45195"/>
      <trkpt lat="57.49893" lon="14.45178"/>
      <trkpt lat="57.499" lon="14.45165"/>
      <trkpt lat="57.49911" lon="14.45144"/>
      <trkpt lat="57.49913" lon="14.45115"/>
      <trkpt lat="57.4992" lon="14.45091"/>
      <trkpt lat="57.49922" lon="14.45074"/>
      <trkpt lat="57.49916" lon="14.4505"/>
      <trkpt lat="57.49914" lon="14.45026"/>
      <trkpt lat="57.49915" lon="14.45005"/>
      <trkpt lat="57.49924" lon="14.44977"/>
      <trkpt lat="57.49924" lon="14.44966"/>
      <trkpt lat="57.4992" lon="14.44952"/>
      <trkpt lat="57.49915" lon="14.44933"/>
      <trkpt lat="57.49911" lon="14.44913"/>
      <trkpt lat="57.49913" lon="14.44886"/>
      <trkpt lat="57.49908" lon="14.44838"/>
      <trkpt lat="57.49903" lon="14.44811"/>
      <trkpt lat="57.49901" lon="14.44773"/>
      <trkpt lat="57.49886" lon="14.44733"/>
      <trkpt lat="57.49875" lon="14.44697"/>
      <trkpt lat="57.49863" lon="14.44662"/>
      <trkpt lat="57.49853" lon="14.44609"/>
      <trkpt lat="57.4984" lon="14.44548"/>
      <trkpt lat="57.49821" lon="14.44544"/>
      <trkpt lat="57.49806" lon="14.44524"/>
      <trkpt lat="57.49803" lon="14.44513"/>
      <trkpt lat="57.498" lon="14.4448"/>
      <trkpt lat="57.49795" lon="14.44448"/>
      <trkpt lat="57.49787" lon="14.44409"/>
      <trkpt lat="57.49769" lon="14.44349"/>
      <trkpt lat="57.49756" lon="14.44331"/>
      <trkpt lat="57.49748" lon="14.44315"/>
      <trkpt lat="57.49741" lon="14.44283"/>
      <trkpt lat="57.49732" lon="14.44257"/>
      <trkpt lat="57.49724" lon="14.44233"/>
      <trkpt lat="57.49698" lon="14.44236"/>
      <trkpt lat="57.49674" lon="14.44239"/>
      <trkpt lat="57.4966" lon="14.44246"/>
      <trkpt lat="57.49649" lon="14.44261"/>
      <trkpt lat="57.49634" lon="14.4428"/>
      <trkpt lat="57.49616" lon="14.44299"/>
      <trkpt lat="57.49605" lon="14.44304"/>
      <trkpt lat="57.49593" lon="14.44306"/>
      <trkpt lat="57.49582" lon="14.44302"/>
      <trkpt lat="57.49576" lon="14.44296"/>
      <trkpt lat="57.49572" lon="14.44287"/>
      <trkpt lat="57.49571" lon="14.44275"/>
      <trkpt lat="57.49573" lon="14.44262"/>
      <trkpt lat="57.49581" lon="14.44239"/>
      <trkpt lat="57.49582" lon="14.44226"/>
      <trkpt lat="57.49581" lon="14.44216"/>
      <trkpt lat="57.49579" lon="14.44207"/>
      <trkpt lat="57.49574" lon="14.44198"/>
      <trkpt lat="57.49561" lon="14.44182"/>
      <trkpt lat="57.49539" lon="14.44159"/>
      <trkpt lat="57.49525" lon="14.44155"/>
      <trkpt lat="57.495197" lon="14.44154"/>
      <trkpt lat="57.4952" lon="14.44153"/>
      <trkpt lat="57.49464" lon="14.44151"/>
      <trkpt lat="57.49429" lon="14.44011"/>
      <trkpt lat="57.49394" lon="14.4387"/>
      <trkpt lat="57.49359" lon="14.43729"/>
      <trkpt lat="57.49323" lon="14.43589"/>
      <trkpt lat="57.49288" lon="14.43448"/>
      <trkpt lat="57.49288" lon="14.43448"/>
      <trkpt lat="57.49256" lon="14.43321"/>
      <trkpt lat="57.49225" lon="14.43194"/>
      <trkpt lat="57.49193" lon="14.43067"/>
      <trkpt lat="57.49161" lon="14.4294"/>
      <trkpt lat="57.49129" lon="14.42813"/>
      <trkpt lat="57.49098" lon="14.42687"/>
      <trkpt lat="57.49106" lon="14.42623"/>
      <trkpt lat="57.49091" lon="14.42511"/>
      <trkpt lat="57.490935" lon="14.425095"/>
      <trkpt lat="57.49087" lon="14.42478"/>
      <trkpt lat="57.49076" lon="14.4245"/>
      <trkpt lat="57.49057" lon="14.42428"/>
      <trkpt lat="57.49043" lon="14.42423"/>
      <trkpt lat="57.49032" lon="14.42415"/>
      <trkpt lat="57.49017" lon="14.42393"/>
      <trkpt lat="57.48997" lon="14.42381"/>
      <trkpt lat="57.48989" lon="14.42372"/>
      <trkpt lat="57.48979" lon="14.42352"/>
      <trkpt lat="57.4897" lon="14.42336"/>
      <trkpt lat="57.48937" lon="14.42296"/>
      <trkpt lat="57.48923" lon="14.42281"/>
      <trkpt lat="57.48911" lon="14.42278"/>
      <trkpt lat="57.48873" lon="14.42293"/>
      <trkpt lat="57.48857" lon="14.42316"/>
      <trkpt lat="57.48838" lon="14.4234"/>
      <trkpt lat="57.4881" lon="14.42374"/>
      <trkpt lat="57.48797" lon="14.42384"/>
      <trkpt lat="57.48786" lon="14.42391"/>
      <trkpt lat="57.48765" lon="14.42398"/>
      <trkpt lat="57.48741" lon="14.42404"/>
      <trkpt lat="57.48714" lon="14.42414"/>
      <trkpt lat="57.48689" lon="14.42427"/>
      <trkpt lat="57.48671" lon="14.42444"/>
      <trkpt lat="57.48666" lon="14.42431"/>
      <trkpt lat="57.48651" lon="14.42419"/>
      <trkpt lat="57.48631" lon="14.42407"/>
      <trkpt lat="57.48617" lon="14.42397"/>
      <trkpt lat="57.48605" lon="14.42393"/>
      <trkpt lat="57.48591" lon="14.4239"/>
      <trkpt lat="57.48573" lon="14.42381"/>
      <trkpt lat="57.48557" lon="14.42379"/>
      <trkpt lat="57.48537" lon="14.42374"/>
      <trkpt lat="57.48528" lon="14.42375"/>
      <trkpt lat="57.48511" lon="14.42383"/>
      <trkpt lat="57.48496" lon="14.42383"/>
      <trkpt lat="57.48483" lon="14.42378"/>
      <trkpt lat="57.48474" lon="14.42374"/>
      <trkpt lat="57.48462" lon="14.42365"/>
      <trkpt lat="57.48462" lon="14.42356"/>
      <trkpt lat="57.48465" lon="14.42326"/>
      <trkpt lat="57.48479" lon="14.4228"/>
      <trkpt lat="57.4849" lon="14.42259"/>
      <trkpt lat="57.48498" lon="14.42243"/>
      <trkpt lat="57.48503" lon="14.42213"/>
      <trkpt lat="57.48503" lon="14.42201"/>
      <trkpt lat="57.48502" lon="14.42188"/>
      <trkpt lat="57.485" lon="14.4217"/>
      <trkpt lat="57.48499" lon="14.42155"/>
      <trkpt lat="57.48505" lon="14.42137"/>
      <trkpt lat="57.48509" lon="14.42123"/>
      <trkpt lat="57.48513" lon="14.42101"/>
      <trkpt lat="57.48515" lon="14.42079"/>
      <trkpt lat="57.48522" lon="14.42051"/>
      <trkpt lat="57.48531" lon="14.42039"/>
      <trkpt lat="57.48541" lon="14.42028"/>
      <trkpt lat="57.48582" lon="14.42001"/>
      <trkpt lat="57.48597" lon="14.41972"/>
      <trkpt lat="57.48605" lon="14.41897"/>
      <trkpt lat="57.48621" lon="14.41851"/>
      <trkpt lat="57.4863" lon="14.41845"/>
      <trkpt lat="57.48638" lon="14.41813"/>
      <trkpt lat="57.48642" lon="14.41787"/>
      <trkpt lat="57.48643" lon="14.41767"/>
      <trkpt lat="57.48645" lon="14.41748"/>
      <trkpt lat="57.48644" lon="14.41734"/>
      <trkpt lat="57.48644" lon="14.4171"/>
      <trkpt lat="57.48647" lon="14.41687"/>
      <trkpt lat="57.48652" lon="14.41671"/>
      <trkpt lat="57.48664" lon="14.41654"/>
      <trkpt lat="57.48683" lon="14.41642"/>
      <trkpt lat="57.48703" lon="14.4163"/>
      <trkpt lat="57.48727" lon="14.41632"/>
      <trkpt lat="57.48752" lon="14.41639"/>
      <trkpt lat="57.48776" lon="14.41636"/>
      <trkpt lat="57.48783" lon="14.4163"/>
      <trkpt lat="57.48793" lon="14.4162"/>
      <trkpt lat="57.48813" lon="14.41589"/>
      <trkpt lat="57.48814" lon="14.41571"/>
      <trkpt lat="57.48798" lon="14.41562"/>
      <trkpt lat="57.48781" lon="14.4156"/>
      <trkpt lat="57.48762" lon="14.41541"/>
      <trkpt lat="57.48729" lon="14.4153"/>
      <trkpt lat="57.48714" lon="14.4152"/>
      <trkpt lat="57.48704" lon="14.41516"/>
      <trkpt lat="57.48694" lon="14.41516"/>
      <trkpt lat="57.4868" lon="14.4152"/>
      <trkpt lat="57.48667" lon="14.4152"/>
      <trkpt lat="57.4866" lon="14.41513"/>
      <trkpt lat="57.48642" lon="14.41494"/>
      <trkpt lat="57.48627" lon="14.41484"/>
      <trkpt lat="57.48611" lon="14.41479"/>
      <trkpt lat="57.48583" lon="14.41481"/>
      <trkpt lat="57.48566" lon="14.41496"/>
      <trkpt lat="57.48549" lon="14.41521"/>
      <trkpt lat="57.48547" lon="14.41537"/>
      <trkpt lat="57.48543" lon="14.41539"/>
      <trkpt lat="57.48529" lon="14.41531"/>
      <trkpt lat="57.48521" lon="14.41526"/>
      <trkpt lat="57.48507" lon="14.41514"/>
      <trkpt lat="57.48499" lon="14.41513"/>
      <trkpt lat="57.48491" lon="14.41518"/>
      <trkpt lat="57.48485" lon="14.4152"/>
      <trkpt lat="57.48478" lon="14.41517"/>
      <trkpt lat="57.48468" lon="14.41475"/>
      <trkpt lat="57.48458" lon="14.41432"/>
      <trkpt lat="57.48454" lon="14.41381"/>
      <trkpt lat="57.48445" lon="14.41344"/>
      <trkpt lat="57.48423" lon="14.41319"/>
      <trkpt lat="57.48416" lon="14.41303"/>
      <trkpt lat="57.48414" lon="14.41282"/>
      <trkpt lat="57.48416" lon="14.41257"/>
      <trkpt lat="57.48415" lon="14.4123"/>
      <trkpt lat="57.48409" lon="14.41209"/>
      <trkpt lat="57.48401" lon="14.41191"/>
      <trkpt lat="57.48383" lon="14.4117"/>
      <trkpt lat="57.48375" lon="14.41154"/>
      <trkpt lat="57.4837" lon="14.41132"/>
      <trkpt lat="57.48367" lon="14.41112"/>
      <trkpt lat="57.48366" lon="14.41084"/>
      <trkpt lat="57.48362" lon="14.41076"/>
      <trkpt lat="57.48338" lon="14.41071"/>
      <trkpt lat="57.48344" lon="14.4103"/>
      <trkpt lat="57.48348" lon="14.40984"/>
      <trkpt lat="57.48352" lon="14.40968"/>
      <trkpt lat="57.48374" lon="14.40932"/>
      <trkpt lat="57.48387" lon="14.40914"/>
      <trkpt lat="57.48398" lon="14.40888"/>
      <trkpt lat="57.48425" lon="14.4086"/>
      <trkpt lat="57.48434" lon="14.40831"/>
      <trkpt lat="57.48438" lon="14.40797"/>
      <trkpt lat="57.48435" lon="14.40757"/>
      <trkpt lat="57.48435" lon="14.40735"/>
      <trkpt lat="57.48436" lon="14.40718"/>
      <trkpt lat="57.48441" lon="14.40699"/>
      <trkpt lat="57.48447" lon="14.40674"/>
      <trkpt lat="57.4845" lon="14.40664"/>
      <trkpt lat="57.48452" lon="14.4062"/>
      <trkpt lat="57.48455" lon="14.40602"/>
      <trkpt lat="57.48466" lon="14.40551"/>
      <trkpt lat="57.48503" lon="14.40462"/>
      <trkpt lat="57.48546" lon="14.40395"/>
      <trkpt lat="57.48572" lon="14.4035"/>
      <trkpt lat="57.48606" lon="14.40288"/>
      <trkpt lat="57.48617" lon="14.40272"/>
      <trkpt lat="57.48632" lon="14.40268"/>
      <trkpt lat="57.4866" lon="14.40269"/>
      <trkpt lat="57.48694" lon="14.40257"/>
      <trkpt lat="57.48707" lon="14.40237"/>
      <trkpt lat="57.48724" lon="14.40195"/>
      <trkpt lat="57.48736" lon="14.40164"/>
      <trkpt lat="57.48743" lon="14.40155"/>
      <trkpt lat="57.48752" lon="14.40148"/>
      <trkpt lat="57.4877" lon="14.40136"/>
      <trkpt lat="57.48785" lon="14.40116"/>
      <trkpt lat="57.48799" lon="14.40104"/>
      <trkpt lat="57.48829" lon="14.40085"/>
      <trkpt lat="57.48856" lon="14.40069"/>
      <trkpt lat="57.4887" lon="14.4006"/>
      <trkpt lat="57.48876" lon="14.40055"/>
      <trkpt lat="57.48883" lon="14.40048"/>
      <trkpt lat="57.48887" lon="14.40037"/>
      <trkpt lat="57.4889" lon="14.4001"/>
      <trkpt lat="57.48895" lon="14.39944"/>
      <trkpt lat="57.48908" lon="14.39853"/>
      <trkpt lat="57.4892" lon="14.39775"/>
      <trkpt lat="57.48936" lon="14.39724"/>
      <trkpt lat="57.4895" lon="14.39686"/>
      <trkpt lat="57.48953" lon="14.39666"/>
      <trkpt lat="57.48954" lon="14.39632"/>
      <trkpt lat="57.48956" lon="14.39587"/>
      <trkpt lat="57.4896" lon="14.39532"/>
      <trkpt lat="57.48968" lon="14.3949"/>
      <trkpt lat="57.48977" lon="14.39465"/>
      <trkpt lat="57.49007" lon="14.39412"/>
      <trkpt lat="57.49021" lon="14.39384"/>
      <trkpt lat="57.49024" lon="14.39366"/>
      <trkpt lat="57.49028" lon="14.39344"/>
      <trkpt lat="57.49032" lon="14.39326"/>
      <trkpt lat="57.49036" lon="14.39313"/>
      <trkpt lat="57.49044" lon="14.39289"/>
      <trkpt lat="57.49053" lon="14.39261"/>
      <trkpt lat="57.49074" lon="14.39158"/>
      <trkpt lat="57.49085" lon="14.39102"/>
      <trkpt lat="57.49091" lon="14.3905"/>
      <trkpt lat="57.49094" lon="14.39016"/>
      <trkpt lat="57.49088" lon="14.39004"/>
      <trkpt lat="57.49081" lon="14.38992"/>
      <trkpt lat="57.49069" lon="14.38977"/>
      <trkpt lat="57.49065" lon="14.38966"/>
      <trkpt lat="57.49063" lon="14.38945"/>
      <trkpt lat="57.49048" lon="14.38948"/>
      <trkpt lat="57.49037" lon="14.38941"/>
      <trkpt lat="57.49031" lon="14.38928"/>
      <trkpt lat="57.49024" lon="14.38898"/>
      <trkpt lat="57.4902" lon="14.38851"/>
      <trkpt lat="57.49012" lon="14.38774"/>
      <trkpt lat="57.49003" lon="14.38687"/>
      <trkpt lat="57.48991" lon="14.38601"/>
      <trkpt lat="57.48978" lon="14.38502"/>
      <trkpt lat="57.49004" lon="14.38486"/>
      <trkpt lat="57.49032" lon="14.38493"/>
      <trkpt lat="57.49046" lon="14.38492"/>
      <trkpt lat="57.49076" lon="14.38484"/>
      <trkpt lat="57.49105" lon="14.38483"/>
      <trkpt lat="57.49124" lon="14.38487"/>
      <trkpt lat="57.49141" lon="14.38489"/>
      <trkpt lat="57.49154" lon="14.38482"/>
      <trkpt lat="57.49171" lon="14.38454"/>
      <trkpt lat="57.49182" lon="14.3844"/>
      <trkpt lat="57.49191" lon="14.38435"/>
      <trkpt lat="57.492" lon="14.38422"/>
      <trkpt lat="57.4921" lon="14.38345"/>
      <trkpt lat="57.49212" lon="14.38326"/>
      <trkpt lat="57.4922" lon="14.38298"/>
      <trkpt lat="57.49244" lon="14.38284"/>
      <trkpt lat="57.49248" lon="14.38277"/>
      <trkpt lat="57.49252" lon="14.38266"/>
      <trkpt lat="57.49257" lon="14.38253"/>
      <trkpt lat="57.49264" lon="14.38233"/>
      <trkpt lat="57.49272" lon="14.38209"/>
      <trkpt lat="57.49281" lon="14.38183"/>
      <trkpt lat="57.49284" lon="14.38161"/>
      <trkpt lat="57.49282" lon="14.38146"/>
      <trkpt lat="57.49274" lon="14.38129"/>
      <trkpt lat="57.49267" lon="14.38088"/>
      <trkpt lat="57.49253" lon="14.38051"/>
      <trkpt lat="57.49236" lon="14.38014"/>
      <trkpt lat="57.49223" lon="14.37969"/>
      <trkpt lat="57.49209" lon="14.37934"/>
      <trkpt lat="57.49187" lon="14.37897"/>
      <trkpt lat="57.49177" lon="14.37877"/>
      <trkpt lat="57.4917" lon="14.37855"/>
      <trkpt lat="57.49168" lon="14.37823"/>
      <trkpt lat="57.49158" lon="14.37792"/>
      <trkpt lat="57.49155" lon="14.37773"/>
      <trkpt lat="57.49159" lon="14.37724"/>
      <trkpt lat="57.49152" lon="14.37714"/>
      <trkpt lat="57.49127" lon="14.37703"/>
      <trkpt lat="57.49109" lon="14.37689"/>
      <trkpt lat="57.49091" lon="14.37678"/>
      <trkpt lat="57.49077" lon="14.37664"/>
      <trkpt lat="57.49064" lon="14.37636"/>
      <trkpt lat="57.49047" lon="14.37619"/>
      <trkpt lat="57.49032" lon="14.37613"/>
      <trkpt lat="57.49015" lon="14.37608"/>
      <trkpt lat="57.48999" lon="14.37595"/>
      <trkpt lat="57.48978" lon="14.3757"/>
      <trkpt lat="57.48952" lon="14.3753"/>
      <trkpt lat="57.48926" lon="14.37459"/>
      <trkpt lat="57.48918" lon="14.37431"/>
      <trkpt lat="57.48907" lon="14.37398"/>
      <trkpt lat="57.48889" lon="14.3736"/>
      <trkpt lat="57.48885" lon="14.37341"/>
      <trkpt lat="57.48885" lon="14.37302"/>
      <trkpt lat="57.48884" lon="14.37249"/>
      <trkpt lat="57.48885" lon="14.37226"/>
      <trkpt lat="57.48891" lon="14.37203"/>
      <trkpt lat="57.48899" lon="14.37185"/>
      <trkpt lat="57.48906" lon="14.37165"/>
      <trkpt lat="57.48914" lon="14.37128"/>
      <trkpt lat="57.48924" lon="14.37083"/>
      <trkpt lat="57.48933" lon="14.37065"/>
      <trkpt lat="57.48947" lon="14.37041"/>
      <trkpt lat="57.48969" lon="14.37004"/>
      <trkpt lat="57.48975" lon="14.36978"/>
      <trkpt lat="57.48975" lon="14.36954"/>
      <trkpt lat="57.48962" lon="14.36904"/>
      <trkpt lat="57.48969" lon="14.36897"/>
      <trkpt lat="57.48978" lon="14.36886"/>
      <trkpt lat="57.48995" lon="14.36851"/>
      <trkpt lat="57.49015" lon="14.3681"/>
      <trkpt lat="57.49028" lon="14.36788"/>
      <trkpt lat="57.49038" lon="14.3678"/>
      <trkpt lat="57.49054" lon="14.36774"/>
      <trkpt lat="57.49077" lon="14.36771"/>
      <trkpt lat="57.49104" lon="14.36768"/>
      <trkpt lat="57.49117" lon="14.36761"/>
      <trkpt lat="57.49132" lon="14.36748"/>
      <trkpt lat="57.4916" lon="14.3672"/>
      <trkpt lat="57.49187" lon="14.36691"/>
      <trkpt lat="57.49202" lon="14.36682"/>
      <trkpt lat="57.49216" lon="14.36679"/>
      <trkpt lat="57.49221" lon="14.36637"/>
      <trkpt lat="57.4923" lon="14.36574"/>
      <trkpt lat="57.49236" lon="14.36539"/>
      <trkpt lat="57.49244" lon="14.36521"/>
      <trkpt lat="57.49257" lon="14.36499"/>
      <trkpt lat="57.49266" lon="14.36473"/>
      <trkpt lat="57.49273" lon="14.36444"/>
      <trkpt lat="57.49273" lon="14.36424"/>
      <trkpt lat="57.49259" lon="14.36385"/>
      <trkpt lat="57.49247" lon="14.36339"/>
      <trkpt lat="57.49243" lon="14.36321"/>
      <trkpt lat="57.49241" lon="14.36295"/>
      <trkpt lat="57.49243" lon="14.36274"/>
      <trkpt lat="57.49255" lon="14.36238"/>
      <trkpt lat="57.49252" lon="14.36177"/>
      <trkpt lat="57.49246" lon="14.36122"/>
      <trkpt lat="57.49244" lon="14.36099"/>
      <trkpt lat="57.49249" lon="14.36039"/>
      <trkpt lat="57.49292" lon="14.36031"/>
      <trkpt lat="57.49357" lon="14.36018"/>
      <trkpt lat="57.49425" lon="14.36005"/>
      <trkpt lat="57.49453" lon="14.35999"/>
      <trkpt lat="57.4947" lon="14.35993"/>
      <trkpt lat="57.49511" lon="14.35973"/>
      <trkpt lat="57.49555" lon="14.35951"/>
      <trkpt lat="57.49598" lon="14.3593"/>
      <trkpt lat="57.49624" lon="14.35918"/>
      <trkpt lat="57.49643" lon="14.35906"/>
      <trkpt lat="57.49644" lon="14.35895"/>
      <trkpt lat="57.49634" lon="14.35811"/>
      <trkpt lat="57.49615" lon="14.35685"/>
      <trkpt lat="57.49598" lon="14.35576"/>
      <trkpt lat="57.49595" lon="14.35535"/>
      <trkpt lat="57.49602" lon="14.35405"/>
      <trkpt lat="57.49614" lon="14.35406"/>
      <trkpt lat="57.4962" lon="14.35373"/>
      <trkpt lat="57.49629" lon="14.35311"/>
      <trkpt lat="57.49639" lon="14.35245"/>
      <trkpt lat="57.4964" lon="14.35211"/>
      <trkpt lat="57.49638" lon="14.35168"/>
      <trkpt lat="57.49631" lon="14.35111"/>
      <trkpt lat="57.4963" lon="14.35071"/>
      <trkpt lat="57.49641" lon="14.35022"/>
      <trkpt lat="57.4965" lon="14.34988"/>
      <trkpt lat="57.49647" lon="14.34944"/>
      <trkpt lat="57.49646" lon="14.34891"/>
      <trkpt lat="57.49642" lon="14.34866"/>
      <trkpt lat="57.49625" lon="14.34838"/>
      <trkpt lat="57.49607" lon="14.34801"/>
      <trkpt lat="57.49554" lon="14.34759"/>
      <trkpt lat="57.49539" lon="14.3474"/>
      <trkpt lat="57.495" lon="14.34675"/>
      <trkpt lat="57.49469" lon="14.34619"/>
      <trkpt lat="57.49464" lon="14.3459"/>
      <trkpt lat="57.49469" lon="14.34554"/>
      <trkpt lat="57.495" lon="14.3452"/>
      <trkpt lat="57.49505" lon="14.34449"/>
      <trkpt lat="57.49504" lon="14.3438"/>
      <trkpt lat="57.49499" lon="14.3432"/>
      <trkpt lat="57.49487" lon="14.34237"/>
      <trkpt lat="57.49477" lon="14.34209"/>
      <trkpt lat="57.49441" lon="14.34163"/>
      <trkpt lat="57.49425" lon="14.34117"/>
      <trkpt lat="57.4941" lon="14.34099"/>
      <trkpt lat="57.494" lon="14.34094"/>
      <trkpt lat="57.49355" lon="14.34084"/>
      <trkpt lat="57.49339" lon="14.34074"/>
      <trkpt lat="57.49334" lon="14.34055"/>
      <trkpt lat="57.49335" lon="14.34019"/>
      <trkpt lat="57.49324" lon="14.33978"/>
      <trkpt lat="57.49322" lon="14.33939"/>
      <trkpt lat="57.4932" lon="14.33865"/>
      <trkpt lat="57.49324" lon="14.33812"/>
      <trkpt lat="57.49329" lon="14.33792"/>
      <trkpt lat="57.49332" lon="14.33774"/>
      <trkpt lat="57.49332" lon="14.33755"/>
      <trkpt lat="57.49329" lon="14.33736"/>
      <trkpt lat="57.49326" lon="14.33712"/>
      <trkpt lat="57.49326" lon="14.3369"/>
      <trkpt lat="57.49332" lon="14.33645"/>
      <trkpt lat="57.49332" lon="14.33612"/>
      <trkpt lat="57.49329" lon="14.33574"/>
      <trkpt lat="57.49323" lon="14.33549"/>
      <trkpt lat="57.49314" lon="14.33531"/>
      <trkpt lat="57.49293" lon="14.33508"/>
      <trkpt lat="57.49304" lon="14.33476"/>
      <trkpt lat="57.49315" lon="14.33473"/>
      <trkpt lat="57.49328" lon="14.33485"/>
      <trkpt lat="57.49364" lon="14.33509"/>
      <trkpt lat="57.49371" lon="14.33509"/>
      <trkpt lat="57.49377" lon="14.33504"/>
      <trkpt lat="57.49383" lon="14.33495"/>
      <trkpt lat="57.49392" lon="14.33475"/>
      <trkpt lat="57.49399" lon="14.33453"/>
      <trkpt lat="57.49401" lon="14.33426"/>
      <trkpt lat="57.49392" lon="14.33383"/>
      <trkpt lat="57.49393" lon="14.3335"/>
      <trkpt lat="57.49383" lon="14.33318"/>
      <trkpt lat="57.49375" lon="14.33303"/>
      <trkpt lat="57.49359" lon="14.33287"/>
      <trkpt lat="57.49348" lon="14.33272"/>
      <trkpt lat="57.49329" lon="14.33208"/>
      <trkpt lat="57.49311" lon="14.33172"/>
      <trkpt lat="57.49288" lon="14.33136"/>
      <trkpt lat="57.49273" lon="14.33085"/>
      <trkpt lat="57.49253" lon="14.33031"/>
      <trkpt lat="57.49215" lon="14.32916"/>
      <trkpt lat="57.49194" lon="14.32836"/>
      <trkpt lat="57.49192" lon="14.32808"/>
      <trkpt lat="57.49191" lon="14.32782"/>
      <trkpt lat="57.49189" lon="14.32763"/>
      <trkpt lat="57.49174" lon="14.32725"/>
      <trkpt lat="57.49164" lon="14.32692"/>
      <trkpt lat="57.49206" lon="14.32683"/>
      <trkpt lat="57.49223" lon="14.32688"/>
      <trkpt lat="57.49234" lon="14.3269"/>
      <trkpt lat="57.49246" lon="14.32693"/>
      <trkpt lat="57.49254" lon="14.32689"/>
      <trkpt lat="57.49259" lon="14.32682"/>
      <trkpt lat="57.49268" lon="14.32649"/>
      <trkpt lat="57.49275" lon="14.32644"/>
      <trkpt lat="57.4929" lon="14.3265"/>
      <trkpt lat="57.49301" lon="14.32648"/>
      <trkpt lat="57.49315" lon="14.32648"/>
      <trkpt lat="57.49322" lon="14.32643"/>
      <trkpt lat="57.49329" lon="14.32621"/>
      <trkpt lat="57.49332" lon="14.32612"/>
      <trkpt lat="57.49337" lon="14.32606"/>
      <trkpt lat="57.49345" lon="14.32603"/>
      <trkpt lat="57.49363" lon="14.32611"/>
      <trkpt lat="57.4937" lon="14.32606"/>
      <trkpt lat="57.49377" lon="14.32597"/>
      <trkpt lat="57.494" lon="14.32564"/>
      <trkpt lat="57.49413" lon="14.32561"/>
      <trkpt lat="57.49424" lon="14.32573"/>
      <trkpt lat="57.49429" lon="14.32576"/>
      <trkpt lat="57.49444" lon="14.32577"/>
      <trkpt lat="57.49468" lon="14.32583"/>
      <trkpt lat="57.49498" lon="14.32588"/>
      <trkpt lat="57.49511" lon="14.3259"/>
      <trkpt lat="57.49534" lon="14.32585"/>
      <trkpt lat="57.49544" lon="14.3257"/>
      <trkpt lat="57.49553" lon="14.32554"/>
      <trkpt lat="57.49571" lon="14.32526"/>
      <trkpt lat="57.49576" lon="14.32509"/>
      <trkpt lat="57.49582" lon="14.32479"/>
      <trkpt lat="57.49592" lon="14.32413"/>
      <trkpt lat="57.49595" lon="14.32383"/>
      <trkpt lat="57.49596" lon="14.32367"/>
      <trkpt lat="57.49591" lon="14.32336"/>
      <trkpt lat="57.49592" lon="14.32323"/>
      <trkpt lat="57.49599" lon="14.32305"/>
      <trkpt lat="57.49607" lon="14.32303"/>
      <trkpt lat="57.49615" lon="14.32289"/>
      <trkpt lat="57.4962" lon="14.32289"/>
      <trkpt lat="57.49627" lon="14.32291"/>
      <trkpt lat="57.49632" lon="14.32287"/>
      <trkpt lat="57.4964" lon="14.32263"/>
      <trkpt lat="57.4964" lon="14.32253"/>
      <trkpt lat="57.49634" lon="14.32225"/>
      <trkpt lat="57.49633" lon="14.3221"/>
      <trkpt lat="57.49635" lon="14.32194"/>
      <trkpt lat="57.49638" lon="14.32178"/>
      <trkpt lat="57.4964" lon="14.32163"/>
      <trkpt lat="57.49636" lon="14.32145"/>
      <trkpt lat="57.4962" lon="14.32148"/>
      <trkpt lat="57.49625" lon="14.3212"/>
      <trkpt lat="57.4963" lon="14.32107"/>
      <trkpt lat="57.49634" lon="14.32095"/>
      <trkpt lat="57.49634" lon="14.32083"/>
      <trkpt lat="57.49633" lon="14.32062"/>
      <trkpt lat="57.49684" lon="14.32062"/>
      <trkpt lat="57.49696" lon="14.32039"/>
      <trkpt lat="57.49701" lon="14.32021"/>
      <trkpt lat="57.49705" lon="14.32"/>
      <trkpt lat="57.49709" lon="14.31983"/>
      <trkpt lat="57.49712" lon="14.31966"/>
      <trkpt lat="57.49715" lon="14.31947"/>
      <trkpt lat="57.49718" lon="14.31928"/>
      <trkpt lat="57.49724" lon="14.31908"/>
      <trkpt lat="57.49732" lon="14.31899"/>
      <trkpt lat="57.49745" lon="14.31894"/>
      <trkpt lat="57.49756" lon="14.3189"/>
      <trkpt lat="57.4976" lon="14.31887"/>
      <trkpt lat="57.49769" lon="14.31881"/>
      <trkpt lat="57.49777" lon="14.31871"/>
      <trkpt lat="57.49787" lon="14.31854"/>
      <trkpt lat="57.49811" lon="14.31837"/>
      <trkpt lat="57.49824" lon="14.31835"/>
      <trkpt lat="57.49837" lon="14.3184"/>
      <trkpt lat="57.49859" lon="14.31827"/>
      <trkpt lat="57.49866" lon="14.318"/>
      <trkpt lat="57.4987" lon="14.31779"/>
      <trkpt lat="57.49879" lon="14.31762"/>
      <trkpt lat="57.49886" lon="14.31751"/>
      <trkpt lat="57.49898" lon="14.31729"/>
      <trkpt lat="57.49905" lon="14.31692"/>
      <trkpt lat="57.49917" lon="14.31659"/>
      <trkpt lat="57.49921" lon="14.31633"/>
      <trkpt lat="57.49918" lon="14.3161"/>
      <trkpt lat="57.4991" lon="14.31594"/>
      <trkpt lat="57.49902" lon="14.31584"/>
      <trkpt lat="57.499" lon="14.31563"/>
      <trkpt lat="57.49905" lon="14.31542"/>
      <trkpt lat="57.49916" lon="14.31518"/>
      <trkpt lat="57.49943" lon="14.315"/>
      <trkpt lat="57.49974" lon="14.31487"/>
      <trkpt lat="57.50003" lon="14.31479"/>
      <trkpt lat="57.50022" lon="14.31477"/>
      <trkpt lat="57.50033" lon="14.31478"/>
      <trkpt lat="57.50043" lon="14.31467"/>
      <trkpt lat="57.50054" lon="14.31461"/>
      <trkpt lat="57.50072" lon="14.31459"/>
      <trkpt lat="57.5009" lon="14.31453"/>
      <trkpt lat="57.50104" lon="14.31459"/>
      <trkpt lat="57.50126" lon="14.31488"/>
      <trkpt lat="57.50156" lon="14.31526"/>
      <trkpt lat="57.50174" lon="14.31549"/>
      <trkpt lat="57.50194" lon="14.3155"/>
      <trkpt lat="57.50223" lon="14.3154"/>
      <trkpt lat="57.50243" lon="14.31526"/>
      <trkpt lat="57.50255" lon="14.31514"/>
      <trkpt lat="57.50265" lon="14.31496"/>
      <trkpt lat="57.50279" lon="14.31478"/>
      <trkpt lat="57.50294" lon="14.31462"/>
      <trkpt lat="57.50311" lon="14.31458"/>
      <trkpt lat="57.50356" lon="14.31461"/>
      <trkpt lat="57.50371" lon="14.31466"/>
      <trkpt lat="57.50399" lon="14.31497"/>
      <trkpt lat="57.50416" lon="14.31515"/>
      <trkpt lat="57.50449" lon="14.31522"/>
      <trkpt lat="57.50478" lon="14.31531"/>
      <trkpt lat="57.5051" lon="14.31548"/>
      <trkpt lat="57.50545" lon="14.31553"/>
      <trkpt lat="57.50564" lon="14.31551"/>
      <trkpt lat="57.50594" lon="14.31517"/>
      <trkpt lat="57.50625" lon="14.31483"/>
      <trkpt lat="57.50651" lon="14.31465"/>
      <trkpt lat="57.50678" lon="14.31433"/>
      <trkpt lat="57.50716" lon="14.31408"/>
      <trkpt lat="57.50717" lon="14.31401"/>
      <trkpt lat="57.50713" lon="14.31369"/>
      <trkpt lat="57.50712" lon="14.31352"/>
      <trkpt lat="57.50725" lon="14.31324"/>
      <trkpt lat="57.50736" lon="14.31311"/>
      <trkpt lat="57.50751" lon="14.31301"/>
      <trkpt lat="57.50762" lon="14.313"/>
      <trkpt lat="57.50781" lon="14.31297"/>
      <trkpt lat="57.50796" lon="14.31299"/>
      <trkpt lat="57.50807" lon="14.31307"/>
      <trkpt lat="57.50826" lon="14.31327"/>
      <trkpt lat="57.5084" lon="14.3134"/>
      <trkpt lat="57.50861" lon="14.31335"/>
      <trkpt lat="57.50884" lon="14.31323"/>
      <trkpt lat="57.50901" lon="14.31328"/>
      <trkpt lat="57.5091" lon="14.31322"/>
      <trkpt lat="57.50923" lon="14.31305"/>
      <trkpt lat="57.50938" lon="14.31286"/>
      <trkpt lat="57.50949" lon="14.31262"/>
      <trkpt lat="57.50969" lon="14.31232"/>
      <trkpt lat="57.50987" lon="14.31215"/>
      <trkpt lat="57.50996" lon="14.31187"/>
      <trkpt lat="57.51003" lon="14.3118"/>
      <trkpt lat="57.51018" lon="14.31175"/>
      <trkpt lat="57.51026" lon="14.31165"/>
      <trkpt lat="57.51041" lon="14.31136"/>
      <trkpt lat="57.51058" lon="14.3107"/>
      <trkpt lat="57.5107" lon="14.31027"/>
      <trkpt lat="57.51074" lon="14.3102"/>
      <trkpt lat="57.51082" lon="14.31013"/>
      <trkpt lat="57.51095" lon="14.3101"/>
      <trkpt lat="57.51107" lon="14.30995"/>
      <trkpt lat="57.51134" lon="14.30946"/>
      <trkpt lat="57.5114" lon="14.30924"/>
      <trkpt lat="57.51139" lon="14.30902"/>
      <trkpt lat="57.51137" lon="14.3087"/>
      <trkpt lat="57.51138" lon="14.30842"/>
      <trkpt lat="57.51141" lon="14.30818"/>
      <trkpt lat="57.51148" lon="14.30791"/>
      <trkpt lat="57.51159" lon="14.30782"/>
      <trkpt lat="57.51179" lon="14.30768"/>
      <trkpt lat="57.51201" lon="14.30756"/>
      <trkpt lat="57.51217" lon="14.30747"/>
      <trkpt lat="57.51228" lon="14.30736"/>
      <trkpt lat="57.51237" lon="14.30725"/>
      <trkpt lat="57.51239" lon="14.30712"/>
      <trkpt lat="57.51244" lon="14.30667"/>
      <trkpt lat="57.51248" lon="14.30649"/>
      <trkpt lat="57.51255" lon="14.30638"/>
      <trkpt lat="57.51264" lon="14.30634"/>
      <trkpt lat="57.51272" lon="14.3063"/>
      <trkpt lat="57.51287" lon="14.30617"/>
      <trkpt lat="57.51315" lon="14.30607"/>
      <trkpt lat="57.51326" lon="14.30597"/>
      <trkpt lat="57.51358" lon="14.30586"/>
      <trkpt lat="57.51377" lon="14.30568"/>
      <trkpt lat="57.51398" lon="14.30528"/>
      <trkpt lat="57.51432" lon="14.305"/>
      <trkpt lat="57.51453" lon="14.30502"/>
      <trkpt lat="57.51471" lon="14.30487"/>
      <trkpt lat="57.51499" lon="14.30463"/>
      <trkpt lat="57.51512" lon="14.30443"/>
      <trkpt lat="57.51525" lon="14.30435"/>
      <trkpt lat="57.51538" lon="14.30431"/>
      <trkpt lat="57.51557" lon="14.30426"/>
      <trkpt lat="57.51576" lon="14.30413"/>
      <trkpt lat="57.51596" lon="14.30391"/>
      <trkpt lat="57.51611" lon="14.30393"/>
      <trkpt lat="57.51638" lon="14.30384"/>
      <trkpt lat="57.51649" lon="14.30375"/>
      <trkpt lat="57.51654" lon="14.30363"/>
      <trkpt lat="57.51657" lon="14.30332"/>
      <trkpt lat="57.51655" lon="14.30317"/>
      <trkpt lat="57.51649" lon="14.30303"/>
      <trkpt lat="57.51638" lon="14.30277"/>
      <trkpt lat="57.51636" lon="14.30268"/>
      <trkpt lat="57.51636" lon="14.30256"/>
      <trkpt lat="57.51654" lon="14.30228"/>
      <trkpt lat="57.51664" lon="14.30205"/>
      <trkpt lat="57.51673" lon="14.30178"/>
      <trkpt lat="57.51686" lon="14.30148"/>
      <trkpt lat="57.5169" lon="14.30136"/>
      <trkpt lat="57.51692" lon="14.30116"/>
      <trkpt lat="57.51695" lon="14.3009"/>
      <trkpt lat="57.51706" lon="14.30063"/>
      <trkpt lat="57.51714" lon="14.30046"/>
      <trkpt lat="57.51719" lon="14.30035"/>
      <trkpt lat="57.51732" lon="14.30033"/>
      <trkpt lat="57.51782" lon="14.30019"/>
      <trkpt lat="57.51805" lon="14.30006"/>
      <trkpt lat="57.51822" lon="14.29983"/>
      <trkpt lat="57.51851" lon="14.29923"/>
      <trkpt lat="57.51883" lon="14.29837"/>
      <trkpt lat="57.51919" lon="14.2976"/>
      <trkpt lat="57.51948" lon="14.29674"/>
      <trkpt lat="57.51956" lon="14.29631"/>
      <trkpt lat="57.51958" lon="14.29588"/>
      <trkpt lat="57.51962" lon="14.29542"/>
      <trkpt lat="57.51961" lon="14.29524"/>
      <trkpt lat="57.51961" lon="14.29511"/>
      <trkpt lat="57.51956" lon="14.29491"/>
      <trkpt lat="57.51948" lon="14.29458"/>
      <trkpt lat="57.51954" lon="14.29432"/>
      <trkpt lat="57.51933" lon="14.29266"/>
      <trkpt lat="57.51928" lon="14.29114"/>
      <trkpt lat="57.51922" lon="14.29048"/>
      <trkpt lat="57.51917" lon="14.28943"/>
      <trkpt lat="57.51905" lon="14.28902"/>
      <trkpt lat="57.51912" lon="14.28873"/>
      <trkpt lat="57.51912" lon="14.28843"/>
      <trkpt lat="57.51913" lon="14.28814"/>
      <trkpt lat="57.52015" lon="14.28892"/>
      <trkpt lat="57.52068" lon="14.28908"/>
      <trkpt lat="57.52123" lon="14.28902"/>
      <trkpt lat="57.52123" lon="14.28908"/>
      <trkpt lat="57.52211" lon="14.28891"/>
      <trkpt lat="57.52299" lon="14.28875"/>
      <trkpt lat="57.52339" lon="14.28757"/>
      <trkpt lat="57.52386" lon="14.28643"/>
      <trkpt lat="57.5241" lon="14.28577"/>
      <trkpt lat="57.52452" lon="14.28521"/>
      <trkpt lat="57.52527" lon="14.28453"/>
      <trkpt lat="57.52603" lon="14.28386"/>
      <trkpt lat="57.52681" lon="14.28318"/>
      <trkpt lat="57.52758" lon="14.28251"/>
      <trkpt lat="57.52831" lon="14.28173"/>
      <trkpt lat="57.52854" lon="14.28156"/>
      <trkpt lat="57.52912" lon="14.28143"/>
      <trkpt lat="57.52969" lon="14.28131"/>
      <trkpt lat="57.53031" lon="14.28124"/>
      <trkpt lat="57.53109" lon="14.28111"/>
      <trkpt lat="57.53172" lon="14.28105"/>
      <trkpt lat="57.53226" lon="14.28105"/>
      <trkpt lat="57.53278" lon="14.28079"/>
      <trkpt lat="57.53348" lon="14.28025"/>
      <trkpt lat="57.53407" lon="14.27935"/>
      <trkpt lat="57.53453" lon="14.27841"/>
      <trkpt lat="57.53503" lon="14.27746"/>
      <trkpt lat="57.53553" lon="14.27652"/>
      <trkpt lat="57.53574" lon="14.27626"/>
      <trkpt lat="57.53617" lon="14.27611"/>
      <trkpt lat="57.53698" lon="14.27555"/>
      <trkpt lat="57.53743" lon="14.27534"/>
      <trkpt lat="57.5378" lon="14.27504"/>
      <trkpt lat="57.53824" lon="14.27462"/>
      <trkpt lat="57.53825" lon="14.27461"/>
    </trkseg>
  </trk>
</gpx>
