<?xml version="1.0" encoding="UTF-8"?>
<gpx xmlns="http://www.topografix.com/GPX/1/1" xmlns:xsi="http://www.w3.org/2001/XMLSchema-instance" version="1.1" creator="GPX RubyGem 1.0.0 -- http://dougfales.github.io/gpx/" xsi:schemaLocation="http://www.topografix.com/GPX/1/1 http://www.topografix.com/GPX/1/1/gpx.xsd">
  <metadata>
    <name>Höglandsleden etapp HÖ22 Skillingaryd - Åsafors - En del av Smålandsleden by Naturkartan</name>
    <time>2026-04-30T16:50:07+00:00</time>
  </metadata>
  <trk>
    <name>Höglandsleden etapp HÖ22 Skillingaryd - Åsafors - En del av Smålandsleden by Naturkartan</name>
    <trkseg>
      <trkpt lat="57.42843" lon="14.06862"/>
      <trkpt lat="57.42841" lon="14.06858"/>
      <trkpt lat="57.42838" lon="14.06857"/>
      <trkpt lat="57.42833" lon="14.06856"/>
      <trkpt lat="57.428346" lon="14.068156"/>
      <trkpt lat="57.42805" lon="14.06799"/>
      <trkpt lat="57.42782" lon="14.06784"/>
      <trkpt lat="57.42774" lon="14.06778"/>
      <trkpt lat="57.42756" lon="14.06714"/>
      <trkpt lat="57.42743" lon="14.06668"/>
      <trkpt lat="57.4273" lon="14.06624"/>
      <trkpt lat="57.42717" lon="14.0659"/>
      <trkpt lat="57.42705" lon="14.06558"/>
      <trkpt lat="57.42697" lon="14.06539"/>
      <trkpt lat="57.4269" lon="14.06527"/>
      <trkpt lat="57.42663" lon="14.06501"/>
      <trkpt lat="57.42646" lon="14.06476"/>
      <trkpt lat="57.42633" lon="14.06442"/>
      <trkpt lat="57.42618" lon="14.06386"/>
      <trkpt lat="57.42604" lon="14.06344"/>
      <trkpt lat="57.42603" lon="14.06329"/>
      <trkpt lat="57.42609" lon="14.0631"/>
      <trkpt lat="57.42617" lon="14.06294"/>
      <trkpt lat="57.42634" lon="14.06262"/>
      <trkpt lat="57.42644" lon="14.06229"/>
      <trkpt lat="57.4265" lon="14.06187"/>
      <trkpt lat="57.42654" lon="14.06152"/>
      <trkpt lat="57.42659" lon="14.06122"/>
      <trkpt lat="57.42662" lon="14.06103"/>
      <trkpt lat="57.42664" lon="14.06084"/>
      <trkpt lat="57.42666" lon="14.06068"/>
      <trkpt lat="57.4267" lon="14.06053"/>
      <trkpt lat="57.42676" lon="14.06037"/>
      <trkpt lat="57.42689" lon="14.0601"/>
      <trkpt lat="57.4271" lon="14.05982"/>
      <trkpt lat="57.42728" lon="14.0595"/>
      <trkpt lat="57.42739" lon="14.05941"/>
      <trkpt lat="57.42747" lon="14.05913"/>
      <trkpt lat="57.4276" lon="14.05815"/>
      <trkpt lat="57.42798" lon="14.05816"/>
      <trkpt lat="57.42838" lon="14.05816"/>
      <trkpt lat="57.42857" lon="14.05812"/>
      <trkpt lat="57.42877" lon="14.05803"/>
      <trkpt lat="57.42898" lon="14.05786"/>
      <trkpt lat="57.42932" lon="14.05748"/>
      <trkpt lat="57.42947" lon="14.05733"/>
      <trkpt lat="57.42967" lon="14.05714"/>
      <trkpt lat="57.42989" lon="14.05693"/>
      <trkpt lat="57.43022" lon="14.05666"/>
      <trkpt lat="57.43051" lon="14.05651"/>
      <trkpt lat="57.4308" lon="14.05635"/>
      <trkpt lat="57.431" lon="14.05613"/>
      <trkpt lat="57.43132" lon="14.05557"/>
      <trkpt lat="57.43144" lon="14.05541"/>
      <trkpt lat="57.43155" lon="14.05529"/>
      <trkpt lat="57.43193" lon="14.05515"/>
      <trkpt lat="57.43209" lon="14.0545"/>
      <trkpt lat="57.4321" lon="14.05431"/>
      <trkpt lat="57.43205" lon="14.05398"/>
      <trkpt lat="57.43207" lon="14.05384"/>
      <trkpt lat="57.43214" lon="14.0537"/>
      <trkpt lat="57.43228" lon="14.05362"/>
      <trkpt lat="57.43264" lon="14.05346"/>
      <trkpt lat="57.43273" lon="14.05328"/>
      <trkpt lat="57.43287" lon="14.05283"/>
      <trkpt lat="57.43305" lon="14.05195"/>
      <trkpt lat="57.43308" lon="14.05172"/>
      <trkpt lat="57.43306" lon="14.05152"/>
      <trkpt lat="57.433" lon="14.05138"/>
      <trkpt lat="57.4329" lon="14.05131"/>
      <trkpt lat="57.43282" lon="14.05121"/>
      <trkpt lat="57.43273" lon="14.05102"/>
      <trkpt lat="57.43266" lon="14.05073"/>
      <trkpt lat="57.43258" lon="14.0504"/>
      <trkpt lat="57.4325" lon="14.0503"/>
      <trkpt lat="57.4324" lon="14.05025"/>
      <trkpt lat="57.43239" lon="14.05011"/>
      <trkpt lat="57.43242" lon="14.04988"/>
      <trkpt lat="57.43256" lon="14.04955"/>
      <trkpt lat="57.43267" lon="14.04934"/>
      <trkpt lat="57.4328" lon="14.0489"/>
      <trkpt lat="57.43285" lon="14.04866"/>
      <trkpt lat="57.43286" lon="14.04849"/>
      <trkpt lat="57.43282" lon="14.04837"/>
      <trkpt lat="57.43256" lon="14.04794"/>
      <trkpt lat="57.43239" lon="14.04767"/>
      <trkpt lat="57.43221" lon="14.04734"/>
      <trkpt lat="57.43213" lon="14.04708"/>
      <trkpt lat="57.43205" lon="14.04685"/>
      <trkpt lat="57.43195" lon="14.04673"/>
      <trkpt lat="57.43184" lon="14.04664"/>
      <trkpt lat="57.43159" lon="14.04649"/>
      <trkpt lat="57.43135" lon="14.04634"/>
      <trkpt lat="57.43118" lon="14.0462"/>
      <trkpt lat="57.43099" lon="14.046"/>
      <trkpt lat="57.43084" lon="14.04579"/>
      <trkpt lat="57.43071" lon="14.04557"/>
      <trkpt lat="57.43056" lon="14.04547"/>
      <trkpt lat="57.43049" lon="14.04542"/>
      <trkpt lat="57.43041" lon="14.04533"/>
      <trkpt lat="57.43034" lon="14.04521"/>
      <trkpt lat="57.43025" lon="14.04495"/>
      <trkpt lat="57.43009" lon="14.04443"/>
      <trkpt lat="57.42991" lon="14.04388"/>
      <trkpt lat="57.42975" lon="14.04339"/>
      <trkpt lat="57.42963" lon="14.04307"/>
      <trkpt lat="57.42956" lon="14.0428"/>
      <trkpt lat="57.42951" lon="14.04228"/>
      <trkpt lat="57.42944" lon="14.04201"/>
      <trkpt lat="57.42948" lon="14.04168"/>
      <trkpt lat="57.42948" lon="14.04148"/>
      <trkpt lat="57.42946" lon="14.04123"/>
      <trkpt lat="57.42939" lon="14.04091"/>
      <trkpt lat="57.42928" lon="14.04058"/>
      <trkpt lat="57.42913" lon="14.04025"/>
      <trkpt lat="57.42898" lon="14.03987"/>
      <trkpt lat="57.4288" lon="14.03936"/>
      <trkpt lat="57.42865" lon="14.03891"/>
      <trkpt lat="57.42854" lon="14.0386"/>
      <trkpt lat="57.42843" lon="14.03846"/>
      <trkpt lat="57.42831" lon="14.03841"/>
      <trkpt lat="57.42814" lon="14.03837"/>
      <trkpt lat="57.42781" lon="14.03825"/>
      <trkpt lat="57.42773" lon="14.0382"/>
      <trkpt lat="57.42761" lon="14.03784"/>
      <trkpt lat="57.42739" lon="14.03711"/>
      <trkpt lat="57.42725" lon="14.03688"/>
      <trkpt lat="57.42718" lon="14.03677"/>
      <trkpt lat="57.42701" lon="14.03596"/>
      <trkpt lat="57.4269" lon="14.03573"/>
      <trkpt lat="57.4268" lon="14.03569"/>
      <trkpt lat="57.42671" lon="14.03577"/>
      <trkpt lat="57.42659" lon="14.03579"/>
      <trkpt lat="57.42636" lon="14.0357"/>
      <trkpt lat="57.42606" lon="14.03557"/>
      <trkpt lat="57.42591" lon="14.03544"/>
      <trkpt lat="57.42577" lon="14.0352"/>
      <trkpt lat="57.42566" lon="14.03509"/>
      <trkpt lat="57.42552" lon="14.03508"/>
      <trkpt lat="57.42534" lon="14.03508"/>
      <trkpt lat="57.42522" lon="14.03504"/>
      <trkpt lat="57.42508" lon="14.03494"/>
      <trkpt lat="57.42489" lon="14.03478"/>
      <trkpt lat="57.42479" lon="14.03476"/>
      <trkpt lat="57.42459" lon="14.03481"/>
      <trkpt lat="57.42434" lon="14.03484"/>
      <trkpt lat="57.42412" lon="14.03483"/>
      <trkpt lat="57.42379" lon="14.03486"/>
      <trkpt lat="57.4236" lon="14.03488"/>
      <trkpt lat="57.42341" lon="14.03483"/>
      <trkpt lat="57.42319" lon="14.03474"/>
      <trkpt lat="57.42304" lon="14.03466"/>
      <trkpt lat="57.42282" lon="14.03462"/>
      <trkpt lat="57.42237" lon="14.03446"/>
      <trkpt lat="57.42216" lon="14.03432"/>
      <trkpt lat="57.42205" lon="14.03432"/>
      <trkpt lat="57.4222" lon="14.03355"/>
      <trkpt lat="57.42231" lon="14.03329"/>
      <trkpt lat="57.42235" lon="14.0331"/>
      <trkpt lat="57.42237" lon="14.03286"/>
      <trkpt lat="57.42233" lon="14.03258"/>
      <trkpt lat="57.42231" lon="14.03232"/>
      <trkpt lat="57.42228" lon="14.03199"/>
      <trkpt lat="57.4223" lon="14.03181"/>
      <trkpt lat="57.42231" lon="14.03165"/>
      <trkpt lat="57.42225" lon="14.03127"/>
      <trkpt lat="57.4222" lon="14.03106"/>
      <trkpt lat="57.42215" lon="14.0309"/>
      <trkpt lat="57.42213" lon="14.03068"/>
      <trkpt lat="57.42206" lon="14.03052"/>
      <trkpt lat="57.42197" lon="14.03038"/>
      <trkpt lat="57.42179" lon="14.03012"/>
      <trkpt lat="57.42165" lon="14.02992"/>
      <trkpt lat="57.42154" lon="14.02962"/>
      <trkpt lat="57.42139" lon="14.02924"/>
      <trkpt lat="57.42129" lon="14.02897"/>
      <trkpt lat="57.42118" lon="14.02881"/>
      <trkpt lat="57.42109" lon="14.02864"/>
      <trkpt lat="57.42097" lon="14.02828"/>
      <trkpt lat="57.42091" lon="14.02812"/>
      <trkpt lat="57.42084" lon="14.02786"/>
      <trkpt lat="57.42076" lon="14.0277"/>
      <trkpt lat="57.42069" lon="14.02763"/>
      <trkpt lat="57.42063" lon="14.0276"/>
      <trkpt lat="57.42041" lon="14.02754"/>
      <trkpt lat="57.42017" lon="14.02749"/>
      <trkpt lat="57.4199" lon="14.0274"/>
      <trkpt lat="57.41947" lon="14.0271"/>
      <trkpt lat="57.41935" lon="14.02696"/>
      <trkpt lat="57.41928" lon="14.0268"/>
      <trkpt lat="57.41921" lon="14.02653"/>
      <trkpt lat="57.41913" lon="14.02638"/>
      <trkpt lat="57.41907" lon="14.02635"/>
      <trkpt lat="57.41894" lon="14.02636"/>
      <trkpt lat="57.41873" lon="14.02644"/>
      <trkpt lat="57.41855" lon="14.02649"/>
      <trkpt lat="57.41829" lon="14.0265"/>
      <trkpt lat="57.41812" lon="14.02651"/>
      <trkpt lat="57.41805" lon="14.02645"/>
      <trkpt lat="57.41801" lon="14.02629"/>
      <trkpt lat="57.41803" lon="14.02614"/>
      <trkpt lat="57.41808" lon="14.02594"/>
      <trkpt lat="57.41815" lon="14.02575"/>
      <trkpt lat="57.41824" lon="14.02573"/>
      <trkpt lat="57.41839" lon="14.02581"/>
      <trkpt lat="57.41867" lon="14.02582"/>
      <trkpt lat="57.41898" lon="14.02569"/>
      <trkpt lat="57.41931" lon="14.02565"/>
      <trkpt lat="57.41951" lon="14.02562"/>
      <trkpt lat="57.41978" lon="14.02557"/>
      <trkpt lat="57.41987" lon="14.02553"/>
      <trkpt lat="57.41987" lon="14.02475"/>
      <trkpt lat="57.41985" lon="14.02429"/>
      <trkpt lat="57.41987" lon="14.02421"/>
      <trkpt lat="57.42009" lon="14.02374"/>
      <trkpt lat="57.42018" lon="14.02355"/>
      <trkpt lat="57.4203" lon="14.02333"/>
      <trkpt lat="57.42018" lon="14.02321"/>
      <trkpt lat="57.42006" lon="14.02276"/>
      <trkpt lat="57.41998" lon="14.02244"/>
      <trkpt lat="57.41992" lon="14.02224"/>
      <trkpt lat="57.42006" lon="14.02211"/>
      <trkpt lat="57.42022" lon="14.02199"/>
      <trkpt lat="57.42043" lon="14.02192"/>
      <trkpt lat="57.42052" lon="14.02181"/>
      <trkpt lat="57.42061" lon="14.0217"/>
      <trkpt lat="57.4207" lon="14.02155"/>
      <trkpt lat="57.42073" lon="14.02133"/>
      <trkpt lat="57.42073" lon="14.02114"/>
      <trkpt lat="57.42073" lon="14.02103"/>
      <trkpt lat="57.42076" lon="14.02093"/>
      <trkpt lat="57.42083" lon="14.02078"/>
      <trkpt lat="57.42101" lon="14.02044"/>
      <trkpt lat="57.42115" lon="14.02024"/>
      <trkpt lat="57.42123" lon="14.02009"/>
      <trkpt lat="57.42129" lon="14.01986"/>
      <trkpt lat="57.42125" lon="14.01964"/>
      <trkpt lat="57.42115" lon="14.01946"/>
      <trkpt lat="57.42098" lon="14.01929"/>
      <trkpt lat="57.42094" lon="14.01913"/>
      <trkpt lat="57.42088" lon="14.01871"/>
      <trkpt lat="57.42088" lon="14.01852"/>
      <trkpt lat="57.4209" lon="14.01836"/>
      <trkpt lat="57.42091" lon="14.01796"/>
      <trkpt lat="57.4209" lon="14.01775"/>
      <trkpt lat="57.4209" lon="14.01755"/>
      <trkpt lat="57.42091" lon="14.01728"/>
      <trkpt lat="57.42095" lon="14.01705"/>
      <trkpt lat="57.42109" lon="14.01649"/>
      <trkpt lat="57.42117" lon="14.01607"/>
      <trkpt lat="57.42121" lon="14.01587"/>
      <trkpt lat="57.42128" lon="14.01572"/>
      <trkpt lat="57.42144" lon="14.01556"/>
      <trkpt lat="57.42147" lon="14.01546"/>
      <trkpt lat="57.42155" lon="14.01437"/>
      <trkpt lat="57.42158" lon="14.01418"/>
      <trkpt lat="57.42178" lon="14.01383"/>
      <trkpt lat="57.42192" lon="14.01365"/>
      <trkpt lat="57.42195" lon="14.01354"/>
      <trkpt lat="57.42196" lon="14.01331"/>
      <trkpt lat="57.42196" lon="14.01316"/>
      <trkpt lat="57.422" lon="14.01302"/>
      <trkpt lat="57.42231" lon="14.01225"/>
      <trkpt lat="57.42234" lon="14.01207"/>
      <trkpt lat="57.42229" lon="14.01188"/>
      <trkpt lat="57.42211" lon="14.01155"/>
      <trkpt lat="57.42207" lon="14.01133"/>
      <trkpt lat="57.42202" lon="14.01102"/>
      <trkpt lat="57.42203" lon="14.0108"/>
      <trkpt lat="57.42209" lon="14.01059"/>
      <trkpt lat="57.42216" lon="14.01038"/>
      <trkpt lat="57.42242" lon="14.00994"/>
      <trkpt lat="57.42263" lon="14.00963"/>
      <trkpt lat="57.42276" lon="14.00944"/>
      <trkpt lat="57.42283" lon="14.00919"/>
      <trkpt lat="57.42291" lon="14.00899"/>
      <trkpt lat="57.42298" lon="14.00891"/>
      <trkpt lat="57.42316" lon="14.00867"/>
      <trkpt lat="57.42322" lon="14.00831"/>
      <trkpt lat="57.42328" lon="14.0081"/>
      <trkpt lat="57.42343" lon="14.00778"/>
      <trkpt lat="57.42353" lon="14.00763"/>
      <trkpt lat="57.42359" lon="14.00751"/>
      <trkpt lat="57.42365" lon="14.00726"/>
      <trkpt lat="57.42374" lon="14.00682"/>
      <trkpt lat="57.42383" lon="14.00655"/>
      <trkpt lat="57.42393" lon="14.00624"/>
      <trkpt lat="57.42401" lon="14.00613"/>
      <trkpt lat="57.4241" lon="14.0061"/>
      <trkpt lat="57.4242" lon="14.00606"/>
      <trkpt lat="57.42444" lon="14.00597"/>
      <trkpt lat="57.42463" lon="14.00589"/>
      <trkpt lat="57.42479" lon="14.00582"/>
      <trkpt lat="57.42476" lon="14.00569"/>
      <trkpt lat="57.42471" lon="14.00549"/>
      <trkpt lat="57.42466" lon="14.00511"/>
      <trkpt lat="57.42468" lon="14.00491"/>
      <trkpt lat="57.4248" lon="14.00471"/>
      <trkpt lat="57.42494" lon="14.00446"/>
      <trkpt lat="57.42506" lon="14.00435"/>
      <trkpt lat="57.4254" lon="14.00417"/>
      <trkpt lat="57.4256" lon="14.00376"/>
      <trkpt lat="57.42576" lon="14.00343"/>
      <trkpt lat="57.42592" lon="14.00315"/>
      <trkpt lat="57.42598" lon="14.00295"/>
      <trkpt lat="57.42603" lon="14.00269"/>
      <trkpt lat="57.42612" lon="14.00237"/>
      <trkpt lat="57.42629" lon="14.00204"/>
      <trkpt lat="57.42656" lon="14.00184"/>
      <trkpt lat="57.42696" lon="14.00161"/>
      <trkpt lat="57.42737" lon="14.00119"/>
      <trkpt lat="57.42755" lon="14.00101"/>
      <trkpt lat="57.42768" lon="14.00098"/>
      <trkpt lat="57.42803" lon="14.00104"/>
      <trkpt lat="57.42842" lon="14.00099"/>
      <trkpt lat="57.42854" lon="14.00089"/>
      <trkpt lat="57.42869" lon="14.00061"/>
      <trkpt lat="57.42886" lon="14.00043"/>
      <trkpt lat="57.42892" lon="14.00023"/>
      <trkpt lat="57.42883" lon="14.00007"/>
      <trkpt lat="57.42877" lon="13.99989"/>
      <trkpt lat="57.42871" lon="13.99969"/>
      <trkpt lat="57.42858" lon="13.99935"/>
      <trkpt lat="57.42853" lon="13.99916"/>
      <trkpt lat="57.42853" lon="13.99895"/>
      <trkpt lat="57.42858" lon="13.99881"/>
      <trkpt lat="57.42885" lon="13.99862"/>
      <trkpt lat="57.42893" lon="13.99853"/>
      <trkpt lat="57.42902" lon="13.9984"/>
      <trkpt lat="57.42911" lon="13.99824"/>
      <trkpt lat="57.42923" lon="13.99789"/>
      <trkpt lat="57.42937" lon="13.9975"/>
      <trkpt lat="57.42944" lon="13.99728"/>
      <trkpt lat="57.42945" lon="13.99709"/>
      <trkpt lat="57.42944" lon="13.99693"/>
      <trkpt lat="57.42938" lon="13.99666"/>
      <trkpt lat="57.4293" lon="13.99631"/>
      <trkpt lat="57.42927" lon="13.99615"/>
      <trkpt lat="57.42925" lon="13.99592"/>
      <trkpt lat="57.42926" lon="13.99568"/>
      <trkpt lat="57.4293" lon="13.99535"/>
      <trkpt lat="57.42938" lon="13.99528"/>
      <trkpt lat="57.4296" lon="13.9951"/>
      <trkpt lat="57.42975" lon="13.99498"/>
      <trkpt lat="57.42988" lon="13.99492"/>
      <trkpt lat="57.42999" lon="13.9949"/>
      <trkpt lat="57.43013" lon="13.99492"/>
      <trkpt lat="57.43024" lon="13.99496"/>
      <trkpt lat="57.43062" lon="13.99512"/>
      <trkpt lat="57.43087" lon="13.9952"/>
      <trkpt lat="57.43095" lon="13.99429"/>
      <trkpt lat="57.43097" lon="13.99397"/>
      <trkpt lat="57.43097" lon="13.99372"/>
      <trkpt lat="57.43093" lon="13.99344"/>
      <trkpt lat="57.43085" lon="13.99328"/>
      <trkpt lat="57.43077" lon="13.9931"/>
      <trkpt lat="57.43077" lon="13.99284"/>
      <trkpt lat="57.43074" lon="13.99267"/>
      <trkpt lat="57.43072" lon="13.99249"/>
      <trkpt lat="57.43065" lon="13.99218"/>
      <trkpt lat="57.43061" lon="13.99195"/>
      <trkpt lat="57.43057" lon="13.99152"/>
      <trkpt lat="57.43052" lon="13.99121"/>
      <trkpt lat="57.43043" lon="13.99081"/>
      <trkpt lat="57.43032" lon="13.99048"/>
      <trkpt lat="57.43029" lon="13.99019"/>
      <trkpt lat="57.4303" lon="13.98985"/>
      <trkpt lat="57.43015" lon="13.98983"/>
      <trkpt lat="57.43001" lon="13.9898"/>
      <trkpt lat="57.42988" lon="13.98973"/>
      <trkpt lat="57.42979" lon="13.98966"/>
      <trkpt lat="57.42971" lon="13.98957"/>
      <trkpt lat="57.42964" lon="13.98947"/>
      <trkpt lat="57.4295" lon="13.9892"/>
      <trkpt lat="57.42941" lon="13.9891"/>
      <trkpt lat="57.42919" lon="13.98889"/>
      <trkpt lat="57.42906" lon="13.98878"/>
      <trkpt lat="57.42897" lon="13.98871"/>
      <trkpt lat="57.42879" lon="13.98856"/>
      <trkpt lat="57.42863" lon="13.98844"/>
      <trkpt lat="57.42849" lon="13.98833"/>
      <trkpt lat="57.42836" lon="13.98824"/>
      <trkpt lat="57.42824" lon="13.98818"/>
      <trkpt lat="57.42813" lon="13.98811"/>
      <trkpt lat="57.428" lon="13.98797"/>
      <trkpt lat="57.42789" lon="13.98783"/>
      <trkpt lat="57.42782" lon="13.98767"/>
      <trkpt lat="57.42773" lon="13.98749"/>
      <trkpt lat="57.42763" lon="13.98722"/>
      <trkpt lat="57.42746" lon="13.98668"/>
      <trkpt lat="57.42736" lon="13.9864"/>
      <trkpt lat="57.42725" lon="13.98606"/>
      <trkpt lat="57.42723" lon="13.98591"/>
      <trkpt lat="57.42722" lon="13.98568"/>
      <trkpt lat="57.4272" lon="13.98549"/>
      <trkpt lat="57.42719" lon="13.98536"/>
      <trkpt lat="57.42715" lon="13.98524"/>
      <trkpt lat="57.42708" lon="13.98511"/>
      <trkpt lat="57.427" lon="13.98496"/>
      <trkpt lat="57.42693" lon="13.98475"/>
      <trkpt lat="57.42685" lon="13.98436"/>
      <trkpt lat="57.42678" lon="13.98407"/>
      <trkpt lat="57.42655" lon="13.98338"/>
      <trkpt lat="57.42648" lon="13.98302"/>
      <trkpt lat="57.42645" lon="13.98265"/>
      <trkpt lat="57.42646" lon="13.9824"/>
      <trkpt lat="57.42652" lon="13.98217"/>
      <trkpt lat="57.42658" lon="13.98194"/>
      <trkpt lat="57.42661" lon="13.98176"/>
      <trkpt lat="57.42662" lon="13.98155"/>
      <trkpt lat="57.42661" lon="13.9813"/>
      <trkpt lat="57.42658" lon="13.98113"/>
      <trkpt lat="57.42653" lon="13.98096"/>
      <trkpt lat="57.42648" lon="13.98086"/>
      <trkpt lat="57.42639" lon="13.98075"/>
      <trkpt lat="57.4262" lon="13.98057"/>
      <trkpt lat="57.42605" lon="13.98043"/>
      <trkpt lat="57.42594" lon="13.98031"/>
      <trkpt lat="57.42586" lon="13.98029"/>
      <trkpt lat="57.42567" lon="13.98035"/>
      <trkpt lat="57.4254" lon="13.98045"/>
      <trkpt lat="57.42525" lon="13.98053"/>
      <trkpt lat="57.42512" lon="13.9806"/>
      <trkpt lat="57.42499" lon="13.98061"/>
      <trkpt lat="57.42463" lon="13.98083"/>
      <trkpt lat="57.4243" lon="13.98109"/>
      <trkpt lat="57.42417" lon="13.98116"/>
      <trkpt lat="57.42391" lon="13.98129"/>
      <trkpt lat="57.42359" lon="13.98137"/>
      <trkpt lat="57.42352" lon="13.98156"/>
      <trkpt lat="57.42346" lon="13.98255"/>
      <trkpt lat="57.42337" lon="13.98282"/>
      <trkpt lat="57.42336" lon="13.98309"/>
      <trkpt lat="57.42343" lon="13.98373"/>
      <trkpt lat="57.42342" lon="13.98388"/>
      <trkpt lat="57.42338" lon="13.98397"/>
      <trkpt lat="57.42327" lon="13.98418"/>
      <trkpt lat="57.42313" lon="13.98446"/>
      <trkpt lat="57.423" lon="13.98464"/>
      <trkpt lat="57.42288" lon="13.9848"/>
      <trkpt lat="57.42272" lon="13.98501"/>
      <trkpt lat="57.42253" lon="13.98519"/>
      <trkpt lat="57.42243" lon="13.98523"/>
      <trkpt lat="57.42236" lon="13.98524"/>
      <trkpt lat="57.42224" lon="13.9852"/>
      <trkpt lat="57.42209" lon="13.98517"/>
      <trkpt lat="57.42189" lon="13.98513"/>
      <trkpt lat="57.4217" lon="13.98512"/>
      <trkpt lat="57.42134" lon="13.98515"/>
      <trkpt lat="57.42118" lon="13.98518"/>
      <trkpt lat="57.42104" lon="13.98518"/>
      <trkpt lat="57.42084" lon="13.98513"/>
      <trkpt lat="57.42063" lon="13.98507"/>
      <trkpt lat="57.4204" lon="13.98502"/>
      <trkpt lat="57.42016" lon="13.98496"/>
      <trkpt lat="57.42014" lon="13.98496"/>
      <trkpt lat="57.41977" lon="13.98498"/>
      <trkpt lat="57.41963" lon="13.985"/>
      <trkpt lat="57.41939" lon="13.98501"/>
      <trkpt lat="57.41927" lon="13.98506"/>
      <trkpt lat="57.41922" lon="13.98509"/>
      <trkpt lat="57.41904" lon="13.98498"/>
      <trkpt lat="57.41895" lon="13.98492"/>
      <trkpt lat="57.41888" lon="13.98482"/>
      <trkpt lat="57.41883" lon="13.98453"/>
      <trkpt lat="57.4188" lon="13.98447"/>
      <trkpt lat="57.41876" lon="13.98441"/>
      <trkpt lat="57.41876" lon="13.98439"/>
      <trkpt lat="57.41878" lon="13.98435"/>
      <trkpt lat="57.4188" lon="13.98381"/>
      <trkpt lat="57.41887" lon="13.98278"/>
      <trkpt lat="57.41894" lon="13.98184"/>
      <trkpt lat="57.419" lon="13.98093"/>
      <trkpt lat="57.41902" lon="13.98038"/>
      <trkpt lat="57.41901" lon="13.98"/>
      <trkpt lat="57.41898" lon="13.97985"/>
      <trkpt lat="57.41887" lon="13.97971"/>
      <trkpt lat="57.41876" lon="13.97956"/>
      <trkpt lat="57.41867" lon="13.97943"/>
      <trkpt lat="57.41853" lon="13.97927"/>
      <trkpt lat="57.41846" lon="13.97922"/>
      <trkpt lat="57.41835" lon="13.97914"/>
      <trkpt lat="57.41826" lon="13.97907"/>
      <trkpt lat="57.4181" lon="13.97896"/>
      <trkpt lat="57.41792" lon="13.97883"/>
      <trkpt lat="57.41785" lon="13.97879"/>
      <trkpt lat="57.41781" lon="13.97878"/>
      <trkpt lat="57.41771" lon="13.97878"/>
      <trkpt lat="57.41763" lon="13.97877"/>
      <trkpt lat="57.41752" lon="13.97868"/>
      <trkpt lat="57.41739" lon="13.97857"/>
      <trkpt lat="57.41722" lon="13.97841"/>
      <trkpt lat="57.4171" lon="13.9783"/>
      <trkpt lat="57.41703" lon="13.97823"/>
      <trkpt lat="57.41696" lon="13.97818"/>
      <trkpt lat="57.41686" lon="13.97813"/>
      <trkpt lat="57.41676" lon="13.97813"/>
      <trkpt lat="57.41656" lon="13.97817"/>
      <trkpt lat="57.41642" lon="13.9782"/>
      <trkpt lat="57.41632" lon="13.97821"/>
      <trkpt lat="57.41618" lon="13.97814"/>
      <trkpt lat="57.41604" lon="13.9781"/>
      <trkpt lat="57.41593" lon="13.97809"/>
      <trkpt lat="57.41586" lon="13.97809"/>
      <trkpt lat="57.41581" lon="13.97806"/>
      <trkpt lat="57.41576" lon="13.97801"/>
      <trkpt lat="57.41571" lon="13.97798"/>
      <trkpt lat="57.41566" lon="13.97796"/>
      <trkpt lat="57.41543" lon="13.97798"/>
      <trkpt lat="57.41529" lon="13.97801"/>
      <trkpt lat="57.41522" lon="13.97804"/>
      <trkpt lat="57.41514" lon="13.97803"/>
      <trkpt lat="57.41501" lon="13.97798"/>
      <trkpt lat="57.41495" lon="13.97797"/>
      <trkpt lat="57.41488" lon="13.97797"/>
      <trkpt lat="57.41482" lon="13.97798"/>
      <trkpt lat="57.41471" lon="13.97797"/>
      <trkpt lat="57.41463" lon="13.97797"/>
      <trkpt lat="57.41456" lon="13.97798"/>
      <trkpt lat="57.4145" lon="13.97799"/>
      <trkpt lat="57.41445" lon="13.97801"/>
      <trkpt lat="57.41434" lon="13.97807"/>
      <trkpt lat="57.41426" lon="13.97815"/>
      <trkpt lat="57.41433" lon="13.97794"/>
      <trkpt lat="57.41446" lon="13.97764"/>
      <trkpt lat="57.41457" lon="13.97736"/>
      <trkpt lat="57.41468" lon="13.97704"/>
      <trkpt lat="57.4148" lon="13.97653"/>
      <trkpt lat="57.41486" lon="13.97621"/>
      <trkpt lat="57.41497" lon="13.97556"/>
      <trkpt lat="57.41504" lon="13.97526"/>
      <trkpt lat="57.41511" lon="13.97511"/>
      <trkpt lat="57.41523" lon="13.97502"/>
      <trkpt lat="57.41539" lon="13.97494"/>
      <trkpt lat="57.41566" lon="13.97481"/>
      <trkpt lat="57.41588" lon="13.9746"/>
      <trkpt lat="57.41601" lon="13.97449"/>
      <trkpt lat="57.41622" lon="13.97432"/>
      <trkpt lat="57.41638" lon="13.9741"/>
      <trkpt lat="57.41656" lon="13.97378"/>
      <trkpt lat="57.41662" lon="13.97347"/>
      <trkpt lat="57.4166" lon="13.97318"/>
      <trkpt lat="57.4166" lon="13.97282"/>
      <trkpt lat="57.41663" lon="13.97253"/>
      <trkpt lat="57.41669" lon="13.97232"/>
      <trkpt lat="57.41683" lon="13.97216"/>
      <trkpt lat="57.4169" lon="13.97189"/>
      <trkpt lat="57.41694" lon="13.97155"/>
      <trkpt lat="57.41696" lon="13.97124"/>
      <trkpt lat="57.41701" lon="13.97102"/>
      <trkpt lat="57.41713" lon="13.97076"/>
      <trkpt lat="57.41738" lon="13.9706"/>
      <trkpt lat="57.41763" lon="13.9704"/>
      <trkpt lat="57.41777" lon="13.97019"/>
      <trkpt lat="57.41793" lon="13.97004"/>
      <trkpt lat="57.41807" lon="13.96987"/>
      <trkpt lat="57.41823" lon="13.96962"/>
      <trkpt lat="57.41837" lon="13.96941"/>
      <trkpt lat="57.41863" lon="13.96915"/>
      <trkpt lat="57.41875" lon="13.96897"/>
      <trkpt lat="57.41892" lon="13.96825"/>
      <trkpt lat="57.41908" lon="13.96799"/>
      <trkpt lat="57.41924" lon="13.96773"/>
      <trkpt lat="57.41949" lon="13.96733"/>
      <trkpt lat="57.41978" lon="13.96692"/>
      <trkpt lat="57.41988" lon="13.96665"/>
      <trkpt lat="57.41993" lon="13.96643"/>
      <trkpt lat="57.41992" lon="13.96622"/>
      <trkpt lat="57.41988" lon="13.96606"/>
      <trkpt lat="57.41972" lon="13.96554"/>
      <trkpt lat="57.41969" lon="13.96533"/>
      <trkpt lat="57.41967" lon="13.96508"/>
      <trkpt lat="57.41965" lon="13.96479"/>
      <trkpt lat="57.41963" lon="13.9642"/>
      <trkpt lat="57.41961" lon="13.96389"/>
      <trkpt lat="57.41954" lon="13.96355"/>
      <trkpt lat="57.41944" lon="13.96316"/>
      <trkpt lat="57.4194" lon="13.96293"/>
      <trkpt lat="57.41938" lon="13.96272"/>
      <trkpt lat="57.41937" lon="13.96228"/>
      <trkpt lat="57.41942" lon="13.96199"/>
      <trkpt lat="57.4196" lon="13.96151"/>
      <trkpt lat="57.41968" lon="13.9613"/>
      <trkpt lat="57.41981" lon="13.9609"/>
      <trkpt lat="57.41962" lon="13.96093"/>
      <trkpt lat="57.41946" lon="13.96095"/>
      <trkpt lat="57.41934" lon="13.96092"/>
      <trkpt lat="57.41919" lon="13.96083"/>
      <trkpt lat="57.41908" lon="13.96077"/>
      <trkpt lat="57.41885" lon="13.96069"/>
      <trkpt lat="57.41879" lon="13.96075"/>
      <trkpt lat="57.41873" lon="13.96079"/>
      <trkpt lat="57.4187" lon="13.96072"/>
      <trkpt lat="57.41864" lon="13.96046"/>
      <trkpt lat="57.41852" lon="13.96006"/>
      <trkpt lat="57.41844" lon="13.95985"/>
      <trkpt lat="57.41825" lon="13.95969"/>
      <trkpt lat="57.41817" lon="13.95958"/>
      <trkpt lat="57.41806" lon="13.95937"/>
      <trkpt lat="57.41795" lon="13.95918"/>
      <trkpt lat="57.41784" lon="13.95908"/>
      <trkpt lat="57.41768" lon="13.95893"/>
      <trkpt lat="57.41759" lon="13.9588"/>
      <trkpt lat="57.41756" lon="13.9586"/>
      <trkpt lat="57.41754" lon="13.95832"/>
      <trkpt lat="57.41757" lon="13.95782"/>
      <trkpt lat="57.4176" lon="13.95746"/>
      <trkpt lat="57.41759" lon="13.95711"/>
      <trkpt lat="57.41756" lon="13.9568"/>
      <trkpt lat="57.41742" lon="13.95669"/>
      <trkpt lat="57.41719" lon="13.95655"/>
      <trkpt lat="57.4169" lon="13.95645"/>
      <trkpt lat="57.41681" lon="13.95637"/>
      <trkpt lat="57.41673" lon="13.95623"/>
      <trkpt lat="57.41657" lon="13.95578"/>
      <trkpt lat="57.41651" lon="13.95551"/>
      <trkpt lat="57.41627" lon="13.95538"/>
      <trkpt lat="57.41614" lon="13.95538"/>
      <trkpt lat="57.41589" lon="13.95544"/>
      <trkpt lat="57.41552" lon="13.95549"/>
      <trkpt lat="57.41538" lon="13.95543"/>
      <trkpt lat="57.41524" lon="13.95535"/>
      <trkpt lat="57.41514" lon="13.95534"/>
      <trkpt lat="57.41489" lon="13.95537"/>
      <trkpt lat="57.41475" lon="13.95539"/>
      <trkpt lat="57.41458" lon="13.95539"/>
      <trkpt lat="57.41451" lon="13.95536"/>
      <trkpt lat="57.41495" lon="13.9537"/>
      <trkpt lat="57.41514" lon="13.95313"/>
      <trkpt lat="57.41516" lon="13.95292"/>
      <trkpt lat="57.41514" lon="13.95281"/>
      <trkpt lat="57.41506" lon="13.95264"/>
      <trkpt lat="57.41497" lon="13.95266"/>
      <trkpt lat="57.41484" lon="13.95262"/>
      <trkpt lat="57.41472" lon="13.95248"/>
      <trkpt lat="57.41451" lon="13.95219"/>
      <trkpt lat="57.41441" lon="13.95205"/>
      <trkpt lat="57.41429" lon="13.95203"/>
      <trkpt lat="57.41417" lon="13.95212"/>
      <trkpt lat="57.41359" lon="13.95269"/>
      <trkpt lat="57.41319" lon="13.95322"/>
      <trkpt lat="57.41303" lon="13.95323"/>
      <trkpt lat="57.41296" lon="13.95255"/>
      <trkpt lat="57.41296" lon="13.95221"/>
      <trkpt lat="57.41301" lon="13.95159"/>
      <trkpt lat="57.41309" lon="13.95099"/>
      <trkpt lat="57.41316" lon="13.95004"/>
      <trkpt lat="57.41324" lon="13.94963"/>
      <trkpt lat="57.41297" lon="13.949"/>
      <trkpt lat="57.41291" lon="13.94876"/>
      <trkpt lat="57.41286" lon="13.94858"/>
      <trkpt lat="57.4128" lon="13.94847"/>
      <trkpt lat="57.41267" lon="13.94831"/>
      <trkpt lat="57.41235" lon="13.94793"/>
      <trkpt lat="57.41212" lon="13.94764"/>
      <trkpt lat="57.41179" lon="13.94725"/>
      <trkpt lat="57.41153" lon="13.94695"/>
      <trkpt lat="57.41134" lon="13.94675"/>
      <trkpt lat="57.41106" lon="13.94651"/>
      <trkpt lat="57.41093" lon="13.94639"/>
      <trkpt lat="57.41081" lon="13.94633"/>
      <trkpt lat="57.41067" lon="13.94627"/>
      <trkpt lat="57.41046" lon="13.94627"/>
      <trkpt lat="57.41015" lon="13.94613"/>
      <trkpt lat="57.40999" lon="13.94604"/>
      <trkpt lat="57.4097" lon="13.94584"/>
      <trkpt lat="57.40941" lon="13.94565"/>
      <trkpt lat="57.40926" lon="13.94559"/>
      <trkpt lat="57.40907" lon="13.94552"/>
      <trkpt lat="57.40893" lon="13.94539"/>
      <trkpt lat="57.40885" lon="13.94524"/>
      <trkpt lat="57.40876" lon="13.945"/>
      <trkpt lat="57.40866" lon="13.94477"/>
      <trkpt lat="57.40849" lon="13.94463"/>
      <trkpt lat="57.4081" lon="13.94451"/>
      <trkpt lat="57.40763" lon="13.94453"/>
      <trkpt lat="57.40741" lon="13.94444"/>
      <trkpt lat="57.40714" lon="13.94428"/>
      <trkpt lat="57.4068" lon="13.94411"/>
      <trkpt lat="57.40669" lon="13.94407"/>
      <trkpt lat="57.40657" lon="13.94408"/>
      <trkpt lat="57.4064" lon="13.94411"/>
      <trkpt lat="57.40619" lon="13.94418"/>
      <trkpt lat="57.406" lon="13.94421"/>
      <trkpt lat="57.40574" lon="13.94422"/>
      <trkpt lat="57.40565" lon="13.94423"/>
      <trkpt lat="57.40553" lon="13.94431"/>
      <trkpt lat="57.40545" lon="13.94433"/>
      <trkpt lat="57.40538" lon="13.94433"/>
      <trkpt lat="57.40524" lon="13.94429"/>
      <trkpt lat="57.40515" lon="13.94413"/>
      <trkpt lat="57.40504" lon="13.94391"/>
      <trkpt lat="57.40496" lon="13.94373"/>
      <trkpt lat="57.4049" lon="13.94362"/>
      <trkpt lat="57.40479" lon="13.94348"/>
      <trkpt lat="57.40471" lon="13.94332"/>
      <trkpt lat="57.40461" lon="13.94302"/>
      <trkpt lat="57.40453" lon="13.94287"/>
      <trkpt lat="57.40446" lon="13.94273"/>
      <trkpt lat="57.4044" lon="13.94262"/>
      <trkpt lat="57.40425" lon="13.94229"/>
      <trkpt lat="57.40405" lon="13.94188"/>
      <trkpt lat="57.40406" lon="13.94176"/>
      <trkpt lat="57.40411" lon="13.94154"/>
      <trkpt lat="57.40415" lon="13.94116"/>
      <trkpt lat="57.40418" lon="13.94063"/>
      <trkpt lat="57.40416" lon="13.94043"/>
      <trkpt lat="57.40411" lon="13.94031"/>
      <trkpt lat="57.40406" lon="13.94023"/>
      <trkpt lat="57.40393" lon="13.94005"/>
      <trkpt lat="57.40389" lon="13.9399"/>
      <trkpt lat="57.40389" lon="13.93978"/>
      <trkpt lat="57.40399" lon="13.9395"/>
      <trkpt lat="57.4041" lon="13.93926"/>
      <trkpt lat="57.40418" lon="13.93903"/>
      <trkpt lat="57.40434" lon="13.93827"/>
      <trkpt lat="57.40442" lon="13.938"/>
      <trkpt lat="57.40459" lon="13.93759"/>
      <trkpt lat="57.40468" lon="13.93734"/>
      <trkpt lat="57.40478" lon="13.93716"/>
      <trkpt lat="57.40495" lon="13.93678"/>
      <trkpt lat="57.40509" lon="13.93629"/>
      <trkpt lat="57.40531" lon="13.93574"/>
      <trkpt lat="57.40543" lon="13.93524"/>
      <trkpt lat="57.4055" lon="13.93504"/>
      <trkpt lat="57.40562" lon="13.93477"/>
      <trkpt lat="57.40574" lon="13.93451"/>
      <trkpt lat="57.40586" lon="13.93428"/>
      <trkpt lat="57.40604" lon="13.934"/>
      <trkpt lat="57.40622" lon="13.9338"/>
      <trkpt lat="57.40632" lon="13.93374"/>
      <trkpt lat="57.40644" lon="13.93367"/>
      <trkpt lat="57.40657" lon="13.93355"/>
      <trkpt lat="57.4067" lon="13.93342"/>
      <trkpt lat="57.40678" lon="13.93335"/>
      <trkpt lat="57.40689" lon="13.93325"/>
      <trkpt lat="57.40695" lon="13.93317"/>
      <trkpt lat="57.40707" lon="13.93294"/>
      <trkpt lat="57.40729" lon="13.93253"/>
      <trkpt lat="57.40735" lon="13.93222"/>
      <trkpt lat="57.4074" lon="13.932"/>
      <trkpt lat="57.40754" lon="13.93167"/>
      <trkpt lat="57.40764" lon="13.93136"/>
      <trkpt lat="57.40777" lon="13.931"/>
      <trkpt lat="57.40787" lon="13.93078"/>
      <trkpt lat="57.40797" lon="13.93055"/>
      <trkpt lat="57.40803" lon="13.93046"/>
      <trkpt lat="57.4083" lon="13.93022"/>
      <trkpt lat="57.40845" lon="13.93006"/>
      <trkpt lat="57.40858" lon="13.92996"/>
      <trkpt lat="57.40885" lon="13.92985"/>
      <trkpt lat="57.409" lon="13.92979"/>
      <trkpt lat="57.40915" lon="13.92972"/>
      <trkpt lat="57.40934" lon="13.92954"/>
      <trkpt lat="57.40946" lon="13.92938"/>
      <trkpt lat="57.40957" lon="13.92917"/>
      <trkpt lat="57.40973" lon="13.92887"/>
      <trkpt lat="57.40994" lon="13.92833"/>
      <trkpt lat="57.41008" lon="13.92806"/>
      <trkpt lat="57.41021" lon="13.92791"/>
      <trkpt lat="57.4104" lon="13.92784"/>
      <trkpt lat="57.41064" lon="13.9278"/>
      <trkpt lat="57.41078" lon="13.92772"/>
      <trkpt lat="57.41086" lon="13.92761"/>
      <trkpt lat="57.41093" lon="13.92746"/>
      <trkpt lat="57.411" lon="13.92722"/>
      <trkpt lat="57.4111" lon="13.92687"/>
      <trkpt lat="57.4112" lon="13.92658"/>
      <trkpt lat="57.4114" lon="13.92617"/>
      <trkpt lat="57.41156" lon="13.92587"/>
      <trkpt lat="57.41166" lon="13.92569"/>
      <trkpt lat="57.41191" lon="13.92538"/>
      <trkpt lat="57.41215" lon="13.92502"/>
      <trkpt lat="57.41254" lon="13.92435"/>
      <trkpt lat="57.41265" lon="13.92421"/>
      <trkpt lat="57.41293" lon="13.92394"/>
      <trkpt lat="57.41304" lon="13.92376"/>
      <trkpt lat="57.41311" lon="13.92357"/>
      <trkpt lat="57.41318" lon="13.92328"/>
      <trkpt lat="57.41346" lon="13.92188"/>
      <trkpt lat="57.41353" lon="13.92137"/>
      <trkpt lat="57.41361" lon="13.92106"/>
      <trkpt lat="57.4138" lon="13.92047"/>
      <trkpt lat="57.41388" lon="13.9203"/>
      <trkpt lat="57.41397" lon="13.9202"/>
      <trkpt lat="57.41424" lon="13.92013"/>
      <trkpt lat="57.41434" lon="13.92006"/>
      <trkpt lat="57.41477" lon="13.91948"/>
      <trkpt lat="57.41494" lon="13.91923"/>
      <trkpt lat="57.41504" lon="13.91906"/>
      <trkpt lat="57.41513" lon="13.91879"/>
      <trkpt lat="57.41531" lon="13.91841"/>
      <trkpt lat="57.41538" lon="13.91816"/>
      <trkpt lat="57.41539" lon="13.91793"/>
      <trkpt lat="57.41535" lon="13.91772"/>
      <trkpt lat="57.41529" lon="13.91749"/>
      <trkpt lat="57.41547" lon="13.91735"/>
      <trkpt lat="57.41563" lon="13.91727"/>
      <trkpt lat="57.41577" lon="13.91732"/>
      <trkpt lat="57.41595" lon="13.91747"/>
      <trkpt lat="57.41627" lon="13.91782"/>
      <trkpt lat="57.4165" lon="13.91801"/>
      <trkpt lat="57.41663" lon="13.91805"/>
      <trkpt lat="57.41683" lon="13.91803"/>
      <trkpt lat="57.41699" lon="13.91795"/>
      <trkpt lat="57.4171" lon="13.91787"/>
      <trkpt lat="57.41726" lon="13.91766"/>
      <trkpt lat="57.4174" lon="13.91752"/>
      <trkpt lat="57.41761" lon="13.91739"/>
      <trkpt lat="57.41789" lon="13.91721"/>
      <trkpt lat="57.41842" lon="13.91709"/>
      <trkpt lat="57.4186" lon="13.91701"/>
      <trkpt lat="57.41868" lon="13.91688"/>
      <trkpt lat="57.41875" lon="13.91669"/>
      <trkpt lat="57.41881" lon="13.91647"/>
      <trkpt lat="57.41891" lon="13.91641"/>
      <trkpt lat="57.41905" lon="13.91631"/>
      <trkpt lat="57.41919" lon="13.91618"/>
      <trkpt lat="57.4193" lon="13.91603"/>
      <trkpt lat="57.4194" lon="13.91579"/>
      <trkpt lat="57.41945" lon="13.91561"/>
      <trkpt lat="57.41968" lon="13.91551"/>
      <trkpt lat="57.42011" lon="13.91539"/>
      <trkpt lat="57.42037" lon="13.91533"/>
      <trkpt lat="57.42059" lon="13.91534"/>
      <trkpt lat="57.42068" lon="13.91519"/>
      <trkpt lat="57.42115" lon="13.91407"/>
      <trkpt lat="57.42122" lon="13.91389"/>
      <trkpt lat="57.42144" lon="13.91311"/>
      <trkpt lat="57.42154" lon="13.91295"/>
      <trkpt lat="57.42166" lon="13.91285"/>
      <trkpt lat="57.42225" lon="13.91262"/>
      <trkpt lat="57.4225" lon="13.91242"/>
      <trkpt lat="57.4228" lon="13.91222"/>
      <trkpt lat="57.42295" lon="13.91203"/>
      <trkpt lat="57.42308" lon="13.9118"/>
      <trkpt lat="57.42317" lon="13.91151"/>
      <trkpt lat="57.42339" lon="13.91068"/>
      <trkpt lat="57.42348" lon="13.91046"/>
      <trkpt lat="57.42377" lon="13.91003"/>
      <trkpt lat="57.42404" lon="13.90957"/>
      <trkpt lat="57.42422" lon="13.90935"/>
      <trkpt lat="57.42464" lon="13.90905"/>
      <trkpt lat="57.42479" lon="13.909"/>
      <trkpt lat="57.42495" lon="13.90903"/>
      <trkpt lat="57.4251" lon="13.90913"/>
      <trkpt lat="57.42526" lon="13.90924"/>
      <trkpt lat="57.42539" lon="13.90927"/>
      <trkpt lat="57.42547" lon="13.90925"/>
      <trkpt lat="57.42562" lon="13.90909"/>
      <trkpt lat="57.42593" lon="13.90874"/>
      <trkpt lat="57.42602" lon="13.90875"/>
      <trkpt lat="57.42628" lon="13.90916"/>
      <trkpt lat="57.4264" lon="13.90924"/>
      <trkpt lat="57.42664" lon="13.90937"/>
      <trkpt lat="57.42675" lon="13.9094"/>
      <trkpt lat="57.42709" lon="13.90934"/>
      <trkpt lat="57.42721" lon="13.90936"/>
      <trkpt lat="57.4273" lon="13.90946"/>
      <trkpt lat="57.42747" lon="13.90978"/>
      <trkpt lat="57.42757" lon="13.90989"/>
      <trkpt lat="57.4277" lon="13.90991"/>
      <trkpt lat="57.42807" lon="13.90992"/>
      <trkpt lat="57.42829" lon="13.90992"/>
      <trkpt lat="57.42848" lon="13.90988"/>
      <trkpt lat="57.4286" lon="13.90983"/>
      <trkpt lat="57.42874" lon="13.90983"/>
      <trkpt lat="57.42889" lon="13.90989"/>
      <trkpt lat="57.42903" lon="13.9099"/>
      <trkpt lat="57.42913" lon="13.90984"/>
      <trkpt lat="57.42927" lon="13.9097"/>
      <trkpt lat="57.42936" lon="13.9096"/>
      <trkpt lat="57.42948" lon="13.90954"/>
      <trkpt lat="57.42993" lon="13.90948"/>
      <trkpt lat="57.43008" lon="13.90938"/>
      <trkpt lat="57.43017" lon="13.90925"/>
      <trkpt lat="57.43026" lon="13.90897"/>
      <trkpt lat="57.43038" lon="13.90862"/>
      <trkpt lat="57.43053" lon="13.90829"/>
      <trkpt lat="57.43066" lon="13.90862"/>
      <trkpt lat="57.43069" lon="13.90884"/>
      <trkpt lat="57.43072" lon="13.90924"/>
      <trkpt lat="57.43076" lon="13.90956"/>
      <trkpt lat="57.43075" lon="13.90978"/>
      <trkpt lat="57.43064" lon="13.9101"/>
      <trkpt lat="57.43057" lon="13.91051"/>
      <trkpt lat="57.43048" lon="13.91101"/>
      <trkpt lat="57.43039" lon="13.91149"/>
      <trkpt lat="57.43034" lon="13.9117"/>
      <trkpt lat="57.43028" lon="13.91183"/>
      <trkpt lat="57.43006" lon="13.9121"/>
      <trkpt lat="57.43001" lon="13.91234"/>
      <trkpt lat="57.42997" lon="13.9125"/>
      <trkpt lat="57.4297" lon="13.91303"/>
      <trkpt lat="57.42959" lon="13.91331"/>
      <trkpt lat="57.4295" lon="13.91354"/>
      <trkpt lat="57.42945" lon="13.91375"/>
      <trkpt lat="57.42942" lon="13.91389"/>
      <trkpt lat="57.42963" lon="13.91381"/>
      <trkpt lat="57.42974" lon="13.91381"/>
      <trkpt lat="57.43004" lon="13.91383"/>
      <trkpt lat="57.43028" lon="13.91379"/>
      <trkpt lat="57.43036" lon="13.91381"/>
      <trkpt lat="57.43048" lon="13.91383"/>
      <trkpt lat="57.43062" lon="13.91364"/>
      <trkpt lat="57.43074" lon="13.91356"/>
      <trkpt lat="57.43091" lon="13.91346"/>
      <trkpt lat="57.43124" lon="13.91332"/>
      <trkpt lat="57.43151" lon="13.91319"/>
      <trkpt lat="57.43168" lon="13.91296"/>
      <trkpt lat="57.43192" lon="13.91258"/>
      <trkpt lat="57.43205" lon="13.9124"/>
      <trkpt lat="57.43208" lon="13.91218"/>
      <trkpt lat="57.43216" lon="13.91197"/>
      <trkpt lat="57.43229" lon="13.9117"/>
      <trkpt lat="57.43236" lon="13.91147"/>
      <trkpt lat="57.43242" lon="13.91122"/>
      <trkpt lat="57.43252" lon="13.91102"/>
      <trkpt lat="57.43266" lon="13.91091"/>
      <trkpt lat="57.43278" lon="13.91073"/>
      <trkpt lat="57.43284" lon="13.9105"/>
      <trkpt lat="57.43287" lon="13.91034"/>
      <trkpt lat="57.43292" lon="13.91019"/>
      <trkpt lat="57.43316" lon="13.90995"/>
      <trkpt lat="57.43334" lon="13.90981"/>
      <trkpt lat="57.43361" lon="13.90976"/>
      <trkpt lat="57.43379" lon="13.90974"/>
      <trkpt lat="57.43392" lon="13.90973"/>
      <trkpt lat="57.43402" lon="13.90967"/>
      <trkpt lat="57.43414" lon="13.90956"/>
      <trkpt lat="57.43427" lon="13.90946"/>
      <trkpt lat="57.43439" lon="13.90939"/>
      <trkpt lat="57.43449" lon="13.90934"/>
      <trkpt lat="57.43461" lon="13.90941"/>
      <trkpt lat="57.43472" lon="13.90952"/>
      <trkpt lat="57.43486" lon="13.90956"/>
      <trkpt lat="57.43494" lon="13.90957"/>
      <trkpt lat="57.43504" lon="13.90949"/>
      <trkpt lat="57.43514" lon="13.9094"/>
      <trkpt lat="57.43521" lon="13.90936"/>
      <trkpt lat="57.43529" lon="13.90938"/>
      <trkpt lat="57.43536" lon="13.90943"/>
      <trkpt lat="57.43553" lon="13.9096"/>
      <trkpt lat="57.43569" lon="13.90977"/>
      <trkpt lat="57.43578" lon="13.90998"/>
      <trkpt lat="57.43583" lon="13.91021"/>
      <trkpt lat="57.43595" lon="13.91073"/>
      <trkpt lat="57.43622" lon="13.91159"/>
      <trkpt lat="57.43636" lon="13.91191"/>
      <trkpt lat="57.4365" lon="13.91229"/>
      <trkpt lat="57.43667" lon="13.91291"/>
      <trkpt lat="57.43685" lon="13.91327"/>
      <trkpt lat="57.43698" lon="13.91352"/>
      <trkpt lat="57.43712" lon="13.91328"/>
      <trkpt lat="57.43726" lon="13.91316"/>
      <trkpt lat="57.43792" lon="13.91283"/>
      <trkpt lat="57.43872" lon="13.91243"/>
      <trkpt lat="57.43912" lon="13.91221"/>
      <trkpt lat="57.43929" lon="13.91207"/>
      <trkpt lat="57.43947" lon="13.91185"/>
      <trkpt lat="57.43965" lon="13.91156"/>
      <trkpt lat="57.44004" lon="13.91083"/>
      <trkpt lat="57.44018" lon="13.91058"/>
      <trkpt lat="57.44033" lon="13.91039"/>
      <trkpt lat="57.44053" lon="13.91028"/>
      <trkpt lat="57.44072" lon="13.91021"/>
      <trkpt lat="57.44095" lon="13.91013"/>
      <trkpt lat="57.44119" lon="13.91012"/>
      <trkpt lat="57.44155" lon="13.91024"/>
      <trkpt lat="57.44184" lon="13.91034"/>
      <trkpt lat="57.44201" lon="13.91031"/>
      <trkpt lat="57.44248" lon="13.91024"/>
      <trkpt lat="57.44285" lon="13.91016"/>
      <trkpt lat="57.44339" lon="13.91003"/>
      <trkpt lat="57.44391" lon="13.90987"/>
      <trkpt lat="57.44415" lon="13.90981"/>
      <trkpt lat="57.44433" lon="13.90977"/>
      <trkpt lat="57.4447" lon="13.9098"/>
      <trkpt lat="57.44521" lon="13.90983"/>
      <trkpt lat="57.44527" lon="13.90953"/>
      <trkpt lat="57.44531" lon="13.90935"/>
      <trkpt lat="57.44532" lon="13.90917"/>
      <trkpt lat="57.44528" lon="13.90893"/>
      <trkpt lat="57.4452" lon="13.90872"/>
      <trkpt lat="57.44503" lon="13.90851"/>
      <trkpt lat="57.44468" lon="13.90808"/>
      <trkpt lat="57.44461" lon="13.90793"/>
      <trkpt lat="57.44461" lon="13.90785"/>
      <trkpt lat="57.44467" lon="13.9077"/>
      <trkpt lat="57.44476" lon="13.9075"/>
      <trkpt lat="57.44483" lon="13.9071"/>
      <trkpt lat="57.44483" lon="13.90688"/>
      <trkpt lat="57.44477" lon="13.90665"/>
      <trkpt lat="57.44468" lon="13.90641"/>
      <trkpt lat="57.44462" lon="13.9062"/>
      <trkpt lat="57.44459" lon="13.90583"/>
      <trkpt lat="57.44454" lon="13.90551"/>
      <trkpt lat="57.44447" lon="13.90515"/>
      <trkpt lat="57.44444" lon="13.90496"/>
      <trkpt lat="57.44444" lon="13.90483"/>
      <trkpt lat="57.44446" lon="13.9047"/>
      <trkpt lat="57.44453" lon="13.90457"/>
      <trkpt lat="57.44483" lon="13.90435"/>
      <trkpt lat="57.44489" lon="13.90419"/>
      <trkpt lat="57.44498" lon="13.90386"/>
      <trkpt lat="57.44513" lon="13.90346"/>
      <trkpt lat="57.44519" lon="13.90296"/>
      <trkpt lat="57.44521" lon="13.9025"/>
      <trkpt lat="57.44521" lon="13.90212"/>
      <trkpt lat="57.44514" lon="13.90152"/>
      <trkpt lat="57.44498" lon="13.90101"/>
      <trkpt lat="57.44488" lon="13.90068"/>
      <trkpt lat="57.44484" lon="13.90058"/>
      <trkpt lat="57.44485" lon="13.90042"/>
      <trkpt lat="57.44492" lon="13.90021"/>
      <trkpt lat="57.445" lon="13.9"/>
      <trkpt lat="57.44525" lon="13.89949"/>
      <trkpt lat="57.44552" lon="13.89901"/>
      <trkpt lat="57.44571" lon="13.8988"/>
      <trkpt lat="57.44593" lon="13.89878"/>
      <trkpt lat="57.44628" lon="13.89897"/>
      <trkpt lat="57.44647" lon="13.89911"/>
      <trkpt lat="57.4467" lon="13.89927"/>
      <trkpt lat="57.44696" lon="13.89941"/>
      <trkpt lat="57.44714" lon="13.89943"/>
      <trkpt lat="57.44732" lon="13.89947"/>
      <trkpt lat="57.44747" lon="13.8996"/>
      <trkpt lat="57.44767" lon="13.89976"/>
      <trkpt lat="57.44788" lon="13.89997"/>
      <trkpt lat="57.44804" lon="13.90014"/>
      <trkpt lat="57.44813" lon="13.89997"/>
      <trkpt lat="57.44823" lon="13.89964"/>
      <trkpt lat="57.44837" lon="13.8992"/>
      <trkpt lat="57.4485" lon="13.8987"/>
      <trkpt lat="57.4486" lon="13.8983"/>
      <trkpt lat="57.44868" lon="13.89786"/>
      <trkpt lat="57.44879" lon="13.89717"/>
      <trkpt lat="57.44889" lon="13.89639"/>
      <trkpt lat="57.44898" lon="13.89601"/>
      <trkpt lat="57.44921" lon="13.89595"/>
      <trkpt lat="57.44955" lon="13.89596"/>
      <trkpt lat="57.44975" lon="13.896"/>
      <trkpt lat="57.45011" lon="13.89601"/>
      <trkpt lat="57.45022" lon="13.89607"/>
      <trkpt lat="57.45038" lon="13.89631"/>
      <trkpt lat="57.45068" lon="13.89621"/>
      <trkpt lat="57.45095" lon="13.89616"/>
      <trkpt lat="57.45114" lon="13.89615"/>
      <trkpt lat="57.45131" lon="13.89616"/>
      <trkpt lat="57.45148" lon="13.89622"/>
      <trkpt lat="57.45159" lon="13.8963"/>
      <trkpt lat="57.45182" lon="13.89654"/>
      <trkpt lat="57.45218" lon="13.89692"/>
      <trkpt lat="57.45256" lon="13.89734"/>
      <trkpt lat="57.45273" lon="13.89747"/>
      <trkpt lat="57.45289" lon="13.89753"/>
      <trkpt lat="57.45308" lon="13.89755"/>
      <trkpt lat="57.45345" lon="13.89752"/>
      <trkpt lat="57.45367" lon="13.8975"/>
      <trkpt lat="57.45405" lon="13.89757"/>
      <trkpt lat="57.45436" lon="13.89765"/>
      <trkpt lat="57.45478" lon="13.89775"/>
      <trkpt lat="57.45513" lon="13.89783"/>
      <trkpt lat="57.45559" lon="13.89791"/>
      <trkpt lat="57.45609" lon="13.89801"/>
      <trkpt lat="57.45632" lon="13.89806"/>
      <trkpt lat="57.4565" lon="13.89805"/>
      <trkpt lat="57.45661" lon="13.89799"/>
      <trkpt lat="57.45674" lon="13.89782"/>
      <trkpt lat="57.45698" lon="13.89723"/>
      <trkpt lat="57.45716" lon="13.89681"/>
      <trkpt lat="57.45728" lon="13.89655"/>
      <trkpt lat="57.45745" lon="13.89626"/>
      <trkpt lat="57.4576" lon="13.89606"/>
      <trkpt lat="57.45777" lon="13.89595"/>
      <trkpt lat="57.45798" lon="13.8959"/>
      <trkpt lat="57.45821" lon="13.89589"/>
      <trkpt lat="57.45859" lon="13.8959"/>
      <trkpt lat="57.459" lon="13.89592"/>
      <trkpt lat="57.45916" lon="13.89589"/>
      <trkpt lat="57.45935" lon="13.89575"/>
      <trkpt lat="57.45947" lon="13.89559"/>
      <trkpt lat="57.45971" lon="13.89516"/>
      <trkpt lat="57.45986" lon="13.8949"/>
      <trkpt lat="57.46004" lon="13.895"/>
      <trkpt lat="57.46024" lon="13.89501"/>
      <trkpt lat="57.46087" lon="13.89492"/>
      <trkpt lat="57.461" lon="13.89486"/>
      <trkpt lat="57.46116" lon="13.89476"/>
      <trkpt lat="57.46199" lon="13.89408"/>
      <trkpt lat="57.46268" lon="13.89348"/>
      <trkpt lat="57.46321" lon="13.89304"/>
      <trkpt lat="57.46337" lon="13.89293"/>
      <trkpt lat="57.46354" lon="13.89289"/>
      <trkpt lat="57.46366" lon="13.8929"/>
      <trkpt lat="57.46385" lon="13.89272"/>
      <trkpt lat="57.46417" lon="13.89268"/>
      <trkpt lat="57.46436" lon="13.89264"/>
      <trkpt lat="57.46462" lon="13.89235"/>
      <trkpt lat="57.4648" lon="13.89195"/>
      <trkpt lat="57.46494" lon="13.8915"/>
      <trkpt lat="57.46518" lon="13.8907"/>
      <trkpt lat="57.4653" lon="13.89036"/>
    </trkseg>
  </trk>
</gpx>
