<?xml version="1.0" encoding="UTF-8"?>
<gpx xmlns="http://www.topografix.com/GPX/1/1" xmlns:xsi="http://www.w3.org/2001/XMLSchema-instance" version="1.1" creator="GPX RubyGem 1.0.0 -- http://dougfales.github.io/gpx/" xsi:schemaLocation="http://www.topografix.com/GPX/1/1 http://www.topografix.com/GPX/1/1/gpx.xsd">
  <metadata>
    <name>Höglandsleden etapp HÖ2 Skuruhatt - Valbacken - En del av Smålandsleden by Naturkartan</name>
    <time>2026-04-30T16:50:06+00:00</time>
  </metadata>
  <trk>
    <name>Höglandsleden etapp HÖ2 Skuruhatt - Valbacken - En del av Smålandsleden by Naturkartan</name>
    <trkseg>
      <trkpt lat="57.70074" lon="15.08811"/>
      <trkpt lat="57.70074" lon="15.08811"/>
      <trkpt lat="57.70043" lon="15.0884"/>
      <trkpt lat="57.69969" lon="15.08858"/>
      <trkpt lat="57.69951" lon="15.08875"/>
      <trkpt lat="57.69935" lon="15.08915"/>
      <trkpt lat="57.69922" lon="15.08942"/>
      <trkpt lat="57.69893" lon="15.08968"/>
      <trkpt lat="57.69859" lon="15.08991"/>
      <trkpt lat="57.69836" lon="15.09003"/>
      <trkpt lat="57.69828" lon="15.09013"/>
      <trkpt lat="57.69806" lon="15.09037"/>
      <trkpt lat="57.69784" lon="15.09065"/>
      <trkpt lat="57.69763" lon="15.09073"/>
      <trkpt lat="57.69749" lon="15.09071"/>
      <trkpt lat="57.69731" lon="15.09069"/>
      <trkpt lat="57.69719" lon="15.09064"/>
      <trkpt lat="57.69714" lon="15.09059"/>
      <trkpt lat="57.69691" lon="15.09055"/>
      <trkpt lat="57.69689" lon="15.09055"/>
      <trkpt lat="57.696885" lon="15.09055"/>
      <trkpt lat="57.69683" lon="15.09055"/>
      <trkpt lat="57.69672" lon="15.09044"/>
      <trkpt lat="57.69642" lon="15.09077"/>
      <trkpt lat="57.69615" lon="15.09097"/>
      <trkpt lat="57.69589" lon="15.09123"/>
      <trkpt lat="57.69588" lon="15.09118"/>
      <trkpt lat="57.69593" lon="15.09094"/>
      <trkpt lat="57.69589" lon="15.09087"/>
      <trkpt lat="57.6958" lon="15.09092"/>
      <trkpt lat="57.69548" lon="15.09136"/>
      <trkpt lat="57.69506" lon="15.09173"/>
      <trkpt lat="57.69495" lon="15.09192"/>
      <trkpt lat="57.69458" lon="15.09243"/>
      <trkpt lat="57.69408" lon="15.09257"/>
      <trkpt lat="57.69403" lon="15.09255"/>
      <trkpt lat="57.69391" lon="15.09272"/>
      <trkpt lat="57.69382" lon="15.09316"/>
      <trkpt lat="57.69378" lon="15.09325"/>
      <trkpt lat="57.69372" lon="15.09326"/>
      <trkpt lat="57.69361" lon="15.09338"/>
      <trkpt lat="57.69352" lon="15.09358"/>
      <trkpt lat="57.69338" lon="15.09366"/>
      <trkpt lat="57.69276" lon="15.09473"/>
      <trkpt lat="57.69214" lon="15.0958"/>
      <trkpt lat="57.69213" lon="15.09617"/>
      <trkpt lat="57.69176" lon="15.09686"/>
      <trkpt lat="57.69156" lon="15.09732"/>
      <trkpt lat="57.69152" lon="15.09755"/>
      <trkpt lat="57.69143" lon="15.09766"/>
      <trkpt lat="57.69119" lon="15.09776"/>
      <trkpt lat="57.69112" lon="15.09785"/>
      <trkpt lat="57.69075" lon="15.09807"/>
      <trkpt lat="57.69051" lon="15.09807"/>
      <trkpt lat="57.69037" lon="15.09818"/>
      <trkpt lat="57.69009" lon="15.09827"/>
      <trkpt lat="57.68998" lon="15.09825"/>
      <trkpt lat="57.68985" lon="15.09812"/>
      <trkpt lat="57.68974" lon="15.09808"/>
      <trkpt lat="57.68958" lon="15.09812"/>
      <trkpt lat="57.68952" lon="15.0982"/>
      <trkpt lat="57.68939" lon="15.09824"/>
      <trkpt lat="57.68934" lon="15.09831"/>
      <trkpt lat="57.68922" lon="15.09836"/>
      <trkpt lat="57.68893" lon="15.0983"/>
      <trkpt lat="57.68815" lon="15.0983"/>
      <trkpt lat="57.68801" lon="15.09837"/>
      <trkpt lat="57.68782" lon="15.09896"/>
      <trkpt lat="57.68756" lon="15.0995"/>
      <trkpt lat="57.68727" lon="15.09985"/>
      <trkpt lat="57.68669" lon="15.10042"/>
      <trkpt lat="57.68643" lon="15.1011"/>
      <trkpt lat="57.68616" lon="15.10157"/>
      <trkpt lat="57.68598" lon="15.10176"/>
      <trkpt lat="57.68581" lon="15.10172"/>
      <trkpt lat="57.68565" lon="15.10161"/>
      <trkpt lat="57.68539" lon="15.10148"/>
      <trkpt lat="57.68522" lon="15.10143"/>
      <trkpt lat="57.68478" lon="15.10172"/>
      <trkpt lat="57.68479" lon="15.10191"/>
      <trkpt lat="57.68478" lon="15.10199"/>
      <trkpt lat="57.684767" lon="15.10198"/>
      <trkpt lat="57.68475" lon="15.10208"/>
      <trkpt lat="57.68465" lon="15.10231"/>
      <trkpt lat="57.6845" lon="15.10255"/>
      <trkpt lat="57.68442" lon="15.10266"/>
      <trkpt lat="57.68431" lon="15.10287"/>
      <trkpt lat="57.68429" lon="15.10294"/>
      <trkpt lat="57.68423" lon="15.10317"/>
      <trkpt lat="57.68417" lon="15.10347"/>
      <trkpt lat="57.68408" lon="15.10382"/>
      <trkpt lat="57.68406" lon="15.1039"/>
      <trkpt lat="57.68398" lon="15.10403"/>
      <trkpt lat="57.68376" lon="15.10427"/>
      <trkpt lat="57.68368" lon="15.10438"/>
      <trkpt lat="57.68358" lon="15.10488"/>
      <trkpt lat="57.68351" lon="15.10526"/>
      <trkpt lat="57.68344" lon="15.10557"/>
      <trkpt lat="57.68328" lon="15.10608"/>
      <trkpt lat="57.68316" lon="15.10647"/>
      <trkpt lat="57.68307" lon="15.10677"/>
      <trkpt lat="57.6828" lon="15.10717"/>
      <trkpt lat="57.68256" lon="15.10747"/>
      <trkpt lat="57.68235" lon="15.10773"/>
      <trkpt lat="57.68219" lon="15.10796"/>
      <trkpt lat="57.6821" lon="15.1081"/>
      <trkpt lat="57.68205" lon="15.10818"/>
      <trkpt lat="57.68202" lon="15.10829"/>
      <trkpt lat="57.68194" lon="15.1086"/>
      <trkpt lat="57.68186" lon="15.10902"/>
      <trkpt lat="57.68171" lon="15.1097"/>
      <trkpt lat="57.68164" lon="15.10998"/>
      <trkpt lat="57.68154" lon="15.11025"/>
      <trkpt lat="57.68145" lon="15.11049"/>
      <trkpt lat="57.68129" lon="15.11082"/>
      <trkpt lat="57.68104" lon="15.11137"/>
      <trkpt lat="57.6809" lon="15.11168"/>
      <trkpt lat="57.68079" lon="15.11195"/>
      <trkpt lat="57.68063" lon="15.11234"/>
      <trkpt lat="57.6805" lon="15.11264"/>
      <trkpt lat="57.68032" lon="15.11306"/>
      <trkpt lat="57.68018" lon="15.11333"/>
      <trkpt lat="57.68003" lon="15.11357"/>
      <trkpt lat="57.67992" lon="15.11373"/>
      <trkpt lat="57.67971" lon="15.114"/>
      <trkpt lat="57.67945" lon="15.11437"/>
      <trkpt lat="57.67935" lon="15.11455"/>
      <trkpt lat="57.67925" lon="15.11485"/>
      <trkpt lat="57.67921" lon="15.11511"/>
      <trkpt lat="57.67918" lon="15.11539"/>
      <trkpt lat="57.67916" lon="15.11563"/>
      <trkpt lat="57.67916" lon="15.11589"/>
      <trkpt lat="57.67919" lon="15.11614"/>
      <trkpt lat="57.67928" lon="15.11658"/>
      <trkpt lat="57.67941" lon="15.11719"/>
      <trkpt lat="57.67953" lon="15.11772"/>
      <trkpt lat="57.67964" lon="15.11835"/>
      <trkpt lat="57.67968" lon="15.11879"/>
      <trkpt lat="57.67969" lon="15.11933"/>
      <trkpt lat="57.67963" lon="15.11969"/>
      <trkpt lat="57.67947" lon="15.11993"/>
      <trkpt lat="57.67924" lon="15.12008"/>
      <trkpt lat="57.67902" lon="15.12037"/>
      <trkpt lat="57.67882" lon="15.12072"/>
      <trkpt lat="57.67859" lon="15.12113"/>
      <trkpt lat="57.67835" lon="15.12154"/>
      <trkpt lat="57.67821" lon="15.12178"/>
      <trkpt lat="57.67798" lon="15.12218"/>
      <trkpt lat="57.67788" lon="15.12251"/>
      <trkpt lat="57.67781" lon="15.12356"/>
      <trkpt lat="57.6778" lon="15.12423"/>
      <trkpt lat="57.67785" lon="15.12484"/>
      <trkpt lat="57.6779" lon="15.12526"/>
      <trkpt lat="57.67795" lon="15.12569"/>
      <trkpt lat="57.67804" lon="15.1262"/>
      <trkpt lat="57.67808" lon="15.12661"/>
      <trkpt lat="57.67806" lon="15.12702"/>
      <trkpt lat="57.67802" lon="15.12744"/>
      <trkpt lat="57.6779" lon="15.12821"/>
      <trkpt lat="57.67778" lon="15.12875"/>
      <trkpt lat="57.6776" lon="15.12928"/>
      <trkpt lat="57.67742" lon="15.12969"/>
      <trkpt lat="57.67726" lon="15.13005"/>
      <trkpt lat="57.67704" lon="15.13048"/>
      <trkpt lat="57.67685" lon="15.13088"/>
      <trkpt lat="57.67656" lon="15.13146"/>
      <trkpt lat="57.67635" lon="15.1319"/>
      <trkpt lat="57.67617" lon="15.13228"/>
      <trkpt lat="57.67601" lon="15.1326"/>
      <trkpt lat="57.67596" lon="15.13263"/>
      <trkpt lat="57.67576" lon="15.13261"/>
      <trkpt lat="57.6756" lon="15.13262"/>
      <trkpt lat="57.67542" lon="15.13267"/>
      <trkpt lat="57.67525" lon="15.13279"/>
      <trkpt lat="57.67509" lon="15.13296"/>
      <trkpt lat="57.67494" lon="15.13318"/>
      <trkpt lat="57.67481" lon="15.13337"/>
      <trkpt lat="57.67464" lon="15.13359"/>
      <trkpt lat="57.67436" lon="15.13388"/>
      <trkpt lat="57.67403" lon="15.1341"/>
      <trkpt lat="57.673875" lon="15.13431"/>
      <trkpt lat="57.67388" lon="15.13433"/>
      <trkpt lat="57.67361" lon="15.13459"/>
      <trkpt lat="57.67347" lon="15.13488"/>
      <trkpt lat="57.67322" lon="15.1355"/>
      <trkpt lat="57.67292" lon="15.13605"/>
      <trkpt lat="57.67292" lon="15.13605"/>
      <trkpt lat="57.67274" lon="15.1364"/>
      <trkpt lat="57.67246" lon="15.13683"/>
      <trkpt lat="57.67225" lon="15.13699"/>
      <trkpt lat="57.67188" lon="15.13679"/>
      <trkpt lat="57.671893" lon="15.136724"/>
      <trkpt lat="57.67172" lon="15.1366"/>
      <trkpt lat="57.6714" lon="15.13634"/>
      <trkpt lat="57.67127" lon="15.13619"/>
      <trkpt lat="57.67104" lon="15.13592"/>
      <trkpt lat="57.67092" lon="15.13578"/>
      <trkpt lat="57.67078" lon="15.13574"/>
      <trkpt lat="57.67044" lon="15.13587"/>
      <trkpt lat="57.67038" lon="15.13597"/>
      <trkpt lat="57.67034" lon="15.13622"/>
      <trkpt lat="57.67026" lon="15.13645"/>
      <trkpt lat="57.67017" lon="15.13656"/>
      <trkpt lat="57.67005" lon="15.13662"/>
      <trkpt lat="57.66992" lon="15.13673"/>
      <trkpt lat="57.66984" lon="15.13681"/>
      <trkpt lat="57.66975" lon="15.13695"/>
      <trkpt lat="57.66966" lon="15.13724"/>
      <trkpt lat="57.66955" lon="15.13747"/>
      <trkpt lat="57.66942" lon="15.1377"/>
      <trkpt lat="57.66929" lon="15.13786"/>
      <trkpt lat="57.66907" lon="15.13813"/>
      <trkpt lat="57.66898" lon="15.13819"/>
      <trkpt lat="57.66875" lon="15.13821"/>
      <trkpt lat="57.66858" lon="15.13826"/>
      <trkpt lat="57.66836" lon="15.13833"/>
      <trkpt lat="57.6681" lon="15.13834"/>
      <trkpt lat="57.66794" lon="15.13838"/>
      <trkpt lat="57.66781" lon="15.13844"/>
      <trkpt lat="57.6677" lon="15.13858"/>
      <trkpt lat="57.66757" lon="15.13865"/>
      <trkpt lat="57.66746" lon="15.13854"/>
      <trkpt lat="57.66725" lon="15.13877"/>
      <trkpt lat="57.66711" lon="15.13885"/>
      <trkpt lat="57.66696" lon="15.13891"/>
      <trkpt lat="57.66682" lon="15.13895"/>
      <trkpt lat="57.6667" lon="15.139"/>
      <trkpt lat="57.66657" lon="15.13908"/>
      <trkpt lat="57.66645" lon="15.13916"/>
      <trkpt lat="57.66625" lon="15.13931"/>
      <trkpt lat="57.66605" lon="15.13946"/>
      <trkpt lat="57.66574" lon="15.13966"/>
      <trkpt lat="57.66574" lon="15.13985"/>
      <trkpt lat="57.66592" lon="15.14"/>
      <trkpt lat="57.6661" lon="15.14012"/>
      <trkpt lat="57.66626" lon="15.14023"/>
      <trkpt lat="57.66638" lon="15.14048"/>
      <trkpt lat="57.66648" lon="15.14092"/>
      <trkpt lat="57.66657" lon="15.14125"/>
      <trkpt lat="57.66667" lon="15.14163"/>
      <trkpt lat="57.66667" lon="15.14171"/>
      <trkpt lat="57.66661" lon="15.14187"/>
      <trkpt lat="57.66653" lon="15.14216"/>
      <trkpt lat="57.66645" lon="15.14263"/>
      <trkpt lat="57.66644" lon="15.14307"/>
      <trkpt lat="57.6663" lon="15.14385"/>
      <trkpt lat="57.66627" lon="15.14421"/>
      <trkpt lat="57.66626" lon="15.1449"/>
      <trkpt lat="57.66625" lon="15.14529"/>
      <trkpt lat="57.66625" lon="15.14567"/>
      <trkpt lat="57.66629" lon="15.14591"/>
      <trkpt lat="57.66626" lon="15.14646"/>
      <trkpt lat="57.66616" lon="15.14688"/>
      <trkpt lat="57.6661" lon="15.1473"/>
      <trkpt lat="57.66608" lon="15.14757"/>
      <trkpt lat="57.66611" lon="15.14774"/>
      <trkpt lat="57.66614" lon="15.14811"/>
      <trkpt lat="57.66615" lon="15.14834"/>
      <trkpt lat="57.66596" lon="15.14838"/>
      <trkpt lat="57.665725" lon="15.148569"/>
      <trkpt lat="57.66574" lon="15.14865"/>
      <trkpt lat="57.66571" lon="15.14867"/>
      <trkpt lat="57.66553" lon="15.149"/>
      <trkpt lat="57.66527" lon="15.14908"/>
      <trkpt lat="57.66514" lon="15.149"/>
      <trkpt lat="57.66497256164286" lon="15.14897461748268"/>
      <trkpt lat="57.66501419814114" lon="15.14975306084705"/>
      <trkpt lat="57.66509747099391" lon="15.15067421882762"/>
      <trkpt lat="57.66524885526059" lon="15.15191874820042"/>
      <trkpt lat="57.66540852445681" lon="15.15320064161898"/>
      <trkpt lat="57.66561741702108" lon="15.15487971866219"/>
      <trkpt lat="57.6658379472361" lon="15.15580734152536"/>
      <trkpt lat="57.66625570118174" lon="15.15676864969436"/>
      <trkpt lat="57.666214410701" lon="15.15726502352285"/>
      <trkpt lat="57.66553957424259" lon="15.15777571848534"/>
      <trkpt lat="57.66520215130427" lon="15.15870698577112"/>
      <trkpt lat="57.66473618113403" lon="15.15963825305684"/>
      <trkpt lat="57.66435054612143" lon="15.16074976562265"/>
      <trkpt lat="57.66415772707708" lon="15.16138062410707"/>
      <trkpt lat="57.66383635972599" lon="15.16195140083013"/>
      <trkpt lat="57.66348285235091" lon="15.16237197315257"/>
      <trkpt lat="57.66314541027896" lon="15.16276250459472"/>
      <trkpt lat="57.66280796506777" lon="15.16309295427712"/>
      <trkpt lat="57.66261513782348" lon="15.16327319955803"/>
      <trkpt lat="57.66249311928999" lon="15.1634221779054"/>
      <trkpt lat="57.66237" lon="15.16361"/>
      <trkpt lat="57.66218" lon="15.16379"/>
      <trkpt lat="57.66208" lon="15.16389"/>
      <trkpt lat="57.6621" lon="15.16404"/>
      <trkpt lat="57.66229" lon="15.1641"/>
      <trkpt lat="57.66254" lon="15.16424"/>
      <trkpt lat="57.66257" lon="15.16424"/>
      <trkpt lat="57.662566" lon="15.164218"/>
      <trkpt lat="57.6626" lon="15.16423"/>
      <trkpt lat="57.66279" lon="15.16423"/>
      <trkpt lat="57.6629" lon="15.16431"/>
      <trkpt lat="57.663" lon="15.16461"/>
      <trkpt lat="57.66303" lon="15.16494"/>
      <trkpt lat="57.66292" lon="15.16536"/>
      <trkpt lat="57.66277" lon="15.16585"/>
      <trkpt lat="57.6627" lon="15.16683"/>
      <trkpt lat="57.66259" lon="15.16765"/>
      <trkpt lat="57.66254" lon="15.16837"/>
      <trkpt lat="57.66257" lon="15.16892"/>
      <trkpt lat="57.66256" lon="15.16951"/>
      <trkpt lat="57.6625" lon="15.16988"/>
      <trkpt lat="57.66253" lon="15.17037"/>
      <trkpt lat="57.66271" lon="15.17083"/>
      <trkpt lat="57.66288" lon="15.17106"/>
      <trkpt lat="57.66307" lon="15.17152"/>
      <trkpt lat="57.66318" lon="15.17209"/>
      <trkpt lat="57.66333" lon="15.17251"/>
      <trkpt lat="57.66364" lon="15.17285"/>
      <trkpt lat="57.66382" lon="15.173"/>
      <trkpt lat="57.66409" lon="15.17321"/>
      <trkpt lat="57.66439" lon="15.17341"/>
      <trkpt lat="57.66466" lon="15.1735"/>
      <trkpt lat="57.6648" lon="15.17362"/>
      <trkpt lat="57.66489" lon="15.17379"/>
      <trkpt lat="57.66506" lon="15.17424"/>
      <trkpt lat="57.66513" lon="15.17467"/>
      <trkpt lat="57.66518" lon="15.17499"/>
      <trkpt lat="57.66526" lon="15.17533"/>
      <trkpt lat="57.66533" lon="15.17553"/>
      <trkpt lat="57.66547" lon="15.17583"/>
      <trkpt lat="57.66518" lon="15.17622"/>
      <trkpt lat="57.66472" lon="15.17687"/>
      <trkpt lat="57.66428" lon="15.17749"/>
      <trkpt lat="57.66379" lon="15.17818"/>
      <trkpt lat="57.66348" lon="15.17862"/>
      <trkpt lat="57.66318" lon="15.17901"/>
      <trkpt lat="57.6629" lon="15.17938"/>
      <trkpt lat="57.66272" lon="15.1796"/>
      <trkpt lat="57.66255" lon="15.17973"/>
      <trkpt lat="57.66252" lon="15.17984"/>
      <trkpt lat="57.66258" lon="15.17996"/>
      <trkpt lat="57.66283" lon="15.18021"/>
      <trkpt lat="57.66297" lon="15.18047"/>
      <trkpt lat="57.6634" lon="15.18143"/>
      <trkpt lat="57.66369" lon="15.18209"/>
      <trkpt lat="57.664" lon="15.18277"/>
      <trkpt lat="57.66432" lon="15.18345"/>
      <trkpt lat="57.66432" lon="15.18378"/>
      <trkpt lat="57.66405" lon="15.18461"/>
      <trkpt lat="57.66386" lon="15.18527"/>
      <trkpt lat="57.66371" lon="15.18583"/>
      <trkpt lat="57.66368" lon="15.18618"/>
      <trkpt lat="57.66373" lon="15.18655"/>
      <trkpt lat="57.66375" lon="15.18684"/>
      <trkpt lat="57.66369" lon="15.18715"/>
      <trkpt lat="57.66336" lon="15.18831"/>
      <trkpt lat="57.66291" lon="15.18886"/>
      <trkpt lat="57.66246" lon="15.18925"/>
      <trkpt lat="57.66215" lon="15.18959"/>
      <trkpt lat="57.66193" lon="15.18986"/>
      <trkpt lat="57.66176" lon="15.19009"/>
      <trkpt lat="57.66169" lon="15.19019"/>
      <trkpt lat="57.66165" lon="15.19038"/>
      <trkpt lat="57.66172" lon="15.19074"/>
      <trkpt lat="57.66177" lon="15.191"/>
      <trkpt lat="57.6618" lon="15.19126"/>
      <trkpt lat="57.66179" lon="15.19141"/>
      <trkpt lat="57.66173" lon="15.19154"/>
      <trkpt lat="57.66158" lon="15.19178"/>
      <trkpt lat="57.66142" lon="15.19212"/>
      <trkpt lat="57.66134" lon="15.19243"/>
      <trkpt lat="57.66129" lon="15.19281"/>
      <trkpt lat="57.6613" lon="15.19337"/>
      <trkpt lat="57.66135" lon="15.19372"/>
      <trkpt lat="57.66154" lon="15.19418"/>
      <trkpt lat="57.66168" lon="15.19472"/>
      <trkpt lat="57.66174" lon="15.19509"/>
      <trkpt lat="57.66176" lon="15.19545"/>
      <trkpt lat="57.6618" lon="15.19594"/>
      <trkpt lat="57.66187" lon="15.19638"/>
      <trkpt lat="57.66198" lon="15.19702"/>
      <trkpt lat="57.66212" lon="15.19765"/>
      <trkpt lat="57.66229" lon="15.19824"/>
      <trkpt lat="57.66248" lon="15.19875"/>
      <trkpt lat="57.66276" lon="15.19942"/>
      <trkpt lat="57.66301" lon="15.19996"/>
      <trkpt lat="57.66319" lon="15.20012"/>
      <trkpt lat="57.66336" lon="15.20018"/>
      <trkpt lat="57.66317" lon="15.20092"/>
      <trkpt lat="57.663069" lon="15.201379"/>
      <trkpt lat="57.6631" lon="15.2014"/>
      <trkpt lat="57.66288" lon="15.20229"/>
      <trkpt lat="57.66288" lon="15.20269"/>
      <trkpt lat="57.66265" lon="15.20335"/>
      <trkpt lat="57.6624" lon="15.2038"/>
      <trkpt lat="57.66201" lon="15.20464"/>
      <trkpt lat="57.66182" lon="15.20499"/>
      <trkpt lat="57.66182" lon="15.20499"/>
      <trkpt lat="57.66162" lon="15.20538"/>
      <trkpt lat="57.66157" lon="15.20588"/>
      <trkpt lat="57.66148" lon="15.20627"/>
      <trkpt lat="57.66138" lon="15.20682"/>
      <trkpt lat="57.66139" lon="15.20744"/>
      <trkpt lat="57.66145" lon="15.20766"/>
      <trkpt lat="57.66165" lon="15.20813"/>
      <trkpt lat="57.66161" lon="15.20863"/>
      <trkpt lat="57.66159" lon="15.20899"/>
      <trkpt lat="57.66156" lon="15.209032"/>
      <trkpt lat="57.66156" lon="15.20904"/>
      <trkpt lat="57.66167" lon="15.20932"/>
      <trkpt lat="57.66178" lon="15.20957"/>
      <trkpt lat="57.66194" lon="15.20988"/>
      <trkpt lat="57.66214" lon="15.21024"/>
      <trkpt lat="57.6622" lon="15.21048"/>
      <trkpt lat="57.66224" lon="15.21088"/>
      <trkpt lat="57.66226" lon="15.21115"/>
      <trkpt lat="57.66225" lon="15.21161"/>
      <trkpt lat="57.66222" lon="15.21186"/>
      <trkpt lat="57.66225" lon="15.21205"/>
      <trkpt lat="57.66225" lon="15.21242"/>
      <trkpt lat="57.66217" lon="15.21271"/>
      <trkpt lat="57.66202" lon="15.21309"/>
      <trkpt lat="57.66219" lon="15.21343"/>
      <trkpt lat="57.66226" lon="15.21374"/>
      <trkpt lat="57.66232" lon="15.21419"/>
      <trkpt lat="57.66235" lon="15.21452"/>
      <trkpt lat="57.66233" lon="15.21508"/>
      <trkpt lat="57.66229" lon="15.21552"/>
      <trkpt lat="57.66226" lon="15.21585"/>
      <trkpt lat="57.66223" lon="15.21636"/>
      <trkpt lat="57.66218" lon="15.21678"/>
      <trkpt lat="57.66209" lon="15.21713"/>
      <trkpt lat="57.66198" lon="15.21745"/>
      <trkpt lat="57.66181" lon="15.21796"/>
      <trkpt lat="57.66182" lon="15.21824"/>
      <trkpt lat="57.66194" lon="15.21874"/>
      <trkpt lat="57.66196" lon="15.2191"/>
      <trkpt lat="57.66195" lon="15.21919"/>
      <trkpt lat="57.66189" lon="15.21938"/>
      <trkpt lat="57.66182" lon="15.2197"/>
      <trkpt lat="57.66172" lon="15.22007"/>
      <trkpt lat="57.66161" lon="15.22045"/>
      <trkpt lat="57.66145" lon="15.2209"/>
      <trkpt lat="57.66126" lon="15.22138"/>
      <trkpt lat="57.66109" lon="15.22182"/>
      <trkpt lat="57.66093" lon="15.22221"/>
      <trkpt lat="57.66071" lon="15.22267"/>
      <trkpt lat="57.66048" lon="15.22314"/>
      <trkpt lat="57.66019" lon="15.22364"/>
      <trkpt lat="57.66008" lon="15.22379"/>
      <trkpt lat="57.65983" lon="15.22412"/>
      <trkpt lat="57.65963" lon="15.22434"/>
      <trkpt lat="57.65936" lon="15.22449"/>
      <trkpt lat="57.65919" lon="15.22434"/>
      <trkpt lat="57.65906" lon="15.22427"/>
      <trkpt lat="57.65891" lon="15.22422"/>
      <trkpt lat="57.65871" lon="15.22425"/>
      <trkpt lat="57.65844" lon="15.22434"/>
      <trkpt lat="57.65811" lon="15.22451"/>
      <trkpt lat="57.65794" lon="15.22462"/>
      <trkpt lat="57.65782" lon="15.22475"/>
      <trkpt lat="57.65761" lon="15.22498"/>
      <trkpt lat="57.65723" lon="15.22542"/>
      <trkpt lat="57.6571" lon="15.22556"/>
      <trkpt lat="57.65675" lon="15.22576"/>
      <trkpt lat="57.65661" lon="15.22588"/>
      <trkpt lat="57.6565" lon="15.22601"/>
      <trkpt lat="57.65642" lon="15.22609"/>
      <trkpt lat="57.65613" lon="15.22614"/>
      <trkpt lat="57.65582" lon="15.22618"/>
      <trkpt lat="57.65542" lon="15.22646"/>
      <trkpt lat="57.65506" lon="15.22655"/>
      <trkpt lat="57.65483" lon="15.22652"/>
      <trkpt lat="57.6547" lon="15.22651"/>
      <trkpt lat="57.65436" lon="15.22654"/>
      <trkpt lat="57.65418" lon="15.22658"/>
      <trkpt lat="57.65404" lon="15.22663"/>
      <trkpt lat="57.65367" lon="15.22684"/>
      <trkpt lat="57.65343" lon="15.22708"/>
      <trkpt lat="57.65317" lon="15.22737"/>
      <trkpt lat="57.65292" lon="15.22773"/>
      <trkpt lat="57.65271" lon="15.22815"/>
      <trkpt lat="57.65261" lon="15.22837"/>
      <trkpt lat="57.65241" lon="15.22859"/>
      <trkpt lat="57.65228" lon="15.22877"/>
      <trkpt lat="57.65218" lon="15.22895"/>
      <trkpt lat="57.65202" lon="15.22913"/>
      <trkpt lat="57.65192" lon="15.22931"/>
      <trkpt lat="57.65179" lon="15.22947"/>
      <trkpt lat="57.65171" lon="15.2296"/>
      <trkpt lat="57.65165" lon="15.22977"/>
      <trkpt lat="57.65158" lon="15.22993"/>
      <trkpt lat="57.65137" lon="15.23013"/>
      <trkpt lat="57.65108" lon="15.23041"/>
      <trkpt lat="57.65081" lon="15.23074"/>
      <trkpt lat="57.65059" lon="15.23104"/>
      <trkpt lat="57.65043" lon="15.2313"/>
      <trkpt lat="57.65033" lon="15.23152"/>
      <trkpt lat="57.65026" lon="15.23182"/>
      <trkpt lat="57.6502" lon="15.23235"/>
      <trkpt lat="57.65021" lon="15.23263"/>
      <trkpt lat="57.65031" lon="15.23284"/>
      <trkpt lat="57.6505" lon="15.23312"/>
      <trkpt lat="57.65066" lon="15.23326"/>
      <trkpt lat="57.6509" lon="15.23344"/>
      <trkpt lat="57.65101" lon="15.23359"/>
      <trkpt lat="57.65112" lon="15.23367"/>
      <trkpt lat="57.65122" lon="15.23366"/>
      <trkpt lat="57.65132" lon="15.23357"/>
      <trkpt lat="57.65146" lon="15.23358"/>
      <trkpt lat="57.65161" lon="15.23372"/>
      <trkpt lat="57.65185" lon="15.23389"/>
      <trkpt lat="57.652" lon="15.2339"/>
      <trkpt lat="57.65233" lon="15.23385"/>
      <trkpt lat="57.65251" lon="15.234"/>
      <trkpt lat="57.65265" lon="15.23425"/>
      <trkpt lat="57.65282" lon="15.23447"/>
      <trkpt lat="57.65296" lon="15.23456"/>
      <trkpt lat="57.6531" lon="15.23461"/>
      <trkpt lat="57.65329" lon="15.23462"/>
      <trkpt lat="57.65343" lon="15.23459"/>
      <trkpt lat="57.65381" lon="15.23467"/>
      <trkpt lat="57.65396" lon="15.23478"/>
      <trkpt lat="57.65419" lon="15.23506"/>
      <trkpt lat="57.65439" lon="15.23528"/>
      <trkpt lat="57.6547" lon="15.23571"/>
      <trkpt lat="57.65467" lon="15.23602"/>
      <trkpt lat="57.65461" lon="15.23617"/>
      <trkpt lat="57.65452" lon="15.23637"/>
      <trkpt lat="57.65447" lon="15.23653"/>
      <trkpt lat="57.65441" lon="15.23678"/>
      <trkpt lat="57.65431" lon="15.23691"/>
      <trkpt lat="57.65424" lon="15.23696"/>
      <trkpt lat="57.65401" lon="15.23704"/>
      <trkpt lat="57.65378" lon="15.23719"/>
      <trkpt lat="57.65363" lon="15.23733"/>
      <trkpt lat="57.65339" lon="15.23756"/>
      <trkpt lat="57.65307" lon="15.23789"/>
      <trkpt lat="57.65294" lon="15.23801"/>
      <trkpt lat="57.6528" lon="15.23808"/>
      <trkpt lat="57.65256" lon="15.23814"/>
      <trkpt lat="57.65239" lon="15.23813"/>
      <trkpt lat="57.65228" lon="15.23816"/>
      <trkpt lat="57.65215" lon="15.23829"/>
      <trkpt lat="57.652" lon="15.23852"/>
      <trkpt lat="57.65192" lon="15.23878"/>
      <trkpt lat="57.6518" lon="15.23898"/>
      <trkpt lat="57.6517" lon="15.23914"/>
      <trkpt lat="57.65161" lon="15.23929"/>
      <trkpt lat="57.65151" lon="15.23958"/>
      <trkpt lat="57.65141" lon="15.2399"/>
      <trkpt lat="57.65134" lon="15.24018"/>
      <trkpt lat="57.65121" lon="15.24062"/>
      <trkpt lat="57.65096" lon="15.24111"/>
      <trkpt lat="57.65068" lon="15.24164"/>
      <trkpt lat="57.65052" lon="15.24198"/>
      <trkpt lat="57.65035" lon="15.2423"/>
      <trkpt lat="57.65017" lon="15.24271"/>
      <trkpt lat="57.65004" lon="15.24307"/>
      <trkpt lat="57.64999" lon="15.24374"/>
      <trkpt lat="57.64995" lon="15.24433"/>
      <trkpt lat="57.64987" lon="15.24492"/>
      <trkpt lat="57.64986" lon="15.2452"/>
      <trkpt lat="57.64988" lon="15.24556"/>
      <trkpt lat="57.64989" lon="15.24578"/>
      <trkpt lat="57.64986" lon="15.246"/>
      <trkpt lat="57.64978" lon="15.24619"/>
      <trkpt lat="57.64972" lon="15.24635"/>
      <trkpt lat="57.64965" lon="15.24652"/>
      <trkpt lat="57.64956" lon="15.24689"/>
      <trkpt lat="57.64942" lon="15.24744"/>
      <trkpt lat="57.64934" lon="15.24778"/>
      <trkpt lat="57.64929" lon="15.24807"/>
      <trkpt lat="57.64926" lon="15.24852"/>
      <trkpt lat="57.64926" lon="15.24878"/>
      <trkpt lat="57.64931" lon="15.249"/>
      <trkpt lat="57.64938" lon="15.24924"/>
      <trkpt lat="57.64956" lon="15.2496"/>
      <trkpt lat="57.64961" lon="15.24978"/>
      <trkpt lat="57.64957" lon="15.25012"/>
      <trkpt lat="57.64953" lon="15.2504"/>
      <trkpt lat="57.64945" lon="15.25072"/>
      <trkpt lat="57.64937" lon="15.25099"/>
      <trkpt lat="57.64932" lon="15.25138"/>
      <trkpt lat="57.64931" lon="15.25164"/>
      <trkpt lat="57.64929" lon="15.25183"/>
      <trkpt lat="57.64924" lon="15.25222"/>
      <trkpt lat="57.64933" lon="15.25261"/>
      <trkpt lat="57.64946" lon="15.25289"/>
      <trkpt lat="57.64964" lon="15.25315"/>
      <trkpt lat="57.64983" lon="15.25346"/>
      <trkpt lat="57.64992" lon="15.2537"/>
      <trkpt lat="57.64985" lon="15.25392"/>
      <trkpt lat="57.64973" lon="15.25407"/>
      <trkpt lat="57.64966" lon="15.25425"/>
      <trkpt lat="57.6496" lon="15.25443"/>
      <trkpt lat="57.64946" lon="15.25497"/>
      <trkpt lat="57.64935" lon="15.2554"/>
      <trkpt lat="57.64927" lon="15.25563"/>
      <trkpt lat="57.64921" lon="15.25578"/>
      <trkpt lat="57.649" lon="15.25619"/>
      <trkpt lat="57.64887" lon="15.25643"/>
      <trkpt lat="57.64874" lon="15.25673"/>
      <trkpt lat="57.64867" lon="15.25702"/>
      <trkpt lat="57.64862" lon="15.25723"/>
      <trkpt lat="57.64862" lon="15.25723"/>
      <trkpt lat="57.64878" lon="15.2573"/>
      <trkpt lat="57.64905" lon="15.25747"/>
      <trkpt lat="57.64945" lon="15.2577"/>
      <trkpt lat="57.64972" lon="15.25785"/>
      <trkpt lat="57.64994" lon="15.25797"/>
      <trkpt lat="57.65028" lon="15.25814"/>
      <trkpt lat="57.6505" lon="15.25825"/>
      <trkpt lat="57.65074" lon="15.25837"/>
      <trkpt lat="57.65098" lon="15.2585"/>
      <trkpt lat="57.65126" lon="15.25873"/>
      <trkpt lat="57.65155" lon="15.25899"/>
      <trkpt lat="57.65177" lon="15.25918"/>
      <trkpt lat="57.65189" lon="15.25927"/>
      <trkpt lat="57.65208" lon="15.25939"/>
      <trkpt lat="57.65247" lon="15.25956"/>
      <trkpt lat="57.65286" lon="15.25971"/>
      <trkpt lat="57.65317" lon="15.25981"/>
      <trkpt lat="57.65339" lon="15.25991"/>
      <trkpt lat="57.65352" lon="15.26002"/>
      <trkpt lat="57.65383" lon="15.26027"/>
      <trkpt lat="57.65408" lon="15.2605"/>
      <trkpt lat="57.65424" lon="15.26058"/>
      <trkpt lat="57.6544" lon="15.2606"/>
      <trkpt lat="57.65457" lon="15.26057"/>
      <trkpt lat="57.65474" lon="15.26049"/>
      <trkpt lat="57.65511" lon="15.2603"/>
      <trkpt lat="57.6556" lon="15.26004"/>
      <trkpt lat="57.65591" lon="15.25988"/>
      <trkpt lat="57.65605" lon="15.25986"/>
      <trkpt lat="57.65611" lon="15.26005"/>
      <trkpt lat="57.65638" lon="15.26047"/>
      <trkpt lat="57.6567" lon="15.26091"/>
      <trkpt lat="57.65682" lon="15.26115"/>
      <trkpt lat="57.65687" lon="15.26141"/>
      <trkpt lat="57.65691" lon="15.26171"/>
      <trkpt lat="57.65699" lon="15.26188"/>
      <trkpt lat="57.65712" lon="15.26207"/>
      <trkpt lat="57.65732" lon="15.26222"/>
      <trkpt lat="57.65748" lon="15.26233"/>
      <trkpt lat="57.65781" lon="15.26244"/>
      <trkpt lat="57.65801" lon="15.2625"/>
      <trkpt lat="57.65816" lon="15.26261"/>
      <trkpt lat="57.65824" lon="15.26281"/>
      <trkpt lat="57.65826" lon="15.26315"/>
      <trkpt lat="57.65818" lon="15.26337"/>
      <trkpt lat="57.658141" lon="15.263468"/>
      <trkpt lat="57.65817" lon="15.26351"/>
      <trkpt lat="57.65792" lon="15.26411"/>
      <trkpt lat="57.65767" lon="15.26423"/>
      <trkpt lat="57.6571" lon="15.26428"/>
      <trkpt lat="57.65677" lon="15.26437"/>
      <trkpt lat="57.65643" lon="15.26454"/>
      <trkpt lat="57.65608" lon="15.26452"/>
      <trkpt lat="57.65571" lon="15.2643"/>
      <trkpt lat="57.65546" lon="15.26429"/>
      <trkpt lat="57.65546" lon="15.26429"/>
      <trkpt lat="57.65516" lon="15.2643"/>
      <trkpt lat="57.65525" lon="15.26447"/>
      <trkpt lat="57.65533" lon="15.26495"/>
      <trkpt lat="57.65533" lon="15.26644"/>
      <trkpt lat="57.65539" lon="15.26679"/>
      <trkpt lat="57.65542" lon="15.26702"/>
      <trkpt lat="57.65537" lon="15.26747"/>
      <trkpt lat="57.65521" lon="15.26786"/>
      <trkpt lat="57.655203" lon="15.267854"/>
      <trkpt lat="57.65512" lon="15.26804"/>
      <trkpt lat="57.6548" lon="15.26841"/>
      <trkpt lat="57.65452" lon="15.26875"/>
      <trkpt lat="57.65426" lon="15.26914"/>
      <trkpt lat="57.65415" lon="15.26944"/>
      <trkpt lat="57.65409" lon="15.26986"/>
      <trkpt lat="57.65406" lon="15.27026"/>
      <trkpt lat="57.65411" lon="15.27054"/>
      <trkpt lat="57.65422" lon="15.27085"/>
      <trkpt lat="57.65435" lon="15.27127"/>
      <trkpt lat="57.6545" lon="15.27141"/>
      <trkpt lat="57.65489" lon="15.27157"/>
      <trkpt lat="57.65511" lon="15.27168"/>
      <trkpt lat="57.65521" lon="15.27186"/>
      <trkpt lat="57.65527" lon="15.27238"/>
      <trkpt lat="57.65544" lon="15.2727"/>
      <trkpt lat="57.65562" lon="15.27291"/>
      <trkpt lat="57.65598" lon="15.27327"/>
      <trkpt lat="57.65606" lon="15.27343"/>
      <trkpt lat="57.65612" lon="15.27371"/>
      <trkpt lat="57.65606" lon="15.27439"/>
      <trkpt lat="57.65601" lon="15.27488"/>
      <trkpt lat="57.65598" lon="15.27518"/>
      <trkpt lat="57.65589" lon="15.27571"/>
      <trkpt lat="57.65578" lon="15.27618"/>
      <trkpt lat="57.65575" lon="15.27645"/>
      <trkpt lat="57.65574" lon="15.27678"/>
      <trkpt lat="57.65576" lon="15.27704"/>
      <trkpt lat="57.65575" lon="15.27734"/>
      <trkpt lat="57.65569" lon="15.27756"/>
      <trkpt lat="57.65558" lon="15.27778"/>
      <trkpt lat="57.65534" lon="15.27822"/>
      <trkpt lat="57.65517" lon="15.27857"/>
      <trkpt lat="57.65537" lon="15.27944"/>
      <trkpt lat="57.6553" lon="15.27954"/>
      <trkpt lat="57.65509" lon="15.2799"/>
      <trkpt lat="57.65469" lon="15.28063"/>
      <trkpt lat="57.65435" lon="15.28124"/>
      <trkpt lat="57.65394" lon="15.282"/>
      <trkpt lat="57.65369" lon="15.28246"/>
      <trkpt lat="57.65335" lon="15.28307"/>
      <trkpt lat="57.65313" lon="15.2835"/>
      <trkpt lat="57.65306" lon="15.28386"/>
      <trkpt lat="57.65313" lon="15.28446"/>
      <trkpt lat="57.65327" lon="15.28515"/>
      <trkpt lat="57.65336" lon="15.28568"/>
      <trkpt lat="57.65341" lon="15.28594"/>
      <trkpt lat="57.65349" lon="15.28647"/>
      <trkpt lat="57.65354" lon="15.28717"/>
      <trkpt lat="57.65353" lon="15.28772"/>
      <trkpt lat="57.65359" lon="15.2881"/>
      <trkpt lat="57.65373" lon="15.28845"/>
      <trkpt lat="57.65393" lon="15.28878"/>
      <trkpt lat="57.6541" lon="15.28911"/>
      <trkpt lat="57.65419" lon="15.28948"/>
      <trkpt lat="57.65427" lon="15.29021"/>
      <trkpt lat="57.65435" lon="15.29079"/>
      <trkpt lat="57.65447" lon="15.29117"/>
      <trkpt lat="57.65457" lon="15.29157"/>
      <trkpt lat="57.65466" lon="15.29196"/>
      <trkpt lat="57.65472" lon="15.29255"/>
      <trkpt lat="57.65474" lon="15.29302"/>
      <trkpt lat="57.65476" lon="15.29344"/>
      <trkpt lat="57.65474" lon="15.29388"/>
      <trkpt lat="57.65473" lon="15.29431"/>
      <trkpt lat="57.65474" lon="15.29463"/>
      <trkpt lat="57.65481" lon="15.29497"/>
      <trkpt lat="57.65494" lon="15.29529"/>
      <trkpt lat="57.65508" lon="15.29567"/>
      <trkpt lat="57.65517" lon="15.2961"/>
      <trkpt lat="57.65519" lon="15.29644"/>
      <trkpt lat="57.65525" lon="15.2968"/>
      <trkpt lat="57.65533" lon="15.29712"/>
      <trkpt lat="57.65538" lon="15.29734"/>
      <trkpt lat="57.65543" lon="15.29769"/>
      <trkpt lat="57.65552" lon="15.29831"/>
      <trkpt lat="57.65554" lon="15.2987"/>
      <trkpt lat="57.65548" lon="15.29915"/>
      <trkpt lat="57.65539" lon="15.29946"/>
      <trkpt lat="57.65528" lon="15.2998"/>
      <trkpt lat="57.65514" lon="15.30029"/>
      <trkpt lat="57.65506" lon="15.30068"/>
      <trkpt lat="57.65498" lon="15.30103"/>
      <trkpt lat="57.65483" lon="15.3013"/>
      <trkpt lat="57.65467" lon="15.30153"/>
      <trkpt lat="57.65454" lon="15.30173"/>
      <trkpt lat="57.65449" lon="15.30189"/>
      <trkpt lat="57.65441" lon="15.30221"/>
      <trkpt lat="57.65437" lon="15.30265"/>
      <trkpt lat="57.65428" lon="15.3031"/>
      <trkpt lat="57.65419" lon="15.30336"/>
      <trkpt lat="57.65407" lon="15.30365"/>
      <trkpt lat="57.65398" lon="15.30395"/>
      <trkpt lat="57.65395" lon="15.3044"/>
      <trkpt lat="57.65396" lon="15.30468"/>
      <trkpt lat="57.65398" lon="15.30539"/>
      <trkpt lat="57.65398" lon="15.30581"/>
      <trkpt lat="57.65394" lon="15.30634"/>
      <trkpt lat="57.65389" lon="15.30688"/>
      <trkpt lat="57.65382" lon="15.30731"/>
      <trkpt lat="57.65376" lon="15.30757"/>
      <trkpt lat="57.65367" lon="15.30781"/>
      <trkpt lat="57.65356" lon="15.30808"/>
      <trkpt lat="57.65343" lon="15.3084"/>
      <trkpt lat="57.6533" lon="15.30867"/>
      <trkpt lat="57.65329" lon="15.30894"/>
      <trkpt lat="57.65331" lon="15.30908"/>
      <trkpt lat="57.6534" lon="15.30937"/>
      <trkpt lat="57.65365" lon="15.30981"/>
      <trkpt lat="57.65381" lon="15.31033"/>
      <trkpt lat="57.65386" lon="15.31061"/>
      <trkpt lat="57.65395" lon="15.31093"/>
      <trkpt lat="57.65411" lon="15.31128"/>
      <trkpt lat="57.65421" lon="15.3117"/>
      <trkpt lat="57.65425" lon="15.31202"/>
      <trkpt lat="57.65427" lon="15.31269"/>
      <trkpt lat="57.6543" lon="15.31308"/>
      <trkpt lat="57.65446" lon="15.31382"/>
      <trkpt lat="57.65457" lon="15.31416"/>
      <trkpt lat="57.65475" lon="15.3147"/>
      <trkpt lat="57.65491" lon="15.31515"/>
      <trkpt lat="57.65507" lon="15.31563"/>
      <trkpt lat="57.6552" lon="15.31602"/>
      <trkpt lat="57.65539" lon="15.31658"/>
      <trkpt lat="57.65547" lon="15.31682"/>
      <trkpt lat="57.65554" lon="15.31706"/>
      <trkpt lat="57.65561" lon="15.31739"/>
      <trkpt lat="57.65568" lon="15.31777"/>
      <trkpt lat="57.6557" lon="15.31798"/>
      <trkpt lat="57.65605" lon="15.31808"/>
      <trkpt lat="57.65638" lon="15.31819"/>
      <trkpt lat="57.65675" lon="15.31832"/>
      <trkpt lat="57.65688" lon="15.3184"/>
      <trkpt lat="57.65706" lon="15.31859"/>
      <trkpt lat="57.65723" lon="15.31884"/>
      <trkpt lat="57.65733" lon="15.31904"/>
      <trkpt lat="57.65756" lon="15.3196"/>
      <trkpt lat="57.65766" lon="15.31986"/>
      <trkpt lat="57.65778" lon="15.32017"/>
      <trkpt lat="57.65791" lon="15.32051"/>
      <trkpt lat="57.65802" lon="15.32086"/>
      <trkpt lat="57.65817" lon="15.32124"/>
      <trkpt lat="57.65827" lon="15.32137"/>
      <trkpt lat="57.65849" lon="15.32145"/>
      <trkpt lat="57.6588" lon="15.32154"/>
      <trkpt lat="57.65905" lon="15.32162"/>
      <trkpt lat="57.65927" lon="15.3217"/>
      <trkpt lat="57.65941" lon="15.32178"/>
      <trkpt lat="57.65967" lon="15.32198"/>
      <trkpt lat="57.65982" lon="15.32214"/>
      <trkpt lat="57.66002" lon="15.32247"/>
      <trkpt lat="57.66021" lon="15.32282"/>
      <trkpt lat="57.66045" lon="15.3233"/>
      <trkpt lat="57.66059" lon="15.32355"/>
      <trkpt lat="57.66084" lon="15.32359"/>
      <trkpt lat="57.66108" lon="15.32364"/>
      <trkpt lat="57.66136" lon="15.32408"/>
      <trkpt lat="57.66145" lon="15.32433"/>
      <trkpt lat="57.66161" lon="15.3249"/>
      <trkpt lat="57.66201" lon="15.32549"/>
      <trkpt lat="57.6623" lon="15.32575"/>
      <trkpt lat="57.66264" lon="15.326"/>
      <trkpt lat="57.66309" lon="15.32632"/>
      <trkpt lat="57.66333" lon="15.32649"/>
      <trkpt lat="57.66347" lon="15.32665"/>
      <trkpt lat="57.66364" lon="15.32672"/>
      <trkpt lat="57.66381" lon="15.32656"/>
      <trkpt lat="57.66394" lon="15.32658"/>
      <trkpt lat="57.6642" lon="15.3269"/>
      <trkpt lat="57.66471" lon="15.32749"/>
      <trkpt lat="57.66495" lon="15.32777"/>
      <trkpt lat="57.66507" lon="15.32788"/>
      <trkpt lat="57.6651" lon="15.32777"/>
      <trkpt lat="57.66524" lon="15.32711"/>
      <trkpt lat="57.66538" lon="15.32645"/>
      <trkpt lat="57.66549" lon="15.3263"/>
      <trkpt lat="57.66567" lon="15.32628"/>
      <trkpt lat="57.66582" lon="15.32627"/>
      <trkpt lat="57.66599" lon="15.32625"/>
      <trkpt lat="57.66631" lon="15.3261"/>
      <trkpt lat="57.66673" lon="15.32588"/>
      <trkpt lat="57.66704" lon="15.32572"/>
      <trkpt lat="57.66735" lon="15.32558"/>
      <trkpt lat="57.66754" lon="15.32554"/>
      <trkpt lat="57.66774" lon="15.32553"/>
      <trkpt lat="57.6679" lon="15.32564"/>
      <trkpt lat="57.66802" lon="15.32596"/>
      <trkpt lat="57.66811" lon="15.32633"/>
      <trkpt lat="57.66818" lon="15.32658"/>
      <trkpt lat="57.66831" lon="15.32684"/>
      <trkpt lat="57.66847" lon="15.32705"/>
      <trkpt lat="57.6686" lon="15.3272"/>
      <trkpt lat="57.66889" lon="15.3274"/>
      <trkpt lat="57.66912" lon="15.32747"/>
      <trkpt lat="57.66925" lon="15.32763"/>
      <trkpt lat="57.66941" lon="15.32783"/>
      <trkpt lat="57.66953" lon="15.32804"/>
      <trkpt lat="57.66959" lon="15.3282"/>
      <trkpt lat="57.66972" lon="15.32848"/>
      <trkpt lat="57.66993" lon="15.32881"/>
      <trkpt lat="57.67017" lon="15.32919"/>
      <trkpt lat="57.6703" lon="15.32935"/>
      <trkpt lat="57.6704" lon="15.32955"/>
      <trkpt lat="57.67053" lon="15.32977"/>
      <trkpt lat="57.67073" lon="15.33006"/>
      <trkpt lat="57.67094" lon="15.33035"/>
      <trkpt lat="57.67122" lon="15.33081"/>
      <trkpt lat="57.67138" lon="15.33098"/>
      <trkpt lat="57.67168" lon="15.33127"/>
      <trkpt lat="57.67183" lon="15.33137"/>
      <trkpt lat="57.67203" lon="15.33139"/>
      <trkpt lat="57.67216" lon="15.33146"/>
      <trkpt lat="57.67228" lon="15.33155"/>
      <trkpt lat="57.67235" lon="15.33158"/>
      <trkpt lat="57.67243" lon="15.33159"/>
      <trkpt lat="57.67257" lon="15.33159"/>
      <trkpt lat="57.67281" lon="15.33159"/>
      <trkpt lat="57.67296" lon="15.33166"/>
      <trkpt lat="57.67301" lon="15.33172"/>
      <trkpt lat="57.67312" lon="15.33193"/>
      <trkpt lat="57.67323" lon="15.33222"/>
      <trkpt lat="57.67333" lon="15.33284"/>
      <trkpt lat="57.67342" lon="15.33339"/>
      <trkpt lat="57.67346" lon="15.33376"/>
      <trkpt lat="57.67351" lon="15.33408"/>
      <trkpt lat="57.67359" lon="15.33447"/>
      <trkpt lat="57.67366" lon="15.33472"/>
      <trkpt lat="57.67379" lon="15.3348"/>
      <trkpt lat="57.67411" lon="15.33462"/>
      <trkpt lat="57.67427" lon="15.33462"/>
      <trkpt lat="57.67439" lon="15.3348"/>
      <trkpt lat="57.67451" lon="15.33499"/>
      <trkpt lat="57.67468" lon="15.33523"/>
      <trkpt lat="57.67471" lon="15.33586"/>
      <trkpt lat="57.67475" lon="15.33617"/>
      <trkpt lat="57.67478" lon="15.33643"/>
      <trkpt lat="57.6748" lon="15.3367"/>
      <trkpt lat="57.67482" lon="15.33729"/>
      <trkpt lat="57.67483" lon="15.3379"/>
      <trkpt lat="57.67483" lon="15.33839"/>
      <trkpt lat="57.67484" lon="15.33877"/>
      <trkpt lat="57.67485" lon="15.33929"/>
      <trkpt lat="57.67488" lon="15.33977"/>
      <trkpt lat="57.6749" lon="15.33997"/>
      <trkpt lat="57.67495" lon="15.34025"/>
      <trkpt lat="57.67501" lon="15.34044"/>
      <trkpt lat="57.67515" lon="15.34081"/>
      <trkpt lat="57.67527" lon="15.34111"/>
      <trkpt lat="57.67541" lon="15.34148"/>
      <trkpt lat="57.67549" lon="15.34173"/>
      <trkpt lat="57.67555" lon="15.34197"/>
      <trkpt lat="57.67561" lon="15.34254"/>
      <trkpt lat="57.67564" lon="15.34318"/>
      <trkpt lat="57.67564" lon="15.34349"/>
      <trkpt lat="57.67561" lon="15.34366"/>
      <trkpt lat="57.67555" lon="15.34392"/>
      <trkpt lat="57.67548" lon="15.34433"/>
      <trkpt lat="57.67544" lon="15.3447"/>
      <trkpt lat="57.67538" lon="15.34513"/>
      <trkpt lat="57.67533" lon="15.34552"/>
      <trkpt lat="57.67528" lon="15.34581"/>
      <trkpt lat="57.6752" lon="15.34634"/>
      <trkpt lat="57.67515" lon="15.34673"/>
      <trkpt lat="57.675" lon="15.34699"/>
      <trkpt lat="57.67483" lon="15.34716"/>
      <trkpt lat="57.67465" lon="15.34731"/>
      <trkpt lat="57.67449" lon="15.34742"/>
      <trkpt lat="57.67436" lon="15.34767"/>
      <trkpt lat="57.67424" lon="15.34784"/>
      <trkpt lat="57.67412" lon="15.34787"/>
      <trkpt lat="57.67398" lon="15.34792"/>
      <trkpt lat="57.67387" lon="15.34808"/>
      <trkpt lat="57.67375" lon="15.34842"/>
      <trkpt lat="57.67363" lon="15.34878"/>
      <trkpt lat="57.67357" lon="15.3491"/>
      <trkpt lat="57.67356" lon="15.34938"/>
      <trkpt lat="57.67352" lon="15.34972"/>
      <trkpt lat="57.67347" lon="15.35"/>
      <trkpt lat="57.67342" lon="15.35026"/>
      <trkpt lat="57.67332" lon="15.35054"/>
      <trkpt lat="57.67316" lon="15.3509"/>
      <trkpt lat="57.67305" lon="15.35123"/>
      <trkpt lat="57.67291" lon="15.35165"/>
      <trkpt lat="57.67279" lon="15.35212"/>
      <trkpt lat="57.67276" lon="15.35243"/>
      <trkpt lat="57.67273" lon="15.35272"/>
      <trkpt lat="57.67273" lon="15.35308"/>
      <trkpt lat="57.67273" lon="15.35341"/>
      <trkpt lat="57.6727" lon="15.3537"/>
      <trkpt lat="57.67265" lon="15.35394"/>
      <trkpt lat="57.67265" lon="15.35423"/>
      <trkpt lat="57.67269" lon="15.35441"/>
      <trkpt lat="57.67273" lon="15.35462"/>
      <trkpt lat="57.67279" lon="15.35488"/>
      <trkpt lat="57.67279" lon="15.35505"/>
      <trkpt lat="57.6727" lon="15.35544"/>
      <trkpt lat="57.67262" lon="15.35574"/>
      <trkpt lat="57.67253" lon="15.35596"/>
      <trkpt lat="57.67244" lon="15.35622"/>
      <trkpt lat="57.67239" lon="15.35639"/>
      <trkpt lat="57.6723" lon="15.35662"/>
      <trkpt lat="57.67217" lon="15.35686"/>
      <trkpt lat="57.67203" lon="15.35707"/>
      <trkpt lat="57.67195" lon="15.35755"/>
      <trkpt lat="57.67193" lon="15.35791"/>
      <trkpt lat="57.67193" lon="15.35825"/>
      <trkpt lat="57.67194" lon="15.35848"/>
      <trkpt lat="57.67195" lon="15.35868"/>
      <trkpt lat="57.67192" lon="15.35878"/>
      <trkpt lat="57.67184" lon="15.35888"/>
      <trkpt lat="57.67169" lon="15.35897"/>
      <trkpt lat="57.67138" lon="15.35912"/>
      <trkpt lat="57.67107" lon="15.35928"/>
      <trkpt lat="57.67085" lon="15.35941"/>
      <trkpt lat="57.6707" lon="15.35946"/>
      <trkpt lat="57.67057" lon="15.35942"/>
      <trkpt lat="57.67023" lon="15.35926"/>
      <trkpt lat="57.67004" lon="15.35925"/>
      <trkpt lat="57.6696" lon="15.35929"/>
      <trkpt lat="57.66924" lon="15.3592"/>
      <trkpt lat="57.66902" lon="15.35915"/>
      <trkpt lat="57.66888" lon="15.35907"/>
      <trkpt lat="57.66866" lon="15.35881"/>
      <trkpt lat="57.66859" lon="15.35876"/>
      <trkpt lat="57.66832" lon="15.35865"/>
      <trkpt lat="57.66792" lon="15.35851"/>
      <trkpt lat="57.66762" lon="15.35842"/>
      <trkpt lat="57.66726" lon="15.35825"/>
      <trkpt lat="57.66704" lon="15.35816"/>
      <trkpt lat="57.66686" lon="15.35791"/>
      <trkpt lat="57.66677" lon="15.35779"/>
      <trkpt lat="57.66659" lon="15.3577"/>
      <trkpt lat="57.66642" lon="15.35773"/>
      <trkpt lat="57.66609" lon="15.35807"/>
      <trkpt lat="57.66577" lon="15.35844"/>
      <trkpt lat="57.66549" lon="15.35877"/>
      <trkpt lat="57.66538" lon="15.35893"/>
      <trkpt lat="57.66532" lon="15.35914"/>
      <trkpt lat="57.66528" lon="15.35985"/>
      <trkpt lat="57.66529" lon="15.36008"/>
      <trkpt lat="57.66532" lon="15.36023"/>
      <trkpt lat="57.66551" lon="15.3608"/>
      <trkpt lat="57.66559" lon="15.36109"/>
      <trkpt lat="57.66556" lon="15.36136"/>
      <trkpt lat="57.66552" lon="15.36149"/>
      <trkpt lat="57.66549" lon="15.3616"/>
      <trkpt lat="57.66546" lon="15.36191"/>
      <trkpt lat="57.66549" lon="15.36241"/>
      <trkpt lat="57.66551" lon="15.3628"/>
      <trkpt lat="57.66553" lon="15.36305"/>
      <trkpt lat="57.66554" lon="15.36339"/>
      <trkpt lat="57.66557" lon="15.36417"/>
      <trkpt lat="57.66557" lon="15.36456"/>
      <trkpt lat="57.66554" lon="15.36492"/>
      <trkpt lat="57.66551" lon="15.36528"/>
      <trkpt lat="57.66551" lon="15.3656"/>
      <trkpt lat="57.66553" lon="15.36594"/>
      <trkpt lat="57.66546" lon="15.36633"/>
      <trkpt lat="57.66539" lon="15.36661"/>
      <trkpt lat="57.66529" lon="15.36707"/>
      <trkpt lat="57.66524" lon="15.36723"/>
      <trkpt lat="57.66515" lon="15.36749"/>
      <trkpt lat="57.66497" lon="15.36797"/>
      <trkpt lat="57.66478" lon="15.36842"/>
      <trkpt lat="57.66465" lon="15.36875"/>
      <trkpt lat="57.66441" lon="15.36928"/>
      <trkpt lat="57.66422" lon="15.36964"/>
      <trkpt lat="57.6641" lon="15.36983"/>
      <trkpt lat="57.66397" lon="15.37006"/>
      <trkpt lat="57.6638" lon="15.37002"/>
      <trkpt lat="57.6635" lon="15.36977"/>
      <trkpt lat="57.66319" lon="15.36952"/>
      <trkpt lat="57.66292" lon="15.36926"/>
      <trkpt lat="57.66271" lon="15.36913"/>
      <trkpt lat="57.66251" lon="15.36904"/>
      <trkpt lat="57.66217" lon="15.36894"/>
      <trkpt lat="57.66189" lon="15.3689"/>
      <trkpt lat="57.66163" lon="15.36887"/>
      <trkpt lat="57.66124" lon="15.36881"/>
      <trkpt lat="57.66114" lon="15.36886"/>
      <trkpt lat="57.66117" lon="15.36905"/>
      <trkpt lat="57.66115" lon="15.36911"/>
      <trkpt lat="57.66109" lon="15.36922"/>
      <trkpt lat="57.66093" lon="15.36931"/>
      <trkpt lat="57.66077" lon="15.36939"/>
      <trkpt lat="57.6606" lon="15.36945"/>
      <trkpt lat="57.66047" lon="15.36951"/>
      <trkpt lat="57.66036" lon="15.3696"/>
      <trkpt lat="57.6602" lon="15.36979"/>
      <trkpt lat="57.66012" lon="15.36997"/>
      <trkpt lat="57.66006" lon="15.37016"/>
      <trkpt lat="57.66001" lon="15.37035"/>
      <trkpt lat="57.65999" lon="15.3706"/>
      <trkpt lat="57.65995" lon="15.37105"/>
      <trkpt lat="57.6599" lon="15.37147"/>
      <trkpt lat="57.65985" lon="15.37166"/>
      <trkpt lat="57.6598" lon="15.37177"/>
      <trkpt lat="57.65972" lon="15.37189"/>
      <trkpt lat="57.65964" lon="15.37198"/>
      <trkpt lat="57.65949" lon="15.37212"/>
      <trkpt lat="57.65931" lon="15.37224"/>
      <trkpt lat="57.65916" lon="15.3723"/>
      <trkpt lat="57.65902" lon="15.37217"/>
      <trkpt lat="57.65894" lon="15.37219"/>
      <trkpt lat="57.65865" lon="15.37241"/>
      <trkpt lat="57.65853" lon="15.37259"/>
      <trkpt lat="57.65837" lon="15.37267"/>
      <trkpt lat="57.65809" lon="15.37284"/>
      <trkpt lat="57.658" lon="15.37299"/>
      <trkpt lat="57.65794" lon="15.37318"/>
      <trkpt lat="57.65788" lon="15.37336"/>
      <trkpt lat="57.6578" lon="15.37361"/>
      <trkpt lat="57.65776" lon="15.37399"/>
      <trkpt lat="57.65775" lon="15.37415"/>
      <trkpt lat="57.65764" lon="15.37419"/>
      <trkpt lat="57.65732" lon="15.37413"/>
      <trkpt lat="57.65711" lon="15.3741"/>
      <trkpt lat="57.65708" lon="15.37416"/>
      <trkpt lat="57.65704" lon="15.37439"/>
      <trkpt lat="57.657" lon="15.37461"/>
      <trkpt lat="57.65698" lon="15.37476"/>
      <trkpt lat="57.65694" lon="15.37484"/>
      <trkpt lat="57.6569" lon="15.37488"/>
      <trkpt lat="57.6568" lon="15.37504"/>
      <trkpt lat="57.65674" lon="15.37519"/>
      <trkpt lat="57.65669" lon="15.37537"/>
      <trkpt lat="57.65666" lon="15.37553"/>
      <trkpt lat="57.65666" lon="15.37579"/>
      <trkpt lat="57.65665" lon="15.37635"/>
      <trkpt lat="57.65664" lon="15.37669"/>
      <trkpt lat="57.65667" lon="15.37696"/>
      <trkpt lat="57.65677" lon="15.37735"/>
      <trkpt lat="57.65683" lon="15.3776"/>
      <trkpt lat="57.65687" lon="15.37771"/>
      <trkpt lat="57.65698" lon="15.37785"/>
      <trkpt lat="57.65704" lon="15.37788"/>
      <trkpt lat="57.65712" lon="15.37791"/>
      <trkpt lat="57.65717" lon="15.37794"/>
      <trkpt lat="57.65725" lon="15.37804"/>
      <trkpt lat="57.65725" lon="15.37844"/>
      <trkpt lat="57.65726" lon="15.37881"/>
      <trkpt lat="57.65734" lon="15.37903"/>
      <trkpt lat="57.65751" lon="15.37938"/>
      <trkpt lat="57.65764" lon="15.3796"/>
      <trkpt lat="57.65777" lon="15.37979"/>
      <trkpt lat="57.65796" lon="15.38009"/>
      <trkpt lat="57.65819" lon="15.38045"/>
      <trkpt lat="57.65841" lon="15.38081"/>
      <trkpt lat="57.65865" lon="15.3812"/>
      <trkpt lat="57.6589" lon="15.3816"/>
      <trkpt lat="57.659" lon="15.38184"/>
      <trkpt lat="57.65902" lon="15.38221"/>
      <trkpt lat="57.65903" lon="15.38279"/>
      <trkpt lat="57.65905" lon="15.38308"/>
      <trkpt lat="57.65915" lon="15.38341"/>
      <trkpt lat="57.65931" lon="15.38369"/>
      <trkpt lat="57.6594" lon="15.38392"/>
      <trkpt lat="57.65953" lon="15.38444"/>
      <trkpt lat="57.65969" lon="15.38506"/>
      <trkpt lat="57.65981" lon="15.38554"/>
      <trkpt lat="57.65994" lon="15.38607"/>
      <trkpt lat="57.66002" lon="15.38638"/>
      <trkpt lat="57.66017" lon="15.38692"/>
      <trkpt lat="57.66026" lon="15.38716"/>
      <trkpt lat="57.66044" lon="15.3874"/>
      <trkpt lat="57.66067" lon="15.38769"/>
      <trkpt lat="57.6608" lon="15.38797"/>
      <trkpt lat="57.66083" lon="15.38814"/>
      <trkpt lat="57.66077" lon="15.38861"/>
      <trkpt lat="57.66072" lon="15.38893"/>
      <trkpt lat="57.66072" lon="15.38915"/>
      <trkpt lat="57.66076" lon="15.38948"/>
      <trkpt lat="57.6608" lon="15.38974"/>
      <trkpt lat="57.66083" lon="15.3901"/>
      <trkpt lat="57.66085" lon="15.3904"/>
      <trkpt lat="57.66081" lon="15.39072"/>
      <trkpt lat="57.66076" lon="15.39106"/>
      <trkpt lat="57.66071" lon="15.39143"/>
      <trkpt lat="57.66066" lon="15.39197"/>
      <trkpt lat="57.66068" lon="15.39232"/>
      <trkpt lat="57.66054" lon="15.3927"/>
      <trkpt lat="57.66044" lon="15.39295"/>
      <trkpt lat="57.66035" lon="15.39317"/>
      <trkpt lat="57.66008" lon="15.39359"/>
      <trkpt lat="57.65989" lon="15.39393"/>
      <trkpt lat="57.65976" lon="15.39414"/>
      <trkpt lat="57.65953" lon="15.39455"/>
      <trkpt lat="57.65938" lon="15.39471"/>
      <trkpt lat="57.65921" lon="15.39483"/>
      <trkpt lat="57.65905" lon="15.39487"/>
      <trkpt lat="57.65902" lon="15.39519"/>
      <trkpt lat="57.65898" lon="15.39532"/>
      <trkpt lat="57.6589" lon="15.39544"/>
      <trkpt lat="57.65879" lon="15.39557"/>
      <trkpt lat="57.65872" lon="15.39571"/>
      <trkpt lat="57.65863" lon="15.39599"/>
      <trkpt lat="57.65852" lon="15.39647"/>
      <trkpt lat="57.65844" lon="15.39678"/>
      <trkpt lat="57.65835" lon="15.39725"/>
      <trkpt lat="57.65826" lon="15.39753"/>
      <trkpt lat="57.65813" lon="15.39773"/>
      <trkpt lat="57.65787" lon="15.39807"/>
      <trkpt lat="57.65757" lon="15.39846"/>
      <trkpt lat="57.65732" lon="15.39879"/>
      <trkpt lat="57.65707" lon="15.3991"/>
      <trkpt lat="57.65691" lon="15.39934"/>
      <trkpt lat="57.65674" lon="15.39958"/>
      <trkpt lat="57.65657" lon="15.39983"/>
      <trkpt lat="57.65636" lon="15.40013"/>
      <trkpt lat="57.65625" lon="15.40027"/>
      <trkpt lat="57.65621" lon="15.40054"/>
      <trkpt lat="57.65619" lon="15.4007"/>
      <trkpt lat="57.65612" lon="15.40098"/>
      <trkpt lat="57.65607" lon="15.40112"/>
      <trkpt lat="57.65598" lon="15.40129"/>
      <trkpt lat="57.6557" lon="15.40165"/>
      <trkpt lat="57.65553" lon="15.40194"/>
      <trkpt lat="57.65538" lon="15.40233"/>
      <trkpt lat="57.65528" lon="15.40254"/>
      <trkpt lat="57.6552" lon="15.40267"/>
      <trkpt lat="57.655" lon="15.40286"/>
      <trkpt lat="57.65487" lon="15.40298"/>
      <trkpt lat="57.65475" lon="15.40307"/>
      <trkpt lat="57.65455" lon="15.40316"/>
      <trkpt lat="57.65436" lon="15.40318"/>
      <trkpt lat="57.6542" lon="15.40314"/>
      <trkpt lat="57.65405" lon="15.40315"/>
      <trkpt lat="57.65392" lon="15.40317"/>
      <trkpt lat="57.65384" lon="15.4032"/>
      <trkpt lat="57.65373" lon="15.40323"/>
      <trkpt lat="57.65369" lon="15.4035"/>
      <trkpt lat="57.65364" lon="15.40367"/>
      <trkpt lat="57.65355" lon="15.40382"/>
      <trkpt lat="57.65339" lon="15.40396"/>
      <trkpt lat="57.65332" lon="15.40413"/>
      <trkpt lat="57.65324" lon="15.40455"/>
      <trkpt lat="57.65317" lon="15.4049"/>
      <trkpt lat="57.65314" lon="15.40507"/>
      <trkpt lat="57.65311" lon="15.40531"/>
      <trkpt lat="57.65309" lon="15.40546"/>
      <trkpt lat="57.65308" lon="15.40558"/>
      <trkpt lat="57.65304" lon="15.40573"/>
      <trkpt lat="57.65299" lon="15.40589"/>
      <trkpt lat="57.65296" lon="15.40609"/>
      <trkpt lat="57.65293" lon="15.40648"/>
      <trkpt lat="57.65291" lon="15.40669"/>
      <trkpt lat="57.65287" lon="15.40694"/>
      <trkpt lat="57.6528" lon="15.40728"/>
      <trkpt lat="57.65273" lon="15.40766"/>
      <trkpt lat="57.65267" lon="15.40799"/>
      <trkpt lat="57.65262" lon="15.40822"/>
      <trkpt lat="57.65259" lon="15.40833"/>
      <trkpt lat="57.65253" lon="15.40846"/>
      <trkpt lat="57.65244" lon="15.40853"/>
      <trkpt lat="57.65212" lon="15.40865"/>
      <trkpt lat="57.652" lon="15.40877"/>
      <trkpt lat="57.65196" lon="15.40886"/>
      <trkpt lat="57.65194" lon="15.40908"/>
      <trkpt lat="57.65195" lon="15.40945"/>
      <trkpt lat="57.65184" lon="15.40986"/>
      <trkpt lat="57.65174" lon="15.41013"/>
      <trkpt lat="57.65169" lon="15.41024"/>
      <trkpt lat="57.65136" lon="15.41017"/>
      <trkpt lat="57.65111" lon="15.41012"/>
      <trkpt lat="57.65093" lon="15.41011"/>
      <trkpt lat="57.6506" lon="15.41016"/>
      <trkpt lat="57.65038" lon="15.41016"/>
      <trkpt lat="57.64999" lon="15.41014"/>
      <trkpt lat="57.64977" lon="15.4102"/>
      <trkpt lat="57.64944" lon="15.41034"/>
      <trkpt lat="57.6492" lon="15.41036"/>
      <trkpt lat="57.64881" lon="15.40999"/>
      <trkpt lat="57.64861" lon="15.40985"/>
      <trkpt lat="57.64825" lon="15.40975"/>
      <trkpt lat="57.648" lon="15.40969"/>
      <trkpt lat="57.64782" lon="15.40968"/>
      <trkpt lat="57.6476" lon="15.40969"/>
      <trkpt lat="57.64743" lon="15.40975"/>
      <trkpt lat="57.64699" lon="15.41003"/>
      <trkpt lat="57.64661" lon="15.41027"/>
      <trkpt lat="57.64647" lon="15.41035"/>
      <trkpt lat="57.6463" lon="15.41044"/>
      <trkpt lat="57.64612" lon="15.4105"/>
      <trkpt lat="57.64595" lon="15.41055"/>
      <trkpt lat="57.64577" lon="15.41058"/>
      <trkpt lat="57.64565" lon="15.41058"/>
      <trkpt lat="57.64534" lon="15.41053"/>
      <trkpt lat="57.645" lon="15.41046"/>
      <trkpt lat="57.64455" lon="15.41036"/>
      <trkpt lat="57.64454" lon="15.4106"/>
      <trkpt lat="57.64448" lon="15.41082"/>
      <trkpt lat="57.64438" lon="15.41107"/>
      <trkpt lat="57.64447" lon="15.41125"/>
      <trkpt lat="57.64466" lon="15.41153"/>
      <trkpt lat="57.64478" lon="15.41171"/>
      <trkpt lat="57.64489" lon="15.4118"/>
      <trkpt lat="57.64501" lon="15.41187"/>
      <trkpt lat="57.64512" lon="15.41201"/>
      <trkpt lat="57.64521" lon="15.41222"/>
      <trkpt lat="57.64544" lon="15.41263"/>
      <trkpt lat="57.6456" lon="15.41288"/>
      <trkpt lat="57.64569" lon="15.41301"/>
      <trkpt lat="57.64583" lon="15.41315"/>
      <trkpt lat="57.6459" lon="15.41328"/>
      <trkpt lat="57.64601" lon="15.41354"/>
      <trkpt lat="57.64612" lon="15.41371"/>
      <trkpt lat="57.64621" lon="15.41387"/>
      <trkpt lat="57.64627" lon="15.41412"/>
      <trkpt lat="57.64628" lon="15.41441"/>
      <trkpt lat="57.64627" lon="15.41463"/>
      <trkpt lat="57.64617" lon="15.41488"/>
      <trkpt lat="57.64609" lon="15.41506"/>
      <trkpt lat="57.64604" lon="15.41528"/>
      <trkpt lat="57.64598" lon="15.41559"/>
      <trkpt lat="57.64591" lon="15.41594"/>
      <trkpt lat="57.64581" lon="15.41587"/>
      <trkpt lat="57.64567" lon="15.41573"/>
      <trkpt lat="57.64556" lon="15.41563"/>
      <trkpt lat="57.6455" lon="15.41566"/>
      <trkpt lat="57.64538" lon="15.41587"/>
      <trkpt lat="57.64527" lon="15.41606"/>
      <trkpt lat="57.6452" lon="15.41615"/>
      <trkpt lat="57.645" lon="15.41635"/>
      <trkpt lat="57.64495" lon="15.41636"/>
      <trkpt lat="57.64462" lon="15.41621"/>
      <trkpt lat="57.64456" lon="15.41615"/>
      <trkpt lat="57.64448" lon="15.41604"/>
    </trkseg>
  </trk>
</gpx>
