{"type":"FeatureCollection","features":[{"type":"Feature","id":"PS.ProtectedSites.NP.15756515","geometry":{"type":"Polygon","coordinates":[[[13.93787444,57.34337163],[13.94228734,57.34195421],[13.94267591,57.34259881],[13.95250295,57.34202558],[13.94873032,57.33693324],[13.95479557,57.33503749],[13.95534021,57.33642242],[13.95980545,57.33584624],[13.95960995,57.3334776],[13.96201174,57.33264718],[13.96230904,57.33254439],[13.96350852,57.33212964],[13.96498351,57.33161958],[13.96519007,57.3369429],[13.9652189,57.33709117],[13.96526141,57.3384719],[13.97638549,57.33873741],[13.97644106,57.33779138],[13.97850629,57.33721973],[13.97855434,57.33720644],[13.97851398,57.33706493],[13.97739134,57.33312865],[13.97876503,57.33201078],[13.97937978,57.33151046],[13.97978494,57.33164243],[13.98010081,57.33141814],[13.97999063,57.33024114],[13.98022075,57.32995594],[13.98374523,57.32983547],[13.98910641,57.33039478],[13.99147614,57.32891091],[13.9962625,57.32678637],[13.99668651,57.32597162],[13.99670446,57.32593714],[13.9967699,57.32591127],[13.99745636,57.32563987],[13.99903655,57.32520606],[14.00144922,57.32497797],[14.00349634,57.3244709],[14.00418144,57.32467472],[14.00444709,57.32398246],[14.010073,57.32005813],[14.01082826,57.31915396],[14.00963345,57.31827241],[14.00792324,57.3174954],[14.00734438,57.31716498],[14.00667333,57.31678192],[14.00593543,57.31625447],[14.00528953,57.31579275],[14.00505146,57.31549281],[14.00405466,57.31520495],[14.0054296,57.3137871],[14.00542075,57.31332915],[14.00535414,57.30988928],[14.00615119,57.30892651],[14.00615822,57.30892173],[14.00769299,57.30787887],[14.00829514,57.30746968],[14.01030627,57.30765919],[14.01242992,57.30729149],[14.01313417,57.30668607],[14.0153995,57.30798884],[14.01574968,57.30819021],[14.01590496,57.30827952],[14.01663254,57.30868898],[14.01777134,57.30930384],[14.01852475,57.30972995],[14.01889852,57.30994133],[14.0192687,57.31031404],[14.01920181,57.31052205],[14.01887067,57.31155161],[14.018539,57.31258282],[14.01847659,57.31276878],[14.01794834,57.31434268],[14.0177274,57.31477306],[14.01743613,57.31513401],[14.01627597,57.31604171],[14.01594011,57.3166701],[14.01581245,57.31713031],[14.01591111,57.31770205],[14.01559846,57.31809794],[14.0162994,57.31859728],[14.01601258,57.31884613],[14.0206519,57.32047194],[14.02089723,57.32042429],[14.02128632,57.32043545],[14.02170839,57.32041856],[14.0224773,57.32063467],[14.02300048,57.32070474],[14.02310268,57.32076892],[14.02315117,57.32085515],[14.02327525,57.32090252],[14.0237982,57.32097829],[14.02428817,57.32108211],[14.02443218,57.32115258],[14.02461337,57.32132623],[14.02476796,57.32139684],[14.02502748,57.32147462],[14.02549778,57.32154964],[14.02570471,57.32162669],[14.02582578,57.32173676],[14.02585213,57.3218455],[14.02598429,57.32194432],[14.02616931,57.32203816],[14.02644935,57.32212764],[14.02663892,57.32234704],[14.02683888,57.32252207],[14.02685991,57.32252557],[14.02707265,57.32227151],[14.02846085,57.32061169],[14.02872843,57.32029068],[14.03178351,57.32011357],[14.03235857,57.31982805],[14.03365633,57.31918303],[14.03806599,57.32301992],[14.03806157,57.32393668],[14.03421828,57.3245092],[14.03405088,57.32453414],[14.03337051,57.32463484],[14.03027218,57.32509543],[14.02887444,57.32530379],[14.02827473,57.32620415],[14.03986396,57.326841],[14.04020581,57.32685902],[14.04118494,57.32485122],[14.04130005,57.32200077],[14.03945872,57.32042373],[14.04396499,57.31914757],[14.04556497,57.31869439],[14.04514621,57.31687469],[14.04301158,57.31482591],[14.04314048,57.31432829],[14.04380452,57.31135002],[14.04415253,57.31110264],[14.04440074,57.31097487],[14.04462522,57.31090382],[14.04499474,57.31085236],[14.04728007,57.31093861],[14.04741199,57.31092295],[14.0460472,57.30966374],[14.04602156,57.30968182],[14.04208862,57.30836608],[14.04125003,57.30809688],[14.04282459,57.30658575],[14.03775762,57.30676256],[14.03597875,57.30528858],[14.03623725,57.30512466],[14.03664636,57.30486525],[14.03661705,57.30472763],[14.03651903,57.30458616],[14.03630394,57.30452387],[14.03624706,57.30453323],[14.03623502,57.30436848],[14.03617936,57.30423236],[14.03624858,57.30367294],[14.03661345,57.30353001],[14.03676069,57.30353215],[14.03698919,57.30359253],[14.03730012,57.30368831],[14.03746781,57.30370216],[14.0375957,57.30366981],[14.03776849,57.3035811],[14.03789863,57.30350315],[14.03808792,57.30350591],[14.038217,57.3035454],[14.03842729,57.3035854],[14.03903097,57.30351172],[14.03891708,57.30291352],[14.03955309,57.30282015],[14.04015927,57.30291538],[14.04065597,57.30278535],[14.04095352,57.3027743],[14.04113094,57.30283174],[14.04129804,57.30285698],[14.04144867,57.30279075],[14.0415265,57.30257322],[14.04171506,57.30240527],[14.04200094,57.30226272],[14.04215041,57.30221928],[14.04229706,57.30223281],[14.04246078,57.30232644],[14.04247789,57.30240653],[14.04256054,57.30326791],[14.04688782,57.30238737],[14.05189405,57.30136845],[14.05024286,57.29942834],[14.05192215,57.29694333],[14.04935663,57.29349582],[14.04045701,57.29308152],[14.04458453,57.28772393],[14.02349152,57.28781534],[14.02358272,57.28141001],[14.0232481,57.28135651],[14.02306704,57.28135112],[14.02281351,57.28144754],[14.02244441,57.28170537],[14.02211486,57.28181286],[14.02185648,57.28184933],[14.02166561,57.28188075],[14.0214941,57.28194666],[14.021364,57.28202458],[14.02121631,57.28203383],[14.0211294,57.28208958],[14.02099818,57.2821903],[14.02080502,57.2822673],[14.02052898,57.28232027],[14.02037844,57.28238649],[14.02024604,57.28251],[14.02013979,57.28259289],[14.01971319,57.28253982],[14.01911969,57.28274678],[14.01876247,57.2827415],[14.01871805,57.28273197],[14.01846189,57.28267692],[14.01819152,57.28259207],[14.0177564,57.28257367],[14.01727318,57.28269453],[14.01724339,57.28270111],[14.01717514,57.28252191],[14.01364487,57.28218924],[14.01229852,57.28206235],[14.0090152,57.28211654],[14.00784276,57.28118685],[14.00782529,57.27987508],[14.00622698,57.27905314],[14.00515906,57.2782682],[14.00470687,57.27793583],[14.00396354,57.27643086],[14.00372451,57.27493335],[14.00126352,57.27372227],[14.00114553,57.27273976],[14.00206661,57.27216591],[14.00388115,57.27103536],[14.00260994,57.26875851],[14.00277788,57.26835044],[14.00089244,57.26452492],[13.99871139,57.26402509],[13.99921845,57.26285093],[13.99974648,57.2616281],[13.99308507,57.2602124],[13.98832389,57.26022589],[13.9881657,57.26009163],[13.98802782,57.25997464],[13.98794345,57.25990303],[13.98643602,57.26040754],[13.9861399,57.26058606],[13.98598205,57.26083254],[13.98581238,57.26109749],[13.98541377,57.26143692],[13.98525182,57.26165323],[13.98510193,57.26263518],[13.98510314,57.26264716],[13.98514421,57.26304809],[13.98513834,57.26316205],[13.98504316,57.2633773],[13.98501037,57.26366564],[13.98516242,57.26407755],[13.98546354,57.2642385],[13.98580095,57.2647704],[13.98574243,57.26521969],[13.98551045,57.26556272],[13.98515111,57.26588184],[13.98466521,57.26527512],[13.98473175,57.26489843],[13.98470687,57.26488147],[13.98207579,57.26520097],[13.98063772,57.26537977],[13.97999854,57.26545803],[13.97870115,57.26508152],[13.97711155,57.26599658],[13.97724148,57.26661988],[13.97607535,57.26712189],[13.97546373,57.26779696],[13.97590643,57.26942333],[13.9745665,57.27054391],[13.97482749,57.271198],[13.97414588,57.27219157],[13.97483405,57.2727385],[13.9752987,57.27309864],[13.97608867,57.27327007],[13.97675407,57.27300628],[13.97689885,57.27305407],[13.97767462,57.2730999],[13.97782056,57.2731249],[13.97766666,57.27319006],[13.97728715,57.27354901],[13.97696649,57.27366663],[13.97589476,57.2738141],[13.97514168,57.2740111],[13.97483123,57.27422806],[13.97489232,57.27440731],[13.97484334,57.274596],[13.97444875,57.27480027],[13.97366191,57.27501176],[13.97340131,57.27515156],[13.97323486,57.27550571],[13.97330821,57.27581445],[13.97377234,57.27621155],[13.97397424,57.27638429],[13.97408348,57.27662863],[13.97389477,57.27688529],[13.97335546,57.27695907],[13.97292639,57.27712373],[13.97285462,57.27729375],[13.97298949,57.27753532],[13.97302686,57.27762713],[13.97289434,57.27775061],[13.97292879,57.27789942],[13.97303127,57.27797794],[13.97305024,57.27799249],[13.97341515,57.27826031],[13.97371408,57.27858418],[13.97386884,57.27884884],[13.97396052,57.27911257],[13.97416197,57.27928669],[13.9744463,57.27948486],[13.97462733,57.27964727],[13.9747482,57.27975173],[13.97497359,57.27986918],[13.97529683,57.28003824],[13.97360504,57.28172095],[13.97799376,57.28251509],[13.97830094,57.28267937],[13.97418017,57.28469367],[13.97386772,57.28455536],[13.97369672,57.28468643],[13.97348242,57.28476307],[13.97312329,57.28479189],[13.9729937,57.2848584],[13.97288508,57.28492521],[13.97274844,57.28512848],[13.97267723,57.28528709],[13.97258675,57.28541121],[13.9723932,57.28553649],[13.9720678,57.28573688],[13.97318797,57.28696148],[13.97326076,57.28704105],[13.97354748,57.28719364],[13.97229437,57.28783643],[13.97076735,57.28848649],[13.96727296,57.28729333],[13.9665302,57.28700839],[13.96617351,57.28677501],[13.96592962,57.28625433],[13.96596463,57.28601286],[13.96456543,57.28463098],[13.96434391,57.28441219],[13.96406805,57.28456453],[13.96106816,57.28358395],[13.96165742,57.28317081],[13.96211171,57.28292671],[13.96228873,57.28234763],[13.96146508,57.28159379],[13.96106198,57.2812512],[13.96099924,57.28102902],[13.96068834,57.27992811],[13.96011685,57.2797195],[13.96006896,57.27970202],[13.9604065,57.27927368],[13.95998391,57.27890229],[13.9609765,57.2779318],[13.95957774,57.27616997],[13.95920294,57.27609587],[13.95915574,57.27578717],[13.95968877,57.27564694],[13.95999764,57.27536644],[13.95954124,57.27500095],[13.95869836,57.27486773],[13.95807507,57.2743108],[13.95793278,57.27380674],[13.95707076,57.27339448],[13.9561701,57.27332383],[13.956438,57.27258075],[13.95626893,57.27254467],[13.9558664,57.2723848],[13.9551945,57.27225965],[13.95504991,57.27180119],[13.95522863,57.27159858],[13.95533779,57.27152038],[13.95585033,57.27136845],[13.95555631,57.27095336],[13.95541276,57.27088274],[13.95664749,57.26805219],[13.95717739,57.26683728],[13.95696645,57.26638943],[13.95593977,57.26420944],[13.95499694,57.26220724],[13.95400388,57.26009814],[13.95404446,57.26008944],[13.95417595,57.26006126],[13.95323829,57.25941834],[13.95296815,57.25767434],[13.95296939,57.25767218],[13.95348267,57.25678105],[13.95348627,57.25677479],[13.95426629,57.25631265],[13.95416465,57.25393215],[13.95294166,57.25274475],[13.95401418,57.25147676],[13.95220397,57.25047109],[13.95198932,57.25035184],[13.95208146,57.24977126],[13.95208716,57.24976326],[13.95226276,57.24951606],[13.95339309,57.24792484],[13.95225119,57.24386327],[13.9522474,57.24385856],[13.95092692,57.24222582],[13.9488599,57.24233613],[13.94786967,57.24152867],[13.94726899,57.24103885],[13.94500631,57.24039708],[13.94482445,57.24025179],[13.94423583,57.23983811],[13.94393247,57.23931965],[13.9435486,57.23866359],[13.94339849,57.23840707],[13.94339408,57.23839952],[13.94269284,57.23646666],[13.94212699,57.23542505],[13.94170252,57.23464365],[13.94135214,57.23409083],[13.9411002,57.23408713],[13.94003201,57.23340912],[13.93842293,57.23238769],[13.93281515,57.2325562],[13.93262624,57.23175466],[13.93262489,57.23174901],[13.93247439,57.23063494],[13.93404259,57.23001847],[13.93592925,57.22927676],[13.93404597,57.2264423],[13.93221168,57.22368116],[13.93129178,57.22229627],[13.92853866,57.22191338],[13.92865731,57.22115953],[13.92884859,57.21994406],[13.92948747,57.21977092],[13.93009896,57.21972289],[13.92960244,57.21874573],[13.92863615,57.2184973],[13.92858325,57.21857134],[13.92846989,57.21868447],[13.92830373,57.21887749],[13.92764244,57.2193959],[13.92744235,57.21949685],[13.92726044,57.21950099],[13.92706831,57.21955468],[13.9271049,57.21964623],[13.92704559,57.21969451],[13.92698153,57.21972635],[13.92695082,57.219781],[13.92701569,57.21984775],[13.92702393,57.21987224],[13.92686798,57.22001616],[13.92655631,57.22014848],[13.92626383,57.22025856],[13.92612919,57.22029701],[13.92607021,57.22034909],[13.92607695,57.2203554],[13.92561101,57.22046649],[13.92550232,57.22040695],[13.92523324,57.22033672],[13.92495837,57.22025293],[13.92464546,57.22019705],[13.92439084,57.22007888],[13.92431196,57.22002188],[13.92401773,57.2198791],[13.92370121,57.21977678],[13.92303549,57.21970928],[13.92266194,57.21966155],[13.92242349,57.21960097],[13.92239022,57.21956128],[13.92240128,57.21953523],[13.92214219,57.21937143],[13.92182886,57.21922454],[13.92179247,57.21905848],[13.92155962,57.21889992],[13.92125133,57.2187306],[13.92094891,57.2186287],[13.92008517,57.21815796],[13.91999473,57.21799757],[13.91996582,57.21755988],[13.91973913,57.21711537],[13.91971765,57.21694771],[13.91977954,57.21677589],[13.91978939,57.21674864],[13.91988401,57.21662281],[13.91990539,57.21656928],[13.91987503,57.21648633],[13.91985745,57.21640966],[13.91979441,57.21624575],[13.91973955,57.21622034],[13.9197004,57.21625184],[13.91959423,57.21635701],[13.91958162,57.21638653],[13.91949622,57.21648365],[13.91947772,57.21655589],[13.91947945,57.21665858],[13.91947163,57.21669743],[13.91945874,57.21677107],[13.91944639,57.21684078],[13.91934326,57.21725026],[13.91930271,57.21752792],[13.9191956,57.21765548],[13.91900256,57.21773479],[13.91887887,57.21775146],[13.91872725,57.21786475],[13.91860062,57.21791114],[13.91845531,57.21790168],[13.91839102,57.21794378],[13.91840375,57.21815313],[13.91846897,57.21825665],[13.91868015,57.21832633],[13.91905759,57.2183842],[13.91927327,57.21847759],[13.91953585,57.21855215],[13.91957611,57.21860241],[13.91968094,57.21885],[13.91981261,57.21904597],[13.92011037,57.21938746],[13.92013013,57.21953698],[13.92000694,57.21966744],[13.91964522,57.2198927],[13.91922477,57.22003747],[13.91901758,57.22015755],[13.91877689,57.22027027],[13.91843777,57.22037434],[13.91810125,57.220441],[13.91781392,57.22046469],[13.91719404,57.22041868],[13.91659543,57.22037424],[13.91612527,57.22046362],[13.91514183,57.22040265],[13.91482373,57.22027843],[13.91464177,57.22024226],[13.91417336,57.22022939],[13.91392539,57.22016196],[13.91370955,57.22005587],[13.91331651,57.21997604],[13.91313678,57.21988625],[13.91308889,57.21982557],[13.9114955,57.22075658],[13.91121932,57.22184207],[13.91121772,57.2231028],[13.91157447,57.22351887],[13.91071093,57.22622718],[13.91058226,57.22709809],[13.910972,57.22797068],[13.91107219,57.228195],[13.91074854,57.22836132],[13.91091877,57.22872896],[13.91114968,57.22893777],[13.91150903,57.23012402],[13.91199273,57.23031948],[13.91175884,57.23078379],[13.91171534,57.23122241],[13.91218215,57.23133776],[13.91280928,57.23221994],[13.91235901,57.23280652],[13.91221028,57.23304391],[13.91194718,57.23366751],[13.91096001,57.23447999],[13.91138648,57.23599812],[13.91107842,57.2366781],[13.91000426,57.23734095],[13.90923592,57.23818519],[13.90843741,57.23818467],[13.90665152,57.23879122],[13.90516156,57.2395676],[13.9049759,57.24011248],[13.90505213,57.24067268],[13.90419643,57.24239411],[13.90385511,57.24249168],[13.90305862,57.24224585],[13.90200193,57.24215586],[13.90119527,57.24251456],[13.90115286,57.24354077],[13.90065363,57.24384704],[13.90029663,57.24384126],[13.90025302,57.24384055],[13.89884731,57.24510782],[13.89866825,57.24621693],[13.89853834,57.24684187],[13.89859016,57.24729025],[13.89852901,57.24751133],[13.89716031,57.24900386],[13.89677718,57.24925293],[13.89658437,57.24956688],[13.89665123,57.24964662],[13.89700129,57.24986589],[13.89700017,57.25037983],[13.89696743,57.25050432],[13.89642333,57.25097805],[13.89608076,57.25094878],[13.89528706,57.25074587],[13.8943791,57.25077985],[13.89389075,57.25064081],[13.89340333,57.25031237],[13.89150487,57.2495723],[13.89025376,57.2492656],[13.88958972,57.24904718],[13.88889014,57.24874416],[13.88817963,57.24856272],[13.88773388,57.24825488],[13.88745609,57.24816567],[13.88689538,57.24809244],[13.88454156,57.24620275],[13.88051653,57.24528371],[13.87815192,57.24888294],[13.87607962,57.25033918],[13.87107776,57.24696794],[13.85333226,57.25033397],[13.84811024,57.25137908],[13.84511158,57.25370514],[13.84196915,57.25614231],[13.84090655,57.25696633],[13.8407766,57.25707668],[13.84350872,57.2585145],[13.84320251,57.25899836],[13.84078006,57.26282023],[13.8404586,57.2633276],[13.83956288,57.26433068],[13.84197897,57.26496438],[13.84106489,57.26644592],[13.83867998,57.26634566],[13.83904236,57.26809932],[13.83928392,57.2690073],[13.84221791,57.26919904],[13.84226093,57.2695591],[13.84431625,57.2691194],[13.84440425,57.26912913],[13.84880982,57.269616],[13.84917606,57.27013828],[13.84905853,57.27118089],[13.85041568,57.2717859],[13.84998074,57.27334017],[13.85082417,57.27385859],[13.84988096,57.2744392],[13.84724912,57.27401658],[13.84689422,57.27484214],[13.84833058,57.27545228],[13.85095093,57.27576969],[13.85258402,57.27704147],[13.85249771,57.2770836],[13.8562232,57.28234194],[13.85646359,57.28250285],[13.85637769,57.28256943],[13.85728559,57.28340388],[13.85777514,57.2838538],[13.85831563,57.28435052],[13.85825445,57.28439727],[13.86185613,57.28486524],[13.86192858,57.28489597],[13.86581259,57.28654279],[13.86932962,57.28908928],[13.87383498,57.2898091],[13.87386308,57.2898125],[13.87919868,57.29045877],[13.88135937,57.29072041],[13.88231503,57.29117882],[13.88384881,57.29191452],[13.88527874,57.29259578],[13.88601489,57.29294648],[13.88625695,57.29268067],[13.88851399,57.29555521],[13.8893246,57.29592669],[13.88886294,57.29642497],[13.89013239,57.29794851],[13.89735148,57.30078651],[13.89913492,57.3014875],[13.89914231,57.30184122],[13.90592655,57.30294933],[13.9070665,57.30313549],[13.90891286,57.30199495],[13.91077254,57.30081747],[13.91117944,57.30086623],[13.91465232,57.30130933],[13.91947708,57.30192472],[13.92115574,57.30213878],[13.92215452,57.30226614],[13.92330146,57.30241238],[13.92491011,57.30261746],[13.92644429,57.30281302],[13.92367727,57.30664917],[13.92367456,57.30665295],[13.92359877,57.30678625],[13.92349812,57.30696332],[13.92340458,57.30712787],[13.92220185,57.30882098],[13.9221457,57.30950462],[13.92977022,57.3090492],[13.93021285,57.30976446],[13.93088421,57.31084928],[13.93152569,57.31188573],[13.93163741,57.31206622],[13.93430041,57.31558568],[13.93186539,57.31646119],[13.93183336,57.31647271],[13.93285725,57.31689586],[13.93325261,57.3173021],[13.93359617,57.31770744],[13.93392105,57.31792952],[13.93353996,57.31892823],[13.93322399,57.31975628],[13.92952775,57.31955252],[13.92946886,57.32062347],[13.92940371,57.32180758],[13.92922611,57.32503532],[13.92973413,57.32498591],[13.92971158,57.32707326],[13.92983984,57.32909442],[13.92672999,57.3339502],[13.92564951,57.33563695],[13.9284432,57.33683974],[13.92846435,57.33684884],[13.93160692,57.33820169],[13.93197061,57.33809304],[13.93353607,57.33956606],[13.93431444,57.34029841],[13.93532331,57.34124758],[13.93468439,57.34145266],[13.93787444,57.34337163]]]},"geometry_name":"geom","properties":{"nvrid":"2001362","gtype":"Polygon","namn":"Store Mosse","skyddstyp":"Nationalpark","skyddstyp_kod":"NP","beslutsstatus":"Gällande","beslutsmyndighet":"Riksdag/Regering","urspr_beslutsdatum":"19820506","urspr_gallandedatum":"19820506","senaste_gallandedatum":"19820506","ikrafttradandedatum_foreskrift":null,"tillsynsmyndighet":null,"provningsmyndighet_tillstand":" ","provningsmyndighet_dispens":" ","lan":"Jönköpings Län","kommun":"Gnosjö, Vaggeryd, Värnamo","iucnkategori":"II, Nationalpark (National Park)","forvaltare":"Länsstyrelsen i Jönköpings län","data_friluftsliv_publicerat":"Ja","area_ha":7674.11,"land_ha":7409.47,"skog_ha":652.15,"vatten_ha":264.64}},{"type":"Feature","id":"PS.ProtectedSites.NP.15756927","geometry":{"type":"Polygon","coordinates":[[[15.59115773,57.75835192],[15.58620806,57.76223325],[15.58504872,57.76315696],[15.58489151,57.7659474],[15.58475432,57.76838218],[15.5863965,57.76949949],[15.58803877,57.7706426],[15.59010849,57.76998248],[15.59159479,57.7695084],[15.5968651,57.76780148],[15.59824759,57.76762118],[15.59995423,57.76751511],[15.60057143,57.7657559],[15.60314031,57.76347594],[15.60313168,57.76344835],[15.6030655,57.76341555],[15.6030124,57.76333946],[15.60304067,57.76324897],[15.60314109,57.7631819],[15.60316944,57.7631707],[15.60301343,57.76307027],[15.60291924,57.76300205],[15.60286876,57.76294998],[15.602825,57.76287457],[15.60274088,57.76280994],[15.60261649,57.76275431],[15.60244499,57.7626484],[15.60236758,57.76257119],[15.60231372,57.7624886],[15.60230686,57.7624024],[15.60233019,57.76227848],[15.60232334,57.76219407],[15.60231653,57.76213122],[15.60227277,57.76207556],[15.60220216,57.76202709],[15.60213489,57.76198939],[15.60210793,57.76193553],[15.60211792,57.76186908],[15.60222196,57.76180798],[15.60231935,57.76177024],[15.60235959,57.76171994],[15.602383,57.76165349],[15.60237619,57.76159243],[15.60238281,57.76152957],[15.60241633,57.76148286],[15.60245995,57.76143974],[15.6024498,57.76139844],[15.60239601,57.76136434],[15.60231192,57.76130151],[15.6022749,57.76125302],[15.60226809,57.76119556],[15.60231504,57.76114167],[15.60236537,57.76111112],[15.60238212,57.76106801],[15.60231815,57.76098183],[15.6022341,57.76093516],[15.60215673,57.7608813],[15.6021163,57.76079871],[15.60214307,57.76072687],[15.60212613,57.76063887],[15.6021126,57.76056704],[15.60212259,57.76051674],[15.60216285,57.76047723],[15.60220311,57.76043411],[15.6021694,57.76036049],[15.60210879,57.76028149],[15.60208856,57.76023121],[15.60212883,57.76019169],[15.60218585,57.76013599],[15.60220593,57.76007852],[15.60215206,57.75999593],[15.60204107,57.75991694],[15.60190317,57.75981641],[15.60186951,57.75976793],[15.60182912,57.75972124],[15.60180558,57.75969612],[15.60175176,57.75965841],[15.60169459,57.75962251],[15.6016206,57.75956686],[15.60153986,57.75948786],[15.6015297,57.75943759],[15.60151956,57.75939268],[15.60144555,57.75931368],[15.60136147,57.75926523],[15.60124388,57.75925089],[15.60113966,57.75920602],[15.60103536,57.75909651],[15.60096803,57.75899775],[15.60098806,57.75892052],[15.600988,57.75888046],[15.60055853,57.75892677],[15.60040661,57.75891472],[15.60029016,57.75887576],[15.6002144,57.75881727],[15.60011896,57.75866659],[15.59998284,57.75843296],[15.59990266,57.75826553],[15.59978549,57.75797759],[15.59966334,57.75762892],[15.59950048,57.75697917],[15.59839801,57.75716061],[15.59115773,57.75835192]]]},"geometry_name":"geom","properties":{"nvrid":"2002423","gtype":"Polygon","namn":"Norra Kvill","skyddstyp":"Nationalpark","skyddstyp_kod":"NP","beslutsstatus":"Gällande","beslutsmyndighet":"Riksdag/Regering","urspr_beslutsdatum":"19270506","urspr_gallandedatum":"19270603","senaste_gallandedatum":"19940526","ikrafttradandedatum_foreskrift":null,"tillsynsmyndighet":null,"provningsmyndighet_tillstand":" ","provningsmyndighet_dispens":" ","lan":"Kalmar Län","kommun":"Vimmerby","iucnkategori":"Ia, Strikt naturreservat (Strict Nature Reserve)","forvaltare":"Länsstyrelsen i Kalmar län","data_friluftsliv_publicerat":"Ja","area_ha":109.73,"land_ha":107.26,"skog_ha":104.1,"vatten_ha":2.47}}],"totalFeatures":2,"numberMatched":2,"numberReturned":2,"timeStamp":"2026-04-30T16:55:30.540Z","crs":{"type":"name","properties":{"name":"urn:ogc:def:crs:EPSG::4326"}}}
