{
  "type": "Feature",
  "properties": {
    "trailId": "hallandsleden",
    "sectionId": "hallandsleden-veddige-nosslinge",
    "sectionNumber": "N5",
    "name": "Veddige - Nösslinge",
    "from": "Veddige",
    "to": "Nösslinge",
    "sourceType": "official-gpx",
    "sourceUrl": "https://cdn.hoodin.com/hallandsleden/assets/geomanager/geofiles/Norra_Veddige_Nosslinge250923.gpx",
    "sourceLastModified": "Fri, 26 Sep 2025 09:47:33 GMT",
    "sourceEtag": "\"6a1328e35df7b61e619c974175dde375\"",
    "sourceSha256": "76e5397882cc207e6c72480919863830b0436add490bb6ab0db7b285e82810c9",
    "accessed": "2026-04-30",
    "geometryVariant": "canonical-official",
    "geometryProvenance": "Exact official GPX track/segment coordinates converted to GeoJSON.",
    "coordinateOrder": "lon,lat[,ele]",
    "segmentCount": 4,
    "pointCount": 351,
    "computedDistanceKm": 25.044,
    "maxInternalGapMeters": 625.72,
    "repairSummary": {
      "insertedPointCount": 0,
      "longInternalGapCount": 4,
      "officialSegmentBreakCount": 3,
      "note": "Canonical geometry is exact official GPX converted to GeoJSON."
    },
    "runtimeImport": false
  },
  "geometry": {
    "type": "MultiLineString",
    "coordinates": [
      [
        [
          12.337199,
          57.267188,
          14.4
        ],
        [
          12.337148,
          57.267124,
          14.4
        ],
        [
          12.335415,
          57.266537,
          14.3
        ],
        [
          12.336531,
          57.265539,
          8.5
        ],
        [
          12.337775,
          57.264681,
          7.5
        ],
        [
          12.338934,
          57.263822,
          9.9
        ],
        [
          12.338119,
          57.26352,
          8.3
        ],
        [
          12.335715,
          57.263543,
          6.4
        ],
        [
          12.334299,
          57.262824,
          6.5
        ],
        [
          12.332883,
          57.262244,
          7
        ],
        [
          12.33211,
          57.261687,
          7.7
        ],
        [
          12.333355,
          57.260689,
          6.2
        ],
        [
          12.334256,
          57.259668,
          7
        ],
        [
          12.3352,
          57.259691,
          10.6
        ],
        [
          12.335072,
          57.260341,
          13.4
        ],
        [
          12.335072,
          57.261037,
          11.5
        ],
        [
          12.336874,
          57.261339,
          12.6
        ],
        [
          12.338076,
          57.261223,
          13.8
        ],
        [
          12.339106,
          57.261431,
          15.6
        ],
        [
          12.34035,
          57.26171,
          7.9
        ],
        [
          12.34108,
          57.262244,
          10.1
        ],
        [
          12.341895,
          57.262847,
          13.6
        ],
        [
          12.342367,
          57.263358,
          14
        ],
        [
          12.344813,
          57.264495,
          11.6
        ],
        [
          12.346358,
          57.265029,
          9.3
        ],
        [
          12.348204,
          57.265493,
          8
        ],
        [
          12.349577,
          57.266444,
          7.9
        ],
        [
          12.350864,
          57.266978,
          10.6
        ],
        [
          12.352581,
          57.267558,
          14.1
        ],
        [
          12.354426,
          57.268277,
          15.1
        ],
        [
          12.356358,
          57.26895,
          15.3
        ],
        [
          12.357645,
          57.269646,
          15.6
        ],
        [
          12.359448,
          57.270923,
          15.3
        ],
        [
          12.36155,
          57.272245,
          16.1
        ],
        [
          12.362795,
          57.273173,
          16.6
        ],
        [
          12.364597,
          57.272454,
          16.1
        ],
        [
          12.366228,
          57.271897,
          16.5
        ],
        [
          12.367788,
          57.271805,
          21.3
        ],
        [
          12.367642,
          57.271689,
          20.3
        ],
        [
          12.367842,
          57.270947,
          21.1
        ],
        [
          12.367591,
          57.270459,
          22.1
        ],
        [
          12.36753,
          57.270027,
          22.3
        ],
        [
          12.366828,
          57.269355,
          20.1
        ],
        [
          12.366736,
          57.269118,
          20.1
        ],
        [
          12.366735,
          57.268472,
          19.6
        ],
        [
          12.366909,
          57.267543,
          28.5
        ],
        [
          12.367419,
          57.266838,
          36.8
        ],
        [
          12.368266,
          57.266396,
          43.2
        ],
        [
          12.368742,
          57.265993,
          51.6
        ],
        [
          12.369364,
          57.265332,
          61.2
        ],
        [
          12.369995,
          57.264222,
          65
        ],
        [
          12.370276,
          57.264186,
          62.7
        ],
        [
          12.370573,
          57.264227,
          62.7
        ],
        [
          12.371042,
          57.264332,
          65.7
        ],
        [
          12.371609,
          57.26411,
          63.6
        ],
        [
          12.372053,
          57.264132,
          65.2
        ],
        [
          12.372925,
          57.263837,
          67.9
        ],
        [
          12.37323,
          57.264251,
          69.2
        ],
        [
          12.373683,
          57.264252,
          71
        ],
        [
          12.374231,
          57.26436,
          71
        ],
        [
          12.374991,
          57.264346,
          72.9
        ],
        [
          12.375176,
          57.264268,
          74.7
        ],
        [
          12.375153,
          57.264144,
          74.7
        ],
        [
          12.37578,
          57.263994,
          74.7
        ],
        [
          12.376546,
          57.263524,
          78.2
        ],
        [
          12.376619,
          57.263139,
          82.2
        ],
        [
          12.377058,
          57.262859,
          90.5
        ],
        [
          12.377197,
          57.2625,
          90.5
        ],
        [
          12.377578,
          57.262357,
          92.2
        ],
        [
          12.378299,
          57.261813,
          86.4
        ],
        [
          12.378687,
          57.261755,
          89.9
        ],
        [
          12.37935,
          57.261872,
          89.9
        ],
        [
          12.380968,
          57.261908,
          86.5
        ],
        [
          12.381614,
          57.262013,
          74.4
        ],
        [
          12.382201,
          57.262186,
          79.4
        ],
        [
          12.381963,
          57.261935,
          71
        ],
        [
          12.381923,
          57.261772,
          74.4
        ],
        [
          12.38128,
          57.261436,
          69.9
        ],
        [
          12.380934,
          57.261216,
          74.7
        ],
        [
          12.379669,
          57.260293,
          66.2
        ],
        [
          12.378115,
          57.259603,
          57.3
        ],
        [
          12.376338,
          57.25896,
          44.7
        ],
        [
          12.375684,
          57.258618,
          43.5
        ],
        [
          12.375287,
          57.258208,
          39.8
        ],
        [
          12.376182,
          57.258276,
          38.3
        ],
        [
          12.376437,
          57.258383,
          43.1
        ],
        [
          12.376814,
          57.258361,
          43.1
        ],
        [
          12.377379,
          57.258575,
          42.7
        ],
        [
          12.378057,
          57.258657,
          45.6
        ],
        [
          12.381142,
          57.258577,
          48
        ],
        [
          12.38165,
          57.258366,
          50.8
        ],
        [
          12.382545,
          57.258162,
          57.1
        ],
        [
          12.383506,
          57.257777,
          56.8
        ],
        [
          12.383687,
          57.257753,
          56.8
        ],
        [
          12.383832,
          57.257813,
          56.8
        ],
        [
          12.384368,
          57.257649,
          53.6
        ],
        [
          12.384984,
          57.257255,
          56.7
        ],
        [
          12.386202,
          57.257127,
          54.2
        ],
        [
          12.386648,
          57.256622,
          57.7
        ],
        [
          12.387235,
          57.256205,
          55.3
        ],
        [
          12.389013,
          57.255627,
          62.2
        ],
        [
          12.389818,
          57.255512,
          57.7
        ],
        [
          12.389766,
          57.255264,
          57.7
        ],
        [
          12.3904,
          57.255025,
          56.3
        ],
        [
          12.390769,
          57.254654,
          62.3
        ],
        [
          12.393167,
          57.254131,
          64.5
        ],
        [
          12.393324,
          57.253954,
          66.7
        ],
        [
          12.393619,
          57.253968,
          66.7
        ],
        [
          12.393751,
          57.253903,
          66.7
        ],
        [
          12.393483,
          57.2534,
          66.9
        ],
        [
          12.393531,
          57.253043,
          66.7
        ],
        [
          12.393351,
          57.252463,
          63.2
        ],
        [
          12.393593,
          57.252244,
          57.7
        ],
        [
          12.393923,
          57.252158,
          57.7
        ],
        [
          12.394943,
          57.252165,
          52.7
        ],
        [
          12.397375,
          57.251929,
          33.3
        ],
        [
          12.398055,
          57.251556,
          26.3
        ],
        [
          12.398423,
          57.250872,
          22.6
        ],
        [
          12.400314,
          57.250614,
          24.3
        ]
      ],
      [
        [
          12.431749,
          57.248281,
          48.2
        ],
        [
          12.432221,
          57.24838,
          56.2
        ],
        [
          12.432801,
          57.248717,
          51.2
        ],
        [
          12.43397,
          57.249146,
          49.3
        ],
        [
          12.435493,
          57.249407,
          52.5
        ],
        [
          12.435622,
          57.249645,
          52.5
        ],
        [
          12.435257,
          57.250127,
          55.2
        ],
        [
          12.435204,
          57.25033,
          57.2
        ],
        [
          12.435611,
          57.250551,
          57.2
        ],
        [
          12.436041,
          57.250661,
          65.4
        ],
        [
          12.436287,
          57.250847,
          65.4
        ],
        [
          12.436652,
          57.250881,
          69.7
        ],
        [
          12.437017,
          57.250829,
          69.7
        ],
        [
          12.437768,
          57.251166,
          67.5
        ],
        [
          12.437822,
          57.251502,
          67.5
        ],
        [
          12.438058,
          57.251619,
          67
        ]
      ],
      [
        [
          12.440343,
          57.251648,
          67.2
        ],
        [
          12.44295,
          57.251984,
          78.5
        ],
        [
          12.443519,
          57.251891,
          79.9
        ],
        [
          12.444162,
          57.251584,
          75.4
        ],
        [
          12.444699,
          57.251566,
          75.4
        ],
        [
          12.445289,
          57.251874,
          78.4
        ],
        [
          12.445654,
          57.251282,
          66
        ]
      ],
      [
        [
          12.449387,
          57.249071,
          61.2
        ],
        [
          12.450095,
          57.249378,
          57.8
        ],
        [
          12.4512,
          57.249964,
          53.7
        ],
        [
          12.452606,
          57.251212,
          48.7
        ],
        [
          12.453518,
          57.251752,
          48.3
        ],
        [
          12.456565,
          57.252919,
          44.2
        ],
        [
          12.458206,
          57.253516,
          37.2
        ],
        [
          12.459848,
          57.253992,
          33.2
        ],
        [
          12.461457,
          57.254352,
          32.2
        ],
        [
          12.464182,
          57.254625,
          32.6
        ],
        [
          12.465974,
          57.254996,
          32.5
        ],
        [
          12.466843,
          57.254451,
          32
        ],
        [
          12.467937,
          57.254427,
          31
        ],
        [
          12.469665,
          57.254073,
          36.2
        ],
        [
          12.47106,
          57.25423,
          44.1
        ],
        [
          12.471972,
          57.254131,
          49.6
        ],
        [
          12.472272,
          57.253911,
          48
        ],
        [
          12.472626,
          57.253574,
          49.7
        ],
        [
          12.473087,
          57.25354,
          43.7
        ],
        [
          12.474848,
          57.253786,
          34.7
        ],
        [
          12.479504,
          57.253094,
          31.3
        ],
        [
          12.482795,
          57.253341,
          31.1
        ],
        [
          12.484931,
          57.253615,
          31.8
        ],
        [
          12.486863,
          57.253681,
          28.6
        ],
        [
          12.487464,
          57.254068,
          30.3
        ],
        [
          12.488072,
          57.254203,
          34.5
        ],
        [
          12.48835,
          57.254237,
          34.5
        ],
        [
          12.488865,
          57.253848,
          50.7
        ],
        [
          12.49052,
          57.252136,
          66.4
        ],
        [
          12.490696,
          57.252097,
          66.4
        ],
        [
          12.491257,
          57.252322,
          68.7
        ],
        [
          12.491277,
          57.251999,
          75
        ],
        [
          12.491587,
          57.251232,
          81.5
        ],
        [
          12.492417,
          57.25072,
          69.5
        ],
        [
          12.49275,
          57.250616,
          69.5
        ],
        [
          12.493431,
          57.250603,
          65.4
        ],
        [
          12.494515,
          57.250852,
          65.7
        ],
        [
          12.495016,
          57.250828,
          64.5
        ],
        [
          12.495262,
          57.25092,
          64.5
        ],
        [
          12.495966,
          57.250876,
          56.7
        ],
        [
          12.496795,
          57.250975,
          57.2
        ],
        [
          12.498407,
          57.251792,
          75
        ],
        [
          12.499069,
          57.252213,
          81.5
        ],
        [
          12.499312,
          57.252567,
          86.5
        ],
        [
          12.499531,
          57.252711,
          92.5
        ],
        [
          12.499949,
          57.252841,
          92.5
        ],
        [
          12.50093,
          57.252909,
          101.9
        ],
        [
          12.502288,
          57.253129,
          112
        ],
        [
          12.502782,
          57.253499,
          119.2
        ],
        [
          12.50302,
          57.253634,
          119.2
        ],
        [
          12.503889,
          57.253863,
          125.9
        ],
        [
          12.506118,
          57.253981,
          134
        ],
        [
          12.506499,
          57.253952,
          134
        ],
        [
          12.506963,
          57.253736,
          136
        ],
        [
          12.508235,
          57.253626,
          136.1
        ],
        [
          12.510358,
          57.253844,
          134
        ],
        [
          12.512242,
          57.253876,
          130.5
        ],
        [
          12.512603,
          57.254058,
          127
        ],
        [
          12.512961,
          57.254086,
          126.5
        ],
        [
          12.513347,
          57.254172,
          126.5
        ],
        [
          12.513465,
          57.254312,
          126.5
        ],
        [
          12.513896,
          57.254441,
          120.7
        ],
        [
          12.514184,
          57.255136,
          118.5
        ],
        [
          12.51464,
          57.256973,
          108.4
        ],
        [
          12.514748,
          57.257091,
          108.4
        ],
        [
          12.514945,
          57.257139,
          105
        ],
        [
          12.51563,
          57.257158,
          105
        ],
        [
          12.516008,
          57.257052,
          101.7
        ],
        [
          12.516324,
          57.256588,
          102
        ],
        [
          12.516464,
          57.25605,
          101
        ],
        [
          12.516588,
          57.255943,
          101
        ],
        [
          12.51694,
          57.255885,
          100
        ],
        [
          12.517236,
          57.255966,
          100
        ],
        [
          12.519058,
          57.256131,
          92.2
        ],
        [
          12.51997,
          57.256069,
          85.4
        ],
        [
          12.522252,
          57.256845,
          94.2
        ],
        [
          12.523774,
          57.256979,
          87.7
        ],
        [
          12.52456,
          57.257167,
          90.4
        ],
        [
          12.525122,
          57.257119,
          92.4
        ],
        [
          12.525903,
          57.256689,
          89.2
        ],
        [
          12.527031,
          57.256237,
          87.5
        ],
        [
          12.527313,
          57.256174,
          87.5
        ],
        [
          12.525865,
          57.255251,
          91.4
        ],
        [
          12.525231,
          57.254413,
          94.2
        ],
        [
          12.524571,
          57.25381,
          98.4
        ],
        [
          12.524075,
          57.252882,
          98.7
        ],
        [
          12.523446,
          57.252253,
          94.9
        ],
        [
          12.521418,
          57.251058,
          87.7
        ],
        [
          12.520527,
          57.250064,
          89.4
        ],
        [
          12.520693,
          57.249305,
          89
        ],
        [
          12.521566,
          57.247831,
          86.9
        ],
        [
          12.52202,
          57.246629,
          89.5
        ],
        [
          12.522214,
          57.244605,
          108.3
        ],
        [
          12.522397,
          57.244105,
          113.2
        ],
        [
          12.522285,
          57.243862,
          113.2
        ],
        [
          12.522057,
          57.243716,
          114.4
        ],
        [
          12.521799,
          57.243697,
          114.4
        ],
        [
          12.520915,
          57.24389,
          117.5
        ],
        [
          12.520865,
          57.243321,
          122.7
        ],
        [
          12.51999,
          57.242037,
          131.5
        ],
        [
          12.518026,
          57.236511,
          140.6
        ],
        [
          12.518047,
          57.234612,
          137.4
        ],
        [
          12.518264,
          57.234165,
          126.9
        ],
        [
          12.518266,
          57.23371,
          120.7
        ],
        [
          12.518154,
          57.232718,
          112
        ],
        [
          12.517973,
          57.232563,
          112
        ],
        [
          12.516666,
          57.23236,
          97.4
        ],
        [
          12.515058,
          57.232425,
          85.2
        ],
        [
          12.514297,
          57.232351,
          86
        ],
        [
          12.513367,
          57.23169,
          83
        ],
        [
          12.512727,
          57.231076,
          74.7
        ],
        [
          12.512096,
          57.230691,
          80
        ],
        [
          12.511985,
          57.230459,
          79.7
        ],
        [
          12.511965,
          57.229655,
          93.2
        ],
        [
          12.51342,
          57.228748,
          91.2
        ],
        [
          12.514484,
          57.227646,
          105
        ],
        [
          12.51537,
          57.226431,
          107.7
        ],
        [
          12.516638,
          57.225733,
          108.2
        ],
        [
          12.517882,
          57.225236,
          101.7
        ],
        [
          12.518501,
          57.224758,
          92
        ],
        [
          12.518597,
          57.224627,
          92
        ],
        [
          12.518315,
          57.224279,
          84.2
        ],
        [
          12.518029,
          57.223597,
          78
        ],
        [
          12.517592,
          57.222903,
          85.5
        ],
        [
          12.517224,
          57.222779,
          90.2
        ],
        [
          12.516016,
          57.222614,
          90.4
        ],
        [
          12.515686,
          57.222654,
          90.4
        ],
        [
          12.5156,
          57.222911,
          90.4
        ],
        [
          12.515431,
          57.223009,
          88.2
        ],
        [
          12.513854,
          57.223267,
          90.7
        ],
        [
          12.512832,
          57.223068,
          93
        ],
        [
          12.510686,
          57.222951,
          95.7
        ],
        [
          12.510505,
          57.222796,
          98.5
        ],
        [
          12.510131,
          57.222687,
          98.5
        ],
        [
          12.508942,
          57.22275,
          110.5
        ],
        [
          12.508762,
          57.222522,
          110.5
        ],
        [
          12.508691,
          57.222213,
          101.9
        ],
        [
          12.509063,
          57.22172,
          99
        ],
        [
          12.508901,
          57.220072,
          112.5
        ],
        [
          12.508943,
          57.219482,
          94.9
        ],
        [
          12.508832,
          57.219384,
          94.9
        ],
        [
          12.508635,
          57.219363,
          94.9
        ],
        [
          12.507222,
          57.219397,
          88.9
        ],
        [
          12.506655,
          57.219341,
          90.7
        ],
        [
          12.506503,
          57.219255,
          94.4
        ],
        [
          12.506442,
          57.219068,
          94.4
        ],
        [
          12.506903,
          57.218421,
          82
        ],
        [
          12.507096,
          57.217594,
          85
        ],
        [
          12.506741,
          57.217368,
          87.4
        ],
        [
          12.50464,
          57.217086,
          87.2
        ],
        [
          12.504226,
          57.216935,
          79.7
        ],
        [
          12.504188,
          57.216706,
          79.7
        ],
        [
          12.504376,
          57.216398,
          81.4
        ],
        [
          12.504934,
          57.216056,
          85.2
        ],
        [
          12.504831,
          57.21589,
          85.2
        ],
        [
          12.505425,
          57.215352,
          83.7
        ],
        [
          12.505469,
          57.215015,
          83
        ],
        [
          12.506112,
          57.214848,
          83
        ],
        [
          12.506542,
          57.214654,
          76
        ],
        [
          12.506726,
          57.214485,
          76
        ],
        [
          12.506498,
          57.214095,
          76.2
        ],
        [
          12.50648,
          57.213841,
          75
        ],
        [
          12.506727,
          57.213194,
          73
        ],
        [
          12.507228,
          57.213059,
          74.2
        ],
        [
          12.507306,
          57.212927,
          72.9
        ],
        [
          12.507741,
          57.210105,
          70.7
        ],
        [
          12.509628,
          57.209171,
          70.4
        ],
        [
          12.512054,
          57.208259,
          69.2
        ],
        [
          12.512626,
          57.209779,
          69.7
        ],
        [
          12.514405,
          57.209716,
          70.5
        ],
        [
          12.517639,
          57.209483,
          70.2
        ],
        [
          12.517785,
          57.209523,
          70.2
        ],
        [
          12.517746,
          57.209994,
          71
        ],
        [
          12.517976,
          57.210092,
          71.2
        ],
        [
          12.522332,
          57.211072,
          80.5
        ],
        [
          12.522589,
          57.211082,
          80.5
        ],
        [
          12.522742,
          57.210996,
          75
        ],
        [
          12.52381,
          57.209955,
          73.5
        ],
        [
          12.525466,
          57.210082,
          94.4
        ],
        [
          12.527477,
          57.209853,
          106.5
        ],
        [
          12.527953,
          57.209529,
          108.5
        ],
        [
          12.528127,
          57.209185,
          95.4
        ],
        [
          12.528348,
          57.209073,
          95.4
        ],
        [
          12.528507,
          57.209068,
          95.4
        ],
        [
          12.528906,
          57.209247,
          95.4
        ],
        [
          12.530137,
          57.209275,
          82.2
        ],
        [
          12.530586,
          57.209457,
          92
        ],
        [
          12.531607,
          57.209374,
          80.4
        ],
        [
          12.532465,
          57.209477,
          93.9
        ],
        [
          12.533013,
          57.209474,
          93.9
        ],
        [
          12.533378,
          57.209604,
          84.7
        ],
        [
          12.533948,
          57.210422,
          88.7
        ],
        [
          12.534151,
          57.210534,
          88.7
        ],
        [
          12.5346,
          57.210586,
          88.7
        ],
        [
          12.534881,
          57.210867,
          88.9
        ],
        [
          12.535751,
          57.211129,
          83.2
        ],
        [
          12.536072,
          57.21137,
          92.7
        ],
        [
          12.536165,
          57.211561,
          92.7
        ],
        [
          12.536896,
          57.211952,
          87.4
        ],
        [
          12.536818,
          57.211455,
          83.4
        ],
        [
          12.537211,
          57.210443,
          82.5
        ],
        [
          12.537975,
          57.209853,
          79.5
        ],
        [
          12.538725,
          57.209608,
          85.9
        ],
        [
          12.539161,
          57.209356,
          81
        ],
        [
          12.539373,
          57.209295,
          81
        ],
        [
          12.53976,
          57.20938,
          79.7
        ],
        [
          12.54014,
          57.209265,
          79.7
        ],
        [
          12.540812,
          57.208646,
          80
        ],
        [
          12.540928,
          57.208434,
          80
        ]
      ]
    ]
  }
}
