{
  "type": "Feature",
  "properties": {
    "trailId": "hallandsleden",
    "sectionId": "hallandsleden-mastocka-knared",
    "sectionNumber": "S7",
    "name": "Mästocka - Knäred",
    "from": "Mästocka",
    "to": "Knäred",
    "sourceType": "official-gpx",
    "sourceUrl": "https://cdn.hoodin.com/hallandsleden/assets/geomanager/geofiles/Sodra_Mastocka_Knared.gpx",
    "sourceLastModified": "Wed, 02 Jul 2025 12:44:25 GMT",
    "sourceEtag": "\"0515690a442f37424fc3497347712d1b\"",
    "sourceSha256": "2076e23e23f13eb039f31965b500823ff70e4b64bbcf1c7122c3eea523206bf4",
    "accessed": "2026-04-30",
    "geometryVariant": "canonical-official",
    "geometryProvenance": "Exact official GPX track/segment coordinates converted to GeoJSON.",
    "coordinateOrder": "lon,lat[,ele]",
    "segmentCount": 1,
    "pointCount": 294,
    "computedDistanceKm": 17.152,
    "maxInternalGapMeters": 253.71,
    "repairSummary": {
      "insertedPointCount": 0,
      "longInternalGapCount": 1,
      "officialSegmentBreakCount": 0,
      "note": "Canonical geometry is exact official GPX converted to GeoJSON."
    },
    "runtimeImport": false
  },
  "geometry": {
    "type": "LineString",
    "coordinates": [
      [
        13.245416,
        56.60791,
        133.4
      ],
      [
        13.245795,
        56.607582,
        138.4
      ],
      [
        13.245936,
        56.607367,
        138.4
      ],
      [
        13.246164,
        56.607259,
        142.3
      ],
      [
        13.246319,
        56.607109,
        142
      ],
      [
        13.246557,
        56.606786,
        145
      ],
      [
        13.246763,
        56.606685,
        145
      ],
      [
        13.247022,
        56.606414,
        146
      ],
      [
        13.247244,
        56.606143,
        145.1
      ],
      [
        13.24762,
        56.60597,
        146.5
      ],
      [
        13.248036,
        56.606295,
        142.9
      ],
      [
        13.248385,
        56.606386,
        142.9
      ],
      [
        13.248729,
        56.60635,
        142.9
      ],
      [
        13.249608,
        56.607059,
        144.5
      ],
      [
        13.250177,
        56.607041,
        144.5
      ],
      [
        13.250747,
        56.60711,
        145.5
      ],
      [
        13.251136,
        56.607246,
        143.9
      ],
      [
        13.251846,
        56.607574,
        144.6
      ],
      [
        13.253202,
        56.607767,
        149.4
      ],
      [
        13.25376,
        56.607903,
        147.9
      ],
      [
        13.254291,
        56.608162,
        147.9
      ],
      [
        13.254704,
        56.608517,
        144.6
      ],
      [
        13.255917,
        56.608978,
        140.1
      ],
      [
        13.257194,
        56.609373,
        144.5
      ],
      [
        13.257236,
        56.609574,
        144.5
      ],
      [
        13.257097,
        56.609881,
        146
      ],
      [
        13.25705,
        56.61022,
        144
      ],
      [
        13.257022,
        56.610643,
        139.3
      ],
      [
        13.257194,
        56.611003,
        139.3
      ],
      [
        13.25758,
        56.611121,
        131.6
      ],
      [
        13.257729,
        56.611312,
        131.6
      ],
      [
        13.25828,
        56.611436,
        127.2
      ],
      [
        13.259184,
        56.611636,
        127.5
      ],
      [
        13.260645,
        56.611973,
        128.6
      ],
      [
        13.261424,
        56.61212,
        132.5
      ],
      [
        13.262119,
        56.612249,
        131
      ],
      [
        13.262632,
        56.612344,
        130.1
      ],
      [
        13.26435,
        56.612356,
        125.8
      ],
      [
        13.265103,
        56.612438,
        123.5
      ],
      [
        13.267708,
        56.613317,
        123.8
      ],
      [
        13.271024,
        56.614017,
        124.8
      ],
      [
        13.271617,
        56.613656,
        122.5
      ],
      [
        13.272009,
        56.613406,
        122
      ],
      [
        13.272699,
        56.612995,
        122.3
      ],
      [
        13.273383,
        56.612343,
        122.3
      ],
      [
        13.275712,
        56.611771,
        122
      ],
      [
        13.276194,
        56.61167,
        122
      ],
      [
        13.27687,
        56.611322,
        125.2
      ],
      [
        13.277771,
        56.610672,
        126.3
      ],
      [
        13.27952,
        56.610212,
        121.7
      ],
      [
        13.280143,
        56.610029,
        121.7
      ],
      [
        13.28054,
        56.609822,
        121.3
      ],
      [
        13.28127,
        56.609087,
        120.9
      ],
      [
        13.281555,
        56.6088,
        120.9
      ],
      [
        13.281845,
        56.608537,
        123.3
      ],
      [
        13.28212,
        56.608282,
        123.8
      ],
      [
        13.282401,
        56.608018,
        128.5
      ],
      [
        13.282638,
        56.607765,
        132.8
      ],
      [
        13.282859,
        56.607472,
        132.8
      ],
      [
        13.284123,
        56.605299,
        129.8
      ],
      [
        13.284853,
        56.605122,
        128
      ],
      [
        13.285325,
        56.605039,
        128
      ],
      [
        13.286183,
        56.605063,
        128
      ],
      [
        13.287492,
        56.604638,
        127.7
      ],
      [
        13.288287,
        56.604165,
        125.9
      ],
      [
        13.288747,
        56.604035,
        125.9
      ],
      [
        13.289123,
        56.603858,
        122.3
      ],
      [
        13.28908,
        56.603563,
        122.3
      ],
      [
        13.289487,
        56.602577,
        121.9
      ],
      [
        13.289445,
        56.602281,
        122.2
      ],
      [
        13.289214,
        56.601899,
        123.3
      ],
      [
        13.289112,
        56.601413,
        124.8
      ],
      [
        13.289071,
        56.60105,
        128
      ],
      [
        13.289251,
        56.600684,
        127.4
      ],
      [
        13.289616,
        56.600332,
        127.4
      ],
      [
        13.289943,
        56.599708,
        124.8
      ],
      [
        13.289921,
        56.599569,
        124.8
      ],
      [
        13.289021,
        56.598928,
        122
      ],
      [
        13.288951,
        56.598789,
        124.9
      ],
      [
        13.289442,
        56.598567,
        122.5
      ],
      [
        13.289591,
        56.598416,
        121.9
      ],
      [
        13.289915,
        56.598238,
        121.2
      ],
      [
        13.291494,
        56.597819,
        121.3
      ],
      [
        13.292132,
        56.597674,
        121.3
      ],
      [
        13.292796,
        56.59759,
        123.3
      ],
      [
        13.293767,
        56.597336,
        123.5
      ],
      [
        13.294416,
        56.597134,
        129
      ],
      [
        13.295018,
        56.596772,
        124.9
      ],
      [
        13.295407,
        56.596597,
        127
      ],
      [
        13.296601,
        56.59634,
        122.5
      ],
      [
        13.297791,
        56.596174,
        120.4
      ],
      [
        13.298382,
        56.596186,
        118.8
      ],
      [
        13.299261,
        56.595499,
        121.2
      ],
      [
        13.299539,
        56.595107,
        122.7
      ],
      [
        13.300326,
        56.594604,
        123.2
      ],
      [
        13.300992,
        56.594244,
        122
      ],
      [
        13.302523,
        56.593711,
        123
      ],
      [
        13.303572,
        56.59312,
        126.9
      ],
      [
        13.30382,
        56.592489,
        129
      ],
      [
        13.303824,
        56.591873,
        130.5
      ],
      [
        13.304081,
        56.591506,
        126.8
      ],
      [
        13.304376,
        56.591236,
        126.8
      ],
      [
        13.304671,
        56.591075,
        126.8
      ],
      [
        13.304809,
        56.590924,
        127.7
      ],
      [
        13.305001,
        56.589576,
        130.1
      ],
      [
        13.305838,
        56.589316,
        128
      ],
      [
        13.306267,
        56.588985,
        131.8
      ],
      [
        13.306932,
        56.588867,
        130
      ],
      [
        13.308113,
        56.588406,
        131
      ],
      [
        13.309271,
        56.587804,
        125.2
      ],
      [
        13.307582,
        56.586391,
        125.5
      ],
      [
        13.307159,
        56.58584,
        127.2
      ],
      [
        13.307236,
        56.584901,
        122.5
      ],
      [
        13.30739,
        56.584519,
        121.9
      ],
      [
        13.307373,
        56.584346,
        121.9
      ],
      [
        13.307226,
        56.584128,
        124.3
      ],
      [
        13.306476,
        56.583594,
        124.8
      ],
      [
        13.305824,
        56.582909,
        128.5
      ],
      [
        13.305572,
        56.58277,
        128.5
      ],
      [
        13.304735,
        56.582515,
        126.5
      ],
      [
        13.304248,
        56.582295,
        128.1
      ],
      [
        13.303907,
        56.582031,
        129.9
      ],
      [
        13.303514,
        56.581582,
        129.8
      ],
      [
        13.303179,
        56.581224,
        129.8
      ],
      [
        13.302904,
        56.580933,
        129.4
      ],
      [
        13.302754,
        56.58068,
        124.2
      ],
      [
        13.302698,
        56.580368,
        124.2
      ],
      [
        13.302227,
        56.579809,
        122.2
      ],
      [
        13.3022,
        56.579608,
        120.3
      ],
      [
        13.302279,
        56.57912,
        118.3
      ],
      [
        13.30226,
        56.578687,
        115.7
      ],
      [
        13.30235,
        56.57854,
        115.7
      ],
      [
        13.302818,
        56.578124,
        112.3
      ],
      [
        13.302607,
        56.577557,
        107.4
      ],
      [
        13.302032,
        56.57651,
        93.9
      ],
      [
        13.302047,
        56.575203,
        91
      ],
      [
        13.30216,
        56.574958,
        91
      ],
      [
        13.302796,
        56.574367,
        87.7
      ],
      [
        13.303368,
        56.574619,
        88.7
      ],
      [
        13.304293,
        56.574871,
        89
      ],
      [
        13.304897,
        56.574884,
        89.4
      ],
      [
        13.305422,
        56.574699,
        89
      ],
      [
        13.306863,
        56.574656,
        89
      ],
      [
        13.307111,
        56.574581,
        89
      ],
      [
        13.308027,
        56.574082,
        88.9
      ],
      [
        13.3089,
        56.573423,
        90.2
      ],
      [
        13.309229,
        56.573296,
        90.2
      ],
      [
        13.309761,
        56.573309,
        89.5
      ],
      [
        13.310298,
        56.573241,
        89.5
      ],
      [
        13.311042,
        56.573275,
        90.2
      ],
      [
        13.312437,
        56.573557,
        83
      ],
      [
        13.313059,
        56.573495,
        83
      ],
      [
        13.313956,
        56.573337,
        82.5
      ],
      [
        13.315084,
        56.57293,
        82.2
      ],
      [
        13.316932,
        56.572867,
        80.9
      ],
      [
        13.317562,
        56.573044,
        81.9
      ],
      [
        13.318391,
        56.572984,
        83.7
      ],
      [
        13.318963,
        56.572452,
        82.7
      ],
      [
        13.320091,
        56.572042,
        82.2
      ],
      [
        13.320207,
        56.571896,
        79
      ],
      [
        13.32048,
        56.571784,
        82
      ],
      [
        13.320679,
        56.571465,
        81.5
      ],
      [
        13.321111,
        56.571214,
        81.5
      ],
      [
        13.321088,
        56.571054,
        81.5
      ],
      [
        13.321249,
        56.570807,
        83
      ],
      [
        13.321286,
        56.57058,
        81.5
      ],
      [
        13.321259,
        56.569945,
        80.4
      ],
      [
        13.321612,
        56.569737,
        80.4
      ],
      [
        13.32208,
        56.569624,
        76.9
      ],
      [
        13.322678,
        56.56934,
        76.9
      ],
      [
        13.323224,
        56.568875,
        77
      ],
      [
        13.322707,
        56.568467,
        77.5
      ],
      [
        13.322103,
        56.567617,
        79.5
      ],
      [
        13.321186,
        56.567766,
        76.7
      ],
      [
        13.32094,
        56.567744,
        76.7
      ],
      [
        13.320446,
        56.567578,
        75
      ],
      [
        13.320236,
        56.567392,
        75.5
      ],
      [
        13.320107,
        56.566919,
        76.4
      ],
      [
        13.319592,
        56.566588,
        75
      ],
      [
        13.318547,
        56.566014,
        78.5
      ],
      [
        13.318026,
        56.566541,
        75.2
      ],
      [
        13.317533,
        56.566518,
        75.2
      ],
      [
        13.317146,
        56.566033,
        75.7
      ],
      [
        13.317211,
        56.56556,
        75.4
      ],
      [
        13.316653,
        56.56446,
        81.5
      ],
      [
        13.315394,
        56.564376,
        76
      ],
      [
        13.31322,
        56.564508,
        78.2
      ],
      [
        13.311503,
        56.562911,
        79.5
      ],
      [
        13.309866,
        56.561207,
        75.5
      ],
      [
        13.310087,
        56.560842,
        78.2
      ],
      [
        13.309936,
        56.559802,
        80.7
      ],
      [
        13.310301,
        56.559731,
        82.7
      ],
      [
        13.310838,
        56.559518,
        83.2
      ],
      [
        13.311303,
        56.559367,
        82
      ],
      [
        13.310207,
        56.558904,
        85.5
      ],
      [
        13.310057,
        56.558677,
        86.7
      ],
      [
        13.31001,
        56.558296,
        86.4
      ],
      [
        13.310044,
        56.557967,
        86.4
      ],
      [
        13.310078,
        56.557588,
        85.5
      ],
      [
        13.310346,
        56.556968,
        81.7
      ],
      [
        13.310491,
        56.556368,
        80.5
      ],
      [
        13.310488,
        56.556133,
        80.5
      ],
      [
        13.310319,
        56.555714,
        79
      ],
      [
        13.310306,
        56.555227,
        78.7
      ],
      [
        13.310194,
        56.555113,
        79.4
      ],
      [
        13.30946,
        56.554878,
        83
      ],
      [
        13.308198,
        56.554622,
        83.7
      ],
      [
        13.306997,
        56.554126,
        81
      ],
      [
        13.306546,
        56.553759,
        78
      ],
      [
        13.305127,
        56.55327,
        81
      ],
      [
        13.30323,
        56.552752,
        76.7
      ],
      [
        13.302643,
        56.55263,
        76.7
      ],
      [
        13.302401,
        56.552627,
        74
      ],
      [
        13.301942,
        56.552438,
        74
      ],
      [
        13.301623,
        56.552152,
        76.2
      ],
      [
        13.301107,
        56.551963,
        76.2
      ],
      [
        13.301477,
        56.551276,
        78.7
      ],
      [
        13.301792,
        56.550673,
        78.5
      ],
      [
        13.302246,
        56.549823,
        79.5
      ],
      [
        13.302542,
        56.549253,
        80.9
      ],
      [
        13.30279,
        56.548779,
        77.7
      ],
      [
        13.303063,
        56.548242,
        78.2
      ],
      [
        13.303236,
        56.547888,
        77.5
      ],
      [
        13.303435,
        56.547571,
        77.5
      ],
      [
        13.303612,
        56.547275,
        76.7
      ],
      [
        13.303845,
        56.546972,
        78.2
      ],
      [
        13.304409,
        56.546456,
        77.9
      ],
      [
        13.30498,
        56.546034,
        80.5
      ],
      [
        13.305294,
        56.545852,
        77.5
      ],
      [
        13.305989,
        56.54549,
        78.7
      ],
      [
        13.306509,
        56.545209,
        79
      ],
      [
        13.307373,
        56.544746,
        79.4
      ],
      [
        13.306863,
        56.544433,
        79.5
      ],
      [
        13.305911,
        56.543874,
        85.7
      ],
      [
        13.305686,
        56.543656,
        85.7
      ],
      [
        13.30624,
        56.543628,
        84
      ],
      [
        13.30729,
        56.5431,
        84.5
      ],
      [
        13.308442,
        56.542034,
        90.2
      ],
      [
        13.309391,
        56.540204,
        81.9
      ],
      [
        13.309622,
        56.53964,
        77.2
      ],
      [
        13.309962,
        56.538326,
        78.4
      ],
      [
        13.310355,
        56.537691,
        78.9
      ],
      [
        13.310928,
        56.537746,
        78.5
      ],
      [
        13.311225,
        56.537728,
        78.5
      ],
      [
        13.31224,
        56.537512,
        73.7
      ],
      [
        13.312746,
        56.537492,
        73.7
      ],
      [
        13.312638,
        56.537883,
        74.5
      ],
      [
        13.313312,
        56.537724,
        70.5
      ],
      [
        13.313696,
        56.537706,
        70.5
      ],
      [
        13.314534,
        56.537796,
        72.4
      ],
      [
        13.314615,
        56.537441,
        72.5
      ],
      [
        13.314479,
        56.537164,
        74.5
      ],
      [
        13.312876,
        56.536192,
        74.4
      ],
      [
        13.311718,
        56.535281,
        74.2
      ],
      [
        13.311718,
        56.534654,
        72.7
      ],
      [
        13.311481,
        56.533921,
        76
      ],
      [
        13.310924,
        56.532939,
        74.5
      ],
      [
        13.310381,
        56.531989,
        68
      ],
      [
        13.310279,
        56.531911,
        68
      ],
      [
        13.309971,
        56.531826,
        68
      ],
      [
        13.310093,
        56.531473,
        67.5
      ],
      [
        13.31022,
        56.531107,
        67.4
      ],
      [
        13.310285,
        56.53082,
        68.2
      ],
      [
        13.310347,
        56.530278,
        68.2
      ],
      [
        13.310421,
        56.529772,
        69.9
      ],
      [
        13.310546,
        56.529515,
        73.4
      ],
      [
        13.310859,
        56.529339,
        67.4
      ],
      [
        13.311045,
        56.529092,
        70.5
      ],
      [
        13.311133,
        56.528805,
        64.2
      ],
      [
        13.314335,
        56.529684,
        67.5
      ],
      [
        13.314936,
        56.529613,
        65.5
      ],
      [
        13.315518,
        56.529335,
        65.5
      ],
      [
        13.315752,
        56.528951,
        64.9
      ],
      [
        13.316138,
        56.528773,
        64.9
      ],
      [
        13.316267,
        56.52811,
        59
      ],
      [
        13.316824,
        56.526891,
        57.8
      ],
      [
        13.316739,
        56.526536,
        57.8
      ],
      [
        13.316374,
        56.526063,
        55.7
      ],
      [
        13.315852,
        56.525945,
        55
      ],
      [
        13.315772,
        56.525849,
        64.9
      ],
      [
        13.315609,
        56.52527,
        66.7
      ],
      [
        13.315661,
        56.524992,
        70
      ],
      [
        13.315833,
        56.524733,
        70
      ],
      [
        13.316705,
        56.523952,
        72
      ],
      [
        13.316737,
        56.52378,
        71.7
      ],
      [
        13.316663,
        56.523667,
        71.7
      ],
      [
        13.315383,
        56.523505,
        71.7
      ],
      [
        13.314925,
        56.523389,
        71.2
      ],
      [
        13.315279,
        56.52308,
        71.2
      ],
      [
        13.315381,
        56.522821,
        70.7
      ],
      [
        13.315743,
        56.522056,
        70.2
      ],
      [
        13.316024,
        56.521449,
        70.5
      ],
      [
        13.316288,
        56.52095,
        70.2
      ],
      [
        13.31646,
        56.520666,
        70.2
      ]
    ]
  }
}
