{
  "type": "Feature",
  "properties": {
    "trailId": "hallandsleden",
    "sectionId": "hallandsleden-stattared-veddige",
    "sectionNumber": "N4",
    "name": "Stättared - Veddige",
    "from": "Stättared",
    "to": "Veddige",
    "sourceType": "official-gpx",
    "sourceUrl": "https://cdn.hoodin.com/hallandsleden/assets/geomanager/geofiles/Norra_Stattared_Veddige.gpx",
    "sourceLastModified": "Fri, 27 Jun 2025 12:36:20 GMT",
    "sourceEtag": "\"6aef59658ab376a97957239d3b592c26\"",
    "sourceSha256": "2da404c5af14e0f18371f7a2eb95c0df53748c30712963a27631a38d90765ad1",
    "accessed": "2026-04-30",
    "geometryVariant": "canonical-official",
    "geometryProvenance": "Exact official GPX track/segment coordinates converted to GeoJSON.",
    "coordinateOrder": "lon,lat[,ele]",
    "segmentCount": 1,
    "pointCount": 246,
    "computedDistanceKm": 15.131,
    "maxInternalGapMeters": 371.26,
    "repairSummary": {
      "insertedPointCount": 0,
      "longInternalGapCount": 2,
      "officialSegmentBreakCount": 0,
      "note": "Canonical geometry is exact official GPX converted to GeoJSON."
    },
    "runtimeImport": false
  },
  "geometry": {
    "type": "LineString",
    "coordinates": [
      [
        12.353119,
        57.345172,
        30.5
      ],
      [
        12.353032,
        57.345052,
        32.6
      ],
      [
        12.353568,
        57.34438,
        39.2
      ],
      [
        12.353526,
        57.343522,
        37.3
      ],
      [
        12.353625,
        57.34334,
        37.3
      ],
      [
        12.354102,
        57.343113,
        30.5
      ],
      [
        12.354513,
        57.34264,
        33.2
      ],
      [
        12.354479,
        57.342231,
        37.2
      ],
      [
        12.35487,
        57.34188,
        37.7
      ],
      [
        12.354868,
        57.341657,
        37.7
      ],
      [
        12.354496,
        57.341239,
        44.1
      ],
      [
        12.354176,
        57.341027,
        50.7
      ],
      [
        12.354434,
        57.340708,
        50.7
      ],
      [
        12.354314,
        57.340603,
        56.5
      ],
      [
        12.354409,
        57.340318,
        56.5
      ],
      [
        12.353609,
        57.34012,
        51.5
      ],
      [
        12.35314,
        57.340414,
        50.1
      ],
      [
        12.352845,
        57.340334,
        48.6
      ],
      [
        12.352316,
        57.339941,
        51.2
      ],
      [
        12.35207,
        57.339147,
        51.3
      ],
      [
        12.352128,
        57.338632,
        51.5
      ],
      [
        12.351754,
        57.338073,
        52.6
      ],
      [
        12.351877,
        57.337944,
        52.6
      ],
      [
        12.352112,
        57.337911,
        52.6
      ],
      [
        12.352346,
        57.337788,
        56.7
      ],
      [
        12.35248,
        57.337567,
        56
      ],
      [
        12.3525,
        57.337191,
        61.8
      ],
      [
        12.352733,
        57.337032,
        61.8
      ],
      [
        12.353478,
        57.336804,
        55.3
      ],
      [
        12.353479,
        57.336726,
        55.3
      ],
      [
        12.353365,
        57.336631,
        55.3
      ],
      [
        12.352802,
        57.336494,
        56.6
      ],
      [
        12.35287,
        57.336207,
        56.6
      ],
      [
        12.352337,
        57.335809,
        52.1
      ],
      [
        12.352274,
        57.33548,
        45.5
      ],
      [
        12.351516,
        57.335211,
        50.7
      ],
      [
        12.350715,
        57.335216,
        52.2
      ],
      [
        12.350081,
        57.335093,
        48
      ],
      [
        12.349702,
        57.335126,
        48
      ],
      [
        12.348796,
        57.334611,
        46.6
      ],
      [
        12.348887,
        57.334492,
        46.6
      ],
      [
        12.348813,
        57.334062,
        49
      ],
      [
        12.348359,
        57.332884,
        54
      ],
      [
        12.347711,
        57.332393,
        65.5
      ],
      [
        12.347614,
        57.332095,
        65.5
      ],
      [
        12.347684,
        57.331725,
        67.9
      ],
      [
        12.348495,
        57.330505,
        65.9
      ],
      [
        12.348058,
        57.329867,
        65.7
      ],
      [
        12.348105,
        57.329646,
        64
      ],
      [
        12.347912,
        57.329008,
        67.4
      ],
      [
        12.348047,
        57.328082,
        60.6
      ],
      [
        12.34799,
        57.327897,
        54
      ],
      [
        12.347634,
        57.327296,
        42.5
      ],
      [
        12.347084,
        57.326967,
        45.7
      ],
      [
        12.346938,
        57.326777,
        45.7
      ],
      [
        12.346267,
        57.325605,
        48.1
      ],
      [
        12.346654,
        57.324974,
        48.2
      ],
      [
        12.347187,
        57.324435,
        37.7
      ],
      [
        12.347317,
        57.324018,
        36.3
      ],
      [
        12.347741,
        57.323726,
        30.5
      ],
      [
        12.349316,
        57.323038,
        31.6
      ],
      [
        12.350285,
        57.322571,
        33.1
      ],
      [
        12.351573,
        57.322015,
        35.2
      ],
      [
        12.352259,
        57.321737,
        39
      ],
      [
        12.352949,
        57.322305,
        39.2
      ],
      [
        12.354614,
        57.323235,
        38.7
      ],
      [
        12.355391,
        57.324001,
        41.3
      ],
      [
        12.35561,
        57.324512,
        41
      ],
      [
        12.356067,
        57.325011,
        39.2
      ],
      [
        12.35667,
        57.325539,
        37.2
      ],
      [
        12.358005,
        57.326372,
        33.2
      ],
      [
        12.358739,
        57.326943,
        33.8
      ],
      [
        12.359663,
        57.327823,
        32.1
      ],
      [
        12.360227,
        57.328156,
        35.8
      ],
      [
        12.361045,
        57.328455,
        33.1
      ],
      [
        12.362456,
        57.329208,
        33.3
      ],
      [
        12.363317,
        57.329525,
        37.5
      ],
      [
        12.364012,
        57.329864,
        36.2
      ],
      [
        12.365675,
        57.331047,
        32.7
      ],
      [
        12.366237,
        57.331215,
        33.5
      ],
      [
        12.366616,
        57.331212,
        33.5
      ],
      [
        12.367264,
        57.331171,
        30.8
      ],
      [
        12.368228,
        57.330996,
        31.1
      ],
      [
        12.369865,
        57.330868,
        30.5
      ],
      [
        12.370572,
        57.330895,
        30.5
      ],
      [
        12.371692,
        57.331126,
        29.6
      ],
      [
        12.373697,
        57.332101,
        31.5
      ],
      [
        12.373912,
        57.332162,
        31.5
      ],
      [
        12.374696,
        57.33189,
        37.2
      ],
      [
        12.375231,
        57.331519,
        47.7
      ],
      [
        12.377271,
        57.328367,
        66.5
      ],
      [
        12.377597,
        57.327446,
        72.7
      ],
      [
        12.378159,
        57.327136,
        80.7
      ],
      [
        12.379609,
        57.326704,
        92.4
      ],
      [
        12.380433,
        57.326218,
        92.7
      ],
      [
        12.380621,
        57.325829,
        98.7
      ],
      [
        12.380566,
        57.325188,
        102.9
      ],
      [
        12.380325,
        57.324247,
        107
      ],
      [
        12.380481,
        57.323784,
        105.9
      ],
      [
        12.380741,
        57.323628,
        100.8
      ],
      [
        12.381545,
        57.323371,
        105.8
      ],
      [
        12.383678,
        57.322837,
        113.4
      ],
      [
        12.383524,
        57.322739,
        110.8
      ],
      [
        12.382855,
        57.322373,
        108.3
      ],
      [
        12.382787,
        57.322182,
        106.9
      ],
      [
        12.383187,
        57.321725,
        104.5
      ],
      [
        12.383213,
        57.321216,
        104.5
      ],
      [
        12.383403,
        57.320685,
        104.3
      ],
      [
        12.383328,
        57.320498,
        108.2
      ],
      [
        12.383928,
        57.320205,
        107.5
      ],
      [
        12.384288,
        57.319816,
        114.3
      ],
      [
        12.383561,
        57.319428,
        117.7
      ],
      [
        12.383567,
        57.319071,
        119
      ],
      [
        12.3833,
        57.318862,
        119
      ],
      [
        12.38307,
        57.31879,
        119
      ],
      [
        12.38259,
        57.31856,
        118.3
      ],
      [
        12.382124,
        57.318184,
        116.7
      ],
      [
        12.381935,
        57.317875,
        114.7
      ],
      [
        12.382108,
        57.317392,
        122.7
      ],
      [
        12.382166,
        57.317041,
        122.7
      ],
      [
        12.382815,
        57.316555,
        122.8
      ],
      [
        12.383885,
        57.315033,
        117.5
      ],
      [
        12.384149,
        57.314329,
        112.7
      ],
      [
        12.384536,
        57.314099,
        110.8
      ],
      [
        12.386459,
        57.313646,
        100.7
      ],
      [
        12.386903,
        57.313449,
        95.5
      ],
      [
        12.386678,
        57.31343,
        95.5
      ],
      [
        12.386017,
        57.313197,
        102.3
      ],
      [
        12.383969,
        57.312116,
        109.9
      ],
      [
        12.383426,
        57.31143,
        106.7
      ],
      [
        12.382846,
        57.311092,
        101.5
      ],
      [
        12.38274,
        57.310607,
        101.2
      ],
      [
        12.382632,
        57.310213,
        104.3
      ],
      [
        12.382525,
        57.309837,
        104.3
      ],
      [
        12.382279,
        57.309662,
        97.2
      ],
      [
        12.381688,
        57.309535,
        98.2
      ],
      [
        12.38054,
        57.308985,
        97.5
      ],
      [
        12.380261,
        57.308759,
        92.9
      ],
      [
        12.380189,
        57.30852,
        92.9
      ],
      [
        12.379301,
        57.307792,
        85.2
      ],
      [
        12.379133,
        57.307689,
        85.2
      ],
      [
        12.378677,
        57.307567,
        93
      ],
      [
        12.3785,
        57.307421,
        83.2
      ],
      [
        12.378413,
        57.307277,
        83.2
      ],
      [
        12.378471,
        57.306933,
        81.5
      ],
      [
        12.37815,
        57.306474,
        80.7
      ],
      [
        12.377472,
        57.306192,
        89.2
      ],
      [
        12.376882,
        57.306105,
        97.2
      ],
      [
        12.37615,
        57.305659,
        92.4
      ],
      [
        12.375524,
        57.305463,
        94.9
      ],
      [
        12.375429,
        57.305361,
        91.9
      ],
      [
        12.37582,
        57.305163,
        94.9
      ],
      [
        12.377172,
        57.304948,
        96.7
      ],
      [
        12.377246,
        57.304728,
        92.7
      ],
      [
        12.37745,
        57.304598,
        97.7
      ],
      [
        12.377425,
        57.304493,
        97.7
      ],
      [
        12.376955,
        57.304244,
        104.8
      ],
      [
        12.376029,
        57.304019,
        101.5
      ],
      [
        12.374927,
        57.304071,
        104.5
      ],
      [
        12.374598,
        57.303956,
        109.3
      ],
      [
        12.374138,
        57.30367,
        113.9
      ],
      [
        12.374215,
        57.303455,
        113.9
      ],
      [
        12.374027,
        57.303202,
        117.5
      ],
      [
        12.374098,
        57.303073,
        117.5
      ],
      [
        12.372963,
        57.30261,
        120.4
      ],
      [
        12.372001,
        57.301998,
        120.2
      ],
      [
        12.371962,
        57.301873,
        122.7
      ],
      [
        12.372391,
        57.301592,
        122.7
      ],
      [
        12.37256,
        57.301391,
        124
      ],
      [
        12.372376,
        57.30089,
        126.8
      ],
      [
        12.372531,
        57.300485,
        126.5
      ],
      [
        12.372108,
        57.299986,
        123.9
      ],
      [
        12.371812,
        57.299478,
        124
      ],
      [
        12.370777,
        57.298808,
        124.5
      ],
      [
        12.370194,
        57.298787,
        124.5
      ],
      [
        12.36855,
        57.298305,
        116
      ],
      [
        12.367931,
        57.297661,
        127.5
      ],
      [
        12.366872,
        57.296553,
        120.9
      ],
      [
        12.365843,
        57.295079,
        128.1
      ],
      [
        12.365827,
        57.294951,
        132.5
      ],
      [
        12.366085,
        57.294629,
        132.5
      ],
      [
        12.366123,
        57.29411,
        130.1
      ],
      [
        12.366015,
        57.293852,
        130.1
      ],
      [
        12.365739,
        57.293652,
        126.7
      ],
      [
        12.366195,
        57.293348,
        126.7
      ],
      [
        12.366295,
        57.293204,
        126.2
      ],
      [
        12.366286,
        57.292989,
        126.2
      ],
      [
        12.366029,
        57.292638,
        126.8
      ],
      [
        12.366047,
        57.292439,
        126.8
      ],
      [
        12.366904,
        57.291341,
        126.4
      ],
      [
        12.366908,
        57.290866,
        123.9
      ],
      [
        12.366783,
        57.290349,
        123.7
      ],
      [
        12.366913,
        57.290088,
        120.3
      ],
      [
        12.366784,
        57.289727,
        120.3
      ],
      [
        12.366938,
        57.289299,
        115.9
      ],
      [
        12.366131,
        57.286897,
        92.2
      ],
      [
        12.365675,
        57.286431,
        83.7
      ],
      [
        12.365636,
        57.28581,
        79.9
      ],
      [
        12.365391,
        57.285652,
        79.9
      ],
      [
        12.364697,
        57.285447,
        72.5
      ],
      [
        12.364454,
        57.285465,
        69.9
      ],
      [
        12.363899,
        57.285641,
        72.5
      ],
      [
        12.362651,
        57.285599,
        77
      ],
      [
        12.361932,
        57.285427,
        69.9
      ],
      [
        12.361551,
        57.285125,
        69.9
      ],
      [
        12.359671,
        57.284838,
        61.5
      ],
      [
        12.358642,
        57.284743,
        58.7
      ],
      [
        12.358244,
        57.284641,
        58.7
      ],
      [
        12.35807,
        57.284263,
        54.6
      ],
      [
        12.357755,
        57.284041,
        48.7
      ],
      [
        12.356693,
        57.283687,
        47.8
      ],
      [
        12.356282,
        57.283444,
        42.7
      ],
      [
        12.355246,
        57.282513,
        40.3
      ],
      [
        12.355179,
        57.282268,
        40.3
      ],
      [
        12.355358,
        57.282024,
        36.2
      ],
      [
        12.355758,
        57.281849,
        43.2
      ],
      [
        12.357376,
        57.281484,
        38.2
      ],
      [
        12.357236,
        57.281007,
        30
      ],
      [
        12.357273,
        57.280486,
        28
      ],
      [
        12.357739,
        57.279813,
        24.1
      ],
      [
        12.359319,
        57.278973,
        17.1
      ],
      [
        12.360435,
        57.278115,
        16.3
      ],
      [
        12.359319,
        57.277094,
        16.6
      ],
      [
        12.357087,
        57.275586,
        16.6
      ],
      [
        12.35477,
        57.274125,
        15.6
      ],
      [
        12.352881,
        57.27315,
        20.1
      ],
      [
        12.35168,
        57.272524,
        18.3
      ],
      [
        12.349749,
        57.272129,
        16.3
      ],
      [
        12.347217,
        57.271549,
        16.1
      ],
      [
        12.344384,
        57.270714,
        15.6
      ],
      [
        12.343698,
        57.271155,
        15.3
      ],
      [
        12.342796,
        57.270853,
        15.1
      ],
      [
        12.342625,
        57.270343,
        14.6
      ],
      [
        12.339578,
        57.269716,
        15.1
      ],
      [
        12.338548,
        57.269507,
        14.9
      ],
      [
        12.337475,
        57.269206,
        15.3
      ],
      [
        12.338204,
        57.268509,
        15.3
      ],
      [
        12.337319,
        57.26826,
        15.3
      ],
      [
        12.336874,
        57.268118,
        15.3
      ],
      [
        12.33652,
        57.268008,
        15.5
      ],
      [
        12.336439,
        57.267929,
        15.5
      ],
      [
        12.336751,
        57.267689,
        14.6
      ],
      [
        12.336938,
        57.267358,
        14.4
      ],
      [
        12.337196,
        57.267268,
        14.4
      ],
      [
        12.337223,
        57.26719,
        14.4
      ],
      [
        12.337164,
        57.26714,
        14.4
      ]
    ]
  }
}
