{
  "type": "Feature",
  "properties": {
    "trailId": "hallandsleden",
    "sectionId": "hallandsleden-akulla-ullared",
    "sectionNumber": "M1",
    "name": "Åkulla - Ullared",
    "from": "Åkulla",
    "to": "Ullared",
    "sourceType": "official-gpx",
    "sourceUrl": "https://cdn.hoodin.com/hallandsleden/assets/geomanager/geofiles/Mellersta_Akulla_Ullared.gpx",
    "sourceLastModified": "Fri, 27 Jun 2025 12:24:14 GMT",
    "sourceEtag": "\"7d05ffe457cb9816083867bc4662c031\"",
    "sourceSha256": "90b57aef3bfdfa188089217b088b95eb87670fd7e9e284aa925ccf8c6ad22272",
    "accessed": "2026-04-30",
    "geometryVariant": "canonical-official",
    "geometryProvenance": "Exact official GPX track/segment coordinates converted to GeoJSON.",
    "coordinateOrder": "lon,lat[,ele]",
    "segmentCount": 1,
    "pointCount": 272,
    "computedDistanceKm": 16.857,
    "maxInternalGapMeters": 396.8,
    "repairSummary": {
      "insertedPointCount": 0,
      "longInternalGapCount": 6,
      "officialSegmentBreakCount": 0,
      "note": "Canonical geometry is exact official GPX converted to GeoJSON."
    },
    "runtimeImport": false
  },
  "geometry": {
    "type": "LineString",
    "coordinates": [
      [
        12.563139,
        57.124927,
        90.7
      ],
      [
        12.56446,
        57.124515,
        90
      ],
      [
        12.565647,
        57.124099,
        90
      ],
      [
        12.566399,
        57.123908,
        89.7
      ],
      [
        12.567528,
        57.123498,
        89
      ],
      [
        12.570258,
        57.12265,
        90.9
      ],
      [
        12.571919,
        57.122218,
        97.5
      ],
      [
        12.573304,
        57.121914,
        95
      ],
      [
        12.577337,
        57.12117,
        99.7
      ],
      [
        12.578371,
        57.120916,
        100.7
      ],
      [
        12.579297,
        57.120626,
        98.7
      ],
      [
        12.581343,
        57.119911,
        100.4
      ],
      [
        12.582513,
        57.119592,
        100.4
      ],
      [
        12.58391,
        57.119343,
        102
      ],
      [
        12.589807,
        57.118743,
        103
      ],
      [
        12.590919,
        57.118671,
        103
      ],
      [
        12.591745,
        57.118662,
        103
      ],
      [
        12.596237,
        57.11874,
        98
      ],
      [
        12.598659,
        57.118831,
        96.7
      ],
      [
        12.599857,
        57.119009,
        97.2
      ],
      [
        12.600817,
        57.11924,
        95.5
      ],
      [
        12.602019,
        57.119456,
        97.5
      ],
      [
        12.602801,
        57.119556,
        88.9
      ],
      [
        12.603664,
        57.119562,
        86.7
      ],
      [
        12.604518,
        57.119471,
        87.5
      ],
      [
        12.607872,
        57.118681,
        86.4
      ],
      [
        12.60878,
        57.118563,
        84.5
      ],
      [
        12.609982,
        57.118559,
        82.7
      ],
      [
        12.611135,
        57.118694,
        83.4
      ],
      [
        12.611886,
        57.118839,
        80.7
      ],
      [
        12.613496,
        57.119416,
        79.7
      ],
      [
        12.614837,
        57.119748,
        73.9
      ],
      [
        12.620019,
        57.120057,
        75.2
      ],
      [
        12.626553,
        57.120447,
        81.7
      ],
      [
        12.626435,
        57.120563,
        77.9
      ],
      [
        12.626059,
        57.120558,
        77.9
      ],
      [
        12.625555,
        57.120581,
        77.5
      ],
      [
        12.625136,
        57.120651,
        77.5
      ],
      [
        12.624922,
        57.120843,
        77.5
      ],
      [
        12.624664,
        57.121146,
        77.5
      ],
      [
        12.624407,
        57.121583,
        76.7
      ],
      [
        12.624557,
        57.121903,
        77.7
      ],
      [
        12.625201,
        57.122579,
        80
      ],
      [
        12.625887,
        57.123149,
        82.7
      ],
      [
        12.625351,
        57.123254,
        85.5
      ],
      [
        12.624761,
        57.123516,
        85.5
      ],
      [
        12.624117,
        57.123813,
        84
      ],
      [
        12.623849,
        57.123994,
        84
      ],
      [
        12.623613,
        57.124157,
        81.7
      ],
      [
        12.623216,
        57.124308,
        81.7
      ],
      [
        12.622325,
        57.124466,
        80
      ],
      [
        12.622046,
        57.124553,
        82.5
      ],
      [
        12.621628,
        57.124565,
        82.5
      ],
      [
        12.621145,
        57.124559,
        82
      ],
      [
        12.620877,
        57.124629,
        82
      ],
      [
        12.620845,
        57.12478,
        82
      ],
      [
        12.621145,
        57.124867,
        82
      ],
      [
        12.621456,
        57.125013,
        82.5
      ],
      [
        12.621553,
        57.125205,
        82.5
      ],
      [
        12.621446,
        57.125473,
        81.2
      ],
      [
        12.621167,
        57.125828,
        79.7
      ],
      [
        12.621242,
        57.12598,
        82.4
      ],
      [
        12.621521,
        57.126149,
        82.4
      ],
      [
        12.622379,
        57.126446,
        82.9
      ],
      [
        12.622604,
        57.126696,
        82.9
      ],
      [
        12.622647,
        57.126981,
        81.7
      ],
      [
        12.622519,
        57.12722,
        82.5
      ],
      [
        12.622293,
        57.127348,
        82.5
      ],
      [
        12.620287,
        57.127686,
        84.2
      ],
      [
        12.62018,
        57.127802,
        84.2
      ],
      [
        12.62033,
        57.128029,
        83.4
      ],
      [
        12.62033,
        57.128251,
        83.4
      ],
      [
        12.620319,
        57.12846,
        83.4
      ],
      [
        12.620244,
        57.128752,
        84.7
      ],
      [
        12.619954,
        57.129177,
        84.7
      ],
      [
        12.619997,
        57.129363,
        84.7
      ],
      [
        12.620244,
        57.129584,
        86.5
      ],
      [
        12.620373,
        57.129759,
        86.5
      ],
      [
        12.620394,
        57.129998,
        86.5
      ],
      [
        12.620491,
        57.130184,
        86.5
      ],
      [
        12.62077,
        57.130289,
        87.7
      ],
      [
        12.620921,
        57.130426,
        87.7
      ],
      [
        12.621037,
        57.130876,
        89.4
      ],
      [
        12.621199,
        57.131023,
        89.4
      ],
      [
        12.622379,
        57.130982,
        87.7
      ],
      [
        12.623119,
        57.1309,
        90.2
      ],
      [
        12.624246,
        57.130702,
        91.5
      ],
      [
        12.624975,
        57.130551,
        91.5
      ],
      [
        12.625898,
        57.130399,
        97.4
      ],
      [
        12.626971,
        57.130236,
        98.7
      ],
      [
        12.627872,
        57.130161,
        102.8
      ],
      [
        12.628559,
        57.129893,
        100.8
      ],
      [
        12.630039,
        57.129532,
        101.2
      ],
      [
        12.631434,
        57.129142,
        106.8
      ],
      [
        12.633762,
        57.12881,
        109.3
      ],
      [
        12.633709,
        57.128239,
        107.9
      ],
      [
        12.633494,
        57.128018,
        107.9
      ],
      [
        12.633483,
        57.127773,
        108.9
      ],
      [
        12.633709,
        57.127144,
        107.5
      ],
      [
        12.633934,
        57.126743,
        102.9
      ],
      [
        12.63417,
        57.125945,
        99.2
      ],
      [
        12.634492,
        57.12506,
        97.2
      ],
      [
        12.634814,
        57.124314,
        100
      ],
      [
        12.63549,
        57.123854,
        102
      ],
      [
        12.635361,
        57.123208,
        94
      ],
      [
        12.635425,
        57.122637,
        93.7
      ],
      [
        12.635951,
        57.121891,
        98.5
      ],
      [
        12.636477,
        57.121722,
        99.4
      ],
      [
        12.637539,
        57.121548,
        95
      ],
      [
        12.637775,
        57.121117,
        94.4
      ],
      [
        12.638934,
        57.121123,
        93.7
      ],
      [
        12.640843,
        57.120983,
        90.7
      ],
      [
        12.643998,
        57.120744,
        87.5
      ],
      [
        12.646122,
        57.120756,
        86.5
      ],
      [
        12.650199,
        57.12075,
        80.5
      ],
      [
        12.649823,
        57.121309,
        80.5
      ],
      [
        12.649212,
        57.121816,
        79
      ],
      [
        12.648461,
        57.122217,
        84.2
      ],
      [
        12.649727,
        57.122829,
        87
      ],
      [
        12.650102,
        57.122876,
        87
      ],
      [
        12.650499,
        57.123231,
        91.5
      ],
      [
        12.650832,
        57.123382,
        91.5
      ],
      [
        12.65125,
        57.123726,
        95.7
      ],
      [
        12.651916,
        57.123242,
        93.2
      ],
      [
        12.651905,
        57.122648,
        87.5
      ],
      [
        12.652109,
        57.122357,
        92.5
      ],
      [
        12.65286,
        57.122171,
        85.7
      ],
      [
        12.653385,
        57.122019,
        85.7
      ],
      [
        12.65625,
        57.121414,
        80.5
      ],
      [
        12.658578,
        57.121117,
        83.4
      ],
      [
        12.65875,
        57.121658,
        80.2
      ],
      [
        12.658997,
        57.123213,
        83.7
      ],
      [
        12.658975,
        57.124017,
        80
      ],
      [
        12.659394,
        57.124168,
        75
      ],
      [
        12.659597,
        57.124454,
        72.5
      ],
      [
        12.65993,
        57.124506,
        72.5
      ],
      [
        12.661314,
        57.124407,
        73.2
      ],
      [
        12.661765,
        57.12616,
        75.4
      ],
      [
        12.662151,
        57.126772,
        72.5
      ],
      [
        12.662859,
        57.12743,
        73
      ],
      [
        12.664425,
        57.128606,
        70.7
      ],
      [
        12.66479,
        57.128519,
        70.7
      ],
      [
        12.66582,
        57.128635,
        74.5
      ],
      [
        12.666713,
        57.128798,
        78.9
      ],
      [
        12.667612,
        57.128158,
        77.5
      ],
      [
        12.668062,
        57.127861,
        78.7
      ],
      [
        12.668298,
        57.127465,
        80.4
      ],
      [
        12.668834,
        57.127278,
        80.4
      ],
      [
        12.669243,
        57.127196,
        89
      ],
      [
        12.66961,
        57.127044,
        86.4
      ],
      [
        12.670245,
        57.126942,
        87.5
      ],
      [
        12.671155,
        57.127023,
        87.2
      ],
      [
        12.67171,
        57.12698,
        88
      ],
      [
        12.672332,
        57.126789,
        88
      ],
      [
        12.672561,
        57.12631,
        91.7
      ],
      [
        12.672578,
        57.12585,
        95.5
      ],
      [
        12.672474,
        57.125499,
        88.9
      ],
      [
        12.672311,
        57.125001,
        90.9
      ],
      [
        12.672762,
        57.124535,
        93.9
      ],
      [
        12.673352,
        57.124186,
        98.2
      ],
      [
        12.673507,
        57.123318,
        96.7
      ],
      [
        12.673566,
        57.123117,
        96.7
      ],
      [
        12.673845,
        57.122791,
        96.7
      ],
      [
        12.675514,
        57.122121,
        99.5
      ],
      [
        12.677252,
        57.121163,
        92.9
      ],
      [
        12.677788,
        57.121085,
        90.5
      ],
      [
        12.6797,
        57.121017,
        92.2
      ],
      [
        12.680324,
        57.120858,
        96.7
      ],
      [
        12.680527,
        57.120728,
        96.7
      ],
      [
        12.680645,
        57.120581,
        93
      ],
      [
        12.680953,
        57.119661,
        87
      ],
      [
        12.681162,
        57.119515,
        85.9
      ],
      [
        12.681414,
        57.119413,
        85.9
      ],
      [
        12.681605,
        57.119443,
        85.9
      ],
      [
        12.681995,
        57.119526,
        82.9
      ],
      [
        12.683001,
        57.119627,
        76.5
      ],
      [
        12.683294,
        57.11957,
        76.5
      ],
      [
        12.683576,
        57.119361,
        76.5
      ],
      [
        12.684579,
        57.119177,
        69.2
      ],
      [
        12.684778,
        57.119075,
        69.2
      ],
      [
        12.685427,
        57.118516,
        67.2
      ],
      [
        12.685491,
        57.117826,
        68
      ],
      [
        12.68569,
        57.117488,
        67.2
      ],
      [
        12.686103,
        57.117138,
        67.2
      ],
      [
        12.686591,
        57.116903,
        67.7
      ],
      [
        12.687095,
        57.116742,
        68.7
      ],
      [
        12.687289,
        57.116437,
        68.2
      ],
      [
        12.687578,
        57.116247,
        67.2
      ],
      [
        12.688007,
        57.116043,
        67.5
      ],
      [
        12.692374,
        57.118164,
        68
      ],
      [
        12.692202,
        57.118362,
        68
      ],
      [
        12.692052,
        57.118595,
        69.4
      ],
      [
        12.692739,
        57.118909,
        67.9
      ],
      [
        12.693817,
        57.119372,
        69.2
      ],
      [
        12.694906,
        57.119824,
        69.7
      ],
      [
        12.695298,
        57.119777,
        69.9
      ],
      [
        12.695587,
        57.119722,
        69.9
      ],
      [
        12.695737,
        57.11976,
        69.9
      ],
      [
        12.69659,
        57.120132,
        71
      ],
      [
        12.698135,
        57.120901,
        72.4
      ],
      [
        12.699852,
        57.121554,
        74.5
      ],
      [
        12.702127,
        57.122462,
        73.2
      ],
      [
        12.704101,
        57.123347,
        67.9
      ],
      [
        12.705731,
        57.124209,
        64.2
      ],
      [
        12.707105,
        57.125304,
        66
      ],
      [
        12.70792,
        57.126154,
        67.4
      ],
      [
        12.708306,
        57.126713,
        66.4
      ],
      [
        12.708607,
        57.127436,
        70
      ],
      [
        12.70895,
        57.127925,
        65.7
      ],
      [
        12.708993,
        57.128484,
        66.2
      ],
      [
        12.708435,
        57.12853,
        65.5
      ],
      [
        12.707834,
        57.128612,
        65.5
      ],
      [
        12.707405,
        57.128705,
        64.9
      ],
      [
        12.707276,
        57.129183,
        70.4
      ],
      [
        12.706933,
        57.129287,
        69
      ],
      [
        12.706375,
        57.129264,
        69
      ],
      [
        12.705882,
        57.129474,
        66.7
      ],
      [
        12.705302,
        57.129695,
        78.2
      ],
      [
        12.704873,
        57.129858,
        69
      ],
      [
        12.705002,
        57.130196,
        72
      ],
      [
        12.70556,
        57.13058,
        90.2
      ],
      [
        12.706075,
        57.130871,
        102
      ],
      [
        12.706547,
        57.131186,
        102.8
      ],
      [
        12.707276,
        57.131325,
        95.4
      ],
      [
        12.707909,
        57.131913,
        84.7
      ],
      [
        12.708693,
        57.132478,
        81.7
      ],
      [
        12.708199,
        57.13249,
        78
      ],
      [
        12.707437,
        57.13242,
        77.7
      ],
      [
        12.706386,
        57.132583,
        81.9
      ],
      [
        12.705914,
        57.132717,
        81.9
      ],
      [
        12.705538,
        57.132804,
        78.9
      ],
      [
        12.705184,
        57.132973,
        78.9
      ],
      [
        12.704862,
        57.13302,
        80
      ],
      [
        12.704272,
        57.132921,
        80
      ],
      [
        12.703693,
        57.132979,
        77.7
      ],
      [
        12.703199,
        57.133189,
        81
      ],
      [
        12.702835,
        57.133596,
        81
      ],
      [
        12.702363,
        57.133963,
        79.9
      ],
      [
        12.702448,
        57.134237,
        78.5
      ],
      [
        12.702534,
        57.134493,
        77.4
      ],
      [
        12.702985,
        57.134702,
        83.9
      ],
      [
        12.7035,
        57.134854,
        81.7
      ],
      [
        12.703972,
        57.134889,
        81.7
      ],
      [
        12.704423,
        57.135017,
        89.4
      ],
      [
        12.705023,
        57.13518,
        82.4
      ],
      [
        12.705839,
        57.13525,
        79
      ],
      [
        12.70637,
        57.135366,
        79
      ],
      [
        12.706912,
        57.135436,
        79
      ],
      [
        12.707099,
        57.13548,
        79
      ],
      [
        12.707362,
        57.135634,
        83.9
      ],
      [
        12.707512,
        57.135654,
        79.7
      ],
      [
        12.707512,
        57.135931,
        79.7
      ],
      [
        12.707598,
        57.136018,
        79.9
      ],
      [
        12.707598,
        57.136091,
        79.9
      ],
      [
        12.707491,
        57.136318,
        79.9
      ],
      [
        12.707652,
        57.136487,
        79
      ],
      [
        12.708038,
        57.136833,
        79
      ],
      [
        12.708285,
        57.136938,
        75.5
      ],
      [
        12.708553,
        57.137019,
        75.5
      ],
      [
        12.708896,
        57.137043,
        75.5
      ],
      [
        12.709728,
        57.137019,
        74
      ],
      [
        12.710559,
        57.136993,
        73.2
      ],
      [
        12.710742,
        57.137383,
        77
      ],
      [
        12.710849,
        57.137465,
        77
      ],
      [
        12.711922,
        57.137418,
        77.9
      ],
      [
        12.713445,
        57.13743,
        75.7
      ],
      [
        12.714218,
        57.137386,
        71.5
      ],
      [
        12.714899,
        57.13727,
        70.5
      ],
      [
        12.715098,
        57.137223,
        70.5
      ],
      [
        12.715521,
        57.137118,
        70.5
      ],
      [
        12.71594,
        57.136993,
        70.7
      ],
      [
        12.716396,
        57.136787,
        70.2
      ]
    ]
  }
}
