<?xml version="1.0" encoding="UTF-8"?>
<gpx xmlns="http://www.topografix.com/GPX/1/1" xmlns:xsi="http://www.w3.org/2001/XMLSchema-instance" version="1.1" creator="GPX RubyGem 1.0.0 -- http://dougfales.github.io/gpx/" xsi:schemaLocation="http://www.topografix.com/GPX/1/1 http://www.topografix.com/GPX/1/1/gpx.xsd">
  <metadata>
    <name>Sjuhäradsleden, etapp 5 by Naturkartan</name>
    <time>2026-04-30T16:15:35+00:00</time>
  </metadata>
  <trk>
    <name>Sjuhäradsleden, etapp 5 by Naturkartan</name>
    <trkseg>
      <trkpt lat="57.746806" lon="12.920285"/>
      <trkpt lat="57.746812" lon="12.920453"/>
      <trkpt lat="57.746781" lon="12.920706"/>
      <trkpt lat="57.746771" lon="12.920931"/>
      <trkpt lat="57.746786" lon="12.921204"/>
      <trkpt lat="57.746725" lon="12.921378"/>
      <trkpt lat="57.746672" lon="12.921496"/>
      <trkpt lat="57.746669" lon="12.921608"/>
      <trkpt lat="57.746667" lon="12.92172"/>
      <trkpt lat="57.74658" lon="12.92195"/>
      <trkpt lat="57.746515" lon="12.922294"/>
      <trkpt lat="57.746488" lon="12.922512"/>
      <trkpt lat="57.746433" lon="12.922681"/>
      <trkpt lat="57.746368" lon="12.922844"/>
      <trkpt lat="57.746333" lon="12.923141"/>
      <trkpt lat="57.746281" lon="12.92356"/>
      <trkpt lat="57.74613" lon="12.923827"/>
      <trkpt lat="57.745963" lon="12.923874"/>
      <trkpt lat="57.745783" lon="12.923916"/>
      <trkpt lat="57.745589" lon="12.924012"/>
      <trkpt lat="57.745437" lon="12.924012"/>
      <trkpt lat="57.745162" lon="12.924095"/>
      <trkpt lat="57.745026" lon="12.924122"/>
      <trkpt lat="57.744931" lon="12.924181"/>
      <trkpt lat="57.744847" lon="12.92429"/>
      <trkpt lat="57.744734" lon="12.924406"/>
      <trkpt lat="57.744604" lon="12.924517"/>
      <trkpt lat="57.744527" lon="12.924785"/>
      <trkpt lat="57.744427" lon="12.925086"/>
      <trkpt lat="57.744318" lon="12.925136"/>
      <trkpt lat="57.744236" lon="12.92535"/>
      <trkpt lat="57.744126" lon="12.925476"/>
      <trkpt lat="57.744016" lon="12.925602"/>
      <trkpt lat="57.743901" lon="12.925557"/>
      <trkpt lat="57.743722" lon="12.925423"/>
      <trkpt lat="57.743583" lon="12.925321"/>
      <trkpt lat="57.743386" lon="12.925348"/>
      <trkpt lat="57.743254" lon="12.925536"/>
      <trkpt lat="57.743053" lon="12.925325"/>
      <trkpt lat="57.74296" lon="12.925365"/>
      <trkpt lat="57.742864" lon="12.92517"/>
      <trkpt lat="57.742667" lon="12.925126"/>
      <trkpt lat="57.742606" lon="12.925394"/>
      <trkpt lat="57.74233" lon="12.92701"/>
      <trkpt lat="57.742294" lon="12.927895"/>
      <trkpt lat="57.74225" lon="12.92858"/>
      <trkpt lat="57.742126" lon="12.928887"/>
      <trkpt lat="57.742112" lon="12.929549"/>
      <trkpt lat="57.742048" lon="12.930029"/>
      <trkpt lat="57.741997" lon="12.930217"/>
      <trkpt lat="57.741831" lon="12.930888"/>
      <trkpt lat="57.741939" lon="12.931324"/>
      <trkpt lat="57.742297" lon="12.931986"/>
      <trkpt lat="57.742629" lon="12.932725"/>
      <trkpt lat="57.74271" lon="12.932904"/>
      <trkpt lat="57.743129" lon="12.933271"/>
      <trkpt lat="57.743242" lon="12.934309"/>
      <trkpt lat="57.743273" lon="12.934578"/>
      <trkpt lat="57.743372" lon="12.934504"/>
      <trkpt lat="57.743643" lon="12.934631"/>
      <trkpt lat="57.744056" lon="12.934401"/>
      <trkpt lat="57.744387" lon="12.934266"/>
      <trkpt lat="57.745094" lon="12.934044"/>
      <trkpt lat="57.745459" lon="12.933995"/>
      <trkpt lat="57.745847" lon="12.933949"/>
      <trkpt lat="57.745995" lon="12.934071"/>
      <trkpt lat="57.746342" lon="12.933909"/>
      <trkpt lat="57.746914" lon="12.933539"/>
      <trkpt lat="57.747206" lon="12.933377"/>
      <trkpt lat="57.747459" lon="12.933446"/>
      <trkpt lat="57.747944" lon="12.933749"/>
      <trkpt lat="57.748149" lon="12.93383"/>
      <trkpt lat="57.748426" lon="12.933774"/>
      <trkpt lat="57.74914" lon="12.933529"/>
      <trkpt lat="57.749298" lon="12.933537"/>
      <trkpt lat="57.749384" lon="12.933799"/>
      <trkpt lat="57.749726" lon="12.934058"/>
      <trkpt lat="57.749985" lon="12.934208"/>
      <trkpt lat="57.750549" lon="12.934228"/>
      <trkpt lat="57.751083" lon="12.934551"/>
      <trkpt lat="57.751317" lon="12.934625"/>
      <trkpt lat="57.75173" lon="12.934617"/>
      <trkpt lat="57.752115" lon="12.934764"/>
      <trkpt lat="57.752273" lon="12.934946"/>
      <trkpt lat="57.752505" lon="12.935306"/>
      <trkpt lat="57.752892" lon="12.935719"/>
      <trkpt lat="57.753146" lon="12.936016"/>
      <trkpt lat="57.753381" lon="12.936451"/>
      <trkpt lat="57.753641" lon="12.937114"/>
      <trkpt lat="57.753911" lon="12.93786"/>
      <trkpt lat="57.753758" lon="12.938095"/>
      <trkpt lat="57.753489" lon="12.938968"/>
      <trkpt lat="57.753307" lon="12.93933"/>
      <trkpt lat="57.753175" lon="12.939426"/>
      <trkpt lat="57.753175" lon="12.939868"/>
      <trkpt lat="57.753095" lon="12.940735"/>
      <trkpt lat="57.752931" lon="12.941725"/>
      <trkpt lat="57.752703" lon="12.942328"/>
      <trkpt lat="57.752293" lon="12.943312"/>
      <trkpt lat="57.751941" lon="12.944823"/>
      <trkpt lat="57.751815" lon="12.945463"/>
      <trkpt lat="57.751693" lon="12.946469"/>
      <trkpt lat="57.751687" lon="12.946707"/>
      <trkpt lat="57.751604" lon="12.947069"/>
      <trkpt lat="57.751478" lon="12.947358"/>
      <trkpt lat="57.751407" lon="12.947376"/>
      <trkpt lat="57.751108" lon="12.948626"/>
      <trkpt lat="57.750186" lon="12.948037"/>
      <trkpt lat="57.749591" lon="12.947641"/>
      <trkpt lat="57.749503" lon="12.947504"/>
      <trkpt lat="57.749485" lon="12.947266"/>
      <trkpt lat="57.749311" lon="12.947181"/>
      <trkpt lat="57.749099" lon="12.947181"/>
      <trkpt lat="57.748631" lon="12.947605"/>
      <trkpt lat="57.748376" lon="12.947956"/>
      <trkpt lat="57.748329" lon="12.948141"/>
      <trkpt lat="57.748313" lon="12.948237"/>
      <trkpt lat="57.748297" lon="12.948368"/>
      <trkpt lat="57.748242" lon="12.948588"/>
      <trkpt lat="57.748159" lon="12.949009"/>
      <trkpt lat="57.748088" lon="12.949317"/>
      <trkpt lat="57.74802" lon="12.949572"/>
      <trkpt lat="57.74779" lon="12.950306"/>
      <trkpt lat="57.747346" lon="12.951386"/>
      <trkpt lat="57.747116" lon="12.952"/>
      <trkpt lat="57.746861" lon="12.952804"/>
      <trkpt lat="57.746752" lon="12.953374"/>
      <trkpt lat="57.74674" lon="12.953935"/>
      <trkpt lat="57.746819" lon="12.954509"/>
      <trkpt lat="57.746686" lon="12.955662"/>
      <trkpt lat="57.746594" lon="12.956488"/>
      <trkpt lat="57.746512" lon="12.956998"/>
      <trkpt lat="57.746719" lon="12.957645"/>
      <trkpt lat="57.746601" lon="12.958441"/>
      <trkpt lat="57.746413" lon="12.958728"/>
      <trkpt lat="57.745911" lon="12.959641"/>
      <trkpt lat="57.745628" lon="12.959733"/>
      <trkpt lat="57.745147" lon="12.959602"/>
      <trkpt lat="57.744759" lon="12.959436"/>
      <trkpt lat="57.744737" lon="12.958773"/>
      <trkpt lat="57.74452" lon="12.958293"/>
      <trkpt lat="57.744211" lon="12.957561"/>
      <trkpt lat="57.744116" lon="12.957481"/>
      <trkpt lat="57.743951" lon="12.957533"/>
      <trkpt lat="57.743557" lon="12.958297"/>
      <trkpt lat="57.742702" lon="12.957918"/>
      <trkpt lat="57.742243" lon="12.957764"/>
      <trkpt lat="57.741965" lon="12.957906"/>
      <trkpt lat="57.742074" lon="12.957946"/>
      <trkpt lat="57.741955" lon="12.958781"/>
      <trkpt lat="57.741632" lon="12.959283"/>
      <trkpt lat="57.741273" lon="12.959688"/>
      <trkpt lat="57.740732" lon="12.960587"/>
      <trkpt lat="57.740446" lon="12.960981"/>
      <trkpt lat="57.739851" lon="12.961479"/>
      <trkpt lat="57.739518" lon="12.961869"/>
      <trkpt lat="57.738833" lon="12.962882"/>
      <trkpt lat="57.738259" lon="12.963548"/>
      <trkpt lat="57.738618" lon="12.964458"/>
      <trkpt lat="57.739012" lon="12.965233"/>
      <trkpt lat="57.739522" lon="12.965916"/>
      <trkpt lat="57.739896" lon="12.966063"/>
      <trkpt lat="57.739981" lon="12.966577"/>
      <trkpt lat="57.740062" lon="12.968023"/>
      <trkpt lat="57.740094" lon="12.968373"/>
      <trkpt lat="57.74026" lon="12.969073"/>
      <trkpt lat="57.740466" lon="12.969449"/>
      <trkpt lat="57.740544" lon="12.970367"/>
      <trkpt lat="57.740678" lon="12.971094"/>
      <trkpt lat="57.740993" lon="12.971689"/>
      <trkpt lat="57.741419" lon="12.97231"/>
      <trkpt lat="57.741573" lon="12.97259"/>
      <trkpt lat="57.741797" lon="12.973059"/>
      <trkpt lat="57.74231" lon="12.973534"/>
      <trkpt lat="57.742455" lon="12.974068"/>
      <trkpt lat="57.742744" lon="12.974917"/>
      <trkpt lat="57.742977" lon="12.975558"/>
      <trkpt lat="57.742995" lon="12.975822"/>
      <trkpt lat="57.74285" lon="12.976596"/>
      <trkpt lat="57.74285" lon="12.977357"/>
      <trkpt lat="57.74288" lon="12.978167"/>
      <trkpt lat="57.742976" lon="12.978888"/>
      <trkpt lat="57.743165" lon="12.979565"/>
      <trkpt lat="57.743146" lon="12.980145"/>
      <trkpt lat="57.743138" lon="12.981234"/>
      <trkpt lat="57.743219" lon="12.98212"/>
      <trkpt lat="57.743441" lon="12.982914"/>
      <trkpt lat="57.743762" lon="12.983887"/>
      <trkpt lat="57.743893" lon="12.9847"/>
      <trkpt lat="57.74393" lon="12.985173"/>
      <trkpt lat="57.743845" lon="12.986009"/>
      <trkpt lat="57.743744" lon="12.986381"/>
      <trkpt lat="57.743269" lon="12.987324"/>
      <trkpt lat="57.742795" lon="12.988128"/>
      <trkpt lat="57.742673" lon="12.988401"/>
      <trkpt lat="57.742527" lon="12.989445"/>
      <trkpt lat="57.742445" lon="12.989756"/>
      <trkpt lat="57.742154" lon="12.99019"/>
      <trkpt lat="57.741666" lon="12.99069"/>
      <trkpt lat="57.741298" lon="12.990901"/>
      <trkpt lat="57.740825" lon="12.99131"/>
      <trkpt lat="57.740397" lon="12.991896"/>
      <trkpt lat="57.740096" lon="12.992563"/>
      <trkpt lat="57.739941" lon="12.992575"/>
      <trkpt lat="57.739681" lon="12.993132"/>
      <trkpt lat="57.739553" lon="12.993518"/>
      <trkpt lat="57.739349" lon="12.993878"/>
      <trkpt lat="57.739188" lon="12.994422"/>
      <trkpt lat="57.738958" lon="12.994939"/>
      <trkpt lat="57.738978" lon="12.995569"/>
      <trkpt lat="57.739327" lon="12.996462"/>
      <trkpt lat="57.739435" lon="12.996539"/>
      <trkpt lat="57.739723" lon="12.996619"/>
      <trkpt lat="57.740072" lon="12.996924"/>
      <trkpt lat="57.740373" lon="12.997411"/>
      <trkpt lat="57.74049" lon="12.997819"/>
      <trkpt lat="57.740485" lon="12.997999"/>
      <trkpt lat="57.740424" lon="12.998263"/>
      <trkpt lat="57.740381" lon="12.998319"/>
      <trkpt lat="57.740345" lon="12.998351"/>
      <trkpt lat="57.740281" lon="12.99836"/>
      <trkpt lat="57.740163" lon="12.998473"/>
      <trkpt lat="57.740082" lon="12.998673"/>
      <trkpt lat="57.740026" lon="12.998833"/>
      <trkpt lat="57.739916" lon="12.999161"/>
      <trkpt lat="57.739742" lon="12.999545"/>
      <trkpt lat="57.739538" lon="12.999932"/>
      <trkpt lat="57.739262" lon="13.000403"/>
      <trkpt lat="57.739068" lon="13.000821"/>
      <trkpt lat="57.738998" lon="13.001183"/>
      <trkpt lat="57.739012" lon="13.001397"/>
      <trkpt lat="57.740327" lon="13.003166"/>
      <trkpt lat="57.740723" lon="13.003768"/>
      <trkpt lat="57.740693" lon="13.004074"/>
      <trkpt lat="57.740353" lon="13.00518"/>
      <trkpt lat="57.740119" lon="13.005059"/>
      <trkpt lat="57.739578" lon="13.004629"/>
      <trkpt lat="57.739035" lon="13.004777"/>
      <trkpt lat="57.738909" lon="13.004759"/>
      <trkpt lat="57.738595" lon="13.004455"/>
      <trkpt lat="57.738412" lon="13.004185"/>
      <trkpt lat="57.738168" lon="13.00444"/>
      <trkpt lat="57.738106" lon="13.004755"/>
      <trkpt lat="57.737942" lon="13.00507"/>
      <trkpt lat="57.737813" lon="13.00515"/>
      <trkpt lat="57.737712" lon="13.005394"/>
      <trkpt lat="57.737645" lon="13.005808"/>
      <trkpt lat="57.737356" lon="13.006974"/>
      <trkpt lat="57.737313" lon="13.007338"/>
      <trkpt lat="57.737281" lon="13.007744"/>
      <trkpt lat="57.737243" lon="13.009143"/>
      <trkpt lat="57.737211" lon="13.010719"/>
      <trkpt lat="57.737116" lon="13.012888"/>
      <trkpt lat="57.736923" lon="13.013684"/>
      <trkpt lat="57.736757" lon="13.013652"/>
      <trkpt lat="57.736536" lon="13.014929"/>
      <trkpt lat="57.736465" lon="13.015417"/>
      <trkpt lat="57.736065" lon="13.015249"/>
      <trkpt lat="57.73566" lon="13.014981"/>
      <trkpt lat="57.735507" lon="13.015242"/>
      <trkpt lat="57.735416" lon="13.015203"/>
      <trkpt lat="57.73535" lon="13.0151"/>
      <trkpt lat="57.735146" lon="13.015117"/>
      <trkpt lat="57.734932" lon="13.014949"/>
      <trkpt lat="57.734577" lon="13.014906"/>
      <trkpt lat="57.734395" lon="13.014747"/>
      <trkpt lat="57.73426" lon="13.014363"/>
      <trkpt lat="57.73418" lon="13.014036"/>
      <trkpt lat="57.733907" lon="13.014109"/>
      <trkpt lat="57.733797" lon="13.014031"/>
      <trkpt lat="57.733763" lon="13.013934"/>
      <trkpt lat="57.733119" lon="13.014409"/>
      <trkpt lat="57.732649" lon="13.014782"/>
      <trkpt lat="57.732282" lon="13.015198"/>
      <trkpt lat="57.732022" lon="13.015442"/>
      <trkpt lat="57.732011" lon="13.015961"/>
      <trkpt lat="57.731843" lon="13.016346"/>
      <trkpt lat="57.731828" lon="13.016491"/>
      <trkpt lat="57.731748" lon="13.016903"/>
      <trkpt lat="57.731719" lon="13.017299"/>
      <trkpt lat="57.731524" lon="13.018353"/>
      <trkpt lat="57.731488" lon="13.018857"/>
      <trkpt lat="57.731577" lon="13.019153"/>
      <trkpt lat="57.731594" lon="13.019462"/>
      <trkpt lat="57.731662" lon="13.019819"/>
      <trkpt lat="57.73165" lon="13.020063"/>
      <trkpt lat="57.731618" lon="13.020388"/>
      <trkpt lat="57.731614" lon="13.020789"/>
      <trkpt lat="57.731574" lon="13.021028"/>
      <trkpt lat="57.731689" lon="13.021593"/>
      <trkpt lat="57.731521" lon="13.021785"/>
      <trkpt lat="57.731427" lon="13.021814"/>
      <trkpt lat="57.731339" lon="13.022016"/>
      <trkpt lat="57.731406" lon="13.02242"/>
      <trkpt lat="57.73155" lon="13.023024"/>
      <trkpt lat="57.731659" lon="13.023344"/>
      <trkpt lat="57.731783" lon="13.023573"/>
      <trkpt lat="57.731983" lon="13.024034"/>
      <trkpt lat="57.731914" lon="13.02415"/>
      <trkpt lat="57.731595" lon="13.024203"/>
      <trkpt lat="57.731368" lon="13.024765"/>
      <trkpt lat="57.731108" lon="13.025075"/>
      <trkpt lat="57.730963" lon="13.025316"/>
      <trkpt lat="57.730898" lon="13.025543"/>
      <trkpt lat="57.730929" lon="13.025758"/>
      <trkpt lat="57.731105" lon="13.026061"/>
      <trkpt lat="57.731116" lon="13.026689"/>
      <trkpt lat="57.731173" lon="13.026937"/>
      <trkpt lat="57.731282" lon="13.027001"/>
      <trkpt lat="57.731477" lon="13.027358"/>
      <trkpt lat="57.731531" lon="13.027427"/>
      <trkpt lat="57.731569" lon="13.027541"/>
      <trkpt lat="57.731735" lon="13.027882"/>
      <trkpt lat="57.731834" lon="13.028071"/>
      <trkpt lat="57.73192" lon="13.028388"/>
      <trkpt lat="57.732054" lon="13.028634"/>
      <trkpt lat="57.732526" lon="13.028727"/>
      <trkpt lat="57.732684" lon="13.028831"/>
      <trkpt lat="57.732807" lon="13.028979"/>
      <trkpt lat="57.73287" lon="13.028961"/>
      <trkpt lat="57.732927" lon="13.028774"/>
      <trkpt lat="57.732978" lon="13.028638"/>
      <trkpt lat="57.733274" lon="13.028673"/>
      <trkpt lat="57.73337" lon="13.028914"/>
      <trkpt lat="57.733508" lon="13.029068"/>
      <trkpt lat="57.733741" lon="13.029436"/>
      <trkpt lat="57.733885" lon="13.02981"/>
      <trkpt lat="57.734079" lon="13.030289"/>
      <trkpt lat="57.73447" lon="13.030796"/>
      <trkpt lat="57.734605" lon="13.030982"/>
      <trkpt lat="57.734788" lon="13.03115"/>
      <trkpt lat="57.735222" lon="13.031067"/>
      <trkpt lat="57.735259" lon="13.031183"/>
      <trkpt lat="57.735108" lon="13.031687"/>
      <trkpt lat="57.735141" lon="13.032364"/>
      <trkpt lat="57.735145" lon="13.032444"/>
      <trkpt lat="57.735133" lon="13.032664"/>
      <trkpt lat="57.735247" lon="13.032992"/>
      <trkpt lat="57.735374" lon="13.033413"/>
      <trkpt lat="57.735415" lon="13.033669"/>
      <trkpt lat="57.735385" lon="13.033752"/>
      <trkpt lat="57.735257" lon="13.033946"/>
      <trkpt lat="57.735132" lon="13.034208"/>
      <trkpt lat="57.734973" lon="13.034576"/>
      <trkpt lat="57.734892" lon="13.034824"/>
      <trkpt lat="57.734855" lon="13.03513"/>
      <trkpt lat="57.734873" lon="13.035538"/>
      <trkpt lat="57.734935" lon="13.035902"/>
      <trkpt lat="57.734858" lon="13.036149"/>
      <trkpt lat="57.734802" lon="13.036316"/>
      <trkpt lat="57.734891" lon="13.03652"/>
      <trkpt lat="57.734893" lon="13.036693"/>
      <trkpt lat="57.734972" lon="13.037172"/>
      <trkpt lat="57.735232" lon="13.037217"/>
      <trkpt lat="57.73535" lon="13.037357"/>
      <trkpt lat="57.735478" lon="13.037711"/>
      <trkpt lat="57.735517" lon="13.037743"/>
      <trkpt lat="57.735658" lon="13.037777"/>
      <trkpt lat="57.73574" lon="13.037957"/>
      <trkpt lat="57.735777" lon="13.03809"/>
      <trkpt lat="57.735706" lon="13.038207"/>
      <trkpt lat="57.735455" lon="13.038399"/>
      <trkpt lat="57.735032" lon="13.03894"/>
      <trkpt lat="57.734799" lon="13.039265"/>
      <trkpt lat="57.734685" lon="13.039303"/>
      <trkpt lat="57.734492" lon="13.039618"/>
      <trkpt lat="57.734398" lon="13.039859"/>
      <trkpt lat="57.734289" lon="13.040376"/>
      <trkpt lat="57.734092" lon="13.041211"/>
      <trkpt lat="57.73394" lon="13.04156"/>
      <trkpt lat="57.733619" lon="13.04182"/>
      <trkpt lat="57.733548" lon="13.041923"/>
      <trkpt lat="57.733744" lon="13.042452"/>
      <trkpt lat="57.733489" lon="13.042917"/>
      <trkpt lat="57.733402" lon="13.043116"/>
      <trkpt lat="57.733329" lon="13.043397"/>
      <trkpt lat="57.733179" lon="13.043664"/>
      <trkpt lat="57.732653" lon="13.044258"/>
      <trkpt lat="57.732088" lon="13.044953"/>
      <trkpt lat="57.731808" lon="13.045358"/>
      <trkpt lat="57.731503" lon="13.045937"/>
      <trkpt lat="57.731589" lon="13.047853"/>
      <trkpt lat="57.731659" lon="13.049465"/>
      <trkpt lat="57.731521" lon="13.050063"/>
      <trkpt lat="57.73126" lon="13.051173"/>
      <trkpt lat="57.731221" lon="13.052052"/>
      <trkpt lat="57.731097" lon="13.052642"/>
      <trkpt lat="57.730515" lon="13.054319"/>
      <trkpt lat="57.730207" lon="13.055347"/>
      <trkpt lat="57.730099" lon="13.055946"/>
      <trkpt lat="57.730114" lon="13.056736"/>
      <trkpt lat="57.73008" lon="13.057236"/>
      <trkpt lat="57.729994" lon="13.057537"/>
      <trkpt lat="57.729621" lon="13.058176"/>
      <trkpt lat="57.729371" lon="13.058504"/>
      <trkpt lat="57.729035" lon="13.058761"/>
      <trkpt lat="57.728482" lon="13.059456"/>
      <trkpt lat="57.728129" lon="13.059873"/>
      <trkpt lat="57.727801" lon="13.06011"/>
      <trkpt lat="57.727651" lon="13.060355"/>
      <trkpt lat="57.727483" lon="13.06102"/>
      <trkpt lat="57.727621" lon="13.061119"/>
      <trkpt lat="57.72789" lon="13.061297"/>
      <trkpt lat="57.728244" lon="13.061609"/>
      <trkpt lat="57.728924" lon="13.062387"/>
      <trkpt lat="57.729507" lon="13.063126"/>
      <trkpt lat="57.730276" lon="13.064362"/>
      <trkpt lat="57.73092" lon="13.065224"/>
      <trkpt lat="57.731493" lon="13.065886"/>
      <trkpt lat="57.732797" lon="13.066964"/>
      <trkpt lat="57.732886" lon="13.067357"/>
      <trkpt lat="57.733278" lon="13.067967"/>
      <trkpt lat="57.733588" lon="13.068379"/>
      <trkpt lat="57.734164" lon="13.068898"/>
      <trkpt lat="57.73421" lon="13.06889"/>
      <trkpt lat="57.734543" lon="13.068646"/>
      <trkpt lat="57.734811" lon="13.068797"/>
      <trkpt lat="57.735042" lon="13.069081"/>
      <trkpt lat="57.735356" lon="13.069712"/>
      <trkpt lat="57.735569" lon="13.07063"/>
      <trkpt lat="57.735695" lon="13.071351"/>
      <trkpt lat="57.736293" lon="13.072663"/>
      <trkpt lat="57.736827" lon="13.073717"/>
      <trkpt lat="57.737277" lon="13.074311"/>
      <trkpt lat="57.737978" lon="13.075789"/>
      <trkpt lat="57.736787" lon="13.079232"/>
      <trkpt lat="57.736466" lon="13.079016"/>
      <trkpt lat="57.736057" lon="13.079466"/>
      <trkpt lat="57.735696" lon="13.079857"/>
      <trkpt lat="57.735237" lon="13.080315"/>
      <trkpt lat="57.735173" lon="13.080442"/>
      <trkpt lat="57.735071" lon="13.080544"/>
      <trkpt lat="57.735" lon="13.08076"/>
      <trkpt lat="57.734852" lon="13.08083"/>
      <trkpt lat="57.73482" lon="13.081173"/>
      <trkpt lat="57.734781" lon="13.081594"/>
      <trkpt lat="57.734601" lon="13.082455"/>
      <trkpt lat="57.734678" lon="13.083396"/>
      <trkpt lat="57.734757" lon="13.083787"/>
      <trkpt lat="57.734813" lon="13.084162"/>
      <trkpt lat="57.734766" lon="13.085096"/>
      <trkpt lat="57.734354" lon="13.086258"/>
      <trkpt lat="57.734286" lon="13.086292"/>
      <trkpt lat="57.73403" lon="13.087332"/>
      <trkpt lat="57.733694" lon="13.087629"/>
      <trkpt lat="57.733266" lon="13.088006"/>
      <trkpt lat="57.73297" lon="13.088377"/>
      <trkpt lat="57.732769" lon="13.088469"/>
      <trkpt lat="57.732613" lon="13.088439"/>
      <trkpt lat="57.732461" lon="13.088368"/>
      <trkpt lat="57.732382" lon="13.088516"/>
      <trkpt lat="57.732459" lon="13.088836"/>
      <trkpt lat="57.732564" lon="13.089055"/>
      <trkpt lat="57.732633" lon="13.089247"/>
      <trkpt lat="57.732791" lon="13.089512"/>
      <trkpt lat="57.732937" lon="13.089837"/>
      <trkpt lat="57.733157" lon="13.090416"/>
      <trkpt lat="57.733189" lon="13.090828"/>
      <trkpt lat="57.733159" lon="13.0914"/>
      <trkpt lat="57.733085" lon="13.092242"/>
      <trkpt lat="57.733118" lon="13.092456"/>
      <trkpt lat="57.73324" lon="13.092809"/>
      <trkpt lat="57.733401" lon="13.092961"/>
      <trkpt lat="57.733455" lon="13.09313"/>
      <trkpt lat="57.733467" lon="13.093672"/>
      <trkpt lat="57.733422" lon="13.094193"/>
      <trkpt lat="57.733437" lon="13.094425"/>
      <trkpt lat="57.733465" lon="13.094665"/>
      <trkpt lat="57.733554" lon="13.094926"/>
      <trkpt lat="57.733651" lon="13.094962"/>
      <trkpt lat="57.733798" lon="13.094916"/>
      <trkpt lat="57.734032" lon="13.095503"/>
      <trkpt lat="57.73429" lon="13.09569"/>
      <trkpt lat="57.734539" lon="13.095675"/>
      <trkpt lat="57.734935" lon="13.095389"/>
      <trkpt lat="57.735336" lon="13.094931"/>
      <trkpt lat="57.735626" lon="13.094723"/>
      <trkpt lat="57.735991" lon="13.094351"/>
      <trkpt lat="57.7364" lon="13.0946"/>
      <trkpt lat="57.736862" lon="13.094721"/>
      <trkpt lat="57.736921" lon="13.094999"/>
      <trkpt lat="57.736945" lon="13.095456"/>
      <trkpt lat="57.736883" lon="13.095752"/>
      <trkpt lat="57.736736" lon="13.095911"/>
      <trkpt lat="57.736456" lon="13.096031"/>
      <trkpt lat="57.736408" lon="13.096747"/>
      <trkpt lat="57.736347" lon="13.096914"/>
      <trkpt lat="57.736016" lon="13.096865"/>
      <trkpt lat="57.735879" lon="13.096844"/>
      <trkpt lat="57.735751" lon="13.096934"/>
      <trkpt lat="57.735689" lon="13.097116"/>
      <trkpt lat="57.735674" lon="13.097344"/>
      <trkpt lat="57.735713" lon="13.097571"/>
      <trkpt lat="57.735848" lon="13.097791"/>
      <trkpt lat="57.73606" lon="13.097909"/>
      <trkpt lat="57.736297" lon="13.098124"/>
      <trkpt lat="57.736543" lon="13.098231"/>
      <trkpt lat="57.736681" lon="13.09846"/>
      <trkpt lat="57.736844" lon="13.09877"/>
      <trkpt lat="57.736885" lon="13.098782"/>
      <trkpt lat="57.737092" lon="13.099027"/>
      <trkpt lat="57.737299" lon="13.099167"/>
      <trkpt lat="57.737417" lon="13.099281"/>
      <trkpt lat="57.737615" lon="13.099618"/>
      <trkpt lat="57.737724" lon="13.099904"/>
      <trkpt lat="57.737838" lon="13.10061"/>
      <trkpt lat="57.737918" lon="13.100975"/>
      <trkpt lat="57.738114" lon="13.1014"/>
      <trkpt lat="57.73832" lon="13.101707"/>
      <trkpt lat="57.738566" lon="13.101787"/>
      <trkpt lat="57.738778" lon="13.101781"/>
      <trkpt lat="57.739034" lon="13.10201"/>
      <trkpt lat="57.739339" lon="13.101944"/>
      <trkpt lat="57.739657" lon="13.102294"/>
      <trkpt lat="57.739943" lon="13.102575"/>
      <trkpt lat="57.740095" lon="13.102729"/>
      <trkpt lat="57.740422" lon="13.103119"/>
      <trkpt lat="57.740695" lon="13.103345"/>
      <trkpt lat="57.740806" lon="13.103415"/>
      <trkpt lat="57.74125" lon="13.103628"/>
      <trkpt lat="57.741442" lon="13.103795"/>
      <trkpt lat="57.741644" lon="13.103935"/>
      <trkpt lat="57.741828" lon="13.10412"/>
      <trkpt lat="57.741913" lon="13.104201"/>
      <trkpt lat="57.741951" lon="13.104266"/>
      <trkpt lat="57.742013" lon="13.104365"/>
      <trkpt lat="57.742047" lon="13.10444"/>
      <trkpt lat="57.742086" lon="13.10455"/>
      <trkpt lat="57.742154" lon="13.104683"/>
      <trkpt lat="57.742232" lon="13.104884"/>
      <trkpt lat="57.742405" lon="13.105087"/>
      <trkpt lat="57.7426" lon="13.105177"/>
      <trkpt lat="57.742876" lon="13.105449"/>
      <trkpt lat="57.743208" lon="13.105631"/>
      <trkpt lat="57.743445" lon="13.1057"/>
      <trkpt lat="57.743679" lon="13.105846"/>
      <trkpt lat="57.743786" lon="13.106115"/>
      <trkpt lat="57.743806" lon="13.10642"/>
    </trkseg>
  </trk>
</gpx>
