<?xml version="1.0" encoding="UTF-8"?>
<gpx xmlns="http://www.topografix.com/GPX/1/1" xmlns:xsi="http://www.w3.org/2001/XMLSchema-instance" version="1.1" creator="GPX RubyGem 1.0.0 -- http://dougfales.github.io/gpx/" xsi:schemaLocation="http://www.topografix.com/GPX/1/1 http://www.topografix.com/GPX/1/1/gpx.xsd">
  <metadata>
    <name>Sjuhäradsleden, etapp 8 by Naturkartan</name>
    <time>2026-04-30T16:07:50+00:00</time>
  </metadata>
  <trk>
    <name>Sjuhäradsleden, etapp 8 by Naturkartan</name>
    <trkseg>
      <trkpt lat="57.8026283" lon="13.4102686"/>
      <trkpt lat="57.8025755" lon="13.4103826"/>
      <trkpt lat="57.8023723" lon="13.4108142"/>
      <trkpt lat="57.8022737" lon="13.410969"/>
      <trkpt lat="57.802171" lon="13.4111336"/>
      <trkpt lat="57.8019552" lon="13.4114224"/>
      <trkpt lat="57.8015551" lon="13.4118671"/>
      <trkpt lat="57.8013724" lon="13.4119515"/>
      <trkpt lat="57.801386" lon="13.4119474"/>
      <trkpt lat="57.8014071" lon="13.411958"/>
      <trkpt lat="57.8014226" lon="13.4119871"/>
      <trkpt lat="57.8014283" lon="13.4120268"/>
      <trkpt lat="57.8014226" lon="13.4120665"/>
      <trkpt lat="57.8014111" lon="13.4120906"/>
      <trkpt lat="57.8014809" lon="13.4122346"/>
      <trkpt lat="57.8015483" lon="13.4123037"/>
      <trkpt lat="57.8016312" lon="13.4123079"/>
      <trkpt lat="57.8035412" lon="13.4122449"/>
      <trkpt lat="57.8053112" lon="13.4121865"/>
      <trkpt lat="57.8053634" lon="13.4121848"/>
      <trkpt lat="57.8085522" lon="13.4120795"/>
      <trkpt lat="57.8086517" lon="13.4120762"/>
      <trkpt lat="57.8088025" lon="13.4120727"/>
      <trkpt lat="57.8103699" lon="13.4120362"/>
      <trkpt lat="57.8110201" lon="13.4120227"/>
      <trkpt lat="57.8114204" lon="13.4120179"/>
      <trkpt lat="57.8135983" lon="13.4119611"/>
      <trkpt lat="57.8134747" lon="13.4124736"/>
      <trkpt lat="57.8133261" lon="13.4129242"/>
      <trkpt lat="57.8131299" lon="13.4131859"/>
      <trkpt lat="57.8129363" lon="13.4134119"/>
      <trkpt lat="57.8128636" lon="13.4136509"/>
      <trkpt lat="57.8128363" lon="13.4138725"/>
      <trkpt lat="57.8128072" lon="13.4140932"/>
      <trkpt lat="57.8128079" lon="13.4143309"/>
      <trkpt lat="57.8128523" lon="13.4145463"/>
      <trkpt lat="57.8130809" lon="13.4148616"/>
      <trkpt lat="57.8131952" lon="13.4150975"/>
      <trkpt lat="57.8132608" lon="13.4153596"/>
      <trkpt lat="57.8132828" lon="13.4156359"/>
      <trkpt lat="57.8132768" lon="13.4160281"/>
      <trkpt lat="57.8133057" lon="13.4163666"/>
      <trkpt lat="57.8133854" lon="13.4166632"/>
      <trkpt lat="57.8135428" lon="13.4169444"/>
      <trkpt lat="57.8138206" lon="13.4172572"/>
      <trkpt lat="57.8136794" lon="13.4177315"/>
      <trkpt lat="57.8136235" lon="13.4179705"/>
      <trkpt lat="57.8135926" lon="13.4182114"/>
      <trkpt lat="57.813615" lon="13.4188013"/>
      <trkpt lat="57.8136324" lon="13.4193615"/>
      <trkpt lat="57.8136384" lon="13.419535"/>
    </trkseg>
  </trk>
  <trk>
    <name>Sjuhäradsleden, etapp 8 by Naturkartan</name>
    <trkseg>
      <trkpt lat="57.8137333" lon="13.4201841"/>
      <trkpt lat="57.8138005" lon="13.420109"/>
      <trkpt lat="57.8138444" lon="13.4199874"/>
      <trkpt lat="57.8138565" lon="13.4198424"/>
      <trkpt lat="57.8138353" lon="13.4197037"/>
      <trkpt lat="57.8137851" lon="13.4195944"/>
      <trkpt lat="57.8137152" lon="13.4195345"/>
      <trkpt lat="57.8136384" lon="13.419535"/>
      <trkpt lat="57.8135646" lon="13.4196018"/>
      <trkpt lat="57.8135143" lon="13.4197231"/>
      <trkpt lat="57.813498" lon="13.4198738"/>
      <trkpt lat="57.8135201" lon="13.4200261"/>
      <trkpt lat="57.8135767" lon="13.4201429"/>
      <trkpt lat="57.8136555" lon="13.4201983"/>
      <trkpt lat="57.8137333" lon="13.4201841"/>
    </trkseg>
  </trk>
  <trk>
    <name>Sjuhäradsleden, etapp 8 by Naturkartan</name>
    <trkseg>
      <trkpt lat="57.8136555" lon="13.4201983"/>
      <trkpt lat="57.8136538" lon="13.4203336"/>
      <trkpt lat="57.8136488" lon="13.4207375"/>
      <trkpt lat="57.813645" lon="13.421042"/>
      <trkpt lat="57.8136447" lon="13.4214139"/>
      <trkpt lat="57.8136435" lon="13.421586"/>
      <trkpt lat="57.813638" lon="13.4223756"/>
      <trkpt lat="57.813734" lon="13.4270519"/>
      <trkpt lat="57.8137518" lon="13.4279149"/>
      <trkpt lat="57.813793" lon="13.4299231"/>
      <trkpt lat="57.8138157" lon="13.430098"/>
      <trkpt lat="57.8138174" lon="13.4301982"/>
      <trkpt lat="57.8139089" lon="13.430223"/>
      <trkpt lat="57.814106" lon="13.430313"/>
      <trkpt lat="57.8141859" lon="13.430373"/>
      <trkpt lat="57.8144417" lon="13.430538"/>
      <trkpt lat="57.8145375" lon="13.4306681"/>
      <trkpt lat="57.8145961" lon="13.4308381"/>
      <trkpt lat="57.8148412" lon="13.4317632"/>
      <trkpt lat="57.8149105" lon="13.4319532"/>
      <trkpt lat="57.8150117" lon="13.4321382"/>
      <trkpt lat="57.8151129" lon="13.4322983"/>
      <trkpt lat="57.8151528" lon="13.4324083"/>
      <trkpt lat="57.8151795" lon="13.4325433"/>
      <trkpt lat="57.8151875" lon="13.4326833"/>
      <trkpt lat="57.8151901" lon="13.4328633"/>
      <trkpt lat="57.815334" lon="13.4338935"/>
      <trkpt lat="57.8154484" lon="13.4346116"/>
      <trkpt lat="57.8156855" lon="13.4351972"/>
      <trkpt lat="57.8159018" lon="13.4363842"/>
      <trkpt lat="57.8162345" lon="13.4372432"/>
      <trkpt lat="57.8165215" lon="13.4376883"/>
      <trkpt lat="57.8166546" lon="13.4381334"/>
      <trkpt lat="57.8167212" lon="13.4386098"/>
      <trkpt lat="57.8167461" lon="13.4392892"/>
      <trkpt lat="57.8169208" lon="13.4404996"/>
      <trkpt lat="57.8169042" lon="13.4408276"/>
      <trkpt lat="57.8171246" lon="13.4419442"/>
      <trkpt lat="57.8171704" lon="13.4424206"/>
      <trkpt lat="57.8172931" lon="13.4424557"/>
      <trkpt lat="57.817422" lon="13.4426041"/>
      <trkpt lat="57.8176924" lon="13.4431312"/>
      <trkpt lat="57.8177132" lon="13.4432405"/>
      <trkpt lat="57.8181228" lon="13.4437376"/>
      <trkpt lat="57.8183286" lon="13.4438812"/>
      <trkpt lat="57.8185933" lon="13.4439254"/>
      <trkpt lat="57.818725" lon="13.4438265"/>
      <trkpt lat="57.8188332" lon="13.4436898"/>
      <trkpt lat="57.8189496" lon="13.4436274"/>
      <trkpt lat="57.8190869" lon="13.4436703"/>
      <trkpt lat="57.8192449" lon="13.443807"/>
      <trkpt lat="57.8193738" lon="13.4439631"/>
      <trkpt lat="57.819457" lon="13.4441935"/>
      <trkpt lat="57.8195215" lon="13.4443458"/>
      <trkpt lat="57.8195464" lon="13.4443653"/>
      <trkpt lat="57.8195691" lon="13.4453116"/>
      <trkpt lat="57.8196224" lon="13.4455585"/>
      <trkpt lat="57.8197518" lon="13.445934"/>
      <trkpt lat="57.8197282" lon="13.44695"/>
      <trkpt lat="57.8197341" lon="13.4473708"/>
      <trkpt lat="57.8197695" lon="13.447855"/>
      <trkpt lat="57.8198464" lon="13.4486047"/>
      <trkpt lat="57.8199052" lon="13.448897"/>
      <trkpt lat="57.8204209" lon="13.4497794"/>
      <trkpt lat="57.8207869" lon="13.4501543"/>
      <trkpt lat="57.8209158" lon="13.4501777"/>
      <trkpt lat="57.8211487" lon="13.4501074"/>
      <trkpt lat="57.8212485" lon="13.4500293"/>
      <trkpt lat="57.8215563" lon="13.4493578"/>
      <trkpt lat="57.8217226" lon="13.4490844"/>
      <trkpt lat="57.8220553" lon="13.4488424"/>
      <trkpt lat="57.8222549" lon="13.4490766"/>
      <trkpt lat="57.8225294" lon="13.4492875"/>
      <trkpt lat="57.8227165" lon="13.4495061"/>
      <trkpt lat="57.8230123" lon="13.4497302"/>
      <trkpt lat="57.8234181" lon="13.4499401"/>
      <trkpt lat="57.8241238" lon="13.4504923"/>
      <trkpt lat="57.8243355" lon="13.4505884"/>
      <trkpt lat="57.8244269" lon="13.4506001"/>
      <trkpt lat="57.8245538" lon="13.4496903"/>
      <trkpt lat="57.8247076" lon="13.4489953"/>
      <trkpt lat="57.8248823" lon="13.4484955"/>
      <trkpt lat="57.8250944" lon="13.4482613"/>
      <trkpt lat="57.8258761" lon="13.4477849"/>
      <trkpt lat="57.8262679" lon="13.4475436"/>
      <trkpt lat="57.8269157" lon="13.4471446"/>
      <trkpt lat="57.8272077" lon="13.4473013"/>
      <trkpt lat="57.8270529" lon="13.4479863"/>
      <trkpt lat="57.8269197" lon="13.4487028"/>
      <trkpt lat="57.8268682" lon="13.4493239"/>
      <trkpt lat="57.8268834" lon="13.4499994"/>
      <trkpt lat="57.8270408" lon="13.4514325"/>
      <trkpt lat="57.8271226" lon="13.4523936"/>
      <trkpt lat="57.827168" lon="13.4529851"/>
      <trkpt lat="57.8272286" lon="13.453423"/>
      <trkpt lat="57.8273" lon="13.45377"/>
      <trkpt lat="57.8274012" lon="13.4541509"/>
      <trkpt lat="57.8275445" lon="13.4545447"/>
      <trkpt lat="57.8286411" lon="13.45679"/>
      <trkpt lat="57.8288838" lon="13.4563452"/>
      <trkpt lat="57.8289585" lon="13.4562082"/>
      <trkpt lat="57.829653" lon="13.4549355"/>
      <trkpt lat="57.8297154" lon="13.454873"/>
      <trkpt lat="57.8298068" lon="13.4548887"/>
      <trkpt lat="57.8299357" lon="13.454998"/>
      <trkpt lat="57.8301561" lon="13.4554275"/>
      <trkpt lat="57.83026" lon="13.4557398"/>
      <trkpt lat="57.8303224" lon="13.4561069"/>
      <trkpt lat="57.8304263" lon="13.4562943"/>
      <trkpt lat="57.8306592" lon="13.4566613"/>
      <trkpt lat="57.8322266" lon="13.4587776"/>
      <trkpt lat="57.8323224" lon="13.4589567"/>
      <trkpt lat="57.8324014" lon="13.4591598"/>
      <trkpt lat="57.8324658" lon="13.4593784"/>
      <trkpt lat="57.8325677" lon="13.4595268"/>
      <trkpt lat="57.8328525" lon="13.4598157"/>
      <trkpt lat="57.8334522" lon="13.4605667"/>
      <trkpt lat="57.8340343" lon="13.4612735"/>
      <trkpt lat="57.8342283" lon="13.4613398"/>
      <trkpt lat="57.8344517" lon="13.4613508"/>
      <trkpt lat="57.8345869" lon="13.4614612"/>
      <trkpt lat="57.8346927" lon="13.4617042"/>
      <trkpt lat="57.8347163" lon="13.4620686"/>
      <trkpt lat="57.8347131" lon="13.4626435"/>
      <trkpt lat="57.8347422" lon="13.4627411"/>
      <trkpt lat="57.8348337" lon="13.4628543"/>
      <trkpt lat="57.8350686" lon="13.4630691"/>
      <trkpt lat="57.8351434" lon="13.4630534"/>
      <trkpt lat="57.835269" lon="13.46286"/>
      <trkpt lat="57.8356394" lon="13.462236"/>
      <trkpt lat="57.8357188" lon="13.4620649"/>
      <trkpt lat="57.8357482" lon="13.4618164"/>
      <trkpt lat="57.835757" lon="13.4614961"/>
      <trkpt lat="57.8357658" lon="13.4612697"/>
      <trkpt lat="57.8358246" lon="13.4610599"/>
      <trkpt lat="57.8358952" lon="13.4609605"/>
      <trkpt lat="57.8361215" lon="13.4606458"/>
      <trkpt lat="57.8361862" lon="13.4604967"/>
      <trkpt lat="57.8362097" lon="13.46032"/>
      <trkpt lat="57.8362038" lon="13.4597181"/>
      <trkpt lat="57.8362156" lon="13.4587628"/>
      <trkpt lat="57.8361715" lon="13.4585861"/>
      <trkpt lat="57.8361568" lon="13.4583818"/>
      <trkpt lat="57.8361656" lon="13.4581499"/>
      <trkpt lat="57.8362156" lon="13.4574321"/>
      <trkpt lat="57.8362156" lon="13.4569848"/>
      <trkpt lat="57.8362361" lon="13.4567473"/>
      <trkpt lat="57.8362244" lon="13.4565651"/>
      <trkpt lat="57.8362009" lon="13.4564436"/>
      <trkpt lat="57.8361921" lon="13.4563443"/>
      <trkpt lat="57.8362097" lon="13.4562062"/>
      <trkpt lat="57.8362744" lon="13.4560847"/>
      <trkpt lat="57.8363449" lon="13.4559964"/>
      <trkpt lat="57.8366242" lon="13.4560682"/>
      <trkpt lat="57.836824" lon="13.4560847"/>
      <trkpt lat="57.8373237" lon="13.4563553"/>
      <trkpt lat="57.8378264" lon="13.4567473"/>
      <trkpt lat="57.8382085" lon="13.4568688"/>
      <trkpt lat="57.838961" lon="13.4568467"/>
      <trkpt lat="57.8397898" lon="13.4569682"/>
      <trkpt lat="57.8400073" lon="13.4570842"/>
      <trkpt lat="57.840216" lon="13.4573713"/>
      <trkpt lat="57.840442" lon="13.4577507"/>
      <trkpt lat="57.8410154" lon="13.4587131"/>
      <trkpt lat="57.8414976" lon="13.4596814"/>
      <trkpt lat="57.8417387" lon="13.4600407"/>
      <trkpt lat="57.8421294" lon="13.4604623"/>
      <trkpt lat="57.8423039" lon="13.4608528"/>
      <trkpt lat="57.8425616" lon="13.4618367"/>
      <trkpt lat="57.8427618" lon="13.4623197"/>
      <trkpt lat="57.8432795" lon="13.4631513"/>
      <trkpt lat="57.8435123" lon="13.4633022"/>
      <trkpt lat="57.8439907" lon="13.4635284"/>
      <trkpt lat="57.8444143" lon="13.4636963"/>
      <trkpt lat="57.8445029" lon="13.4641752"/>
      <trkpt lat="57.8445483" lon="13.4646438"/>
      <trkpt lat="57.8447731" lon="13.4647434"/>
      <trkpt lat="57.8449583" lon="13.4648041"/>
      <trkpt lat="57.8451081" lon="13.4650029"/>
      <trkpt lat="57.8451757" lon="13.465014"/>
      <trkpt lat="57.845496" lon="13.4651354"/>
      <trkpt lat="57.845643" lon="13.4650692"/>
      <trkpt lat="57.8457752" lon="13.4650857"/>
      <trkpt lat="57.8462836" lon="13.4652403"/>
      <trkpt lat="57.8465716" lon="13.4655661"/>
      <trkpt lat="57.846889" lon="13.4658533"/>
      <trkpt lat="57.8471241" lon="13.4659803"/>
      <trkpt lat="57.8473944" lon="13.4660797"/>
      <trkpt lat="57.8475296" lon="13.4660134"/>
      <trkpt lat="57.847656" lon="13.4660024"/>
      <trkpt lat="57.8478646" lon="13.4659195"/>
      <trkpt lat="57.8479557" lon="13.4659637"/>
      <trkpt lat="57.8480438" lon="13.4660576"/>
      <trkpt lat="57.8482378" lon="13.4661073"/>
      <trkpt lat="57.8483965" lon="13.4661183"/>
      <trkpt lat="57.848943" lon="13.4662564"/>
      <trkpt lat="57.8494132" lon="13.4663613"/>
      <trkpt lat="57.8495689" lon="13.4663558"/>
      <trkpt lat="57.8497952" lon="13.4664938"/>
      <trkpt lat="57.8500273" lon="13.466549"/>
      <trkpt lat="57.8502007" lon="13.4664828"/>
      <trkpt lat="57.8502947" lon="13.4663447"/>
      <trkpt lat="57.8504357" lon="13.4662508"/>
      <trkpt lat="57.8506326" lon="13.4662067"/>
      <trkpt lat="57.8508441" lon="13.4663116"/>
      <trkpt lat="57.8510557" lon="13.4664883"/>
      <trkpt lat="57.8511674" lon="13.4665601"/>
      <trkpt lat="57.8512526" lon="13.466549"/>
      <trkpt lat="57.8513583" lon="13.4665214"/>
      <trkpt lat="57.8514656" lon="13.4667644"/>
      <trkpt lat="57.8514818" lon="13.4668914"/>
      <trkpt lat="57.8516169" lon="13.4671067"/>
      <trkpt lat="57.8516948" lon="13.467231"/>
      <trkpt lat="57.8517961" lon="13.4673138"/>
      <trkpt lat="57.8518681" lon="13.4673"/>
      <trkpt lat="57.8521299" lon="13.4671907"/>
      <trkpt lat="57.8522837" lon="13.4670579"/>
      <trkpt lat="57.8524125" lon="13.4668627"/>
      <trkpt lat="57.8525787" lon="13.4668236"/>
      <trkpt lat="57.8528737" lon="13.4669486"/>
      <trkpt lat="57.8532144" lon="13.4672688"/>
      <trkpt lat="57.853472" lon="13.4675811"/>
      <trkpt lat="57.8536715" lon="13.4679872"/>
      <trkpt lat="57.8537712" lon="13.4684167"/>
      <trkpt lat="57.8539208" lon="13.4687447"/>
      <trkpt lat="57.8539789" lon="13.469018"/>
      <trkpt lat="57.8540537" lon="13.4692757"/>
      <trkpt lat="57.8541228" lon="13.4693751"/>
      <trkpt lat="57.8542344" lon="13.4694413"/>
      <trkpt lat="57.8543138" lon="13.4693143"/>
      <trkpt lat="57.8543843" lon="13.4692619"/>
      <trkpt lat="57.8545376" lon="13.4692705"/>
      <trkpt lat="57.8549406" lon="13.469411"/>
      <trkpt lat="57.8550861" lon="13.4695477"/>
      <trkpt lat="57.8553956" lon="13.4697156"/>
      <trkpt lat="57.8556096" lon="13.4699225"/>
      <trkpt lat="57.8557488" lon="13.470106"/>
      <trkpt lat="57.8558007" lon="13.4702778"/>
      <trkpt lat="57.8558319" lon="13.4704379"/>
      <trkpt lat="57.855863" lon="13.4705394"/>
      <trkpt lat="57.8559274" lon="13.4706995"/>
      <trkpt lat="57.8560313" lon="13.4707659"/>
      <trkpt lat="57.8562432" lon="13.470844"/>
      <trkpt lat="57.8563658" lon="13.4708323"/>
      <trkpt lat="57.8564717" lon="13.4707737"/>
      <trkpt lat="57.8565714" lon="13.4706839"/>
      <trkpt lat="57.8567506" lon="13.4705226"/>
      <trkpt lat="57.8568729" lon="13.4704124"/>
      <trkpt lat="57.8570721" lon="13.4703364"/>
      <trkpt lat="57.8572872" lon="13.4702543"/>
      <trkpt lat="57.8574832" lon="13.4702438"/>
      <trkpt lat="57.8574833" lon="13.4701325"/>
      <trkpt lat="57.8576005" lon="13.4695422"/>
      <trkpt lat="57.8577366" lon="13.4696481"/>
      <trkpt lat="57.8580067" lon="13.4699761"/>
      <trkpt lat="57.8582705" lon="13.4705813"/>
      <trkpt lat="57.8584201" lon="13.4706945"/>
      <trkpt lat="57.8590702" lon="13.4710147"/>
      <trkpt lat="57.8593444" lon="13.4710459"/>
      <trkpt lat="57.8594981" lon="13.4709444"/>
      <trkpt lat="57.8596892" lon="13.4705852"/>
      <trkpt lat="57.8598263" lon="13.4699995"/>
      <trkpt lat="57.8598845" lon="13.4694373"/>
      <trkpt lat="57.8601712" lon="13.4682503"/>
      <trkpt lat="57.8603084" lon="13.4677279"/>
      <trkpt lat="57.8605845" lon="13.4672641"/>
      <trkpt lat="57.8609252" lon="13.4667561"/>
      <trkpt lat="57.8614011" lon="13.4664468"/>
      <trkpt lat="57.8618535" lon="13.4663695"/>
      <trkpt lat="57.8628346" lon="13.4663364"/>
      <trkpt lat="57.8629271" lon="13.4662149"/>
      <trkpt lat="57.863046" lon="13.4660962"/>
      <trkpt lat="57.8631136" lon="13.4659747"/>
      <trkpt lat="57.8632796" lon="13.4651658"/>
      <trkpt lat="57.8633967" lon="13.4646972"/>
      <trkpt lat="57.8634782" lon="13.4647695"/>
      <trkpt lat="57.8638126" lon="13.4651678"/>
      <trkpt lat="57.8638666" lon="13.4652147"/>
      <trkpt lat="57.8639289" lon="13.4652381"/>
      <trkpt lat="57.8640286" lon="13.4652068"/>
      <trkpt lat="57.8640702" lon="13.4652537"/>
      <trkpt lat="57.8641803" lon="13.4654177"/>
      <trkpt lat="57.8642592" lon="13.4654333"/>
      <trkpt lat="57.8643381" lon="13.4654216"/>
      <trkpt lat="57.8645832" lon="13.4655544"/>
      <trkpt lat="57.8647016" lon="13.4656168"/>
      <trkpt lat="57.8648386" lon="13.4657847"/>
      <trkpt lat="57.864903" lon="13.4659838"/>
      <trkpt lat="57.8649531" lon="13.4660093"/>
      <trkpt lat="57.8650178" lon="13.4660169"/>
      <trkpt lat="57.865063" lon="13.4660978"/>
      <trkpt lat="57.8650962" lon="13.4661352"/>
      <trkpt lat="57.8650946" lon="13.4662211"/>
      <trkpt lat="57.8650752" lon="13.4669307"/>
      <trkpt lat="57.8648178" lon="13.4682917"/>
      <trkpt lat="57.8648433" lon="13.4692007"/>
      <trkpt lat="57.8648698" lon="13.4696797"/>
      <trkpt lat="57.8649465" lon="13.471921"/>
      <trkpt lat="57.8649143" lon="13.4729493"/>
      <trkpt lat="57.8649948" lon="13.4743103"/>
      <trkpt lat="57.8650305" lon="13.4745373"/>
      <trkpt lat="57.8651235" lon="13.4751269"/>
      <trkpt lat="57.8652522" lon="13.4755805"/>
      <trkpt lat="57.8657348" lon="13.4763064"/>
      <trkpt lat="57.86596" lon="13.4767903"/>
      <trkpt lat="57.8662656" lon="13.477123"/>
      <trkpt lat="57.8669413" lon="13.4782723"/>
      <trkpt lat="57.8675526" lon="13.4790284"/>
      <trkpt lat="57.8691129" lon="13.4804498"/>
      <trkpt lat="57.8694024" lon="13.4808128"/>
      <trkpt lat="57.8694915" lon="13.4813017"/>
      <trkpt lat="57.8697408" lon="13.4844773"/>
      <trkpt lat="57.8698936" lon="13.4850519"/>
      <trkpt lat="57.8702153" lon="13.4854905"/>
      <trkpt lat="57.8705933" lon="13.4857022"/>
      <trkpt lat="57.8710919" lon="13.4857929"/>
      <trkpt lat="57.8715825" lon="13.4857475"/>
      <trkpt lat="57.8723304" lon="13.4857475"/>
      <trkpt lat="57.8727325" lon="13.485808"/>
      <trkpt lat="57.8730864" lon="13.4860197"/>
      <trkpt lat="57.8733877" lon="13.4862237"/>
      <trkpt lat="57.8735609" lon="13.4863635"/>
      <trkpt lat="57.8735142" lon="13.4867939"/>
      <trkpt lat="57.8735816" lon="13.4888702"/>
      <trkpt lat="57.8737585" lon="13.4911083"/>
      <trkpt lat="57.8742571" lon="13.4927415"/>
      <trkpt lat="57.8744501" lon="13.4940722"/>
      <trkpt lat="57.8750451" lon="13.4956146"/>
      <trkpt lat="57.8752864" lon="13.4968849"/>
      <trkpt lat="57.875407" lon="13.4981098"/>
      <trkpt lat="57.8754231" lon="13.4996825"/>
      <trkpt lat="57.8755598" lon="13.5002269"/>
      <trkpt lat="57.8757126" lon="13.5005293"/>
      <trkpt lat="57.8759442" lon="13.5007856"/>
      <trkpt lat="57.8762256" lon="13.5012242"/>
      <trkpt lat="57.8763462" lon="13.5015266"/>
      <trkpt lat="57.8768368" lon="13.50257"/>
      <trkpt lat="57.877287" lon="13.5032808"/>
      <trkpt lat="57.8779384" lon="13.5043695"/>
      <trkpt lat="57.8783082" lon="13.5046417"/>
      <trkpt lat="57.8789032" lon="13.5049442"/>
      <trkpt lat="57.8790307" lon="13.5050645"/>
      <trkpt lat="57.8790923" lon="13.505174"/>
      <trkpt lat="57.8793213" lon="13.5057457"/>
      <trkpt lat="57.8795626" lon="13.506411"/>
      <trkpt lat="57.8807445" lon="13.5094203"/>
      <trkpt lat="57.8812912" lon="13.5110232"/>
      <trkpt lat="57.8817687" lon="13.5123278"/>
      <trkpt lat="57.8820985" lon="13.5133008"/>
      <trkpt lat="57.882213" lon="13.513883"/>
      <trkpt lat="57.8822814" lon="13.5141439"/>
      <trkpt lat="57.8824784" lon="13.5146883"/>
      <trkpt lat="57.8826377" lon="13.51517"/>
      <trkpt lat="57.8825367" lon="13.515455"/>
    </trkseg>
  </trk>
</gpx>
