<?xml version="1.0" encoding="UTF-8"?>
<gpx xmlns="http://www.topografix.com/GPX/1/1" xmlns:xsi="http://www.w3.org/2001/XMLSchema-instance" version="1.1" creator="GPX RubyGem 1.0.0 -- http://dougfales.github.io/gpx/" xsi:schemaLocation="http://www.topografix.com/GPX/1/1 http://www.topografix.com/GPX/1/1/gpx.xsd">
  <metadata>
    <name>Sjuhäradsleden, etapp 4 by Naturkartan</name>
    <time>2026-04-30T16:15:35+00:00</time>
  </metadata>
  <trk>
    <name>Sjuhäradsleden, etapp 4 by Naturkartan</name>
    <trkseg>
      <trkpt lat="57.732249" lon="12.798726"/>
      <trkpt lat="57.732313" lon="12.799394"/>
      <trkpt lat="57.73231" lon="12.799686"/>
      <trkpt lat="57.732235" lon="12.800274"/>
      <trkpt lat="57.732075" lon="12.800899"/>
      <trkpt lat="57.731749" lon="12.801823"/>
      <trkpt lat="57.731419" lon="12.802661"/>
      <trkpt lat="57.731112" lon="12.803199"/>
      <trkpt lat="57.730769" lon="12.803998"/>
      <trkpt lat="57.730558" lon="12.804604"/>
      <trkpt lat="57.73052" lon="12.804787"/>
      <trkpt lat="57.730491" lon="12.805839"/>
      <trkpt lat="57.730491" lon="12.807262"/>
      <trkpt lat="57.729987" lon="12.807524"/>
      <trkpt lat="57.729679" lon="12.807524"/>
      <trkpt lat="57.729609" lon="12.808509"/>
      <trkpt lat="57.729489" lon="12.809972"/>
      <trkpt lat="57.729402" lon="12.810705"/>
      <trkpt lat="57.729286" lon="12.811123"/>
      <trkpt lat="57.729505" lon="12.811721"/>
      <trkpt lat="57.729551" lon="12.811928"/>
      <trkpt lat="57.729599" lon="12.812373"/>
      <trkpt lat="57.730341" lon="12.813583"/>
      <trkpt lat="57.730405" lon="12.813974"/>
      <trkpt lat="57.73044" lon="12.814266"/>
      <trkpt lat="57.730464" lon="12.814363"/>
      <trkpt lat="57.730479" lon="12.814544"/>
      <trkpt lat="57.730714" lon="12.815075"/>
      <trkpt lat="57.73099" lon="12.815388"/>
      <trkpt lat="57.731112" lon="12.815574"/>
      <trkpt lat="57.731412" lon="12.816"/>
      <trkpt lat="57.731428" lon="12.816467"/>
      <trkpt lat="57.731407" lon="12.817036"/>
      <trkpt lat="57.73154" lon="12.817604"/>
      <trkpt lat="57.731613" lon="12.817922"/>
      <trkpt lat="57.731773" lon="12.818262"/>
      <trkpt lat="57.731922" lon="12.818433"/>
      <trkpt lat="57.732113" lon="12.818766"/>
      <trkpt lat="57.731762" lon="12.819195"/>
      <trkpt lat="57.731531" lon="12.819475"/>
      <trkpt lat="57.731106" lon="12.820593"/>
      <trkpt lat="57.730551" lon="12.821404"/>
      <trkpt lat="57.730209" lon="12.821668"/>
      <trkpt lat="57.72999" lon="12.821818"/>
      <trkpt lat="57.729787" lon="12.82201"/>
      <trkpt lat="57.729632" lon="12.822103"/>
      <trkpt lat="57.729791" lon="12.822472"/>
      <trkpt lat="57.729987" lon="12.823229"/>
      <trkpt lat="57.730032" lon="12.823365"/>
      <trkpt lat="57.730294" lon="12.823598"/>
      <trkpt lat="57.730449" lon="12.823745"/>
      <trkpt lat="57.730647" lon="12.823996"/>
      <trkpt lat="57.730776" lon="12.824072"/>
      <trkpt lat="57.730819" lon="12.824138"/>
      <trkpt lat="57.730817" lon="12.824353"/>
      <trkpt lat="57.730768" lon="12.824608"/>
      <trkpt lat="57.730887" lon="12.825064"/>
      <trkpt lat="57.730866" lon="12.82542"/>
      <trkpt lat="57.730806" lon="12.825817"/>
      <trkpt lat="57.730694" lon="12.826279"/>
      <trkpt lat="57.730537" lon="12.826577"/>
      <trkpt lat="57.730425" lon="12.826914"/>
      <trkpt lat="57.730336" lon="12.827364"/>
      <trkpt lat="57.730308" lon="12.827632"/>
      <trkpt lat="57.730276" lon="12.827915"/>
      <trkpt lat="57.730246" lon="12.828413"/>
      <trkpt lat="57.730263" lon="12.828852"/>
      <trkpt lat="57.730244" lon="12.829076"/>
      <trkpt lat="57.73005" lon="12.829452"/>
      <trkpt lat="57.729869" lon="12.829634"/>
      <trkpt lat="57.729531" lon="12.830278"/>
      <trkpt lat="57.72951" lon="12.830588"/>
      <trkpt lat="57.729413" lon="12.83134"/>
      <trkpt lat="57.729426" lon="12.831682"/>
      <trkpt lat="57.729392" lon="12.831855"/>
      <trkpt lat="57.729404" lon="12.832276"/>
      <trkpt lat="57.729272" lon="12.832584"/>
      <trkpt lat="57.729135" lon="12.833277"/>
      <trkpt lat="57.729139" lon="12.833473"/>
      <trkpt lat="57.729209" lon="12.834056"/>
      <trkpt lat="57.728976" lon="12.834076"/>
      <trkpt lat="57.72886" lon="12.8342"/>
      <trkpt lat="57.728832" lon="12.834513"/>
      <trkpt lat="57.728849" lon="12.834878"/>
      <trkpt lat="57.728834" lon="12.83501"/>
      <trkpt lat="57.728723" lon="12.835308"/>
      <trkpt lat="57.728507" lon="12.836033"/>
      <trkpt lat="57.728449" lon="12.836289"/>
      <trkpt lat="57.728382" lon="12.836415"/>
      <trkpt lat="57.728242" lon="12.837127"/>
      <trkpt lat="57.728564" lon="12.837672"/>
      <trkpt lat="57.728838" lon="12.837874"/>
      <trkpt lat="57.729168" lon="12.83827"/>
      <trkpt lat="57.729438" lon="12.83866"/>
      <trkpt lat="57.729889" lon="12.83902"/>
      <trkpt lat="57.73023" lon="12.839324"/>
      <trkpt lat="57.730336" lon="12.839661"/>
      <trkpt lat="57.73033" lon="12.840011"/>
      <trkpt lat="57.730213" lon="12.84066"/>
      <trkpt lat="57.730425" lon="12.84143"/>
      <trkpt lat="57.730492" lon="12.841878"/>
      <trkpt lat="57.730602" lon="12.84218"/>
      <trkpt lat="57.730742" lon="12.842405"/>
      <trkpt lat="57.730908" lon="12.842618"/>
      <trkpt lat="57.731084" lon="12.842804"/>
      <trkpt lat="57.731284" lon="12.843909"/>
      <trkpt lat="57.73129" lon="12.844763"/>
      <trkpt lat="57.731236" lon="12.845044"/>
      <trkpt lat="57.731305" lon="12.84571"/>
      <trkpt lat="57.731386" lon="12.846727"/>
      <trkpt lat="57.73145" lon="12.847356"/>
      <trkpt lat="57.73148" lon="12.847768"/>
      <trkpt lat="57.731497" lon="12.848012"/>
      <trkpt lat="57.731494" lon="12.848168"/>
      <trkpt lat="57.731481" lon="12.848307"/>
      <trkpt lat="57.731464" lon="12.848481"/>
      <trkpt lat="57.731524" lon="12.848666"/>
      <trkpt lat="57.731601" lon="12.848694"/>
      <trkpt lat="57.731845" lon="12.848746"/>
      <trkpt lat="57.731975" lon="12.848724"/>
      <trkpt lat="57.73207" lon="12.848822"/>
      <trkpt lat="57.732202" lon="12.848874"/>
      <trkpt lat="57.73223" lon="12.848947"/>
      <trkpt lat="57.732718" lon="12.848919"/>
      <trkpt lat="57.732918" lon="12.849101"/>
      <trkpt lat="57.733256" lon="12.849591"/>
      <trkpt lat="57.7336" lon="12.849806"/>
      <trkpt lat="57.733778" lon="12.849996"/>
      <trkpt lat="57.733899" lon="12.849979"/>
      <trkpt lat="57.734103" lon="12.849731"/>
      <trkpt lat="57.734261" lon="12.849562"/>
      <trkpt lat="57.734414" lon="12.849486"/>
      <trkpt lat="57.734462" lon="12.849519"/>
      <trkpt lat="57.734555" lon="12.849643"/>
      <trkpt lat="57.73476" lon="12.850076"/>
      <trkpt lat="57.735059" lon="12.850578"/>
      <trkpt lat="57.735146" lon="12.851364"/>
      <trkpt lat="57.735153" lon="12.851499"/>
      <trkpt lat="57.735137" lon="12.852122"/>
      <trkpt lat="57.735173" lon="12.85228"/>
      <trkpt lat="57.735375" lon="12.852713"/>
      <trkpt lat="57.735467" lon="12.853154"/>
      <trkpt lat="57.735372" lon="12.853793"/>
      <trkpt lat="57.735316" lon="12.854219"/>
      <trkpt lat="57.735391" lon="12.854659"/>
      <trkpt lat="57.735631" lon="12.855252"/>
      <trkpt lat="57.735838" lon="12.85564"/>
      <trkpt lat="57.735983" lon="12.856192"/>
      <trkpt lat="57.736304" lon="12.857424"/>
      <trkpt lat="57.736461" lon="12.857729"/>
      <trkpt lat="57.736868" lon="12.85831"/>
      <trkpt lat="57.737196" lon="12.858759"/>
      <trkpt lat="57.737227" lon="12.858796"/>
      <trkpt lat="57.737321" lon="12.858736"/>
      <trkpt lat="57.737391" lon="12.858557"/>
      <trkpt lat="57.737486" lon="12.8583"/>
      <trkpt lat="57.737676" lon="12.857986"/>
      <trkpt lat="57.737795" lon="12.857644"/>
      <trkpt lat="57.737896" lon="12.85763"/>
      <trkpt lat="57.738064" lon="12.857613"/>
      <trkpt lat="57.738203" lon="12.857438"/>
      <trkpt lat="57.738267" lon="12.85723"/>
      <trkpt lat="57.738374" lon="12.857044"/>
      <trkpt lat="57.738489" lon="12.856854"/>
      <trkpt lat="57.738629" lon="12.856835"/>
      <trkpt lat="57.738818" lon="12.856908"/>
      <trkpt lat="57.73911" lon="12.856796"/>
      <trkpt lat="57.73936" lon="12.856787"/>
      <trkpt lat="57.739643" lon="12.856816"/>
      <trkpt lat="57.739895" lon="12.857369"/>
      <trkpt lat="57.740109" lon="12.857818"/>
      <trkpt lat="57.740231" lon="12.858209"/>
      <trkpt lat="57.740238" lon="12.858399"/>
      <trkpt lat="57.740268" lon="12.858509"/>
      <trkpt lat="57.740373" lon="12.858548"/>
      <trkpt lat="57.740568" lon="12.858916"/>
      <trkpt lat="57.740711" lon="12.859297"/>
      <trkpt lat="57.740653" lon="12.859487"/>
      <trkpt lat="57.740566" lon="12.859615"/>
      <trkpt lat="57.740507" lon="12.859754"/>
      <trkpt lat="57.740507" lon="12.860125"/>
      <trkpt lat="57.74051" lon="12.860556"/>
      <trkpt lat="57.740445" lon="12.860941"/>
      <trkpt lat="57.740386" lon="12.861184"/>
      <trkpt lat="57.740349" lon="12.861484"/>
      <trkpt lat="57.74034" lon="12.862094"/>
      <trkpt lat="57.740281" lon="12.862314"/>
      <trkpt lat="57.740185" lon="12.862555"/>
      <trkpt lat="57.740082" lon="12.862706"/>
      <trkpt lat="57.740072" lon="12.863255"/>
      <trkpt lat="57.73999" lon="12.863615"/>
      <trkpt lat="57.740007" lon="12.863938"/>
      <trkpt lat="57.740051" lon="12.864336"/>
      <trkpt lat="57.740054" lon="12.864702"/>
      <trkpt lat="57.740144" lon="12.865075"/>
      <trkpt lat="57.740132" lon="12.865473"/>
      <trkpt lat="57.740113" lon="12.865811"/>
      <trkpt lat="57.740108" lon="12.866109"/>
      <trkpt lat="57.740251" lon="12.866361"/>
      <trkpt lat="57.740563" lon="12.866522"/>
      <trkpt lat="57.740794" lon="12.866723"/>
      <trkpt lat="57.741242" lon="12.866821"/>
      <trkpt lat="57.741823" lon="12.86678"/>
      <trkpt lat="57.742515" lon="12.86669"/>
      <trkpt lat="57.74306" lon="12.866856"/>
      <trkpt lat="57.743622" lon="12.867252"/>
      <trkpt lat="57.743902" lon="12.867498"/>
      <trkpt lat="57.744053" lon="12.867981"/>
      <trkpt lat="57.744188" lon="12.868454"/>
      <trkpt lat="57.744302" lon="12.868788"/>
      <trkpt lat="57.744616" lon="12.869309"/>
      <trkpt lat="57.745003" lon="12.869396"/>
      <trkpt lat="57.74547" lon="12.869778"/>
      <trkpt lat="57.745784" lon="12.869994"/>
      <trkpt lat="57.746305" lon="12.87006"/>
      <trkpt lat="57.746991" lon="12.870051"/>
      <trkpt lat="57.747234" lon="12.870094"/>
      <trkpt lat="57.747653" lon="12.870407"/>
      <trkpt lat="57.747645" lon="12.870484"/>
      <trkpt lat="57.747521" lon="12.870704"/>
      <trkpt lat="57.747431" lon="12.871011"/>
      <trkpt lat="57.747521" lon="12.871479"/>
      <trkpt lat="57.747744" lon="12.87161"/>
      <trkpt lat="57.747961" lon="12.871703"/>
      <trkpt lat="57.748171" lon="12.872265"/>
      <trkpt lat="57.748201" lon="12.872607"/>
      <trkpt lat="57.748145" lon="12.872915"/>
      <trkpt lat="57.748048" lon="12.873422"/>
      <trkpt lat="57.748011" lon="12.873779"/>
      <trkpt lat="57.747675" lon="12.874888"/>
      <trkpt lat="57.747481" lon="12.875318"/>
      <trkpt lat="57.747389" lon="12.87536"/>
      <trkpt lat="57.747065" lon="12.876059"/>
      <trkpt lat="57.74698" lon="12.87643"/>
      <trkpt lat="57.747002" lon="12.877005"/>
      <trkpt lat="57.746987" lon="12.877243"/>
      <trkpt lat="57.746954" lon="12.877495"/>
      <trkpt lat="57.746897" lon="12.878029"/>
      <trkpt lat="57.746781" lon="12.878418"/>
      <trkpt lat="57.746696" lon="12.878639"/>
      <trkpt lat="57.746709" lon="12.879097"/>
      <trkpt lat="57.746729" lon="12.87923"/>
      <trkpt lat="57.746797" lon="12.879399"/>
      <trkpt lat="57.746795" lon="12.879614"/>
      <trkpt lat="57.746704" lon="12.879945"/>
      <trkpt lat="57.746501" lon="12.880591"/>
      <trkpt lat="57.746373" lon="12.881203"/>
      <trkpt lat="57.746156" lon="12.882033"/>
      <trkpt lat="57.746106" lon="12.8825"/>
      <trkpt lat="57.746122" lon="12.882621"/>
      <trkpt lat="57.745627" lon="12.883785"/>
      <trkpt lat="57.745977" lon="12.884407"/>
      <trkpt lat="57.746152" lon="12.884821"/>
      <trkpt lat="57.746036" lon="12.885139"/>
      <trkpt lat="57.745967" lon="12.88547"/>
      <trkpt lat="57.745844" lon="12.886112"/>
      <trkpt lat="57.745814" lon="12.886428"/>
      <trkpt lat="57.745904" lon="12.886805"/>
      <trkpt lat="57.746" lon="12.887198"/>
      <trkpt lat="57.746062" lon="12.887476"/>
      <trkpt lat="57.745744" lon="12.887776"/>
      <trkpt lat="57.745967" lon="12.888702"/>
      <trkpt lat="57.746041" lon="12.88896"/>
      <trkpt lat="57.746072" lon="12.889159"/>
      <trkpt lat="57.745969" lon="12.889874"/>
      <trkpt lat="57.745929" lon="12.8902"/>
      <trkpt lat="57.745918" lon="12.890328"/>
      <trkpt lat="57.745914" lon="12.890393"/>
      <trkpt lat="57.745943" lon="12.890404"/>
      <trkpt lat="57.745983" lon="12.890362"/>
      <trkpt lat="57.746206" lon="12.890003"/>
      <trkpt lat="57.746515" lon="12.889499"/>
      <trkpt lat="57.746878" lon="12.888928"/>
      <trkpt lat="57.747051" lon="12.888678"/>
      <trkpt lat="57.747192" lon="12.889019"/>
      <trkpt lat="57.747269" lon="12.889231"/>
      <trkpt lat="57.747385" lon="12.889884"/>
      <trkpt lat="57.747443" lon="12.890175"/>
      <trkpt lat="57.747469" lon="12.890215"/>
      <trkpt lat="57.747549" lon="12.890233"/>
      <trkpt lat="57.747687" lon="12.890114"/>
      <trkpt lat="57.74788" lon="12.8899"/>
      <trkpt lat="57.748191" lon="12.889474"/>
      <trkpt lat="57.748417" lon="12.88914"/>
      <trkpt lat="57.748547" lon="12.888987"/>
      <trkpt lat="57.748658" lon="12.888815"/>
      <trkpt lat="57.74879" lon="12.888655"/>
      <trkpt lat="57.748906" lon="12.888544"/>
      <trkpt lat="57.749026" lon="12.88848"/>
      <trkpt lat="57.749152" lon="12.888417"/>
      <trkpt lat="57.749388" lon="12.888177"/>
      <trkpt lat="57.749963" lon="12.887541"/>
      <trkpt lat="57.7503" lon="12.88709"/>
      <trkpt lat="57.750829" lon="12.887178"/>
      <trkpt lat="57.751122" lon="12.887375"/>
      <trkpt lat="57.751341" lon="12.887431"/>
      <trkpt lat="57.7513" lon="12.887674"/>
      <trkpt lat="57.751032" lon="12.88784"/>
      <trkpt lat="57.750841" lon="12.887957"/>
      <trkpt lat="57.750688" lon="12.888194"/>
      <trkpt lat="57.750661" lon="12.888305"/>
      <trkpt lat="57.750292" lon="12.888526"/>
      <trkpt lat="57.749971" lon="12.888951"/>
      <trkpt lat="57.749762" lon="12.888967"/>
      <trkpt lat="57.749555" lon="12.889249"/>
      <trkpt lat="57.749112" lon="12.889637"/>
      <trkpt lat="57.748529" lon="12.890242"/>
      <trkpt lat="57.748343" lon="12.890561"/>
      <trkpt lat="57.748097" lon="12.890723"/>
      <trkpt lat="57.747646" lon="12.89145"/>
      <trkpt lat="57.747522" lon="12.891859"/>
      <trkpt lat="57.747366" lon="12.892193"/>
      <trkpt lat="57.747291" lon="12.892523"/>
      <trkpt lat="57.747337" lon="12.892965"/>
      <trkpt lat="57.747517" lon="12.893468"/>
      <trkpt lat="57.747854" lon="12.894126"/>
      <trkpt lat="57.748073" lon="12.894834"/>
      <trkpt lat="57.748169" lon="12.894991"/>
      <trkpt lat="57.748635" lon="12.895373"/>
      <trkpt lat="57.74884" lon="12.895819"/>
      <trkpt lat="57.749057" lon="12.896116"/>
      <trkpt lat="57.749257" lon="12.896509"/>
      <trkpt lat="57.749265" lon="12.897002"/>
      <trkpt lat="57.74939" lon="12.897385"/>
      <trkpt lat="57.749818" lon="12.898302"/>
      <trkpt lat="57.749951" lon="12.898697"/>
      <trkpt lat="57.750167" lon="12.898893"/>
      <trkpt lat="57.750723" lon="12.899205"/>
      <trkpt lat="57.751033" lon="12.899669"/>
      <trkpt lat="57.751139" lon="12.900014"/>
      <trkpt lat="57.751336" lon="12.900352"/>
      <trkpt lat="57.7515" lon="12.900251"/>
      <trkpt lat="57.751753" lon="12.900292"/>
      <trkpt lat="57.752038" lon="12.900021"/>
      <trkpt lat="57.752283" lon="12.900494"/>
      <trkpt lat="57.752644" lon="12.901552"/>
      <trkpt lat="57.752902" lon="12.901773"/>
      <trkpt lat="57.752727" lon="12.902172"/>
      <trkpt lat="57.752417" lon="12.902472"/>
      <trkpt lat="57.751908" lon="12.902997"/>
      <trkpt lat="57.751161" lon="12.903074"/>
      <trkpt lat="57.750751" lon="12.903417"/>
      <trkpt lat="57.75022" lon="12.903446"/>
      <trkpt lat="57.750117" lon="12.903432"/>
      <trkpt lat="57.749985" lon="12.903783"/>
      <trkpt lat="57.749961" lon="12.904035"/>
      <trkpt lat="57.750356" lon="12.904262"/>
      <trkpt lat="57.750501" lon="12.904415"/>
      <trkpt lat="57.750494" lon="12.904704"/>
      <trkpt lat="57.750516" lon="12.904926"/>
      <trkpt lat="57.750416" lon="12.905764"/>
      <trkpt lat="57.750364" lon="12.905926"/>
      <trkpt lat="57.750302" lon="12.905994"/>
      <trkpt lat="57.750403" lon="12.906768"/>
      <trkpt lat="57.750059" lon="12.907351"/>
      <trkpt lat="57.74963" lon="12.907524"/>
      <trkpt lat="57.749417" lon="12.907764"/>
      <trkpt lat="57.749063" lon="12.907959"/>
      <trkpt lat="57.748945" lon="12.908064"/>
      <trkpt lat="57.748557" lon="12.907991"/>
      <trkpt lat="57.74845" lon="12.907932"/>
      <trkpt lat="57.748087" lon="12.908237"/>
      <trkpt lat="57.747774" lon="12.908479"/>
      <trkpt lat="57.747482" lon="12.908487"/>
      <trkpt lat="57.747334" lon="12.908433"/>
      <trkpt lat="57.74697" lon="12.908582"/>
      <trkpt lat="57.746935" lon="12.908432"/>
      <trkpt lat="57.746753" lon="12.908221"/>
      <trkpt lat="57.746702" lon="12.907861"/>
      <trkpt lat="57.74649" lon="12.90781"/>
      <trkpt lat="57.746399" lon="12.907844"/>
      <trkpt lat="57.746289" lon="12.908295"/>
      <trkpt lat="57.74592" lon="12.908956"/>
      <trkpt lat="57.745768" lon="12.909232"/>
      <trkpt lat="57.74554" lon="12.90936"/>
      <trkpt lat="57.745195" lon="12.909056"/>
      <trkpt lat="57.744975" lon="12.909152"/>
      <trkpt lat="57.744601" lon="12.909591"/>
      <trkpt lat="57.744448" lon="12.909781"/>
      <trkpt lat="57.744275" lon="12.909957"/>
      <trkpt lat="57.743929" lon="12.910047"/>
      <trkpt lat="57.743321" lon="12.911105"/>
      <trkpt lat="57.743086" lon="12.91129"/>
      <trkpt lat="57.742948" lon="12.91119"/>
      <trkpt lat="57.742539" lon="12.910214"/>
      <trkpt lat="57.742275" lon="12.909516"/>
      <trkpt lat="57.741874" lon="12.910037"/>
      <trkpt lat="57.742075" lon="12.910457"/>
      <trkpt lat="57.742151" lon="12.910618"/>
      <trkpt lat="57.742169" lon="12.911159"/>
      <trkpt lat="57.742235" lon="12.911412"/>
      <trkpt lat="57.742566" lon="12.912239"/>
      <trkpt lat="57.743063" lon="12.913325"/>
      <trkpt lat="57.743242" lon="12.913721"/>
      <trkpt lat="57.743711" lon="12.914217"/>
      <trkpt lat="57.744258" lon="12.915165"/>
      <trkpt lat="57.744259" lon="12.916548"/>
      <trkpt lat="57.744222" lon="12.917162"/>
      <trkpt lat="57.744215" lon="12.91802"/>
      <trkpt lat="57.744217" lon="12.918357"/>
      <trkpt lat="57.744355" lon="12.918497"/>
      <trkpt lat="57.744437" lon="12.918717"/>
      <trkpt lat="57.744589" lon="12.91889"/>
      <trkpt lat="57.744811" lon="12.919167"/>
      <trkpt lat="57.745043" lon="12.919333"/>
      <trkpt lat="57.745237" lon="12.919462"/>
      <trkpt lat="57.745424" lon="12.919673"/>
      <trkpt lat="57.745565" lon="12.919843"/>
      <trkpt lat="57.745703" lon="12.919868"/>
      <trkpt lat="57.745882" lon="12.919829"/>
      <trkpt lat="57.746235" lon="12.91979"/>
      <trkpt lat="57.746663" lon="12.919666"/>
      <trkpt lat="57.746724" lon="12.919696"/>
      <trkpt lat="57.746743" lon="12.919824"/>
      <trkpt lat="57.746777" lon="12.920016"/>
      <trkpt lat="57.746804" lon="12.920199"/>
      <trkpt lat="57.746806" lon="12.920277"/>
    </trkseg>
  </trk>
</gpx>
