<?xml version="1.0" encoding="UTF-8"?>
<gpx xmlns="http://www.topografix.com/GPX/1/1" xmlns:xsi="http://www.w3.org/2001/XMLSchema-instance" version="1.1" creator="GPX RubyGem 1.0.0 -- http://dougfales.github.io/gpx/" xsi:schemaLocation="http://www.topografix.com/GPX/1/1 http://www.topografix.com/GPX/1/1/gpx.xsd">
  <metadata>
    <name>Sjuhäradsleden, etapp 9 by Naturkartan</name>
    <time>2026-04-30T16:07:50+00:00</time>
  </metadata>
  <trk>
    <name>Sjuhäradsleden, etapp 9 by Naturkartan</name>
    <trkseg>
      <trkpt lat="57.8825367" lon="13.515455"/>
      <trkpt lat="57.8822933" lon="13.5163471"/>
      <trkpt lat="57.8821167" lon="13.5166421"/>
      <trkpt lat="57.8819046" lon="13.5169597"/>
      <trkpt lat="57.8816232" lon="13.5172692"/>
      <trkpt lat="57.8812075" lon="13.5176275"/>
      <trkpt lat="57.8806177" lon="13.5182993"/>
      <trkpt lat="57.8803795" lon="13.5186186"/>
      <trkpt lat="57.8798436" lon="13.519338"/>
      <trkpt lat="57.8794863" lon="13.5198569"/>
      <trkpt lat="57.8793025" lon="13.5201763"/>
      <trkpt lat="57.8790645" lon="13.5205864"/>
      <trkpt lat="57.8788879" lon="13.520821"/>
      <trkpt lat="57.8786004" lon="13.5210881"/>
      <trkpt lat="57.8784306" lon="13.5212705"/>
      <trkpt lat="57.8782609" lon="13.521505"/>
      <trkpt lat="57.8780115" lon="13.5221565"/>
      <trkpt lat="57.8778729" lon="13.5224952"/>
      <trkpt lat="57.8777101" lon="13.5228861"/>
      <trkpt lat="57.8776131" lon="13.5231923"/>
      <trkpt lat="57.8775612" lon="13.5235571"/>
      <trkpt lat="57.8775092" lon="13.5239936"/>
      <trkpt lat="57.8774122" lon="13.5244887"/>
      <trkpt lat="57.8772875" lon="13.524847"/>
      <trkpt lat="57.8771455" lon="13.5252314"/>
      <trkpt lat="57.8770312" lon="13.5255636"/>
      <trkpt lat="57.8769099" lon="13.5265148"/>
      <trkpt lat="57.8769203" lon="13.5268861"/>
      <trkpt lat="57.8770173" lon="13.52729"/>
      <trkpt lat="57.8774018" lon="13.5286646"/>
      <trkpt lat="57.8774746" lon="13.5289904"/>
      <trkpt lat="57.8774919" lon="13.5293096"/>
      <trkpt lat="57.8774642" lon="13.5295376"/>
      <trkpt lat="57.877381" lon="13.5298242"/>
      <trkpt lat="57.8772667" lon="13.5300197"/>
      <trkpt lat="57.8770558" lon="13.5303274"/>
      <trkpt lat="57.8770277" lon="13.5305018"/>
      <trkpt lat="57.8769203" lon="13.531935"/>
      <trkpt lat="57.8769307" lon="13.5321956"/>
      <trkpt lat="57.8769584" lon="13.5325604"/>
      <trkpt lat="57.8770901" lon="13.5331141"/>
      <trkpt lat="57.8772771" lon="13.533948"/>
      <trkpt lat="57.8774107" lon="13.5345996"/>
      <trkpt lat="57.8774468" lon="13.5347754"/>
      <trkpt lat="57.8775159" lon="13.5349375"/>
      <trkpt lat="57.8776039" lon="13.5350543"/>
      <trkpt lat="57.877622" lon="13.5351907"/>
      <trkpt lat="57.8776512" lon="13.5354659"/>
      <trkpt lat="57.8776789" lon="13.5358894"/>
      <trkpt lat="57.8776408" lon="13.5362151"/>
      <trkpt lat="57.8775542" lon="13.5365148"/>
      <trkpt lat="57.8774191" lon="13.5367493"/>
      <trkpt lat="57.8772993" lon="13.5369024"/>
      <trkpt lat="57.8771455" lon="13.5371207"/>
      <trkpt lat="57.8769168" lon="13.5375246"/>
      <trkpt lat="57.8765912" lon="13.5381956"/>
      <trkpt lat="57.8762725" lon="13.5386842"/>
      <trkpt lat="57.8758603" lon="13.5393226"/>
      <trkpt lat="57.8754173" lon="13.5400792"/>
      <trkpt lat="57.8739464" lon="13.5428166"/>
      <trkpt lat="57.8733266" lon="13.5439855"/>
      <trkpt lat="57.8730559" lon="13.5443545"/>
      <trkpt lat="57.8728191" lon="13.5445072"/>
      <trkpt lat="57.8726093" lon="13.5446344"/>
      <trkpt lat="57.8724063" lon="13.5448889"/>
      <trkpt lat="57.8720747" lon="13.5456269"/>
      <trkpt lat="57.8718514" lon="13.5460086"/>
      <trkpt lat="57.871662" lon="13.5461485"/>
      <trkpt lat="57.8714522" lon="13.5461231"/>
      <trkpt lat="57.8710732" lon="13.5459831"/>
      <trkpt lat="57.8708026" lon="13.5458559"/>
      <trkpt lat="57.8705183" lon="13.5457414"/>
      <trkpt lat="57.8701056" lon="13.5454996"/>
      <trkpt lat="57.8698349" lon="13.5453597"/>
      <trkpt lat="57.8696454" lon="13.5453851"/>
      <trkpt lat="57.8694897" lon="13.5454996"/>
      <trkpt lat="57.8693544" lon="13.5456905"/>
      <trkpt lat="57.86928" lon="13.5460213"/>
      <trkpt lat="57.8692664" lon="13.5464412"/>
      <trkpt lat="57.8692055" lon="13.5467593"/>
      <trkpt lat="57.8690702" lon="13.547001"/>
      <trkpt lat="57.8688265" lon="13.5471919"/>
      <trkpt lat="57.8684949" lon="13.5473828"/>
      <trkpt lat="57.8682716" lon="13.5475609"/>
      <trkpt lat="57.8680348" lon="13.5477263"/>
      <trkpt lat="57.8677776" lon="13.5479553"/>
      <trkpt lat="57.8675543" lon="13.5483498"/>
      <trkpt lat="57.8673512" lon="13.5488206"/>
      <trkpt lat="57.8671211" lon="13.5491132"/>
      <trkpt lat="57.866776" lon="13.5495331"/>
      <trkpt lat="57.8666542" lon="13.5497367"/>
      <trkpt lat="57.8664985" lon="13.550182"/>
      <trkpt lat="57.8663022" lon="13.5509836"/>
      <trkpt lat="57.8662278" lon="13.5512636"/>
      <trkpt lat="57.8661398" lon="13.551429"/>
      <trkpt lat="57.8658691" lon="13.5515944"/>
      <trkpt lat="57.8655984" lon="13.5518361"/>
      <trkpt lat="57.8654021" lon="13.5520525"/>
      <trkpt lat="57.8652058" lon="13.5524214"/>
      <trkpt lat="57.8650917" lon="13.5530651"/>
      <trkpt lat="57.8649425" lon="13.5536397"/>
      <trkpt lat="57.8647889" lon="13.5538643"/>
      <trkpt lat="57.8645702" lon="13.5542134"/>
      <trkpt lat="57.8644274" lon="13.5543785"/>
      <trkpt lat="57.8642759" lon="13.5544585"/>
      <trkpt lat="57.8640516" lon="13.5545125"/>
      <trkpt lat="57.863774" lon="13.5545538"/>
      <trkpt lat="57.8635316" lon="13.5545281"/>
      <trkpt lat="57.8632512" lon="13.5544547"/>
      <trkpt lat="57.8629804" lon="13.5542715"/>
      <trkpt lat="57.862688" lon="13.5539661"/>
      <trkpt lat="57.8623753" lon="13.5535752"/>
      <trkpt lat="57.862295" lon="13.5538436"/>
      <trkpt lat="57.8622194" lon="13.554565"/>
      <trkpt lat="57.8622279" lon="13.5549835"/>
      <trkpt lat="57.8622538" lon="13.5554901"/>
      <trkpt lat="57.8622507" lon="13.5558283"/>
      <trkpt lat="57.8622022" lon="13.5563326"/>
      <trkpt lat="57.8621895" lon="13.5566542"/>
      <trkpt lat="57.8622179" lon="13.5569334"/>
      <trkpt lat="57.8622794" lon="13.5572872"/>
      <trkpt lat="57.8623564" lon="13.5575772"/>
      <trkpt lat="57.8624749" lon="13.5578209"/>
      <trkpt lat="57.8627473" lon="13.5583147"/>
      <trkpt lat="57.8628659" lon="13.5586363"/>
      <trkpt lat="57.8629443" lon="13.5590494"/>
      <trkpt lat="57.862987" lon="13.5594949"/>
      <trkpt lat="57.8629941" lon="13.5600341"/>
      <trkpt lat="57.8629286" lon="13.5605326"/>
      <trkpt lat="57.8628286" lon="13.561166"/>
      <trkpt lat="57.8628116" lon="13.5616216"/>
      <trkpt lat="57.8628372" lon="13.5621476"/>
      <trkpt lat="57.8629101" lon="13.5627294"/>
      <trkpt lat="57.863027" lon="13.5632018"/>
      <trkpt lat="57.8632953" lon="13.5637432"/>
      <trkpt lat="57.8634522" lon="13.564119"/>
      <trkpt lat="57.8637674" lon="13.5651356"/>
      <trkpt lat="57.8639802" lon="13.5658407"/>
      <trkpt lat="57.8641284" lon="13.566474"/>
      <trkpt lat="57.8641883" lon="13.5673753"/>
      <trkpt lat="57.8641457" lon="13.5678148"/>
      <trkpt lat="57.8640471" lon="13.5682738"/>
      <trkpt lat="57.8638573" lon="13.5688183"/>
      <trkpt lat="57.8632396" lon="13.5703391"/>
      <trkpt lat="57.863087" lon="13.5707706"/>
      <trkpt lat="57.8629813" lon="13.5711679"/>
      <trkpt lat="57.8625761" lon="13.5728148"/>
      <trkpt lat="57.8624164" lon="13.5732275"/>
      <trkpt lat="57.8622622" lon="13.5735122"/>
      <trkpt lat="57.8620083" lon="13.5738659"/>
      <trkpt lat="57.8615288" lon="13.5744885"/>
      <trkpt lat="57.8614233" lon="13.5746598"/>
      <trkpt lat="57.8613162" lon="13.5749471"/>
      <trkpt lat="57.8611696" lon="13.5756094"/>
      <trkpt lat="57.8610636" lon="13.5763875"/>
      <trkpt lat="57.8608867" lon="13.5775033"/>
      <trkpt lat="57.8608596" lon="13.5779727"/>
      <trkpt lat="57.860904" lon="13.578313"/>
      <trkpt lat="57.8610034" lon="13.5788557"/>
      <trkpt lat="57.8610348" lon="13.5792473"/>
      <trkpt lat="57.861078" lon="13.5800081"/>
      <trkpt lat="57.8611461" lon="13.5804167"/>
      <trkpt lat="57.8613201" lon="13.5811248"/>
      <trkpt lat="57.8614034" lon="13.5816872"/>
      <trkpt lat="57.8614172" lon="13.5821495"/>
      <trkpt lat="57.8613773" lon="13.5828146"/>
      <trkpt lat="57.8611718" lon="13.5844454"/>
      <trkpt lat="57.861012" lon="13.5864839"/>
      <trkpt lat="57.861012" lon="13.587149"/>
      <trkpt lat="57.8612289" lon="13.5893592"/>
      <trkpt lat="57.8617605" lon="13.5893951"/>
      <trkpt lat="57.8624568" lon="13.5896097"/>
      <trkpt lat="57.8627935" lon="13.589717"/>
      <trkpt lat="57.8631759" lon="13.5900174"/>
      <trkpt lat="57.8635265" lon="13.5901523"/>
      <trkpt lat="57.8642945" lon="13.5903822"/>
      <trkpt lat="57.864634" lon="13.5905753"/>
      <trkpt lat="57.8651615" lon="13.5909355"/>
      <trkpt lat="57.8655842" lon="13.5913263"/>
      <trkpt lat="57.8657721" lon="13.5914504"/>
      <trkpt lat="57.8662747" lon="13.5916107"/>
      <trkpt lat="57.866794" lon="13.5919915"/>
      <trkpt lat="57.8672016" lon="13.5923839"/>
      <trkpt lat="57.8672591" lon="13.5924636"/>
      <trkpt lat="57.8673186" lon="13.5926038"/>
      <trkpt lat="57.8674446" lon="13.5931985"/>
      <trkpt lat="57.8675354" lon="13.5934782"/>
      <trkpt lat="57.8676899" lon="13.5937135"/>
      <trkpt lat="57.8685288" lon="13.5948668"/>
      <trkpt lat="57.8688141" lon="13.595296"/>
      <trkpt lat="57.8689535" lon="13.5956347"/>
      <trkpt lat="57.8690195" lon="13.5958539"/>
      <trkpt lat="57.8691393" lon="13.5962938"/>
      <trkpt lat="57.8692445" lon="13.5968524"/>
      <trkpt lat="57.8694418" lon="13.598815"/>
      <trkpt lat="57.8695216" lon="13.5994588"/>
      <trkpt lat="57.869533" lon="13.5998236"/>
      <trkpt lat="57.8694556" lon="13.6004251"/>
      <trkpt lat="57.8694418" lon="13.6007462"/>
      <trkpt lat="57.8694585" lon="13.6009294"/>
      <trkpt lat="57.8695558" lon="13.6012988"/>
      <trkpt lat="57.8696129" lon="13.6016474"/>
      <trkpt lat="57.8696211" lon="13.601954"/>
      <trkpt lat="57.869604" lon="13.6028069"/>
      <trkpt lat="57.8696272" lon="13.6030583"/>
      <trkpt lat="57.8696924" lon="13.6032146"/>
      <trkpt lat="57.8698436" lon="13.6034667"/>
      <trkpt lat="57.8702459" lon="13.6040246"/>
      <trkpt lat="57.8704232" lon="13.6043082"/>
      <trkpt lat="57.8706514" lon="13.6048768"/>
      <trkpt lat="57.8708136" lon="13.6053416"/>
      <trkpt lat="57.8709306" lon="13.605693"/>
      <trkpt lat="57.8710338" lon="13.6059041"/>
      <trkpt lat="57.871126" lon="13.6060175"/>
      <trkpt lat="57.8712462" lon="13.6061106"/>
      <trkpt lat="57.8713628" lon="13.6061221"/>
      <trkpt lat="57.8715269" lon="13.6060443"/>
      <trkpt lat="57.8716581" lon="13.6059156"/>
      <trkpt lat="57.8717626" lon="13.6058424"/>
      <trkpt lat="57.8719177" lon="13.605811"/>
      <trkpt lat="57.8722273" lon="13.6057654"/>
      <trkpt lat="57.8726652" lon="13.605811"/>
      <trkpt lat="57.8728182" lon="13.6057968"/>
      <trkpt lat="57.8731558" lon="13.605693"/>
      <trkpt lat="57.8733527" lon="13.6056635"/>
      <trkpt lat="57.8735499" lon="13.60566"/>
      <trkpt lat="57.874237" lon="13.6057386"/>
      <trkpt lat="57.874343" lon="13.6057861"/>
      <trkpt lat="57.8744781" lon="13.6059102"/>
      <trkpt lat="57.8746649" lon="13.6061221"/>
      <trkpt lat="57.874876" lon="13.6063018"/>
      <trkpt lat="57.8750886" lon="13.6065325"/>
      <trkpt lat="57.8751988" lon="13.6067195"/>
      <trkpt lat="57.8757294" lon="13.6079346"/>
      <trkpt lat="57.8765965" lon="13.6098657"/>
      <trkpt lat="57.8767416" lon="13.6101106"/>
      <trkpt lat="57.8768942" lon="13.610293"/>
      <trkpt lat="57.8770397" lon="13.6104217"/>
      <trkpt lat="57.8776235" lon="13.6108796"/>
      <trkpt lat="57.8780994" lon="13.6112478"/>
      <trkpt lat="57.8783522" lon="13.6114778"/>
      <trkpt lat="57.8796728" lon="13.6130308"/>
      <trkpt lat="57.8793059" lon="13.613863"/>
      <trkpt lat="57.8789123" lon="13.6146462"/>
      <trkpt lat="57.8784645" lon="13.6155528"/>
      <trkpt lat="57.8782225" lon="13.6161367"/>
      <trkpt lat="57.8781564" lon="13.6163568"/>
      <trkpt lat="57.8781707" lon="13.6165237"/>
      <trkpt lat="57.878339" lon="13.6171675"/>
      <trkpt lat="57.8784844" lon="13.6176825"/>
      <trkpt lat="57.8785903" lon="13.6179552"/>
      <trkpt lat="57.878744" lon="13.6181921"/>
      <trkpt lat="57.8791318" lon="13.6186587"/>
      <trkpt lat="57.8792146" lon="13.6188036"/>
      <trkpt lat="57.8792745" lon="13.6190603"/>
      <trkpt lat="57.8793007" lon="13.6197718"/>
      <trkpt lat="57.8793189" lon="13.6203748"/>
      <trkpt lat="57.8792802" lon="13.6207482"/>
      <trkpt lat="57.8791823" lon="13.6213312"/>
      <trkpt lat="57.8791419" lon="13.6216092"/>
      <trkpt lat="57.8790903" lon="13.6220779"/>
      <trkpt lat="57.8790478" lon="13.6223495"/>
      <trkpt lat="57.8789513" lon="13.6227656"/>
      <trkpt lat="57.8788338" lon="13.6231327"/>
      <trkpt lat="57.878714" lon="13.6233795"/>
      <trkpt lat="57.8785879" lon="13.6235687"/>
      <trkpt lat="57.8785286" lon="13.623696"/>
      <trkpt lat="57.8784887" lon="13.6239132"/>
      <trkpt lat="57.8784461" lon="13.6242507"/>
      <trkpt lat="57.8784545" lon="13.6245838"/>
      <trkpt lat="57.8785274" lon="13.6253829"/>
      <trkpt lat="57.8785543" lon="13.6257505"/>
      <trkpt lat="57.8785549" lon="13.626145"/>
      <trkpt lat="57.8784919" lon="13.6268734"/>
      <trkpt lat="57.8789371" lon="13.6271695"/>
      <trkpt lat="57.8797325" lon="13.6273924"/>
      <trkpt lat="57.879922" lon="13.6274725"/>
      <trkpt lat="57.8800992" lon="13.6276547"/>
      <trkpt lat="57.8802443" lon="13.6278909"/>
      <trkpt lat="57.88039" lon="13.62826"/>
      <trkpt lat="57.8806321" lon="13.6289212"/>
      <trkpt lat="57.8808069" lon="13.6296642"/>
      <trkpt lat="57.8811232" lon="13.6307585"/>
      <trkpt lat="57.8812882" lon="13.6311096"/>
      <trkpt lat="57.8814423" lon="13.6313379"/>
      <trkpt lat="57.8819335" lon="13.6319414"/>
      <trkpt lat="57.882073" lon="13.6322285"/>
      <trkpt lat="57.8821688" lon="13.632546"/>
      <trkpt lat="57.8822763" lon="13.6336071"/>
      <trkpt lat="57.8823349" lon="13.6341351"/>
      <trkpt lat="57.8824363" lon="13.6347738"/>
      <trkpt lat="57.8825402" lon="13.6351758"/>
      <trkpt lat="57.8828487" lon="13.6357582"/>
      <trkpt lat="57.8838155" lon="13.6370697"/>
      <trkpt lat="57.8843569" lon="13.6376971"/>
      <trkpt lat="57.884714" lon="13.6380722"/>
      <trkpt lat="57.8849787" lon="13.6383945"/>
      <trkpt lat="57.8852068" lon="13.6387968"/>
      <trkpt lat="57.8853608" lon="13.6391401"/>
      <trkpt lat="57.8854131" lon="13.6393299"/>
      <trkpt lat="57.8854629" lon="13.6395107"/>
      <trkpt lat="57.8854749" lon="13.6398107"/>
      <trkpt lat="57.8854406" lon="13.6403686"/>
      <trkpt lat="57.8853836" lon="13.6411196"/>
      <trkpt lat="57.8853779" lon="13.6417419"/>
      <trkpt lat="57.8854073" lon="13.6423378"/>
      <trkpt lat="57.8855433" lon="13.6434692"/>
      <trkpt lat="57.8855718" lon="13.6440164"/>
      <trkpt lat="57.8855757" lon="13.6445129"/>
      <trkpt lat="57.8855527" lon="13.6468595"/>
      <trkpt lat="57.8855618" lon="13.6470231"/>
      <trkpt lat="57.8855858" lon="13.6471716"/>
    </trkseg>
  </trk>
</gpx>
