{"type":"FeatureCollection","features":[{"type":"Feature","id":"PS.ProtectedSites.NVO.15758797","geometry":{"type":"Polygon","coordinates":[[[12.18922484,57.17272373],[12.18922714,57.17272547],[12.19900346,57.16891693],[12.19900627,57.16891584],[12.1990063,57.16891582],[12.19689215,57.1626138],[12.19489193,57.15664919],[12.19414644,57.15617475],[12.18703553,57.15179254],[12.18402823,57.14989483],[12.1888905,57.14231713],[12.18889043,57.14231711],[12.18593046,57.14138576],[12.17083773,57.13665469],[12.16886961,57.13603752],[12.16579592,57.13507357],[12.1498655,57.12989064],[12.14986542,57.12989061],[12.14856317,57.12988443],[12.14824074,57.12985344],[12.14541234,57.1295084],[12.14182555,57.12911235],[12.14013272,57.12888495],[12.13416022,57.13246755],[12.12589301,57.13732522],[12.11649648,57.14287447],[12.10798588,57.14780116],[12.10229138,57.15108855],[12.10142062,57.15164344],[12.10133356,57.15171996],[12.13413912,57.17721092],[12.13494683,57.17785832],[12.14999721,57.1784579],[12.15510932,57.17865354],[12.15546502,57.1786549],[12.15682878,57.17856785],[12.16153553,57.17837756],[12.16535691,57.17822162],[12.16655889,57.17816574],[12.16671948,57.17816501],[12.17680667,57.17572452],[12.18681675,57.17331699],[12.18922484,57.17272373]]]},"geometry_name":"geom","properties":{"nvrid":"2002578","gtype":"Polygon","namn":"Balgö","skyddstyp":"Naturvårdsområde","skyddstyp_kod":"NVO","beslutsstatus":"Gällande","beslutsmyndighet":"Länsstyrelse","urspr_beslutsdatum":"19881216","urspr_gallandedatum":"19890107","senaste_gallandedatum":"19890107","ikrafttradandedatum_foreskrift":null,"tillsynsmyndighet":null,"provningsmyndighet_tillstand":" ","provningsmyndighet_dispens":" ","lan":"Hallands Län","kommun":"Varberg","iucnkategori":"V, Skyddat landskap/havsområde (Protected Landscape/Seascape)","forvaltare":"Länsstyrelsen i Hallands län","data_friluftsliv_publicerat":"Ja","area_ha":2143.35,"land_ha":202.71,"skog_ha":0.46,"vatten_ha":1940.64}},{"type":"Feature","id":"PS.ProtectedSites.NVO.15758950","geometry":{"type":"Polygon","coordinates":[[[11.96209708,57.38669066],[11.96220461,57.38585986],[11.96222187,57.38554763],[11.96071861,57.38539292],[11.95825571,57.38594583],[11.95795474,57.38568945],[11.95836123,57.38517791],[11.95784153,57.38475396],[11.95798109,57.38466115],[11.95715892,57.38436008],[11.95598263,57.38389716],[11.95450029,57.38313184],[11.95447643,57.38262084],[11.95448346,57.38262155],[11.95985979,57.38316779],[11.95992863,57.38317478],[11.96081831,57.38239843],[11.96081836,57.3823984],[11.96130278,57.38203235],[11.96226405,57.38131178],[11.96231594,57.38127091],[11.96173991,57.38101174],[11.96213953,57.38072565],[11.96383613,57.37939597],[11.96486988,57.37858572],[11.96703939,57.37685532],[11.96631141,57.37670458],[11.963395,57.37738907],[11.96339502,57.37738911],[11.96346949,57.37752645],[11.96315984,57.37771602],[11.96305496,57.37775357],[11.96255521,57.37791045],[11.96190899,57.37772139],[11.96153296,57.37761074],[11.96071283,57.37736368],[11.96013773,57.37719176],[11.96046778,57.37687121],[11.96046781,57.37687118],[11.96002485,57.37651808],[11.96002088,57.37651492],[11.9600205,57.37651488],[11.96058319,57.37615575],[11.96058324,57.37615572],[11.96062888,57.3761292],[11.96062893,57.37612916],[11.96083074,57.37600586],[11.9609434,57.37579511],[11.96167483,57.37564284],[11.96264543,57.37543926],[11.96486078,57.37497635],[11.96505511,57.37493935],[11.96505518,57.37493934],[11.9661117,57.37472723],[11.96683289,57.37457839],[11.96683108,57.37457798],[11.9668276,57.37457721],[11.96682513,57.37457711],[11.96415602,57.37447889],[11.96415592,57.37447886],[11.9623586,57.3743896],[11.96224886,57.37386982],[11.96224885,57.37386978],[11.96143313,57.37366975],[11.96102204,57.37356893],[11.96093389,57.37354731],[11.96060929,57.37340946],[11.96033446,57.3731178],[11.95923913,57.37230798],[11.95923904,57.37230799],[11.95919281,57.37231539],[11.95908981,57.37233079],[11.95849681,57.37242093],[11.95800117,57.37249589],[11.95773443,57.37203949],[11.95770002,57.37197411],[11.95747378,57.37158998],[11.95695029,57.37167827],[11.95656121,57.37174449],[11.95615535,57.37181313],[11.95571306,57.37188815],[11.95558728,57.37190946],[11.95478013,57.37204949],[11.95464561,57.3717552],[11.95449838,57.37167227],[11.95449832,57.37167224],[11.95417394,57.37146544],[11.95408008,57.37140235],[11.95397498,57.37117454],[11.95385024,57.37091505],[11.9537328,57.37060888],[11.95510565,57.37037186],[11.95499746,57.37016707],[11.95494201,57.37007252],[11.9548866,57.36997803],[11.95488658,57.36997798],[11.9545426,57.36967974],[11.95472048,57.36965017],[11.95623668,57.36939811],[11.95543801,57.36798716],[11.95500294,57.36722884],[11.95491063,57.36724288],[11.95452006,57.36730811],[11.95414078,57.36737185],[11.95375731,57.36743426],[11.95337717,57.36749683],[11.95286778,57.36758081],[11.95233715,57.36766759],[11.95181134,57.36775416],[11.95160867,57.36738846],[11.9515756,57.36732413],[11.95157557,57.36732408],[11.9515262,57.36723805],[11.95132221,57.36686581],[11.9517816,57.36679278],[11.9522289,57.36672215],[11.95273241,57.36664233],[11.95326023,57.36655925],[11.95368335,57.3664925],[11.95368294,57.36649194],[11.95368158,57.36648998],[11.95327376,57.36590368],[11.95290755,57.36546035],[11.95279807,57.36532783],[11.95375324,57.36516745],[11.95392264,57.36532582],[11.95402199,57.36551145],[11.95449934,57.3654306],[11.95505059,57.36533849],[11.95538147,57.36528245],[11.95615629,57.36516404],[11.95655561,57.36559515],[11.95666495,57.36571518],[11.95689253,57.36596309],[11.95705735,57.36661622],[11.95705737,57.36661626],[11.95714036,57.36687341],[11.95722597,57.36712682],[11.96116759,57.3668126],[11.96116768,57.36681259],[11.96156106,57.36676278],[11.96193035,57.36671649],[11.96230451,57.36666497],[11.96267625,57.36661678],[11.96304732,57.3665686],[11.96341972,57.36652022],[11.96379261,57.36647193],[11.96403899,57.36643994],[11.96451728,57.36639746],[11.96590697,57.36753009],[11.96812472,57.36661308],[11.96810566,57.36677304],[11.96816605,57.3668477],[11.96835034,57.36708969],[11.96901459,57.36733915],[11.96933621,57.36749277],[11.96955671,57.36762434],[11.96967911,57.36769737],[11.96991081,57.36786801],[11.97014255,57.36808851],[11.97027982,57.36818863],[11.9702799,57.36818864],[11.97101113,57.36825533],[11.97133968,57.36835372],[11.97146678,57.36848134],[11.97154151,57.36861162],[11.97164192,57.36884476],[11.97164603,57.36884908],[11.97182483,57.36903638],[11.97208501,57.369269],[11.9722797,57.36947538],[11.97247678,57.36975462],[11.97247551,57.36997388],[11.9724087,57.37026303],[11.97245904,57.37057735],[11.97256567,57.37073519],[11.97304499,57.37083252],[11.97272369,57.37096356],[11.97272362,57.37096359],[11.97225809,57.37115415],[11.97186339,57.37131722],[11.97186332,57.37131725],[11.97178479,57.37134999],[11.97143895,57.37148976],[11.97102023,57.37166213],[11.97116566,57.37177998],[11.97151142,57.37205714],[11.97304506,57.37327913],[11.97304511,57.37327916],[11.97350159,57.37364436],[11.9735054,57.37364741],[11.97350546,57.37364747],[11.97350548,57.37364742],[11.97421218,57.37183912],[11.97457198,57.37173791],[11.97462502,57.37172299],[11.97468255,57.3717068],[11.97511897,57.37158523],[11.97522048,57.37155926],[11.97532131,57.37178048],[11.97543589,57.37229374],[11.97563333,57.37235876],[11.97558632,57.37259419],[11.97567168,57.37277411],[11.97574397,57.37292647],[11.97593664,57.37316491],[11.97641667,57.37356192],[11.976865,57.37375757],[11.97686835,57.37375903],[11.9768689,57.37375928],[11.97686895,57.37375923],[11.9772088,57.3734667],[11.97755934,57.37349223],[11.9786406,57.36835321],[11.97866704,57.36823229],[11.97884764,57.36803994],[11.97909346,57.36778612],[11.98173626,57.36683199],[11.98191241,57.36677044],[11.9857266,57.3669288],[11.98673028,57.36690447],[11.98727933,57.36705335],[11.98842065,57.36753092],[11.98943275,57.3680173],[11.99057711,57.36810699],[11.99063535,57.36826637],[11.99083282,57.3687129],[11.99136685,57.36928997],[11.99158757,57.36939658],[11.99227642,57.36984546],[11.99335771,57.37049147],[11.99335778,57.37049149],[11.99362843,57.37074384],[11.99356078,57.37084989],[11.9937899,57.37086238],[11.99404729,57.3710015],[11.99435953,57.37113996],[11.99460546,57.37107692],[11.9948266,57.37101678],[11.99504896,57.37100243],[11.99508912,57.37101198],[11.99519014,57.37093938],[11.99480746,57.37067839],[11.99482426,57.3705633],[11.99488509,57.37053767],[11.99524391,57.37046745],[11.99557099,57.37065919],[11.99593071,57.37039637],[11.99600922,57.37033783],[11.99657172,57.36990313],[11.99657177,57.3699031],[11.99695304,57.36970784],[11.99540881,57.36851839],[11.9957684,57.36806741],[11.9946008,57.36728337],[11.9965714,57.36652033],[11.99657456,57.36651911],[11.99657547,57.36651875],[11.9964702,57.36645065],[11.99624875,57.36630415],[11.99583226,57.36602969],[11.99548642,57.36580306],[11.99543145,57.36576629],[11.99519832,57.36561201],[11.99456875,57.3651982],[11.99439532,57.36508655],[11.99415641,57.36493018],[11.99384007,57.36472134],[11.99312585,57.36471357],[11.99311029,57.3642577],[11.99300417,57.36419056],[11.99292747,57.36414202],[11.99215125,57.36365086],[11.99212605,57.36361011],[11.99213646,57.36360722],[11.99218104,57.3635948],[11.99218111,57.36359477],[11.99230721,57.36353813],[11.99260097,57.36340409],[11.9946057,57.3630453],[11.99523572,57.36269401],[11.99526553,57.36267739],[11.99570399,57.36243291],[11.99673993,57.36294654],[11.99680501,57.36297881],[11.99804686,57.36359451],[11.99994822,57.36453714],[11.99991271,57.36456051],[11.99971938,57.36470487],[11.9996204,57.36477542],[11.99946064,57.36487648],[11.99946059,57.36487651],[11.99888666,57.36523956],[11.99920014,57.36536589],[11.99894303,57.36562744],[11.99847578,57.36618475],[11.9988797,57.36642796],[12.00000059,57.36709903],[12.00000066,57.36709907],[12.00061742,57.36751818],[12.00061737,57.3675182],[12.00109867,57.36783886],[12.00109875,57.36783884],[12.00134569,57.36776179],[12.00160442,57.36766842],[12.00180924,57.36754488],[12.00211621,57.36731379],[12.00227903,57.36724084],[12.00248984,57.36720589],[12.00333521,57.36722372],[12.00378075,57.36723311],[12.00378178,57.36722824],[12.00383653,57.36718053],[12.00384428,57.36717377],[12.00388152,57.36712322],[12.0038998,57.36704721],[12.00387571,57.36695384],[12.00385594,57.36687725],[12.00378253,57.36659205],[12.00370665,57.36640876],[12.00369565,57.36638219],[12.00367088,57.36634036],[12.00358869,57.36620153],[12.00347854,57.36606305],[12.00329886,57.36588189],[12.00328369,57.3658666],[12.00305037,57.36568681],[12.00286069,57.3655464],[12.00324023,57.36545963],[12.00359352,57.36537994],[12.00394672,57.36530028],[12.00394679,57.36530026],[12.00411936,57.36526042],[12.00445988,57.36518194],[12.00469153,57.36512942],[12.00492312,57.36507692],[12.00492319,57.3650769],[12.00526709,57.36494991],[12.00526708,57.36494986],[12.00506911,57.36458087],[12.00572691,57.36453096],[12.00585197,57.36461824],[12.00606577,57.36476748],[12.00635475,57.36471143],[12.00638189,57.36470617],[12.0064811,57.36468693],[12.00641267,57.36442421],[12.0061262,57.36383487],[12.0061059,57.3637931],[12.00610586,57.36379306],[12.00610596,57.36379302],[12.00581531,57.36356363],[12.00558939,57.36328043],[12.00541032,57.3630205],[12.00541029,57.36302047],[12.00535205,57.36293792],[12.00516047,57.36266025],[12.00498985,57.36240969],[12.00478853,57.36212431],[12.0047885,57.36212427],[12.00444921,57.36174947],[12.00549869,57.36169631],[12.00547962,57.3612802],[12.00610684,57.36124132],[12.00645567,57.36121801],[12.00653477,57.36120985],[12.00711005,57.36113229],[12.00752789,57.36107609],[12.0079457,57.36101969],[12.00831954,57.36092332],[12.00860557,57.36122845],[12.00895113,57.36161686],[12.00895118,57.3616169],[12.00909001,57.36176147],[12.00928529,57.36196196],[12.00948778,57.36216601],[12.00970684,57.3623856],[12.00986053,57.36256604],[12.00986056,57.36256607],[12.01009405,57.3627849],[12.01003697,57.36292773],[12.01003317,57.36293745],[12.01059675,57.36378581],[12.01187382,57.36570802],[12.01187709,57.36571296],[12.01201038,57.36591356],[12.01226593,57.36626644],[12.01290093,57.3671433],[12.01403698,57.36871189],[12.01403739,57.36871244],[12.01403881,57.3687144],[12.01403887,57.36871438],[12.01838059,57.36773802],[12.01875367,57.36766079],[12.01875364,57.36766075],[12.018753,57.36765998],[12.01875164,57.36765832],[12.01873541,57.3676385],[12.01872039,57.36762014],[12.01869648,57.36758897],[12.01867057,57.36758112],[12.01862093,57.36757804],[12.01855041,57.36750973],[12.01848524,57.36745593],[12.01841439,57.3673912],[12.01839412,57.36731876],[12.01831223,57.3673041],[12.01817661,57.36729524],[12.01817548,57.36729486],[12.01812492,57.36727774],[12.01811321,57.36725946],[12.01813263,57.36722759],[12.0181789,57.36719282],[12.01820291,57.3671467],[12.01818691,57.36710134],[12.01818485,57.36710109],[12.01813096,57.36709452],[12.01808355,57.36710409],[12.01804846,57.36708702],[12.01803878,57.36704542],[12.01799973,57.36703543],[12.01799956,57.36703548],[12.01796559,57.36704536],[12.0179441,57.36702503],[12.01791767,57.3669848],[12.01788859,57.36697507],[12.01782411,57.3669896],[12.01777494,57.36698116],[12.01777475,57.36698104],[12.01774647,57.36696425],[12.01768846,57.36694299],[12.01768792,57.36694312],[12.01761372,57.36696086],[12.01757817,57.36698692],[12.01753583,57.3670146],[12.01749,57.36700624],[12.01748997,57.36700617],[12.01746768,57.36695713],[12.01747635,57.36693398],[12.01750748,57.36692039],[12.01752546,57.36686692],[12.01748119,57.36684062],[12.01744737,57.36684694],[12.01742873,57.36686984],[12.01742338,57.36689308],[12.01739793,57.3669176],[12.01737643,57.36689727],[12.01735617,57.36686259],[12.01732727,57.36685107],[12.01732606,57.36685099],[12.01728427,57.36684818],[12.01724332,57.36685971],[12.01724445,57.36688491],[12.01728131,57.36692001],[12.01721161,57.36691822],[12.01720991,57.36691779],[12.01714979,57.36690227],[12.01706854,57.36688042],[12.01697653,57.36686729],[12.01688958,57.3668345],[12.0167919,57.36681043],[12.01673073,57.36678729],[12.01666606,57.36676586],[12.01645562,57.36666161],[12.01633801,57.36663703],[12.01633791,57.36663701],[12.01621108,57.36660503],[12.01610104,57.3665321],[12.01600997,57.36647045],[12.01595065,57.36645155],[12.01591066,57.3663888],[12.01586606,57.3663661],[12.01584568,57.36637097],[12.01584519,57.3663386],[12.01582384,57.36631648],[12.01578638,57.36632631],[12.01577735,57.36627754],[12.01577954,57.36625242],[12.01573084,57.36620084],[12.01565764,57.36616302],[12.01558841,57.36615585],[12.01556024,57.36609761],[12.01550046,57.36602057],[12.0153678,57.36593987],[12.01522916,57.36588959],[12.01506807,57.36582974],[12.01493322,57.36577416],[12.01494617,57.36574033],[12.01504368,57.36572845],[12.01505995,57.3656947],[12.01499606,57.3656643],[12.01499475,57.36566424],[12.01494244,57.36566177],[12.01488731,57.36565254],[12.01483341,57.3656224],[12.0147678,57.36557397],[12.014706,57.36555801],[12.01470581,57.36555806],[12.01460027,57.36558766],[12.01453912,57.36560229],[12.01447669,57.3655935],[12.01430374,57.36549985],[12.013724,57.36518593],[12.01356053,57.36507748],[12.01337537,57.3649505],[12.01334515,57.36487781],[12.01335237,57.36479531],[12.01336436,57.36473449],[12.0132379,57.3646971],[12.01323616,57.36469677],[12.01309723,57.36467012],[12.01309715,57.36467006],[12.0129943,57.36459199],[12.01296327,57.36449052],[12.01296876,57.36438998],[12.01297707,57.36429491],[12.01306127,57.36420717],[12.01320441,57.36412993],[12.01340067,57.36405405],[12.01359422,57.36397091],[12.01375806,57.36388521],[12.01381206,57.36380029],[12.01382497,57.36369096],[12.01382065,57.36358837],[12.01377822,57.36346504],[12.01382984,57.36333152],[12.01390325,57.36321475],[12.01392896,57.36311114],[12.01392723,57.36303071],[12.013927,57.36301939],[12.01389501,57.36289093],[12.01384886,57.3628484],[12.01371021,57.36276037],[12.01358435,57.36267805],[12.01345126,57.36260273],[12.01329792,57.36253049],[12.01311329,57.36243589],[12.01293164,57.3623072],[12.01286972,57.36228198],[12.01264823,57.36220107],[12.01264693,57.36220092],[12.01250331,57.36218477],[12.0125022,57.36218444],[12.01236073,57.36214157],[12.01218783,57.36210299],[12.01205837,57.36206193],[12.01193871,57.36198516],[12.01193063,57.36192562],[12.01187561,57.36190804],[12.01176103,57.36188713],[12.01169797,57.36188551],[12.01169763,57.36188511],[12.01155599,57.36172187],[12.01154758,57.36162818],[12.01156015,57.36152244],[12.01157939,57.3614546],[12.01160134,57.36139404],[12.01170766,57.36131946],[12.01183787,57.36127605],[12.01176705,57.36124906],[12.01171235,57.36122789],[12.01170427,57.36116836],[12.01173726,57.36109549],[12.0117908,57.36101596],[12.01186025,57.3609784],[12.01186063,57.36097819],[12.01194755,57.36101098],[12.01199087,57.36104805],[12.0120388,57.3611086],[12.01211973,57.36117179],[12.01221993,57.36120491],[12.01217822,57.36122543],[12.01211771,57.36123286],[12.01206982,57.36124782],[12.01208644,57.36128599],[12.01213664,57.36129767],[12.0121386,57.36129813],[12.01222552,57.36129315],[12.01226011,57.36127786],[12.01225899,57.36125266],[12.0123388,57.3612529],[12.01237602,57.36126418],[12.01237768,57.36126469],[12.01245495,57.36125587],[12.01251926,57.36124314],[12.01258842,57.36124313],[12.01258912,57.36124312],[12.01266355,57.3612666],[12.01273056,57.36126112],[12.01277777,57.36121559],[12.01281553,57.36116443],[12.01283351,57.36111095],[12.0128033,57.36103827],[12.01273264,57.36100948],[12.01273053,57.36100904],[12.01264444,57.36099105],[12.0125294,57.36097552],[12.01241023,57.36096888],[12.01227861,57.36095293],[12.01217523,57.36091792],[12.01215227,57.36083824],[12.01220235,57.36079816],[12.01228134,57.36076962],[12.01230459,57.36076945],[12.01239118,57.36076884],[12.01255442,57.36076582],[12.01267389,57.36078659],[12.01267563,57.3607869],[12.01274644,57.36081387],[12.0128506,57.36087768],[12.01291212,57.36093498],[12.01296256,57.36100459],[12.01301592,57.36102343],[12.01301741,57.36102396],[12.01308744,57.36101507],[12.01308806,57.36101499],[12.01312677,57.36102856],[12.01318667,57.36105486],[12.01318762,57.36105528],[12.01325401,57.36105698],[12.0133439,57.36101793],[12.01336286,57.36099145],[12.01332617,57.36095456],[12.01328537,57.36092654],[12.01321551,57.3608888],[12.01313331,57.36083995],[12.01305049,57.36079829],[12.01305899,57.36073917],[12.01311872,57.3607407],[12.01319127,57.36074795],[12.01326963,57.36072659],[12.01327386,57.36067816],[12.01324701,57.36064332],[12.01320351,57.36060805],[12.01314297,57.36057773],[12.01311497,57.36051768],[12.01313705,57.36045533],[12.01314793,57.36040707],[12.01310429,57.36033583],[12.01307705,57.36022907],[12.01307555,57.36022558],[12.01306852,57.36020911],[12.01306475,57.36020025],[12.01306351,57.36019735],[12.01302755,57.36011304],[12.01300806,57.36006729],[12.01300266,57.36005936],[12.01299665,57.36005051],[12.01299638,57.36005012],[12.01299616,57.3600498],[12.01299599,57.36004956],[12.01298819,57.36003809],[12.01295208,57.35998497],[12.01285189,57.35995184],[12.0127871,57.35996996],[12.01273083,57.35996673],[12.01273056,57.35996638],[12.01269193,57.35991719],[12.01262744,57.35985621],[12.01255424,57.35981839],[12.0124493,57.35976357],[12.01243315,57.35975497],[12.01235915,57.35971554],[12.01235714,57.35971447],[12.01223747,57.3596377],[12.01211847,57.3595915],[12.01196517,57.35955702],[12.01193138,57.3596011],[12.01190183,57.3596345],[12.01192132,57.35967399],[12.01192161,57.35967455],[12.01194076,57.35972178],[12.01193068,57.35979883],[12.0119078,57.35987016],[12.01187323,57.35992322],[12.01183754,57.35998882],[12.01185782,57.360099],[12.01179163,57.36017102],[12.01170871,57.36024441],[12.01162784,57.36033222],[12.01149895,57.36043679],[12.01141223,57.36051547],[12.01132803,57.36056546],[12.01123275,57.36058998],[12.01113289,57.36062878],[12.01093504,57.36064709],[12.0108233,57.36063165],[12.01067367,57.36063141],[12.01066436,57.36063048],[12.01066423,57.36063047],[12.01050221,57.36061444],[12.01033739,57.36059764],[12.01033637,57.3605973],[12.01023718,57.36056451],[12.01022415,57.36056049],[12.01005905,57.3605096],[12.00995012,57.36046186],[12.00988642,57.36042968],[12.00981529,57.36033078],[12.00980642,57.36028021],[12.00982756,57.36019087],[12.00984157,57.36006898],[12.00985821,57.35997837],[12.00986063,57.35996518],[12.00986485,57.3599281],[12.00987511,57.35983792],[12.00987735,57.35982799],[12.00990224,57.35971816],[12.00995533,57.35964402],[12.00995843,57.35957038],[12.00975046,57.35941348],[12.00974631,57.35941035],[12.00964539,57.35932805],[12.00960973,57.35929898],[12.00950713,57.35921725],[12.0095343,57.35917299],[12.00963114,57.35913053],[12.00968104,57.35909225],[12.00967774,57.35905442],[12.00967564,57.35905424],[12.0096183,57.3590493],[12.0095668,57.35906775],[12.00953589,57.35908465],[12.00953537,57.35908494],[12.00947043,57.35910484],[12.00938209,57.35908819],[12.00938187,57.35908811],[12.00929216,57.35905174],[12.00925,57.35903413],[12.00916381,57.35899811],[12.00901733,57.35892425],[12.008919,57.35884647],[12.00890222,57.3588332],[12.0088945,57.35882221],[12.00888949,57.35881506],[12.00888946,57.35881503],[12.00881354,57.35870689],[12.00881287,57.35870497],[12.00881166,57.35870142],[12.00876591,57.35856724],[12.00883447,57.35850607],[12.00890934,57.35844867],[12.00897551,57.35837664],[12.00896255,57.35829721],[12.00896042,57.35829679],[12.00892596,57.35828973],[12.00888918,57.35822342],[12.00883543,57.35819148],[12.00878328,57.35817935],[12.00872263,57.35818859],[12.00872072,57.35818812],[12.00866732,57.3581746],[12.00859096,57.35813488],[12.00858887,57.35813444],[12.00852238,57.35812054],[12.00845193,57.35800612],[12.00840601,57.35793058],[12.00846083,57.35791221],[12.0084899,57.3578842],[12.00852875,57.35785822],[12.00853997,57.35780638],[12.00854166,57.35774889],[12.00851839,57.35767278],[12.00850384,57.35761129],[12.0085018,57.35761114],[12.00842782,57.35760575],[12.00841267,57.35762694],[12.00837761,57.35764761],[12.00834963,57.35762532],[12.00835371,57.35757868],[12.00836399,57.3575376],[12.00838719,57.35750043],[12.00842369,57.35746362],[12.00850487,57.35744772],[12.00861139,57.35744685],[12.00867077,57.35741421],[12.00875357,57.35738038],[12.00882765,57.35733193],[12.00901345,57.35726119],[12.00910873,57.35723666],[12.00916546,57.35727226],[12.00921318,57.35725912],[12.00926043,57.35725132],[12.00932489,57.3572368],[12.00933877,57.35719221],[12.00943927,57.357184],[12.0095357,57.35729793],[12.00962894,57.3573271],[12.00962957,57.3573273],[12.00975741,57.35734855],[12.00978005,57.35743183],[12.0098283,57.35752655],[12.00987239,57.35754353],[12.00987332,57.35754389],[12.01001107,57.35755455],[12.01001208,57.35755463],[12.01010577,57.35758579],[12.01019648,57.35761328],[12.01020105,57.35756126],[12.01017828,57.35751753],[12.01013369,57.35745707],[12.01008861,57.35736422],[12.01005967,57.35727719],[12.01012555,57.35724651],[12.01019426,57.35725905],[12.01030317,57.35726904],[12.01046384,57.35721922],[12.01043665,57.35718796],[12.01038861,57.35716695],[12.01033403,57.35710622],[12.01031587,57.35704823],[12.01036515,57.35701714],[12.01049753,57.35702053],[12.01049788,57.35702053],[12.01061181,57.35704862],[12.01069668,57.35706697],[12.01073161,57.35708584],[12.01077715,57.35713555],[12.01082694,57.35721233],[12.0108987,57.3572663],[12.01097044,57.35724477],[12.01101609,57.35721717],[12.01104055,57.35716565],[12.01104241,57.35710638],[12.01101823,57.35704104],[12.01104456,57.35700581],[12.01104459,57.35700576],[12.01109673,57.35701788],[12.01117481,57.35703786],[12.01120972,57.35701897],[12.01122076,57.35696892],[12.01121947,57.35690776],[12.01120269,57.35687137],[12.01116221,57.35680203],[12.01108255,57.35676223],[12.01099309,57.35672039],[12.01089133,57.3567052],[12.01089128,57.35670506],[12.01087533,57.35665984],[12.01087992,57.35660783],[12.01086852,57.35654821],[12.01081318,57.35649645],[12.0107509,57.35644813],[12.01066556,57.35639739],[12.01058116,57.35633591],[12.01051413,57.35626588],[12.01046178,57.35618004],[12.01037046,57.35615972],[12.01037037,57.35615973],[12.01026,57.35616768],[12.01025976,57.3561671],[12.01024908,57.35614044],[12.01015597,57.35606434],[12.01007223,57.35603344],[12.0099453,57.35596367],[12.00946358,57.35569246],[12.00933749,57.35561372],[12.00915305,57.35555506],[12.00905302,57.35552014],[12.00894934,57.35545096],[12.00880109,57.35539683],[12.00872335,57.35537326],[12.00864198,57.35531545],[12.00835033,57.35507606],[12.00827481,57.35506514],[12.00821795,57.35506907],[12.00818586,57.35509342],[12.00819159,57.35514211],[12.00813532,57.35513888],[12.00807039,57.35512104],[12.00803516,57.3551435],[12.00803914,57.35517416],[12.00800453,57.35518945],[12.00792012,57.35516572],[12.00783528,57.35514736],[12.00772845,57.35511407],[12.0076417,57.35504173],[12.00761763,57.3549746],[12.00756266,57.35495701],[12.00753578,57.35492216],[12.00751822,57.35485699],[12.00747507,57.35481813],[12.00740744,57.35479302],[12.00747804,57.3547463],[12.00750694,57.35472007],[12.00747737,57.35467797],[12.00744231,57.35462313],[12.00738837,57.35455523],[12.00726637,57.35446761],[12.00713125,57.3544156],[12.00713837,57.35437264],[12.00708525,57.35433353],[12.00702362,57.35427801],[12.00692926,57.35421627],[12.00690316,57.35413471],[12.00690503,57.35407543],[12.00680315,57.35409978],[12.00677834,57.35411712],[12.00670787,57.3541243],[12.00664546,57.35411551],[12.00658478,57.35408699],[12.00654038,57.35402472],[12.0064479,57.35394145],[12.00639117,57.35386809],[12.00631371,57.35376543],[12.00624051,57.35365209],[12.00617191,57.35356223],[12.00609035,57.35350621],[12.00602461,57.35345959],[12.00588857,57.35341835],[12.0057694,57.35333619],[12.00573605,57.35326161],[12.00576431,57.35320482],[12.00576089,57.35318965],[12.00575009,57.35314721],[12.00573176,57.35305077],[12.00567377,57.35299701],[12.00561683,57.35296665],[12.00559076,57.35292638],[12.00561099,57.35288918],[12.00568164,57.35288037],[12.00573327,57.35286203],[12.00577846,57.35284172],[12.00577528,57.35280567],[12.00574033,57.35278852],[12.00568568,57.35276902],[12.00562075,57.35275282],[12.00557851,57.35274265],[12.00559727,57.35268565],[12.00559896,57.35263355],[12.00555963,57.3525929],[12.0054686,57.35250227],[12.00539011,57.35241917],[12.00535972,57.35238956],[12.00535877,57.35233021],[12.00540249,57.35225592],[12.00540399,57.35220563],[12.00541855,57.35212332],[12.00527041,57.35200413],[12.00522536,57.35198849],[12.00521119,57.35196293],[12.00524361,57.35193686],[12.00526489,57.35192308],[12.00525348,57.35186882],[12.00524396,57.35179485],[12.00524186,57.3517945],[12.00519159,57.35178619],[12.00519078,57.35178596],[12.00514952,57.35177423],[12.0051425,57.35174346],[12.00515327,57.35170062],[12.00515112,57.35165382],[12.0051298,57.35163345],[12.00506799,57.35161914],[12.00504892,57.35157545],[12.00505008,57.35152875],[12.00506609,57.35150043],[12.00511615,57.35146407],[12.00518489,57.35144083],[12.00518237,57.35139761],[12.00511481,57.35137415],[12.00514655,57.35135526],[12.0051982,57.35133763],[12.00520497,57.35133532],[12.00519499,57.35130088],[12.00512376,57.35128091],[12.00515477,57.35123503],[12.00522294,57.35118299],[12.00533103,57.35109613],[12.00528634,57.3510769],[12.00526569,57.35104936],[12.00524994,57.35100577],[12.00518151,57.35099127],[12.00514767,57.35099752],[12.00510369,57.35100528],[12.00510284,57.35100461],[12.00507277,57.35098104],[12.00505827,57.35095907],[12.0050755,57.3509182],[12.00509362,57.35090252],[12.00507562,57.35088225],[12.00503407,57.3508649],[12.00498131,57.35082568],[12.00495005,57.35080503],[12.00492924,57.35077928],[12.0048908,57.35072967],[12.00485794,57.35069098],[12.00482714,57.3506308],[12.00483161,57.35058418],[12.00485759,57.35055614],[12.00486555,57.35050783],[12.00487439,57.35045055],[12.00491829,57.35040862],[12.00495141,57.35037538],[12.00486133,57.35034411],[12.00483528,57.35030383],[12.00479614,57.35026138],[12.0047821,57.35019986],[12.00473439,57.3501428],[12.00468723,57.35011452],[12.0046523,57.35009736],[12.0046275,57.35007868],[12.00460163,57.35003661],[12.00457695,57.349982],[12.00457496,57.3499334],[12.00456532,57.34989537],[12.00451132,57.34983454],[12.004475,57.34979756],[12.00446464,57.34976672],[12.00445672,57.34971076],[12.0044408,57.34966896],[12.00440583,57.34961765],[12.00436842,57.34955727],[12.0043179,57.34949473],[12.00424537,57.349419],[12.00422737,57.34939872],[12.00419853,57.34935296],[12.0041674,57.34929636],[12.00414431,57.34925977],[12.00411947,57.34920693],[12.00413304,57.34916956],[12.004177,57.3491618],[12.00420783,57.34911772],[12.0041879,57.349083],[12.00419327,57.34906157],[12.00423652,57.34902683],[12.00429524,57.34896913],[12.0043418,57.34893448],[12.00439665,57.34884792],[12.00442504,57.34879478],[12.00448789,57.34872831],[12.00448796,57.34872822],[12.00453334,57.34874027],[12.00456745,57.34874809],[12.00456912,57.34874847],[12.00463144,57.3487574],[12.0046766,57.34873709],[12.00475214,57.34871223],[12.00470043,57.34866224],[12.00471541,57.34864468],[12.00477751,57.34862125],[12.00481256,57.34860245],[12.00485145,57.34857837],[12.00482418,57.34855063],[12.0047915,57.34851017],[12.00479409,57.34848328],[12.00486969,57.34848898],[12.00487,57.348489],[12.00492063,57.3485009],[12.00492201,57.34850123],[12.00496129,57.34850772],[12.00500315,57.34848732],[12.00500259,57.34845854],[12.00495229,57.34842837],[12.0048814,57.34840481],[12.00489881,57.34836216],[12.00490155,57.34833347],[12.00484339,57.34828151],[12.00478904,57.34822425],[12.00471968,57.3481504],[12.00466363,57.34811108],[12.00462622,57.34808487],[12.00459433,57.34810555],[12.00450462,57.34810485],[12.00450482,57.34810442],[12.0045384,57.34803028],[12.00449403,57.34800747],[12.00444042,57.3479772],[12.00439431,57.34793816],[12.00433755,57.34790601],[12.00428112,57.34783611],[12.00424946,57.34778489],[12.00421308,57.34771375],[12.00417859,57.34762291],[12.00413647,57.34757679],[12.0041158,57.34751508],[12.00408291,57.34744225],[12.00407026,57.34736638],[12.00404695,57.34729742],[12.00405437,57.34722032],[12.00404085,57.34715342],[12.00404352,57.34705641],[12.00403698,57.34698611],[12.00404021,57.34691789],[12.00403022,57.34688345],[12.00404202,57.34682985],[12.00411896,57.3468248],[12.00420135,57.3468325],[12.00420844,57.34679315],[12.00418361,57.34674031],[12.00415368,57.34667116],[12.00411362,57.34660352],[12.00405964,57.34654268],[12.00399681,57.3464007],[12.003951,57.34632391],[12.00391028,57.34626345],[12.00387291,57.34623723],[12.00378282,57.34620595],[12.00371789,57.34618976],[12.00362225,57.34618168],[12.00362231,57.34618141],[12.00362955,57.34614055],[12.00370803,57.34611936],[12.00375965,57.34610103],[12.00382331,57.34606146],[12.00388344,57.34602358],[12.00387433,57.34598019],[12.00382526,57.34593747],[12.00379291,57.34589341],[12.00374667,57.34575189],[12.003588,57.34556948],[12.00346634,57.3453827],[12.00337847,57.3451555],[12.00319182,57.34491837],[12.00318132,57.34488931],[12.0032186,57.34484721],[12.00324508,57.34481379],[12.00327139,57.34478217],[12.00325826,57.34474584],[12.0032336,57.34469121],[12.0031936,57.34465774],[12.00314761,57.34458274],[12.00311666,57.34452435],[12.00308222,57.34446766],[12.0030012,57.34441146],[12.00294269,57.34436306],[12.0028449,57.3443082],[12.00276632,57.34426106],[12.00273159,57.3442421],[12.00272039,57.34422023],[12.00272664,57.34418983],[12.00273058,57.34414859],[12.00271066,57.34411388],[12.00270863,57.34411359],[12.00264836,57.34410495],[12.00260945,57.34409487],[12.0026122,57.34406618],[12.00262576,57.34402881],[12.00263322,57.34398587],[12.00264763,57.34393953],[12.00265057,57.34390904],[12.00264041,57.3438764],[12.00253257,57.3438572],[12.00253225,57.34385707],[12.00245888,57.34382818],[12.00245713,57.34381195],[12.00251921,57.34378851],[12.00256684,57.34377726],[12.00261236,57.34375336],[12.0026123,57.3437192],[12.00254755,57.34370122],[12.00249766,57.34370161],[12.00242785,57.34370146],[12.00242621,57.34370101],[12.00237602,57.34368743],[12.00235677,57.34364554],[12.00239898,57.34362154],[12.00239454,57.34356389],[12.0023582,57.34352692],[12.00234732,57.34346729],[12.00240067,57.34343102],[12.00244601,57.34340893],[12.0024826,57.34337398],[12.00248674,57.34333096],[12.00247498,57.34328029],[12.00244385,57.34322369],[12.00244538,57.3431734],[12.00250448,57.34314628],[12.00254357,57.34315455],[12.00257797,57.3431771],[12.00258603,57.3431971],[12.00261328,57.34322483],[12.00264368,57.34325444],[12.00263954,57.34329747],[12.0026354,57.3433405],[12.00267913,57.34335932],[12.0026801,57.34335973],[12.00271989,57.34336084],[12.00276349,57.34335667],[12.00280465,57.34334344],[12.0028533,57.34332143],[12.00287894,57.34329697],[12.00288569,57.34326121],[12.00286488,57.34323545],[12.00281986,57.34321981],[12.00278425,57.34320982],[12.00279557,57.34319576],[12.00285977,57.34318497],[12.00291732,57.343174],[12.00288609,57.34315334],[12.00281154,57.34313329],[12.00276652,57.34311764],[12.00276092,57.3431067],[12.00279718,57.34307535],[12.00283029,57.34304212],[12.00285311,57.3430122],[12.00282774,57.34296475],[12.00278445,57.34293117],[12.00278278,57.34293107],[12.00273157,57.34292789],[12.00267018,57.34294416],[12.002603,57.34295126],[12.00257628,57.34291816],[12.00261585,57.34288691],[12.00267723,57.34287065],[12.00269308,57.34284412],[12.00269305,57.34280996],[12.00271359,57.34276918],[12.00279048,57.34274844],[12.00279206,57.34274801],[12.0028064,57.34277178],[12.00282411,57.3427937],[12.00282424,57.34279384],[12.00285373,57.34279828],[12.00290257,57.34279096],[12.0029043,57.3427907],[12.00292407,57.3428272],[12.00293246,57.34284363],[12.00292586,57.3428776],[12.00296571,57.34290149],[12.00296674,57.34290211],[12.0030039,57.34289595],[12.00304523,57.34288093],[12.0030649,57.34284912],[12.00303502,57.34281413],[12.00297703,57.34276037],[12.0029407,57.34272339],[12.00295356,57.34269319],[12.00300604,57.34266589],[12.00307075,57.34264972],[12.00311804,57.34264206],[12.00321801,57.34263945],[12.00329826,57.34263451],[12.00334533,57.34259447],[12.00335888,57.34255709],[12.00335725,57.34250492],[12.00335773,57.34246538],[12.0033638,57.34243679],[12.00343584,57.34241362],[12.00350648,57.34240482],[12.00358795,57.34238731],[12.00365684,57.34239102],[12.0036574,57.34239105],[12.0037546,57.34241714],[12.00382845,57.34244437],[12.00387537,57.34246879],[12.00387593,57.34246908],[12.00395167,57.34247658],[12.00404441,57.34246155],[12.00404621,57.34246125],[12.00405705,57.34248671],[12.00407332,57.34252493],[12.00411695,57.34253651],[12.0041187,57.34253698],[12.00418222,57.34253337],[12.00419806,57.34250683],[12.00416434,57.34247713],[12.00414423,57.34244421],[12.00414803,57.34240476],[12.00417976,57.34238588],[12.00423246,57.34239093],[12.00426182,57.34243131],[12.00428213,57.34245843],[12.00428245,57.34245886],[12.00436881,57.34245947],[12.00440249,57.34245503],[12.0044389,57.34242188],[12.00445579,57.3423846],[12.00444213,57.34235366],[12.00442952,57.34231195],[12.0044216,57.342256],[12.0044083,57.34222146],[12.0044194,57.34217503],[12.004468,57.34211887],[12.00449391,57.34205667],[12.00449178,57.34205627],[12.0044482,57.34204819],[12.00439185,57.34204662],[12.00439145,57.34204623],[12.00435847,57.34201332],[12.00437501,57.34197963],[12.00440692,57.34195894],[12.0044718,57.34194097],[12.00454664,57.3419233],[12.00458635,57.34189025],[12.00463148,57.34183577],[12.00470778,57.34173364],[12.00476486,57.34162376],[12.00480818,57.3415189],[12.00483069,57.34138829],[12.00482867,57.34130554],[12.00478742,57.34125045],[12.00473782,57.3412131],[12.00468039,57.34118813],[12.00461022,57.3411574],[12.00449992,57.34112915],[12.00449918,57.34112906],[12.00442767,57.34111994],[12.00432612,57.34110451],[12.00419192,57.3410828],[12.00413396,57.34106319],[12.00408455,57.34102406],[12.00402518,57.34098465],[12.00392615,57.34090816],[12.00381235,57.34084745],[12.0037245,57.34079287],[12.00365731,57.34076581],[12.00358472,57.34076019],[12.00347933,57.34075006],[12.0032851,57.34073025],[12.0031436,57.34071551],[12.00292848,57.34070589],[12.00277109,57.34068352],[12.00262207,57.34067756],[12.00259715,57.34069483],[12.00260085,57.3407255],[12.00263489,57.34075163],[12.00266216,57.34077935],[12.00270617,57.34080575],[12.00274369,57.34083017],[12.00278141,57.34085281],[12.00281722,57.34089515],[12.00279582,57.3409449],[12.00275605,57.34094378],[12.00268538,57.3409526],[12.00267812,57.34099374],[12.00266072,57.3410364],[12.00262847,57.34106067],[12.00259921,57.34108862],[12.00257587,57.34112392],[12.00260418,57.34117505],[12.00261817,57.34120241],[12.00263169,57.34126931],[12.00256471,57.34127462],[12.00251674,57.34128947],[12.00250021,57.34132317],[12.00252675,57.34135807],[12.00252822,57.34141203],[12.00249722,57.34145792],[12.00246709,57.34149483],[12.00240853,57.34155073],[12.00233598,57.34157926],[12.00235575,57.34161576],[12.00238876,57.34165265],[12.00247426,57.34166223],[12.00245636,57.34171026],[12.00245606,57.34174802],[12.00245281,57.34181624],[12.00247852,57.3418601],[12.00251868,57.34189179],[12.00252676,57.34194595],[12.00255543,57.3419935],[12.00258364,57.34208058],[12.00258493,57.34213635],[12.0025941,57.34221391],[12.00259193,57.34230554],[12.00254225,57.34233832],[12.00248959,57.34236741],[12.00249803,57.34241798],[12.00251591,57.34247421],[12.00250358,57.34253319],[12.00248639,57.34260822],[12.00246323,57.34264173],[12.00243058,57.34263543],[12.00243052,57.34263538],[12.00238728,57.34260186],[12.00235077,57.34256667],[12.00232192,57.34252093],[12.00227392,57.34250161],[12.00227376,57.34250195],[12.00225739,57.34253531],[12.00227664,57.34257719],[12.00230531,57.34262473],[12.002301,57.34266956],[12.00232411,57.34274032],[12.00235313,57.34278428],[12.00236419,57.34284212],[12.00239565,57.34289513],[12.0024046,57.34294032],[12.00241568,57.34299818],[12.00238273,57.34302961],[12.00231991,57.34302606],[12.00231966,57.34302572],[12.00229335,57.34299115],[12.0022364,57.34292663],[12.00225134,57.34287492],[12.0022101,57.34281983],[12.0021692,57.34276116],[12.00215831,57.34270153],[12.00207221,57.342629],[12.00204719,57.34257797],[12.00200406,57.3425426],[12.0019918,57.34249731],[12.00198005,57.34244665],[12.00198173,57.34239455],[12.0019776,57.34229915],[12.00197352,57.34223791],[12.00197447,57.34215883],[12.00201327,57.34206644],[12.00206133,57.34198148],[12.00206718,57.34192051],[12.00206378,57.3418521],[12.00204191,57.34180296],[12.00192263,57.34169535],[12.00190631,57.34162297],[12.00188781,57.34146964],[12.00186603,57.34135038],[12.00182618,57.34128095],[12.00175869,57.34115321],[12.0016353,57.34112279],[12.00159159,57.34074762],[12.00150169,57.34071455],[12.00143461,57.34034052],[12.00120283,57.34026213],[12.00107815,57.34017594],[12.00104149,57.34020985],[12.00103942,57.34020937],[12.00095927,57.34019036],[12.00095865,57.34019026],[12.00084749,57.34017358],[12.00084718,57.34017384],[12.00084729,57.34017421],[12.00084682,57.34017347],[12.00084587,57.34017321],[12.00084508,57.34017299],[12.00065535,57.34012121],[11.99870459,57.34026619],[11.9980616,57.34021772],[11.98212484,57.34447601],[11.96280894,57.34626649],[11.95687223,57.34895451],[11.94257978,57.35097928],[11.94142303,57.35117905],[11.94139105,57.35118473],[11.94139043,57.35118484],[11.9413906,57.35118519],[11.93953479,57.35304668],[11.93684024,57.35467957],[11.93369454,57.35655106],[11.92890035,57.35941512],[11.92409868,57.36231116],[11.91997817,57.36473644],[11.91667937,57.36670165],[11.91588289,57.36716954],[11.91558186,57.36742001],[11.91335287,57.36934813],[11.90957598,57.37254951],[11.90511297,57.37636047],[11.90212127,57.37887774],[11.90433961,57.37901671],[11.90985876,57.37933337],[11.91027071,57.379357],[11.91037554,57.37936238],[11.91780044,57.37974292],[11.92529543,57.38305951],[11.93429024,57.38455823],[11.9380389,57.3836035],[11.94493783,57.38639166],[11.95511024,57.38735335],[11.95903185,57.38692244],[11.96209708,57.38669066]],[[11.96026449,57.37877115],[11.96026455,57.37877117],[11.96084668,57.37893671],[11.96062875,57.37919385],[11.96023624,57.37911687],[11.96002954,57.37902673],[11.96007597,57.3789762],[11.96017535,57.37886812],[11.96026445,57.37877119],[11.96026449,57.37877115]],[[11.98970911,57.36456124],[11.98969124,57.36496534],[11.98913505,57.36490362],[11.98918887,57.36455357],[11.98925132,57.36455471],[11.98970911,57.36456124]],[[11.98844231,57.35965057],[11.98863162,57.35965365],[11.98863169,57.35965367],[11.98889014,57.35970167],[11.98957527,57.36019213],[11.98895437,57.36033075],[11.98843754,57.35989315],[11.98844231,57.35965057]],[[11.95833734,57.35678619],[11.95833734,57.35678624],[11.95834842,57.3573349],[11.95745096,57.35729568],[11.95758886,57.35678885],[11.95833734,57.35678619]],[[11.95899059,57.3562443],[11.95899932,57.35616655],[11.95899955,57.3561646],[11.95879605,57.35614742],[11.95843112,57.35611659],[11.9583479,57.35610957],[11.95760317,57.35604441],[11.95755852,57.35584898],[11.95782259,57.35576459],[11.95840654,57.35579721],[11.95840662,57.35579721],[11.95847758,57.35580069],[11.95847766,57.35580069],[11.9589563,57.35579419],[11.9592521,57.3558248],[11.95941031,57.3559236],[11.95932109,57.35605778],[11.95937194,57.35615269],[11.95936784,57.35619605],[11.95927059,57.35618749],[11.95922811,57.35622361],[11.95914688,57.3562227],[11.9591168,57.35624876],[11.95899059,57.3562443]],[[11.95883511,57.38033844],[11.95996818,57.38055248],[11.96081422,57.38098557],[11.96133234,57.38123687],[11.96046795,57.38181531],[11.96006825,57.38157201],[11.9593215,57.38107335],[11.95877929,57.38053617],[11.95883511,57.38033844]],[[11.99836188,57.36141057],[11.99827702,57.36135446],[11.99813003,57.36128595],[11.99799428,57.36124112],[11.9978865,57.36121857],[11.9977615,57.36120278],[11.99765168,57.36120355],[11.99754405,57.36121696],[11.99745894,57.36120221],[11.99745887,57.3612022],[11.99734273,57.36116146],[11.99725977,57.36112157],[11.997185,57.36110167],[11.99703488,57.3611068],[11.9968549,57.36114892],[11.99675613,57.3612129],[11.99660918,57.36125767],[11.99627132,57.36139281],[11.99621677,57.36133207],[11.99635806,57.36127637],[11.9964241,57.36124391],[11.99649491,57.3611954],[11.99649543,57.36119502],[11.99659233,57.36110917],[11.99664938,57.36109574],[11.99912003,57.36053117],[11.9992945,57.3604913],[11.99979378,57.36113313],[12.00039575,57.36190278],[11.99985579,57.36202204],[11.99948397,57.36210401],[11.99919357,57.36216722],[11.99904846,57.36203766],[11.998953,57.36198846],[11.99886118,57.36193577],[11.99879731,57.36186762],[11.99872777,57.36178852],[11.99865681,57.36168781],[11.99860069,57.36160728],[11.99853099,57.36152997],[11.9984439,57.36146122],[11.99836188,57.36141057]],[[11.96930596,57.36612462],[11.96998386,57.365847],[11.96998393,57.36584697],[11.97008801,57.36580198],[11.97137396,57.36527077],[11.97209898,57.36581019],[11.97232395,57.36597889],[11.97272016,57.36629071],[11.9729588,57.36658299],[11.97280477,57.3667766],[11.97220076,57.36681796],[11.97196983,57.36661202],[11.97196769,57.36661277],[11.97196565,57.36661349],[11.97186111,57.36665028],[11.97186104,57.36665031],[11.97116064,57.36694586],[11.97063591,57.36671293],[11.97014157,57.36649348],[11.96930596,57.36612462]]]},"geometry_name":"geom","properties":{"nvrid":"2002576","gtype":"Polygon","namn":"Hållsundsudde-Sönnerbergen","skyddstyp":"Naturvårdsområde","skyddstyp_kod":"NVO","beslutsstatus":"Gällande","beslutsmyndighet":"Länsstyrelse","urspr_beslutsdatum":"19780927","urspr_gallandedatum":"19780927","senaste_gallandedatum":"19940124","ikrafttradandedatum_foreskrift":null,"tillsynsmyndighet":null,"provningsmyndighet_tillstand":" ","provningsmyndighet_dispens":" ","lan":"Hallands Län","kommun":"Kungsbacka","iucnkategori":"V, Skyddat landskap/havsområde (Protected Landscape/Seascape)","forvaltare":"Länsstyrelsen i Hallands län","data_friluftsliv_publicerat":"Ja","area_ha":1664.43,"land_ha":658.89,"skog_ha":103.69,"vatten_ha":1005.54}}],"totalFeatures":2,"numberMatched":2,"numberReturned":2,"timeStamp":"2026-04-30T17:09:00.857Z","crs":{"type":"name","properties":{"name":"urn:ogc:def:crs:EPSG::4326"}}}
