{
  "type": "FeatureCollection",
  "features": [
    {
      "type": "Feature",
      "properties": {
        "name": "Roslagsleden stage 1 Danderyd-Karby gård by Naturkartan"
      },
      "geometry": {
        "type": "LineString",
        "coordinates": [
          [
            18.031280400000014,
            59.4115678
          ],
          [
            18.03126629999997,
            59.4116125
          ],
          [
            18.03124550000007,
            59.4116643
          ],
          [
            18.03119730000003,
            59.4116878
          ],
          [
            18.03109240000003,
            59.4116923
          ],
          [
            18.03086099999996,
            59.4116701
          ],
          [
            18.03050729999995,
            59.4116763
          ],
          [
            18.03022499999997,
            59.4116171
          ],
          [
            18.02990150000005,
            59.4115986
          ],
          [
            18.02954899999997,
            59.4116134
          ],
          [
            18.02931999999998,
            59.4116763
          ],
          [
            18.02909590000002,
            59.4117114
          ],
          [
            18.02890079999997,
            59.4117934
          ],
          [
            18.02872639999998,
            59.4119266
          ],
          [
            18.02873969999996,
            59.4120671
          ],
          [
            18.028816000000006,
            59.4122533
          ],
          [
            18.02895409999996,
            59.4124006
          ],
          [
            18.029045,
            59.4125689
          ],
          [
            18.02915770000004,
            59.41263
          ],
          [
            18.02945449999993,
            59.4127557
          ],
          [
            18.02962530000002,
            59.4129191
          ],
          [
            18.02968829999998,
            59.4130856
          ],
          [
            18.029675,
            59.4131947
          ],
          [
            18.0295466,
            59.4133321
          ],
          [
            18.02951410000003,
            59.4133689
          ],
          [
            18.029395099999988,
            59.4135035
          ],
          [
            18.02931519999993,
            59.4135651
          ],
          [
            18.02930300000003,
            59.4135738
          ],
          [
            18.02897110000004,
            59.4136965
          ],
          [
            18.02854950000005,
            59.4138623
          ],
          [
            18.028310799999986,
            59.4140072
          ],
          [
            18.02820780000002,
            59.4141064
          ],
          [
            18.02817270000003,
            59.4142198
          ],
          [
            18.0282042,
            59.4143141
          ],
          [
            18.02819569999997,
            59.4145176
          ],
          [
            18.02799170000003,
            59.4150724
          ],
          [
            18.02784510000004,
            59.4152193
          ],
          [
            18.02784180000003,
            59.4153246
          ],
          [
            18.02783580000005,
            59.4155126
          ],
          [
            18.02761859999998,
            59.41591
          ],
          [
            18.02727500000003,
            59.4162089
          ],
          [
            18.02712480000002,
            59.416311
          ],
          [
            18.02670809999995,
            59.4163097
          ],
          [
            18.02628949999996,
            59.4162293
          ],
          [
            18.02535060000002,
            59.4164084
          ],
          [
            18.02443389999996,
            59.4163546
          ],
          [
            18.02362289999996,
            59.4162111
          ],
          [
            18.023340899999994,
            59.4162021
          ],
          [
            18.02298829999995,
            59.4162469
          ],
          [
            18.02256520000003,
            59.4163994
          ],
          [
            18.021791000000007,
            59.4169012
          ],
          [
            18.02165190000005,
            59.4169914
          ],
          [
            18.02143239999998,
            59.41735
          ],
          [
            18.02083160000007,
            59.417594
          ],
          [
            18.02066990000003,
            59.4178085
          ],
          [
            18.02027129999999,
            59.4182024
          ],
          [
            18.019932100000005,
            59.4183823
          ],
          [
            18.01950250000004,
            59.4182968
          ],
          [
            18.01920970000003,
            59.418262
          ],
          [
            18.01857480000001,
            59.4181757
          ],
          [
            18.01812040000004,
            59.4181938
          ],
          [
            18.01788769999996,
            59.4181811
          ],
          [
            18.0175352,
            59.4183556
          ],
          [
            18.01712280000004,
            59.4184705
          ],
          [
            18.01686470000004,
            59.4185657
          ],
          [
            18.01664470000003,
            59.4186885
          ],
          [
            18.01637649999998,
            59.4187677
          ],
          [
            18.01600630000007,
            59.4188223
          ],
          [
            18.015541600000006,
            59.4188781
          ],
          [
            18.01525000000004,
            59.4189396
          ],
          [
            18.01505150000003,
            59.4190215
          ],
          [
            18.01500320000002,
            59.419147
          ],
          [
            18.01505150000003,
            59.4192808
          ],
          [
            18.01512120000007,
            59.4194281
          ],
          [
            18.01514270000007,
            59.4195919
          ],
          [
            18.01508369999999,
            59.4197065
          ],
          [
            18.01492269999994,
            59.419873
          ],
          [
            18.01481390000004,
            59.4200442
          ],
          [
            18.01468669999997,
            59.4202441
          ],
          [
            18.0145794,
            59.4204734
          ],
          [
            18.01445530000001,
            59.4206937
          ],
          [
            18.0144209,
            59.4207747
          ],
          [
            18.01435990000004,
            59.4212329
          ],
          [
            18.014537399999995,
            59.4214503
          ],
          [
            18.01451610000004,
            59.4219926
          ],
          [
            18.01466219999998,
            59.4221699
          ],
          [
            18.01490809999996,
            59.4222387
          ],
          [
            18.01542169999993,
            59.4222039
          ],
          [
            18.0159658,
            59.4222531
          ],
          [
            18.01692189999994,
            59.4221813
          ],
          [
            18.017838299999994,
            59.4223069
          ],
          [
            18.01813330000004,
            59.4224508
          ],
          [
            18.018144699999993,
            59.4225041
          ],
          [
            18.01818200000002,
            59.4226785
          ],
          [
            18.01819899999998,
            59.4227579
          ],
          [
            18.01850620000005,
            59.4229758
          ],
          [
            18.01862110000002,
            59.4231259
          ],
          [
            18.01839399999994,
            59.4232668
          ],
          [
            18.0181255,
            59.4234397
          ],
          [
            18.01799600000004,
            59.4236406
          ],
          [
            18.01781919999996,
            59.4238245
          ],
          [
            18.017473300000006,
            59.4240147
          ],
          [
            18.017202999999995,
            59.4241634
          ],
          [
            18.01673470000003,
            59.4243383
          ],
          [
            18.01648739999996,
            59.4243702
          ],
          [
            18.015860900000007,
            59.4244972
          ],
          [
            18.01568900000007,
            59.424532
          ],
          [
            18.01530909999997,
            59.4247667
          ],
          [
            18.01515670000003,
            59.4248609
          ],
          [
            18.01514680000002,
            59.4249381
          ],
          [
            18.01514309999993,
            59.4251032
          ],
          [
            18.01519350000001,
            59.4251977
          ],
          [
            18.01536620000002,
            59.4253633
          ],
          [
            18.01547759999994,
            59.4257455
          ],
          [
            18.0154589,
            59.4260688
          ],
          [
            18.01564810000002,
            59.4263389
          ],
          [
            18.0157944,
            59.4265293
          ],
          [
            18.01564510000003,
            59.4268633
          ],
          [
            18.01541229999998,
            59.4271481
          ],
          [
            18.0151214,
            59.4273398
          ],
          [
            18.01461530000006,
            59.4274335
          ],
          [
            18.01419369999996,
            59.4275206
          ],
          [
            18.01381730000003,
            59.427673
          ],
          [
            18.01356609999993,
            59.4279655
          ],
          [
            18.01340219999997,
            59.4281755
          ],
          [
            18.01322679999998,
            59.4283066
          ],
          [
            18.0129938,
            59.4284648
          ],
          [
            18.01265669999998,
            59.4285259
          ],
          [
            18.01229639999997,
            59.4285931
          ],
          [
            18.01182029999995,
            59.4285786
          ],
          [
            18.01128870000002,
            59.4286114
          ],
          [
            18.01058549999993,
            59.4287095
          ],
          [
            18.010265300000015,
            59.4288365
          ],
          [
            18.01018870000007,
            59.4289163
          ],
          [
            18.00998949999996,
            59.4290713
          ],
          [
            18.009646299999986,
            59.4293276
          ],
          [
            18.00855479999996,
            59.4301197
          ],
          [
            18.00801460000002,
            59.4305438
          ],
          [
            18.00799380000001,
            59.4305601
          ],
          [
            18.00782270000002,
            59.4307353
          ],
          [
            18.00692749999996,
            59.4313666
          ],
          [
            18.0068503,
            59.4314528
          ],
          [
            18.006238499999995,
            59.4322253
          ],
          [
            18.005853,
            59.4327344
          ],
          [
            18.00544109999998,
            59.4331555
          ],
          [
            18.00496320000002,
            59.4334827
          ],
          [
            18.00491490000002,
            59.4335189
          ],
          [
            18.00482450000004,
            59.4335748
          ],
          [
            18.00472409999998,
            59.4336369
          ],
          [
            18.00453189999996,
            59.4337719
          ],
          [
            18.0043809,
            59.4338294
          ],
          [
            18.00407569999993,
            59.4340208
          ],
          [
            18.00386739999999,
            59.4342867
          ],
          [
            18.00371010000003,
            59.4346218
          ],
          [
            18.003738,
            59.4348103
          ],
          [
            18.00335530000007,
            59.4351963
          ],
          [
            18.00326840000002,
            59.4353931
          ],
          [
            18.00316470000007,
            59.4356103
          ],
          [
            18.00269019999996,
            59.4360996
          ],
          [
            18.00245910000001,
            59.4363405
          ],
          [
            18.00230620000002,
            59.4364839
          ],
          [
            18.00203169999997,
            59.436507
          ],
          [
            18.00167940000006,
            59.4364493
          ],
          [
            18.00117560000001,
            59.4363513
          ],
          [
            18.00029970000003,
            59.4363308
          ],
          [
            17.99973290000003,
            59.4362448
          ],
          [
            17.99931370000002,
            59.4362618
          ],
          [
            17.99898380000002,
            59.4362554
          ],
          [
            17.9986447,
            59.4363368
          ],
          [
            17.99844380000002,
            59.43646
          ],
          [
            17.99833850000005,
            59.4365473
          ],
          [
            17.99812759999998,
            59.4366824
          ],
          [
            17.99762229999999,
            59.4368669
          ],
          [
            17.99701670000002,
            59.4369424
          ],
          [
            17.99659010000005,
            59.4368972
          ],
          [
            17.99638319999997,
            59.4368664
          ],
          [
            17.99596550000001,
            59.4368175
          ],
          [
            17.99581720000003,
            59.4368177
          ],
          [
            17.995709799999986,
            59.4368314
          ],
          [
            17.99559079999995,
            59.4368694
          ],
          [
            17.99547229999996,
            59.4369489
          ],
          [
            17.99552300000005,
            59.4370085
          ],
          [
            17.99547770000004,
            59.4372464
          ],
          [
            17.99544530000003,
            59.4374266
          ],
          [
            17.99541090000002,
            59.4375999
          ],
          [
            17.99536409999996,
            59.4376611
          ],
          [
            17.99519889999999,
            59.4376781
          ],
          [
            17.99451539999995,
            59.4378109
          ],
          [
            17.99366359999999,
            59.4380746
          ],
          [
            17.99333469999999,
            59.438026
          ],
          [
            17.9928989,
            59.4381384
          ],
          [
            17.99311009999997,
            59.4383438
          ],
          [
            17.992219299999988,
            59.4395465
          ],
          [
            17.99243739999997,
            59.4399426
          ],
          [
            17.99253620000002,
            59.440142
          ],
          [
            17.99258880000002,
            59.4402408
          ],
          [
            17.99273540000002,
            59.4404292
          ],
          [
            17.99292130000003,
            59.4406692
          ],
          [
            17.9930372,
            59.4408187
          ],
          [
            17.993126200000006,
            59.4409523
          ],
          [
            17.99338080000007,
            59.4411491
          ],
          [
            17.993596700000012,
            59.4413108
          ],
          [
            17.99381689999996,
            59.4415139
          ],
          [
            17.99384800000007,
            59.4417683
          ],
          [
            17.99402320000002,
            59.4421579
          ],
          [
            17.99415479999993,
            59.4424212
          ],
          [
            17.99408489999996,
            59.4427103
          ],
          [
            17.993831,
            59.4429088
          ],
          [
            17.99361269999997,
            59.443129
          ],
          [
            17.99344159999998,
            59.4436229
          ],
          [
            17.99288649999994,
            59.4439042
          ],
          [
            17.99152920000006,
            59.4442604
          ],
          [
            17.99137129999997,
            59.4445564
          ],
          [
            17.99142259999996,
            59.4450716
          ],
          [
            17.991415899999993,
            59.4452847
          ],
          [
            17.99201389999996,
            59.4454412
          ],
          [
            17.99218050000002,
            59.4455918
          ],
          [
            17.99211089999994,
            59.4458906
          ],
          [
            17.992050199999994,
            59.4461511
          ],
          [
            17.99206170000002,
            59.4465891
          ],
          [
            17.99192600000003,
            59.4469859
          ],
          [
            17.99151670000003,
            59.4473147
          ],
          [
            17.99134660000004,
            59.4475321
          ],
          [
            17.991128,
            59.4476493
          ],
          [
            17.99107260000005,
            59.447679
          ],
          [
            17.990365999999995,
            59.4478375
          ],
          [
            17.99005940000006,
            59.4479063
          ],
          [
            17.989487800000006,
            59.4480613
          ],
          [
            17.98925740000004,
            59.4481276
          ],
          [
            17.9881365,
            59.4490561
          ],
          [
            17.9881001,
            59.4494133
          ],
          [
            17.987925399999995,
            59.449664
          ],
          [
            17.98729219999996,
            59.4498731
          ],
          [
            17.98681320000003,
            59.4500567
          ],
          [
            17.986493300000006,
            59.4502922
          ],
          [
            17.98626850000005,
            59.4506096
          ],
          [
            17.98592699999995,
            59.4508086
          ],
          [
            17.98614359999999,
            59.4511212
          ],
          [
            17.98655150000002,
            59.451436
          ],
          [
            17.98736659999997,
            59.4519066
          ],
          [
            17.9878248,
            59.4521506
          ],
          [
            17.9884472,
            59.4524305
          ],
          [
            17.98856339999998,
            59.4524852
          ],
          [
            17.98867900000005,
            59.4525391
          ],
          [
            17.98872719999997,
            59.4525619
          ],
          [
            17.98885519999999,
            59.4526225
          ],
          [
            17.989062999999987,
            59.4527785
          ],
          [
            17.98904300000004,
            59.4529389
          ],
          [
            17.98901139999998,
            59.4530999
          ],
          [
            17.98908770000003,
            59.4533124
          ],
          [
            17.988943199999994,
            59.453436
          ],
          [
            17.98892139999998,
            59.4535275
          ],
          [
            17.98892950000004,
            59.4536792
          ],
          [
            17.989123199999995,
            59.4536912
          ],
          [
            17.98932820000005,
            59.4537313
          ],
          [
            17.989614899999992,
            59.4537898
          ],
          [
            17.98975310000003,
            59.4538027
          ],
          [
            17.98987220000004,
            59.4538242
          ],
          [
            17.98998210000002,
            59.453822
          ],
          [
            17.99027520000004,
            59.4537874
          ],
          [
            17.99055450000003,
            59.4537234
          ],
          [
            17.99075629999993,
            59.4538692
          ],
          [
            17.99087459999998,
            59.4540663
          ],
          [
            17.9908021,
            59.4543751
          ],
          [
            17.99094730000002,
            59.4546181
          ],
          [
            17.99132859999997,
            59.4549834
          ],
          [
            17.99183300000004,
            59.4551488
          ],
          [
            17.992321199999992,
            59.4552082
          ],
          [
            17.99254999999994,
            59.4552951
          ],
          [
            17.992684199999985,
            59.4553091
          ],
          [
            17.993012099999987,
            59.4552843
          ],
          [
            17.99341530000004,
            59.4553716
          ],
          [
            17.99368879999997,
            59.4554823
          ],
          [
            17.99376919999997,
            59.4558298
          ],
          [
            17.99409200000002,
            59.4560318
          ],
          [
            17.99505210000007,
            59.4560361
          ],
          [
            17.99581239999998,
            59.4559508
          ],
          [
            17.99630260000004,
            59.455864
          ],
          [
            17.9967226,
            59.455811
          ],
          [
            17.9970849,
            59.455745
          ],
          [
            17.99747290000005,
            59.4555797
          ],
          [
            17.99788000000001,
            59.4554764
          ],
          [
            17.9982761,
            59.4552706
          ],
          [
            17.99839889999998,
            59.4551703
          ],
          [
            17.99876459999996,
            59.4551892
          ],
          [
            17.999133099999995,
            59.4552991
          ],
          [
            17.99935460000006,
            59.4556885
          ],
          [
            17.99953060000007,
            59.4557454
          ],
          [
            17.99996780000004,
            59.4557151
          ],
          [
            18.00041650000003,
            59.4558676
          ],
          [
            18.00093809999998,
            59.4557076
          ],
          [
            18.00123789999998,
            59.4556697
          ],
          [
            18.00138100000004,
            59.4556688
          ],
          [
            18.00159280000003,
            59.4556693
          ],
          [
            18.002430300000015,
            59.4555093
          ],
          [
            18.00304940000001,
            59.4553048
          ],
          [
            18.003153300000008,
            59.4553307
          ],
          [
            18.00339280000003,
            59.4553786
          ],
          [
            18.00385540000002,
            59.4553513
          ],
          [
            18.00416229999996,
            59.4552846
          ],
          [
            18.00441120000005,
            59.4553044
          ],
          [
            18.00458520000007,
            59.4553855
          ],
          [
            18.00462730000004,
            59.4554192
          ],
          [
            18.0051393,
            59.4556805
          ],
          [
            18.00545839999995,
            59.4557932
          ],
          [
            18.00580850000006,
            59.4560567
          ],
          [
            18.00622670000007,
            59.456465
          ],
          [
            18.00665989999993,
            59.4566777
          ],
          [
            18.00747649999994,
            59.4569327
          ],
          [
            18.00814450000007,
            59.4571534
          ],
          [
            18.0081606,
            59.4572861
          ],
          [
            18.00790959999995,
            59.4573928
          ],
          [
            18.00773260000005,
            59.4574641
          ],
          [
            18.00663150000003,
            59.4579368
          ],
          [
            18.006238499999995,
            59.4583514
          ],
          [
            18.00611830000003,
            59.4586533
          ],
          [
            18.005733599999985,
            59.459005
          ],
          [
            18.005171399999995,
            59.4593215
          ],
          [
            18.00461389999998,
            59.4596497
          ],
          [
            18.00386419999995,
            59.4600486
          ],
          [
            18.00324660000001,
            59.460469
          ],
          [
            18.003374699999995,
            59.4606181
          ],
          [
            18.00354709999999,
            59.4607694
          ],
          [
            18.00354849999997,
            59.4608827
          ],
          [
            18.0034852,
            59.4609434
          ],
          [
            18.00327119999997,
            59.4610042
          ],
          [
            18.00306260000002,
            59.461002
          ],
          [
            18.00278230000004,
            59.4611799
          ],
          [
            18.0026967,
            59.4611721
          ],
          [
            18.00235629999997,
            59.461236
          ],
          [
            18.00222880000001,
            59.4612195
          ],
          [
            18.00218500000005,
            59.4611972
          ],
          [
            18.0021395,
            59.4612255
          ],
          [
            18.00200330000007,
            59.4612137
          ],
          [
            18.00188270000001,
            59.461169
          ],
          [
            18.001744400000007,
            59.4611863
          ],
          [
            18.00122540000007,
            59.4610417
          ],
          [
            18.00073700000007,
            59.46098
          ],
          [
            18.00060510000003,
            59.4610516
          ],
          [
            18.00043170000004,
            59.4610006
          ],
          [
            18.00007490000007,
            59.4609842
          ],
          [
            17.999894100000006,
            59.4611139
          ],
          [
            17.99971860000005,
            59.4612261
          ],
          [
            17.99966570000004,
            59.4614415
          ],
          [
            17.9995606,
            59.4615208
          ],
          [
            17.999015600000007,
            59.4616388
          ],
          [
            17.99872449999998,
            59.4617696
          ],
          [
            17.99869060000003,
            59.4619764
          ],
          [
            17.99863619999996,
            59.4622197
          ],
          [
            17.99859760000004,
            59.4624252
          ],
          [
            17.99865999999997,
            59.4628642
          ],
          [
            17.99869139999998,
            59.4630286
          ],
          [
            17.99876659999995,
            59.463115
          ],
          [
            17.99872920000007,
            59.463337
          ],
          [
            17.99886259999994,
            59.4633798
          ],
          [
            17.99917370000003,
            59.4634831
          ],
          [
            17.99971949999997,
            59.4634695
          ],
          [
            18.00014620000002,
            59.4635174
          ],
          [
            18.00048249999998,
            59.4637484
          ],
          [
            18.00081239999997,
            59.4638772
          ],
          [
            18.00126449999993,
            59.4642102
          ],
          [
            18.00188849999995,
            59.4646617
          ],
          [
            18.0018791,
            59.4648132
          ],
          [
            18.001985600000012,
            59.4649606
          ],
          [
            18.00234720000003,
            59.4650659
          ],
          [
            18.00294989999998,
            59.4650349
          ],
          [
            18.00369339999997,
            59.4652327
          ],
          [
            18.00481200000002,
            59.4654003
          ],
          [
            18.00538040000004,
            59.4657945
          ],
          [
            18.00577429999998,
            59.4660212
          ],
          [
            18.00651489999996,
            59.4660079
          ],
          [
            18.00687419999997,
            59.4659698
          ],
          [
            18.00744740000005,
            59.4662179
          ],
          [
            18.00790259999997,
            59.4664187
          ],
          [
            18.008747599999992,
            59.4666118
          ],
          [
            18.00946250000004,
            59.4667352
          ],
          [
            18.0097303,
            59.4667868
          ],
          [
            18.01081880000004,
            59.4667479
          ],
          [
            18.01156179999998,
            59.4667125
          ],
          [
            18.01199310000004,
            59.4668129
          ],
          [
            18.01238060000003,
            59.4670454
          ],
          [
            18.0123466,
            59.4680509
          ],
          [
            18.0120852,
            59.4682631
          ],
          [
            18.01193910000006,
            59.4690589
          ],
          [
            18.01200219999998,
            59.4693437
          ],
          [
            18.01200219999998,
            59.4696815
          ],
          [
            18.01318820000006,
            59.4698603
          ],
          [
            18.01370450000002,
            59.4699816
          ],
          [
            18.01418309999997,
            59.4701792
          ],
          [
            18.01456029999997,
            59.4703604
          ],
          [
            18.016077,
            59.4708575
          ],
          [
            18.01744759999997,
            59.4714372
          ],
          [
            18.01920330000007,
            59.471596
          ],
          [
            18.01934800000004,
            59.4716
          ],
          [
            18.01995390000002,
            59.4717904
          ],
          [
            18.02011440000001,
            59.4718239
          ],
          [
            18.02030430000002,
            59.4718464
          ],
          [
            18.02055489999998,
            59.4719019
          ],
          [
            18.02060329999995,
            59.4719532
          ],
          [
            18.0208983,
            59.4720312
          ],
          [
            18.021207,
            59.4720738
          ],
          [
            18.02134750000005,
            59.472791
          ],
          [
            18.02142030000005,
            59.4731519
          ],
          [
            18.02143649999994,
            59.4735829
          ],
          [
            18.02125690000003,
            59.4739127
          ],
          [
            18.02104600000007,
            59.4742431
          ],
          [
            18.02076869999996,
            59.474834
          ],
          [
            18.02066779999996,
            59.4748807
          ],
          [
            18.020742100000007,
            59.4749649
          ],
          [
            18.0207249,
            59.4751124
          ],
          [
            18.02066279999997,
            59.4756602
          ],
          [
            18.02060959999994,
            59.4762104
          ],
          [
            18.0206081,
            59.4762731
          ],
          [
            18.02061090000007,
            59.4763236
          ],
          [
            18.02060929999993,
            59.4764213
          ],
          [
            18.020571399999994,
            59.476634
          ],
          [
            18.02038140000002,
            59.4777005
          ],
          [
            18.0202468,
            59.47802
          ],
          [
            18.02021549999995,
            59.4786037
          ],
          [
            18.02009410000005,
            59.478885
          ],
          [
            18.01989989999993,
            59.4790796
          ],
          [
            18.019566199999986,
            59.4794342
          ],
          [
            18.0195483,
            59.4794532
          ],
          [
            18.019677,
            59.4796083
          ],
          [
            18.01980389999994,
            59.4796447
          ],
          [
            18.02000329999998,
            59.4800478
          ],
          [
            18.02005439999994,
            59.4801055
          ],
          [
            18.02012830000001,
            59.4803632
          ],
          [
            18.02020590000006,
            59.4804535
          ],
          [
            18.02035350000006,
            59.4805025
          ],
          [
            18.02061479999998,
            59.480566
          ],
          [
            18.02089679999995,
            59.4806073
          ],
          [
            18.02116909999995,
            59.4806525
          ],
          [
            18.02129200000002,
            59.4806333
          ],
          [
            18.02144440000006,
            59.4805949
          ],
          [
            18.02173730000004,
            59.4805441
          ],
          [
            18.02227519999997,
            59.4804007
          ],
          [
            18.02295849999996,
            59.4802986
          ],
          [
            18.023745899999994,
            59.480178
          ],
          [
            18.02416629999993,
            59.480114
          ],
          [
            18.02462430000003,
            59.4800119
          ],
          [
            18.02477939999994,
            59.4799461
          ],
          [
            18.02495499999998,
            59.4799417
          ],
          [
            18.02531479999993,
            59.4799983
          ],
          [
            18.02552560000004,
            59.4800586
          ],
          [
            18.025620300000014,
            59.4801013
          ],
          [
            18.02562260000002,
            59.4801023
          ],
          [
            18.02609630000006,
            59.4802986
          ],
          [
            18.02633609999998,
            59.4804216
          ],
          [
            18.02651300000002,
            59.480632
          ],
          [
            18.02653850000002,
            59.4807674
          ],
          [
            18.02666690000001,
            59.480955
          ],
          [
            18.02680980000002,
            59.4810233
          ],
          [
            18.02702550000004,
            59.4810781
          ],
          [
            18.027328399999988,
            59.481211
          ],
          [
            18.027378,
            59.4812873
          ],
          [
            18.02744710000002,
            59.4814011
          ],
          [
            18.02758159999996,
            59.4815044
          ],
          [
            18.02778030000002,
            59.4817308
          ],
          [
            18.02795730000003,
            59.4818735
          ],
          [
            18.02815190000001,
            59.4819975
          ],
          [
            18.0283306,
            59.4820379
          ],
          [
            18.02847220000001,
            59.4820613
          ],
          [
            18.02862089999996,
            59.4820784
          ],
          [
            18.02882969999996,
            59.4821206
          ],
          [
            18.02908990000003,
            59.4820741
          ],
          [
            18.0293504,
            59.4820194
          ],
          [
            18.02967020000006,
            59.4819554
          ],
          [
            18.029965800000014,
            59.4819308
          ],
          [
            18.03018270000007,
            59.4818846
          ],
          [
            18.03059459999997,
            59.4818471
          ],
          [
            18.03105490000007,
            59.4819037
          ],
          [
            18.03131910000002,
            59.4820132
          ],
          [
            18.03156379999996,
            59.4822538
          ],
          [
            18.03172010000003,
            59.4825097
          ],
          [
            18.03194299999996,
            59.4827625
          ],
          [
            18.03242999999998,
            59.4831415
          ],
          [
            18.03262510000002,
            59.4832344
          ],
          [
            18.03281040000002,
            59.4832615
          ],
          [
            18.03304550000007,
            59.4831784
          ],
          [
            18.03315210000005,
            59.4831286
          ],
          [
            18.03335560000005,
            59.4831083
          ],
          [
            18.03374570000005,
            59.4831089
          ],
          [
            18.03420729999993,
            59.4831895
          ],
          [
            18.03504440000006,
            59.4833519
          ],
          [
            18.0352249,
            59.4833851
          ],
          [
            18.03547690000005,
            59.483526
          ],
          [
            18.03573860000006,
            59.4836177
          ],
          [
            18.03601609999998,
            59.4836933
          ],
          [
            18.03621469999996,
            59.4837019
          ],
          [
            18.0365031,
            59.4836847
          ],
          [
            18.03683620000004,
            59.4836669
          ],
          [
            18.03706890000001,
            59.4836589
          ],
          [
            18.03736809999998,
            59.483705
          ],
          [
            18.03782120000005,
            59.4838687
          ],
          [
            18.03809739999997,
            59.4839985
          ],
          [
            18.03822460000004,
            59.4840526
          ],
          [
            18.03833970000005,
            59.4840637
          ],
          [
            18.03848629999993,
            59.4840446
          ],
          [
            18.03862930000003,
            59.4840022
          ],
          [
            18.03878800000007,
            59.4839062
          ],
          [
            18.03891399999998,
            59.4838022
          ],
          [
            18.038999999999987,
            59.4837222
          ],
          [
            18.03910300000007,
            59.4836835
          ],
          [
            18.03934530000004,
            59.483673
          ],
          [
            18.03966390000005,
            59.4836663
          ],
          [
            18.04012669999997,
            59.4837475
          ],
          [
            18.04069819999995,
            59.4837945
          ],
          [
            18.0407884,
            59.4838092
          ],
          [
            18.04079090000005,
            59.4838096
          ],
          [
            18.04091040000003,
            59.483832
          ],
          [
            18.04115520000005,
            59.4838427
          ],
          [
            18.04142990000003,
            59.4838833
          ],
          [
            18.04256420000002,
            59.4841609
          ],
          [
            18.04286909999996,
            59.4842646
          ],
          [
            18.04287069999998,
            59.484265
          ],
          [
            18.04313509999997,
            59.4843393
          ],
          [
            18.04337439999995,
            59.4844631
          ],
          [
            18.04342889999998,
            59.48454
          ],
          [
            18.04339559999994,
            59.48464
          ],
          [
            18.04329259999997,
            59.4848376
          ],
          [
            18.042591399999992,
            59.4854597
          ],
          [
            18.04249600000003,
            59.4855704
          ],
          [
            18.042480899999987,
            59.4856181
          ],
          [
            18.04254000000003,
            59.4856419
          ],
          [
            18.04269290000002,
            59.4856604
          ],
          [
            18.04284589999997,
            59.4856712
          ],
          [
            18.04290489999994,
            59.4856496
          ],
          [
            18.04309880000005,
            59.4855474
          ],
          [
            18.04350009999996,
            59.4854559
          ],
          [
            18.04413009999996,
            59.4853151
          ],
          [
            18.044560100000012,
            59.4852629
          ],
          [
            18.04488719999995,
            59.4852298
          ],
          [
            18.04545510000003,
            59.4850952
          ],
          [
            18.04600329999994,
            59.4850598
          ],
          [
            18.04649849999998,
            59.4849276
          ],
          [
            18.04694530000006,
            59.4848907
          ],
          [
            18.04716180000003,
            59.4848999
          ],
          [
            18.04737079999995,
            59.4848845
          ],
          [
            18.047866,
            59.4849176
          ],
          [
            18.04815830000007,
            59.4849837
          ],
          [
            18.04839500000003,
            59.4849828
          ],
          [
            18.04840039999999,
            59.4849827
          ],
          [
            18.04852929999993,
            59.484953
          ],
          [
            18.04876409999997,
            59.4847876
          ],
          [
            18.04891099999998,
            59.48465
          ],
          [
            18.04901240000004,
            59.4844255
          ],
          [
            18.04917449999994,
            59.4843232
          ],
          [
            18.04942890000007,
            59.4842148
          ],
          [
            18.04961579999997,
            59.4840754
          ],
          [
            18.04983519999996,
            59.4838796
          ],
          [
            18.050095199999987,
            59.4837788
          ],
          [
            18.05034509999996,
            59.4836188
          ],
          [
            18.05065549999995,
            59.4835604
          ],
          [
            18.05076759999997,
            59.4835165
          ],
          [
            18.05085540000005,
            59.4834728
          ],
          [
            18.05105079999998,
            59.4833358
          ],
          [
            18.051168899999993,
            59.4832482
          ],
          [
            18.05116739999994,
            59.4831605
          ],
          [
            18.05103710000003,
            59.4829859
          ],
          [
            18.05096600000002,
            59.482899
          ],
          [
            18.05097049999995,
            59.4828567
          ],
          [
            18.05104619999997,
            59.482816
          ],
          [
            18.05119460000003,
            59.4827768
          ],
          [
            18.051291600000013,
            59.482746
          ],
          [
            18.05137939999997,
            59.4826806
          ],
          [
            18.05143240000007,
            59.4824799
          ],
          [
            18.05164289999993,
            59.4823492
          ],
          [
            18.05194270000004,
            59.4822546
          ],
          [
            18.05211840000004,
            59.4822462
          ],
          [
            18.05290890000003,
            59.4819247
          ],
          [
            18.0531436,
            59.481854
          ],
          [
            18.05336020000004,
            59.4817409
          ],
          [
            18.053469199999995,
            59.4815948
          ],
          [
            18.05354609999995,
            59.4815111
          ],
          [
            18.05352459999995,
            59.4814859
          ],
          [
            18.053419200000008,
            59.4813767
          ],
          [
            18.05331160000003,
            59.4811986
          ],
          [
            18.05303170000002,
            59.4802259
          ],
          [
            18.05297759999996,
            59.4795967
          ],
          [
            18.05298830000004,
            59.4793809
          ],
          [
            18.053042699999992,
            59.4792696
          ]
        ]
      }
    }
  ]
}