{
  "type": "FeatureCollection",
  "features": [
    {
      "type": "Feature",
      "properties": {
        "name": "Hälsans stig - Stockholm Kungsholmen by Naturkartan"
      },
      "geometry": {
        "type": "LineString",
        "coordinates": [
          [
            18.0378985273375,
            59.3363150395846
          ],
          [
            18.0308604108824,
            59.337518788532
          ],
          [
            18.0239081251158,
            59.3387443799982
          ],
          [
            18.0227923261656,
            59.3389413459309
          ],
          [
            18.0219769346251,
            59.338963230964
          ],
          [
            18.020517812921,
            59.3388756907469
          ],
          [
            18.019616590692,
            59.3389194608836
          ],
          [
            18.018715368463,
            59.3390507709554
          ],
          [
            18.0175995695128,
            59.339466582834
          ],
          [
            18.0173420774474,
            59.3397948517741
          ],
          [
            18.0155825483336,
            59.3399480428605
          ],
          [
            18.0149817335143,
            59.3402763071475
          ],
          [
            18.0132222044005,
            59.3404513801366
          ],
          [
            18.012235151483,
            59.3406264522234
          ],
          [
            18.0116772520079,
            59.3407577556963
          ],
          [
            18.0105614530577,
            59.3406483361708
          ],
          [
            18.0090165006651,
            59.3407139879284
          ],
          [
            18.0078577863707,
            59.3406921040233
          ],
          [
            18.0066132413878,
            59.3404951482429
          ],
          [
            18.004853712274,
            59.3400355803139
          ],
          [
            18.004124151422,
            59.3394884675287
          ],
          [
            18.002150045587,
            59.3385911834832
          ],
          [
            17.9997467863097,
            59.3376063322461
          ],
          [
            17.9973435270323,
            59.3366214524546
          ],
          [
            17.9969572889342,
            59.3363150395846
          ],
          [
            17.9966997968688,
            59.3359648500631
          ],
          [
            17.996742712213,
            59.335745979779
          ],
          [
            17.99691437359,
            59.3353082349804
          ],
          [
            17.9969572889342,
            59.3348704845412
          ],
          [
            17.9972576963439,
            59.3344108405092
          ],
          [
            17.9979443418517,
            59.3342138483061
          ],
          [
            17.9979872571959,
            59.3339949667407
          ],
          [
            17.9975151884093,
            59.333425868071
          ],
          [
            17.9977726804747,
            59.3332507588701
          ],
          [
            17.9991459714903,
            59.3330318710999
          ],
          [
            18.0000471937193,
            59.3328567598683
          ],
          [
            18.001248823358,
            59.332659758654
          ],
          [
            18.0024075376525,
            59.3323095314525
          ],
          [
            18.0035233366026,
            59.3320906376183
          ],
          [
            18.0036949979796,
            59.3318279631557
          ],
          [
            18.0033516752257,
            59.3316528457191
          ],
          [
            18.0028366910948,
            59.3317622942227
          ],
          [
            18.0021929609313,
            59.3318936319617
          ],
          [
            18.0016350614562,
            59.3318936319617
          ],
          [
            18.0005621778502,
            59.3320468586822
          ],
          [
            17.9993605482115,
            59.3321563059166
          ],
          [
            17.997643934442,
            59.3321563059166
          ],
          [
            17.9971718656554,
            59.3320468586822
          ],
          [
            17.9968714582457,
            59.3317841838811
          ],
          [
            17.9966568815245,
            59.3313244980928
          ],
          [
            17.9962706434264,
            59.3308210255696
          ],
          [
            17.9966568815245,
            59.3304926699048
          ],
          [
            17.9978585111632,
            59.3297264943469
          ],
          [
            18.0007338392272,
            59.3290040844258
          ],
          [
            18.0017638074889,
            59.3293762369092
          ],
          [
            18.0015921461119,
            59.328828952435
          ],
          [
            18.0036091672911,
            59.3282378753024
          ],
          [
            18.0052828657164,
            59.3274935413249
          ],
          [
            18.0082440244689,
            59.3268367625112
          ],
          [
            18.0083727705016,
            59.3266616193504
          ],
          [
            18.0085873472228,
            59.3263989029168
          ]
        ]
      }
    },
    {
      "type": "Feature",
      "properties": {
        "name": "Hälsans stig - Stockholm Kungsholmen by Naturkartan"
      },
      "geometry": {
        "type": "LineString",
        "coordinates": [
          [
            18.0094027387633,
            59.3261580777352
          ],
          [
            18.0100035535826,
            59.3260486111794
          ],
          [
            18.0103468763365,
            59.325917250847
          ],
          [
            18.0107760297789,
            59.3256326350516
          ],
          [
            18.0113768445983,
            59.3255450604811
          ],
          [
            18.0121493207945,
            59.3254355919508
          ],
          [
            18.0156683790221,
            59.3251728660392
          ],
          [
            18.0174708234801,
            59.32506339631
          ],
          [
            18.018715368463,
            59.32506339631
          ],
          [
            18.0199599134459,
            59.3251728660392
          ],
          [
            18.0211186277403,
            59.3256326350516
          ],
          [
            18.022491918756,
            59.3258953574089
          ],
          [
            18.0235648023619,
            59.3261580777352
          ],
          [
            18.0249380933775,
            59.3263332234911
          ],
          [
            18.0257964002623,
            59.3265959404324
          ],
          [
            18.0265688764586,
            59.3271651535048
          ],
          [
            18.0284571516051,
            59.3284567939577
          ],
          [
            18.0331778394713,
            59.3276905724939
          ],
          [
            18.0364823209776,
            59.3272089387308
          ],
          [
            18.0409455167784,
            59.3265521544166
          ],
          [
            18.0448078977599,
            59.3265083683443
          ],
          [
            18.0502581464781,
            59.3266616193504
          ],
          [
            18.0534338819518,
            59.3270009584047
          ]
        ]
      }
    },
    {
      "type": "Feature",
      "properties": {
        "name": "Hälsans stig - Stockholm Kungsholmen by Naturkartan"
      },
      "geometry": {
        "type": "LineString",
        "coordinates": [
          [
            18.0534553396239,
            59.3270119047693
          ],
          [
            18.053476797296,
            59.327953278942
          ],
          [
            18.0558371412291,
            59.3280627393627
          ],
          [
            18.0551504957213,
            59.3285005775195
          ],
          [
            18.0530047285094,
            59.3292667807195
          ],
          [
            18.0523180830016,
            59.3295513660794
          ],
          [
            18.0510735380187,
            59.3307115740339
          ],
          [
            18.0501294004454,
            59.3315871764477
          ],
          [
            18.048970686151,
            59.3329224266859
          ],
          [
            18.0489277708067,
            59.3332288701566
          ],
          [
            18.0486702787413,
            59.3335571993793
          ],
          [
            18.0481552946105,
            59.3338636371246
          ],
          [
            18.0475544797911,
            59.3340168549607
          ]
        ]
      }
    },
    {
      "type": "Feature",
      "properties": {
        "name": "Hälsans stig - Stockholm Kungsholmen by Naturkartan"
      },
      "geometry": {
        "type": "LineString",
        "coordinates": [
          [
            18.0466103422179,
            59.3343670645628
          ],
          [
            18.0459236967101,
            59.3346734950032
          ],
          [
            18.0454516279234,
            59.3349361474666
          ],
          [
            18.0440783369078,
            59.3352644601903
          ],
          [
            18.0433058607115,
            59.3354614463015
          ],
          [
            18.0418467390074,
            59.3357678668709
          ],
          [
            18.0409026014342,
            59.3359429630981
          ],
          [
            18.0397438871398,
            59.3360961715567
          ],
          [
            18.0390572416319,
            59.336183718937
          ],
          [
            18.0378985273375,
            59.3363150395846
          ]
        ]
      }
    }
  ]
}