{
  "type": "FeatureCollection",
  "features": [
    {
      "type": "Feature",
      "properties": {
        "name": "Roslagsleden section 8 - Vigelsjö-Roslagsbro by Naturkartan"
      },
      "geometry": {
        "type": "LineString",
        "coordinates": [
          [
            18.6775126797741,
            59.7581858369159
          ],
          [
            18.677286163961,
            59.7582375977674
          ],
          [
            18.677166186246,
            59.7582649720923
          ],
          [
            18.6770763530711,
            59.7583048394322
          ],
          [
            18.6767638434926,
            59.7583354061602
          ],
          [
            18.676438779185,
            59.7583284652007
          ],
          [
            18.6761929574236,
            59.7583481851548
          ],
          [
            18.6760925842744,
            59.7584183663365
          ],
          [
            18.6759517006342,
            59.7584672189883
          ],
          [
            18.6755530492486,
            59.7585067808987
          ],
          [
            18.6753117734059,
            59.7585460977573
          ],
          [
            18.675077214518,
            59.7586104078624
          ],
          [
            18.6748946956827,
            59.758661943272
          ],
          [
            18.674606335883,
            59.7587230401937
          ],
          [
            18.6741829716266,
            59.7588632126924
          ],
          [
            18.6740393103356,
            59.7589450830966
          ],
          [
            18.6739089499334,
            59.759031285102
          ],
          [
            18.6737838968678,
            59.7591663164409
          ],
          [
            18.6735567028311,
            59.7593555313575
          ],
          [
            18.6732513192452,
            59.7595276888018
          ],
          [
            18.6730079343218,
            59.7596275315943
          ],
          [
            18.6726159069166,
            59.7597636129697
          ],
          [
            18.6723545409416,
            59.7597996932568
          ],
          [
            18.6720696427591,
            59.7598270191762
          ],
          [
            18.6716110654776,
            59.7598783438257
          ],
          [
            18.6711186885562,
            59.7599113582367
          ],
          [
            18.6705970810091,
            59.7599099074617
          ],
          [
            18.6704836571451,
            59.7599772399697
          ],
          [
            18.6704998187307,
            59.7601243554025
          ],
          [
            18.6705196285193,
            59.7602400832736
          ],
          [
            18.6705821717139,
            59.7603530352051
          ],
          [
            18.6706039735293,
            59.7604935839998
          ],
          [
            18.6703740277665,
            59.7605774672752
          ],
          [
            18.6699748472674,
            59.7607870622278
          ],
          [
            18.6695753636461,
            59.7609405569459
          ],
          [
            18.6696365675931,
            59.7610112706829
          ],
          [
            18.6696535921632,
            59.7610909660169
          ],
          [
            18.6696535611168,
            59.7612665108994
          ],
          [
            18.6696256980853,
            59.7614391623198
          ],
          [
            18.6695313916262,
            59.7616344955845
          ],
          [
            18.6694386457117,
            59.7618188557979
          ],
          [
            18.6694058206922,
            59.7619133992701
          ],
          [
            18.6693864757135,
            59.7620069011421
          ],
          [
            18.6693655806309,
            59.7621845922013
          ],
          [
            18.6693385110891,
            59.7623087603957
          ],
          [
            18.6692950304384,
            59.7623527645961
          ],
          [
            18.6692385430248,
            59.7623938127096
          ],
          [
            18.6690923623422,
            59.7624787152971
          ],
          [
            18.6689483687992,
            59.7625893810591
          ],
          [
            18.6688932090769,
            59.7626421849529
          ],
          [
            18.6686760892673,
            59.7627480137619
          ],
          [
            18.6684117543541,
            59.7628398425058
          ],
          [
            18.6680281373769,
            59.7629468711664
          ],
          [
            18.667649512253,
            59.7630437081543
          ],
          [
            18.6671118866985,
            59.7631789043791
          ],
          [
            18.666826682026,
            59.7632458291819
          ],
          [
            18.6665895705832,
            59.7631555742461
          ],
          [
            18.6664477947107,
            59.7631066725288
          ],
          [
            18.6660625799681,
            59.7631339215156
          ],
          [
            18.6659031264146,
            59.7631658637291
          ],
          [
            18.6657714667645,
            59.7632375559946
          ],
          [
            18.6655912114107,
            59.7633873302634
          ],
          [
            18.6653842118696,
            59.7636471831155
          ],
          [
            18.6649887247333,
            59.7639342588508
          ],
          [
            18.6648389338003,
            59.7640644189285
          ],
          [
            18.6647230842002,
            59.7641554891806
          ],
          [
            18.6646471952399,
            59.7642584436117
          ],
          [
            18.6646253855435,
            59.7644005967168
          ],
          [
            18.6645230864552,
            59.764548142388
          ],
          [
            18.6644588084363,
            59.764644299315
          ],
          [
            18.6643150986766,
            59.7646986376794
          ],
          [
            18.6641323791573,
            59.7647383434014
          ],
          [
            18.663991763569,
            59.7648209003077
          ],
          [
            18.6638062368459,
            59.7649487546965
          ],
          [
            18.6636939483844,
            59.7650619720658
          ],
          [
            18.6636266034382,
            59.7651623668544
          ],
          [
            18.6635564689061,
            59.7652753516378
          ],
          [
            18.6635285993489,
            59.7653975569404
          ],
          [
            18.6634993588594,
            59.7656013455066
          ],
          [
            18.6634689643268,
            59.7658259749774
          ],
          [
            18.663487726939,
            59.7660284151444
          ],
          [
            18.663490309218,
            59.7662087632432
          ],
          [
            18.6634510388008,
            59.7663770028687
          ],
          [
            18.6634334885008,
            59.7666038716422
          ],
          [
            18.663355240751,
            59.7667592573365
          ],
          [
            18.6634861250599,
            59.7669208258512
          ],
          [
            18.6635572430763,
            59.7671891930934
          ],
          [
            18.663610910074,
            59.7674069827258
          ],
          [
            18.6638202495297,
            59.7676865131459
          ],
          [
            18.6640830404273,
            59.7679104849818
          ],
          [
            18.664464282029,
            59.7681281484343
          ],
          [
            18.6647815300559,
            59.7683055300877
          ],
          [
            18.6650404654294,
            59.7685012709405
          ],
          [
            18.6651780077084,
            59.7685302501414
          ],
          [
            18.6653490157802,
            59.7685444655931
          ],
          [
            18.6654553959495,
            59.7685585214667
          ],
          [
            18.6655003221922,
            59.7685865096339
          ],
          [
            18.6654881555425,
            59.7686537047937
          ],
          [
            18.6654542674837,
            59.7686957131824
          ],
          [
            18.6653969807159,
            59.7687251916269
          ],
          [
            18.6653365005024,
            59.7688850615523
          ],
          [
            18.6653175273113,
            59.7689980198004
          ],
          [
            18.6653196099099,
            59.7690561554898
          ],
          [
            18.665331860197,
            59.7691416372089
          ],
          [
            18.6653374333621,
            59.7692185683426
          ],
          [
            18.6653348461491,
            59.7692739207909
          ],
          [
            18.6653119851619,
            59.7693283740147
          ],
          [
            18.6652578292526,
            59.7693604291672
          ],
          [
            18.6651402277942,
            59.7694189830399
          ],
          [
            18.6650699477397,
            59.7694354973627
          ],
          [
            18.6650793313911,
            59.7694613762858
          ],
          [
            18.665113245864,
            59.7695176358422
          ],
          [
            18.6650983558971,
            59.7695449537703
          ],
          [
            18.6650853368297,
            59.7695693433821
          ],
          [
            18.6650942328794,
            59.7696286483445
          ],
          [
            18.6650637176231,
            59.7696463158052
          ],
          [
            18.6650213189868,
            59.7696484761613
          ],
          [
            18.6648972512008,
            59.7697152642395
          ],
          [
            18.6648730642346,
            59.7697601422576
          ],
          [
            18.6650413800425,
            59.7699782048001
          ],
          [
            18.6651476738394,
            59.7700846916353
          ],
          [
            18.6652058400515,
            59.7701962866349
          ],
          [
            18.6652376523178,
            59.7702438002406
          ],
          [
            18.6652515810986,
            59.7702651346699
          ],
          [
            18.6653448759533,
            59.7703780498302
          ],
          [
            18.6655699852343,
            59.7705602730745
          ],
          [
            18.6658351281958,
            59.7707478831032
          ],
          [
            18.6662034193566,
            59.7709367895318
          ],
          [
            18.666943869177,
            59.7712539348959
          ],
          [
            18.6671126389751,
            59.7713238816276
          ],
          [
            18.6671964692909,
            59.7713898363469
          ],
          [
            18.6673048496786,
            59.7715324618148
          ],
          [
            18.6673515730076,
            59.7716528004879
          ],
          [
            18.6674878910771,
            59.7718816648244
          ],
          [
            18.6677552683093,
            59.7723422546257
          ],
          [
            18.6678247932787,
            59.7723988289042
          ],
          [
            18.6678508366859,
            59.772421636746
          ],
          [
            18.6678850625516,
            59.7724404258936
          ],
          [
            18.6679740743282,
            59.7724636112092
          ],
          [
            18.6681475678245,
            59.7724989382225
          ],
          [
            18.6682878382372,
            59.772518657328
          ],
          [
            18.668370254212,
            59.7725396433271
          ],
          [
            18.6684247853251,
            59.7725651493062
          ],
          [
            18.6684360081533,
            59.7725957401823
          ],
          [
            18.6684384583508,
            59.7726334234278
          ],
          [
            18.6684007662129,
            59.7727331090438
          ],
          [
            18.6683678925006,
            59.7728200309614
          ],
          [
            18.6683093385232,
            59.7729188431616
          ],
          [
            18.6682452841807,
            59.7730339526231
          ],
          [
            18.6682101282179,
            59.7731193624365
          ],
          [
            18.6682159426273,
            59.7731689533381
          ],
          [
            18.6682377856439,
            59.7731999767325
          ],
          [
            18.6682968800549,
            59.7731919432865
          ],
          [
            18.6691379431637,
            59.7730124844111
          ],
          [
            18.6698414633267,
            59.7728332848835
          ],
          [
            18.6712435224462,
            59.7724785548411
          ],
          [
            18.6723434343266,
            59.7722026327744
          ],
          [
            18.6726987797766,
            59.7721315175965
          ],
          [
            18.6730932733994,
            59.7720611829825
          ],
          [
            18.6733921921331,
            59.7720143786668
          ],
          [
            18.6739797107219,
            59.7719445760069
          ],
          [
            18.6742691809333,
            59.771917485637
          ],
          [
            18.6744117575082,
            59.7719079978657
          ],
          [
            18.6745582020045,
            59.7718989765716
          ],
          [
            18.674856858407,
            59.7718799309413
          ],
          [
            18.6753600572745,
            59.7718627530448
          ],
          [
            18.6758546730087,
            59.7718504820939
          ],
          [
            18.6768596136354,
            59.7718186826979
          ],
          [
            18.6769651997128,
            59.7718136347556
          ],
          [
            18.6770513444592,
            59.7718053948592
          ],
          [
            18.6772406556266,
            59.7717922707723
          ],
          [
            18.6773840968134,
            59.7717779105642
          ],
          [
            18.6774574809716,
            59.7717814242923
          ],
          [
            18.677551888827,
            59.7718140829413
          ],
          [
            18.67757500313,
            59.7718234400332
          ],
          [
            18.6777148161171,
            59.7718919194055
          ],
          [
            18.6777968279169,
            59.7719139426936
          ],
          [
            18.6778878700941,
            59.7719319594235
          ],
          [
            18.6782511222417,
            59.771958788215
          ],
          [
            18.6787561439894,
            59.7719839112939
          ],
          [
            18.6792584995643,
            59.7720037041695
          ],
          [
            18.6801275781688,
            59.7720421456718
          ],
          [
            18.680725873793,
            59.7720744289625
          ],
          [
            18.681378324218,
            59.7721028704961
          ],
          [
            18.6818226555269,
            59.772120312641
          ],
          [
            18.6820273490383,
            59.7721294670421
          ],
          [
            18.682224664653,
            59.772141791851
          ],
          [
            18.6827091972568,
            59.7721687383842
          ],
          [
            18.6829678169187,
            59.7721732330344
          ],
          [
            18.6830980714553,
            59.7721745023094
          ],
          [
            18.6832197443978,
            59.7721806808044
          ],
          [
            18.6833531908425,
            59.7721965275156
          ],
          [
            18.6834857722799,
            59.7722172433464
          ],
          [
            18.6838155026885,
            59.7722716438478
          ],
          [
            18.6842252004999,
            59.7723359895582
          ],
          [
            18.6845851813438,
            59.7723910335041
          ],
          [
            18.6846679159032,
            59.7724270884147
          ],
          [
            18.6847188499745,
            59.7724647683047
          ],
          [
            18.6847335690223,
            59.7725240417098
          ],
          [
            18.684732795312,
            59.7725804769379
          ],
          [
            18.6847301355109,
            59.7727332442046
          ],
          [
            18.6847351723628,
            59.7728849984356
          ],
          [
            18.6847319834124,
            59.7732128765246
          ],
          [
            18.6847543811454,
            59.7735609215817
          ],
          [
            18.684761282819,
            59.7737292759344
          ],
          [
            18.6847793774744,
            59.7737948804355
          ],
          [
            18.6848076493974,
            59.7738332487956
          ],
          [
            18.6849347398695,
            59.7738759588825
          ],
          [
            18.6850159923771,
            59.7738987843698
          ],
          [
            18.6851697081365,
            59.7739484571296
          ],
          [
            18.6852846067513,
            59.7739855831556
          ],
          [
            18.6855871985733,
            59.7740833738501
          ],
          [
            18.6862541933036,
            59.7743072585577
          ],
          [
            18.6870427534931,
            59.7745641133718
          ],
          [
            18.6873917953433,
            59.7746897015076
          ],
          [
            18.6876663621693,
            59.774790252093
          ],
          [
            18.6879172990328,
            59.7748853623818
          ],
          [
            18.6879816942896,
            59.7749325696363
          ],
          [
            18.6880421037498,
            59.7749955815505
          ],
          [
            18.6880710230408,
            59.775043804699
          ],
          [
            18.6881296186523,
            59.7750911118499
          ],
          [
            18.6882280166554,
            59.7751259662659
          ],
          [
            18.6883498122695,
            59.7751340761606
          ],
          [
            18.6884657090907,
            59.7751402800755
          ],
          [
            18.6885984691062,
            59.7751441635008
          ],
          [
            18.6888933053631,
            59.7751212209131
          ],
          [
            18.6891177363291,
            59.77508930723
          ],
          [
            18.6891890728824,
            59.7750846065418
          ],
          [
            18.6892710627998,
            59.7750792020257
          ],
          [
            18.6894001044545,
            59.7750721426983
          ],
          [
            18.6896007889372,
            59.7750730363026
          ],
          [
            18.689852889546,
            59.7750862257565
          ],
          [
            18.6899549052549,
            59.7750902446448
          ],
          [
            18.6900706957546,
            59.7750837370469
          ],
          [
            18.690208999183,
            59.7750665742274
          ],
          [
            18.6903010195647,
            59.7750527343781
          ],
          [
            18.6907410265956,
            59.7749865618384
          ],
          [
            18.6909606235359,
            59.7749579002015
          ],
          [
            18.6913151289586,
            59.7749262994092
          ],
          [
            18.691623412869,
            59.7748884557257
          ],
          [
            18.6918996287596,
            59.7748332895806
          ],
          [
            18.6920861425301,
            59.7748021465303
          ],
          [
            18.6922151609952,
            59.7747897919856
          ],
          [
            18.692348319894,
            59.7747910368437
          ],
          [
            18.6925838905405,
            59.7747995258183
          ],
          [
            18.6928483396677,
            59.7748049433559
          ],
          [
            18.6929851428793,
            59.7748270755219
          ],
          [
            18.6930951630166,
            59.7748617253692
          ],
          [
            18.6931978385004,
            59.7749155480349
          ],
          [
            18.6933260459014,
            59.7750011649983
          ],
          [
            18.6933895146742,
            59.7750355993039
          ],
          [
            18.6935060577615,
            59.7750729298416
          ],
          [
            18.6936905353282,
            59.7751396328154
          ],
          [
            18.6939738792998,
            59.7752086209316
          ],
          [
            18.6940592926184,
            59.7752334668886
          ],
          [
            18.694154271682,
            59.7752543704849
          ],
          [
            18.6943904723583,
            59.7752930144301
          ],
          [
            18.69454554254,
            59.7753272217389
          ],
          [
            18.694667693881,
            59.7753557650606
          ],
          [
            18.6947588959535,
            59.7753805799846
          ],
          [
            18.6948714711523,
            59.7753951756882
          ],
          [
            18.6950923959316,
            59.7753955572319
          ],
          [
            18.6952259252855,
            59.7753849222663
          ],
          [
            18.6953011270696,
            59.7753825787435
          ],
          [
            18.695449137518,
            59.7753846647516
          ],
          [
            18.6956738845003,
            59.7754000662573
          ],
          [
            18.6960299867325,
            59.7754591137373
          ],
          [
            18.6963748603274,
            59.7755199208593
          ],
          [
            18.6966720708995,
            59.7756174458296
          ],
          [
            18.6969801476911,
            59.7756983105822
          ],
          [
            18.6971985344442,
            59.7757441715307
          ],
          [
            18.6974021870252,
            59.7757873638152
          ],
          [
            18.6976118572562,
            59.7758333796274
          ],
          [
            18.6977270675731,
            59.7758591244962
          ],
          [
            18.6978073196696,
            59.7758840558853
          ],
          [
            18.6979898235376,
            59.7759159056616
          ],
          [
            18.6981572862349,
            59.775940709066
          ],
          [
            18.6985833371053,
            59.7760047646031
          ],
          [
            18.6988273188944,
            59.7760428278463
          ],
          [
            18.6989396311866,
            59.7760686263412
          ],
          [
            18.6990691504634,
            59.7761069096182
          ],
          [
            18.6991808408152,
            59.7761492391932
          ],
          [
            18.6993482508863,
            59.7762136113793
          ],
          [
            18.6995586888745,
            59.7763109107357
          ],
          [
            18.6998214871099,
            59.7764087121448
          ],
          [
            18.7000770201433,
            59.7764861423425
          ],
          [
            18.7003781697408,
            59.7765509967311
          ],
          [
            18.7007553686152,
            59.7765822284796
          ],
          [
            18.7011898028168,
            59.7766006909105
          ],
          [
            18.7013943876276,
            59.7766160125123
          ],
          [
            18.7016760028431,
            59.7766519222254
          ],
          [
            18.701959940443,
            59.7767200267947
          ],
          [
            18.7020973621035,
            59.7767717487513
          ],
          [
            18.7023167457146,
            59.776871802969
          ],
          [
            18.7025016565261,
            59.7769373228744
          ],
          [
            18.702681361593,
            59.7769706834363
          ],
          [
            18.7029093841419,
            59.7769885059663
          ],
          [
            18.7031499095969,
            59.7769782539636
          ],
          [
            18.7033332004796,
            59.7769807707059
          ],
          [
            18.7035061811373,
            59.7770010702384
          ],
          [
            18.7037025119669,
            59.77706344395
          ],
          [
            18.7039547639942,
            59.7771760877795
          ],
          [
            18.7041304134914,
            59.7771947202154
          ],
          [
            18.7043535839815,
            59.7772401290641
          ],
          [
            18.704587521254,
            59.7772847214539
          ],
          [
            18.7048457926927,
            59.7772785410868
          ],
          [
            18.7048428972552,
            59.7776025178454
          ],
          [
            18.704864638727,
            59.7776622106513
          ],
          [
            18.7049169789935,
            59.7777433325457
          ],
          [
            18.7049852477888,
            59.7778036453068
          ],
          [
            18.7051215776078,
            59.7778803031595
          ],
          [
            18.7052843267894,
            59.7779485929309
          ],
          [
            18.7053793316023,
            59.7779884476045
          ],
          [
            18.7055393278456,
            59.7781006713458
          ],
          [
            18.7058115971697,
            59.7781471745017
          ],
          [
            18.7060728116888,
            59.7781807985409
          ],
          [
            18.706356604562,
            59.7781870581009
          ],
          [
            18.7066074530254,
            59.7781866834023
          ],
          [
            18.7068560223572,
            59.7781697802729
          ],
          [
            18.7068899748426,
            59.7782240831417
          ],
          [
            18.7069796041786,
            59.7782919184498
          ],
          [
            18.7071334783768,
            59.7784107581903
          ],
          [
            18.707232526973,
            59.7785350016792
          ],
          [
            18.7074758088425,
            59.7788456742119
          ],
          [
            18.7075884755271,
            59.7789168942722
          ],
          [
            18.7077110877705,
            59.7789644893903
          ],
          [
            18.7078942363766,
            59.7790051077646
          ],
          [
            18.708274279879,
            59.7790514723555
          ],
          [
            18.7085105001321,
            59.7790638728763
          ],
          [
            18.7087717663854,
            59.7790678186137
          ],
          [
            18.7090332733412,
            59.779097415184
          ],
          [
            18.7090640739859,
            59.7791065343609
          ],
          [
            18.7091167499219,
            59.7791449561863
          ],
          [
            18.7091728851447,
            59.7793531552627
          ],
          [
            18.7090862701019,
            59.7794588426559
          ],
          [
            18.7089949844218,
            59.7797069733327
          ],
          [
            18.7091458879958,
            59.7798278425588
          ],
          [
            18.709265410259,
            59.7798944305609
          ],
          [
            18.7092469363111,
            59.7799710891583
          ],
          [
            18.7092798895216,
            59.7800725502063
          ],
          [
            18.7092865935168,
            59.7802265655046
          ],
          [
            18.7092004786614,
            59.7803752198555
          ],
          [
            18.7090523857924,
            59.7804563773357
          ],
          [
            18.7090238269769,
            59.7806037757199
          ],
          [
            18.709043218083,
            59.7806850324507
          ],
          [
            18.7089876575484,
            59.7807457605194
          ],
          [
            18.7086340239403,
            59.7808369449156
          ],
          [
            18.7085774289314,
            59.7809035129816
          ],
          [
            18.7084453326487,
            59.7814358106599
          ],
          [
            18.7081195267904,
            59.7816926630655
          ],
          [
            18.7081182045423,
            59.7817680831418
          ],
          [
            18.7083823813777,
            59.7819510846703
          ],
          [
            18.7084633823163,
            59.7821925089749
          ],
          [
            18.7087286010655,
            59.7823368095224
          ],
          [
            18.7083751680209,
            59.7824102347358
          ],
          [
            18.7080369893279,
            59.7825616091937
          ],
          [
            18.7076960003649,
            59.7828071394191
          ],
          [
            18.7075236480528,
            59.7829714671376
          ],
          [
            18.7074751657748,
            59.7831717950285
          ],
          [
            18.707624354077,
            59.7833359194221
          ],
          [
            18.7077579166894,
            59.7835197807932
          ],
          [
            18.7079000652817,
            59.7837657209325
          ],
          [
            18.7080231637869,
            59.7840452867564
          ],
          [
            18.7080552571442,
            59.7842881135303
          ],
          [
            18.7079410351786,
            59.7844899020338
          ],
          [
            18.7076666560022,
            59.7846177209069
          ],
          [
            18.70735460593,
            59.7846910334055
          ],
          [
            18.7072589813117,
            59.7846779031594
          ],
          [
            18.707108934151,
            59.784747756898
          ],
          [
            18.7069943192046,
            59.7848609793929
          ],
          [
            18.7069197757876,
            59.7850139071803
          ],
          [
            18.7068502847218,
            59.7851408853338
          ],
          [
            18.7067671674959,
            59.7852792413568
          ],
          [
            18.7066585987293,
            59.7853775691302
          ],
          [
            18.7067749680566,
            59.7854838680889
          ],
          [
            18.7070894538556,
            59.7855447908035
          ],
          [
            18.7076199625892,
            59.7856112556103
          ],
          [
            18.708200772295,
            59.7857150761235
          ],
          [
            18.7088412832632,
            59.7858715010517
          ],
          [
            18.70949372174,
            59.7859965655428
          ],
          [
            18.7100344824266,
            59.7860860034442
          ],
          [
            18.7105820467137,
            59.7861674805853
          ],
          [
            18.7111053397208,
            59.7862380096653
          ],
          [
            18.7115646925592,
            59.786287080324
          ],
          [
            18.711706594044,
            59.7863179742116
          ],
          [
            18.7118390337067,
            59.7863617557197
          ],
          [
            18.7118998116988,
            59.7863818541231
          ],
          [
            18.7118119859355,
            59.7864264040075
          ],
          [
            18.7117618582618,
            59.7864922287565
          ],
          [
            18.7115729151061,
            59.7869554034847
          ],
          [
            18.7113852133469,
            59.787386463752
          ],
          [
            18.7110626382103,
            59.7880218707005
          ],
          [
            18.7108757394995,
            59.7883787865205
          ],
          [
            18.7108007235014,
            59.7885020307849
          ],
          [
            18.7107401970953,
            59.788588793341
          ],
          [
            18.7111294250813,
            59.7886949488936
          ],
          [
            18.7120315222184,
            59.7889299741922
          ],
          [
            18.7125370008422,
            59.7890480226501
          ],
          [
            18.7132034377777,
            59.7891924140132
          ],
          [
            18.7136881455162,
            59.7892955305426
          ],
          [
            18.7141625166778,
            59.7893780114944
          ],
          [
            18.7148310315983,
            59.7894938413183
          ],
          [
            18.715060958223,
            59.7895396179368
          ],
          [
            18.71519634797,
            59.7895730566086
          ],
          [
            18.715285774124,
            59.7896085233054
          ],
          [
            18.7153659124621,
            59.789658437117
          ],
          [
            18.7154568568148,
            59.789734445597
          ],
          [
            18.7155136169407,
            59.7897914206819
          ],
          [
            18.7155580766703,
            59.7898574089687
          ],
          [
            18.715570628615,
            59.78993282127
          ],
          [
            18.7155718090327,
            59.790001885474
          ],
          [
            18.7155496778851,
            59.7900790968185
          ],
          [
            18.7153608358491,
            59.790438249921
          ],
          [
            18.7152064428008,
            59.7907385848565
          ],
          [
            18.7151076903606,
            59.7909730753853
          ],
          [
            18.7150824770698,
            59.7910657088218
          ],
          [
            18.7150775362272,
            59.7911129593108
          ],
          [
            18.7148422883263,
            59.7911912178231
          ],
          [
            18.7142329554414,
            59.7914349861938
          ],
          [
            18.7138640882095,
            59.7915839431336
          ],
          [
            18.7136988573286,
            59.7916673570823
          ],
          [
            18.713495428083,
            59.791789918558
          ],
          [
            18.7130367744626,
            59.7920953277171
          ],
          [
            18.712668380626,
            59.7923045919977
          ],
          [
            18.7123740358033,
            59.7924608046
          ],
          [
            18.7120544293796,
            59.7926274023575
          ],
          [
            18.7118147521181,
            59.7927594707764
          ],
          [
            18.711644392503,
            59.7928605281682
          ],
          [
            18.7114921247187,
            59.7929699911175
          ],
          [
            18.7112633839998,
            59.7931303520119
          ],
          [
            18.7109951245727,
            59.7933132313406
          ],
          [
            18.710722768223,
            59.7934722884503
          ],
          [
            18.7104877670316,
            59.7936086536464
          ],
          [
            18.7104119312137,
            59.7936672187226
          ],
          [
            18.7103839112626,
            59.7937248017598
          ],
          [
            18.7103876669856,
            59.7937718871976
          ],
          [
            18.7104089809484,
            59.7938208048228
          ],
          [
            18.7104994602117,
            59.7938913466413
          ],
          [
            18.7106522843074,
            59.7939792736673
          ],
          [
            18.7107066135506,
            59.7940330025648
          ],
          [
            18.7107546202097,
            59.7940890583766
          ],
          [
            18.7107782090951,
            59.794166442342
          ],
          [
            18.7107963347381,
            59.7942845114065
          ],
          [
            18.7107695382507,
            59.7943848469479
          ],
          [
            18.7107321276596,
            59.7944612752916
          ],
          [
            18.7106760884688,
            59.7945227240277
          ],
          [
            18.710604869262,
            59.7945844846537
          ],
          [
            18.7104641367393,
            59.7946750763418
          ],
          [
            18.7101979191661,
            59.7948022010632
          ],
          [
            18.7100943696464,
            59.7948953197323
          ],
          [
            18.7100596620272,
            59.7949782693262
          ],
          [
            18.7100620366606,
            59.79506266157
          ],
          [
            18.7101274786707,
            59.795228024113
          ],
          [
            18.7102827633082,
            59.7955815029324
          ],
          [
            18.7103568233688,
            59.7957730132841
          ],
          [
            18.7104103096053,
            59.7958706227925
          ],
          [
            18.7104998799111,
            59.7959839413881
          ],
          [
            18.7105981381328,
            59.7960971044321
          ],
          [
            18.7107049783879,
            59.7961815752667
          ],
          [
            18.7108152995387,
            59.7962549992687
          ],
          [
            18.7108901585595,
            59.7962929660719
          ],
          [
            18.7110552115735,
            59.7963433514946
          ],
          [
            18.7120690981394,
            59.796613389063
          ],
          [
            18.7125767129652,
            59.7967566288388
          ],
          [
            18.7129961144458,
            59.7968851911728
          ],
          [
            18.7131465964356,
            59.7969435545243
          ],
          [
            18.7133069868929,
            59.7970170535656
          ],
          [
            18.7134026856865,
            59.797071050405
          ],
          [
            18.7134746885663,
            59.7971277035196
          ],
          [
            18.713536266365,
            59.7971900535955
          ],
          [
            18.7135652399041,
            59.7972530735846
          ],
          [
            18.7135774462535,
            59.7973241091931
          ],
          [
            18.7135853098522,
            59.7973952316022
          ],
          [
            18.7135737388481,
            59.7975226793275
          ],
          [
            18.713565042815,
            59.7975594559178
          ],
          [
            18.7135265861485,
            59.7977221269395
          ],
          [
            18.7135375670573,
            59.7977778262163
          ],
          [
            18.7135727589263,
            59.7978100093939
          ],
          [
            18.7136125025535,
            59.7978443021284
          ],
          [
            18.7136663068126,
            59.7978640489091
          ],
          [
            18.7138108635162,
            59.7979027855894
          ],
          [
            18.7141497833337,
            59.7979770616375
          ],
          [
            18.7145238957127,
            59.7980835017854
          ],
          [
            18.7146422266083,
            59.798120588044
          ],
          [
            18.7149472343581,
            59.7982065087328
          ],
          [
            18.7150526058087,
            59.7982449498676
          ],
          [
            18.7151184921673,
            59.7982797883337
          ],
          [
            18.7152174397857,
            59.7983468787843
          ],
          [
            18.7152748525858,
            59.798411503254
          ],
          [
            18.7153172249335,
            59.7985060545503
          ],
          [
            18.7154380575123,
            59.7989554163629
          ],
          [
            18.7155205019657,
            59.7991971958524
          ],
          [
            18.715573982771,
            59.7993485393029
          ],
          [
            18.7156605754916,
            59.799533211902
          ],
          [
            18.7158519915162,
            59.7998583194343
          ],
          [
            18.7160768818614,
            59.8001937070653
          ],
          [
            18.7161975473909,
            59.800341496076
          ],
          [
            18.7162688584915,
            59.8004168103765
          ],
          [
            18.7163418886535,
            59.8004591946765
          ],
          [
            18.7164400454302,
            59.8004890028551
          ],
          [
            18.7165681716178,
            59.8005127136823
          ],
          [
            18.716715687704,
            59.8005338443773
          ],
          [
            18.7168306453593,
            59.8005459992272
          ],
          [
            18.7169417770429,
            59.8005577588402
          ],
          [
            18.717252610616,
            59.8005799584166
          ],
          [
            18.7179679839608,
            59.800625730684
          ],
          [
            18.7181784242544,
            59.8006444768212
          ],
          [
            18.7183323526214,
            59.8006643815486
          ],
          [
            18.7184360574831,
            59.8006820041183
          ],
          [
            18.7185246317014,
            59.8007010436279
          ],
          [
            18.7186027972741,
            59.8007257710181
          ],
          [
            18.7186681068996,
            59.8007529566511
          ],
          [
            18.7188192264284,
            59.8008463886024
          ],
          [
            18.7192005828177,
            59.8011237598722
          ],
          [
            18.7194619583832,
            59.8012895138353
          ],
          [
            18.719592995265,
            59.8013493556867
          ],
          [
            18.7197700172883,
            59.8014126506236
          ],
          [
            18.7200246477259,
            59.8014666916746
          ],
          [
            18.720435227272,
            59.8015383840948
          ],
          [
            18.7207503365496,
            59.8015868100014
          ],
          [
            18.720981316112,
            59.8016172040304
          ],
          [
            18.7211483150981,
            59.8016368342733
          ],
          [
            18.7213995910419,
            59.8016492591972
          ],
          [
            18.7216704655021,
            59.8016612902917
          ],
          [
            18.7217203436925,
            59.8017677443504
          ],
          [
            18.7217384183173,
            59.8018573012455
          ],
          [
            18.7217363655075,
            59.8021609149188
          ],
          [
            18.7217550797259,
            59.8026413634456
          ],
          [
            18.7217697221524,
            59.802803441214
          ],
          [
            18.7217619984726,
            59.8028605328345
          ],
          [
            18.7217363782921,
            59.802999148441
          ],
          [
            18.7216787386473,
            59.8032231937281
          ],
          [
            18.721667016914,
            59.8034128635019
          ],
          [
            18.7216827646363,
            59.8036054214134
          ],
          [
            18.7217254678015,
            59.8039729626205
          ],
          [
            18.7218028869785,
            59.8043383674465
          ],
          [
            18.7219043973441,
            59.8045674269178
          ],
          [
            18.7219642190268,
            59.8046546642504
          ],
          [
            18.7220195060265,
            59.8047107920144
          ],
          [
            18.7220824329708,
            59.8047629860234
          ],
          [
            18.7223955133892,
            59.8049519657949
          ],
          [
            18.7226148570361,
            59.8050928121344
          ],
          [
            18.7228191322204,
            59.8052695910358
          ],
          [
            18.7229536078957,
            59.8053942414379
          ],
          [
            18.7231453025634,
            59.8056716550287
          ],
          [
            18.7234046777194,
            59.8059853444444
          ],
          [
            18.7236060107443,
            59.8063268000613
          ],
          [
            18.7238406701452,
            59.8067269794062
          ],
          [
            18.7240171217877,
            59.8070253007142
          ],
          [
            18.7241657000073,
            59.8071775418838
          ],
          [
            18.7243942578553,
            59.8073694403217
          ],
          [
            18.7246480126905,
            59.8075400844987
          ],
          [
            18.7247798673119,
            59.8076481511286
          ],
          [
            18.7247841804082,
            59.8077016208188
          ],
          [
            18.7247314364377,
            59.8077978052235
          ],
          [
            18.7245635870173,
            59.8080026653716
          ],
          [
            18.724509913552,
            59.808087981439
          ],
          [
            18.7244278145396,
            59.8080996479445
          ],
          [
            18.7242931721412,
            59.8081240551139
          ],
          [
            18.7242224785414,
            59.808159470451
          ],
          [
            18.7241463921337,
            59.8082134014885
          ],
          [
            18.7240858392712,
            59.8082711388032
          ],
          [
            18.7240575044869,
            59.8083004832406
          ],
          [
            18.7240272384736,
            59.8083298382981
          ],
          [
            18.7239872532216,
            59.8083563279744
          ],
          [
            18.723951193548,
            59.8083857148915
          ],
          [
            18.7237940418899,
            59.8085622735983
          ],
          [
            18.7235240441088,
            59.8088727702091
          ],
          [
            18.7233546693337,
            59.8090504982889
          ],
          [
            18.7231911946267,
            59.8092334420963
          ],
          [
            18.7231291314673,
            59.809312883942
          ],
          [
            18.7231014574521,
            59.809392177188
          ],
          [
            18.7230822421493,
            59.8094882557663
          ],
          [
            18.7230734384063,
            59.8095931078771
          ],
          [
            18.7230835596182,
            59.8097923582658
          ],
          [
            18.7231131290789,
            59.8098972031201
          ],
          [
            18.723225758731,
            59.8100828420494
          ],
          [
            18.7233597124306,
            59.8102959490753
          ],
          [
            18.7234082823824,
            59.8104295054385
          ],
          [
            18.7234566709298,
            59.8106563538666
          ],
          [
            18.7234882008311,
            59.8107236054159
          ],
          [
            18.7235293647071,
            59.810790673867
          ],
          [
            18.7235748382098,
            59.8108515886312
          ],
          [
            18.7237539602926,
            59.8110892675783
          ],
          [
            18.7238085422354,
            59.8111603808824
          ],
          [
            18.7238286571254,
            59.8111972423407
          ],
          [
            18.7238700168824,
            59.8112339869299
          ],
          [
            18.7239551063281,
            59.8112831392795
          ],
          [
            18.7241721884053,
            59.8114035514721
          ],
          [
            18.7242522404076,
            59.8114444205901
          ],
          [
            18.724445441182,
            59.8115182632467
          ],
          [
            18.7247364441621,
            59.8116132530673
          ],
          [
            18.7252296879327,
            59.8117601635336
          ],
          [
            18.7253447171124,
            59.8118091499838
          ],
          [
            18.7254229869399,
            59.8118554201333
          ],
          [
            18.7255749207724,
            59.8119582016664
          ],
          [
            18.7256574029436,
            59.8120205021287
          ],
          [
            18.7257147561311,
            59.8120819681764
          ],
          [
            18.725755743666,
            59.8121462106339
          ],
          [
            18.7258042883962,
            59.8122155501662
          ],
          [
            18.7258484015304,
            59.8122583272153
          ],
          [
            18.7258978012533,
            59.8123070488537
          ],
          [
            18.7260737074318,
            59.8124066654606
          ],
          [
            18.7263674772171,
            59.8125379516258
          ],
          [
            18.7264033086182,
            59.8125663383626
          ],
          [
            18.7264291616049,
            59.812590073123
          ],
          [
            18.7264344016188,
            59.8126275342022
          ],
          [
            18.7264186656713,
            59.8126738778742
          ],
          [
            18.7263589579797,
            59.8128070969137
          ],
          [
            18.7263363586916,
            59.8128899144903
          ],
          [
            18.7263197250975,
            59.813019880604
          ],
          [
            18.7263398166322,
            59.8132218313883
          ],
          [
            18.7263772513485,
            59.8136536675604
          ],
          [
            18.7264209802823,
            59.8138673267026
          ],
          [
            18.7266000292368,
            59.814372729762
          ],
          [
            18.7266651464815,
            59.8146295485647
          ],
          [
            18.7266763003872,
            59.8146812490919
          ],
          [
            18.7266836365352,
            59.8148407723559
          ],
          [
            18.7266950520771,
            59.8154068358646
          ],
          [
            18.7267559563923,
            59.8156395130055
          ],
          [
            18.7267496482558,
            59.8157433052113
          ],
          [
            18.7267697226538,
            59.8158667589629
          ],
          [
            18.7268372298372,
            59.8159505462842
          ],
          [
            18.7269315470546,
            59.8160234830358
          ],
          [
            18.7270622761573,
            59.8161716221605
          ],
          [
            18.7272546040837,
            59.8163982296893
          ],
          [
            18.7274403976271,
            59.8165908198202
          ],
          [
            18.7280194666186,
            59.8170134832713
          ],
          [
            18.7295020496661,
            59.8185783092527
          ],
          [
            18.7300224658003,
            59.8191280819754
          ],
          [
            18.7307392074024,
            59.8198873317719
          ],
          [
            18.7309294544445,
            59.8200799578486
          ],
          [
            18.7309463245573,
            59.8201123425393
          ],
          [
            18.7309931334576,
            59.8201902063732
          ],
          [
            18.7310152123531,
            59.8202273421695
          ],
          [
            18.7310494352882,
            59.8202981743554
          ],
          [
            18.7311431260785,
            59.8204865926697
          ],
          [
            18.731291038277,
            59.8208193802002
          ],
          [
            18.7314341105931,
            59.8210880250689
          ],
          [
            18.7315897218276,
            59.8214267062598
          ],
          [
            18.7316691067976,
            59.8215536235805
          ],
          [
            18.731850576481,
            59.8217573204658
          ],
          [
            18.7320357758284,
            59.8220421263764
          ],
          [
            18.7323034589016,
            59.822430758383
          ],
          [
            18.7325518648312,
            59.8227240432602
          ],
          [
            18.7326100356488,
            59.822824703568
          ],
          [
            18.7326388457975,
            59.8228871586352
          ],
          [
            18.73268147913,
            59.8229735722083
          ],
          [
            18.7327713165962,
            59.8231111766572
          ],
          [
            18.7328271078096,
            59.8231803802201
          ],
          [
            18.7328608161662,
            59.8232124483266
          ],
          [
            18.7329127125854,
            59.8232623373471
          ],
          [
            18.733054338277,
            59.8233529058517
          ],
          [
            18.7331404499621,
            59.8234094187069
          ],
          [
            18.7332073206786,
            59.8234662802377
          ],
          [
            18.7332544030066,
            59.8235477672013
          ],
          [
            18.7333299158551,
            59.8236868658487
          ],
          [
            18.7334497619321,
            59.8239026574433
          ],
          [
            18.733574605459,
            59.824089263696
          ],
          [
            18.733633713899,
            59.8241705168248
          ],
          [
            18.7337329210346,
            59.8242728156496
          ],
          [
            18.7338315458988,
            59.8243678409083
          ],
          [
            18.7339360273608,
            59.824476093277
          ],
          [
            18.7341585308677,
            59.8247444299766
          ],
          [
            18.7343079603836,
            59.8249378429789
          ],
          [
            18.7344520301655,
            59.8251555794188
          ],
          [
            18.7345957990848,
            59.8254011990371
          ],
          [
            18.7346300126954,
            59.8255035280729
          ],
          [
            18.734669973512,
            59.8256808684663
          ],
          [
            18.7346963227078,
            59.8258063697432
          ],
          [
            18.734704342553,
            59.8258486147077
          ],
          [
            18.7347307773732,
            59.8258796216245
          ],
          [
            18.7347863774971,
            59.8259464029127
          ],
          [
            18.7348863203725,
            59.8260583702093
          ],
          [
            18.7349836548725,
            59.8261994638708
          ],
          [
            18.7350625959451,
            59.8263518219221
          ],
          [
            18.7350873281969,
            59.8264555528919
          ],
          [
            18.7351016891383,
            59.8265812779043
          ],
          [
            18.7351192404542,
            59.8267808554394
          ],
          [
            18.7350983504569,
            59.8269496773859
          ],
          [
            18.7350729744527,
            59.827059209773
          ],
          [
            18.7350336494914,
            59.8271750712077
          ],
          [
            18.735024285438,
            59.8272418915226
          ],
          [
            18.7350475038969,
            59.827357755663
          ],
          [
            18.7350329971566,
            59.8275470528299
          ],
          [
            18.735056575979,
            59.8276992580771
          ],
          [
            18.7351004504365,
            59.8280857051932
          ],
          [
            18.7351046101586,
            59.8281223338593
          ],
          [
            18.7355472253415,
            59.8281649938694
          ],
          [
            18.7360948566286,
            59.8282179444494
          ],
          [
            18.7361195184441,
            59.8282765796694
          ],
          [
            18.7361435379767,
            59.8283520964353
          ],
          [
            18.7361035227875,
            59.8284846337002
          ],
          [
            18.736057896518,
            59.8285648991666
          ],
          [
            18.7359391626963,
            59.8287238276134
          ],
          [
            18.7358562849203,
            59.8288702130877
          ],
          [
            18.7357189294977,
            59.8290864987064
          ],
          [
            18.7356406404508,
            59.8292688892206
          ],
          [
            18.7355962999137,
            59.8294572274736
          ],
          [
            18.7355851697408,
            59.8295887106502
          ],
          [
            18.7356133709461,
            59.8298020082929
          ],
          [
            18.735668164295,
            59.8299698032249
          ],
          [
            18.7357545020089,
            59.8301360994684
          ],
          [
            18.7359624500703,
            59.8304408663584
          ],
          [
            18.7362089421245,
            59.8307636840255
          ],
          [
            18.7365094144134,
            59.8311380468724
          ],
          [
            18.7369698424125,
            59.8317186265711
          ],
          [
            18.7374403539876,
            59.8323093544501
          ],
          [
            18.7380037346153,
            59.8330268635634
          ],
          [
            18.7385266715515,
            59.8336991556548
          ],
          [
            18.738866868929,
            59.8341337340861
          ],
          [
            18.739210264616,
            59.8345607689633
          ],
          [
            18.7396409722854,
            59.8350884321086
          ],
          [
            18.7400921397948,
            59.8356682412008
          ]
        ]
      }
    }
  ]
}
