{
  "type": "FeatureCollection",
  "features": [
    {
      "type": "Feature",
      "properties": {
        "name": "Roslagsleden section 7:  Penningby - Vigelsjö by Naturkartan"
      },
      "geometry": {
        "type": "LineString",
        "coordinates": [
          [
            18.681216060412,
            59.6811471031019
          ],
          [
            18.6810147237721,
            59.6811701687241
          ],
          [
            18.6807014437873,
            59.6811934741387
          ],
          [
            18.6797889230599,
            59.6812248569482
          ],
          [
            18.6786434301786,
            59.6812787360069
          ],
          [
            18.6772193044799,
            59.6813316939133
          ],
          [
            18.6760068390885,
            59.6813772622821
          ],
          [
            18.6756094174594,
            59.681392748803
          ],
          [
            18.6749464184016,
            59.6814214690156
          ],
          [
            18.6744433941615,
            59.681468937408
          ],
          [
            18.6742431180635,
            59.6815805381166
          ],
          [
            18.6740395144411,
            59.6817140115508
          ],
          [
            18.6739122355918,
            59.6817843655927
          ],
          [
            18.673593810805,
            59.6819181351281
          ],
          [
            18.6722389104964,
            59.682446796795
          ],
          [
            18.6709768415695,
            59.6829583270602
          ],
          [
            18.6700346765495,
            59.6833438693644
          ],
          [
            18.6699029300575,
            59.6833951359295
          ],
          [
            18.6685318897217,
            59.6839181622027
          ],
          [
            18.667051603188,
            59.6845097995082
          ],
          [
            18.6651516300185,
            59.6852554275144
          ],
          [
            18.6630426403132,
            59.686086713779
          ],
          [
            18.6620461649365,
            59.6865079900397
          ],
          [
            18.6616582312789,
            59.6866901331236
          ],
          [
            18.6614019986876,
            59.6868947447857
          ],
          [
            18.6612852946057,
            59.6870359359005
          ],
          [
            18.661143369238,
            59.6872881765656
          ],
          [
            18.6609893590841,
            59.687534947816
          ],
          [
            18.6606716023528,
            59.6878603312763
          ],
          [
            18.6604392044348,
            59.6880729852527
          ],
          [
            18.6602341143698,
            59.6883255321935
          ],
          [
            18.6600705393912,
            59.6885899892699
          ],
          [
            18.6599932690319,
            59.6887242713602
          ],
          [
            18.6599547690715,
            59.6889242570143
          ],
          [
            18.6600098502532,
            59.6890606597675
          ],
          [
            18.6601796041202,
            59.6894427118843
          ],
          [
            18.6608620767105,
            59.6895155845984
          ],
          [
            18.66103194069,
            59.6895316410054
          ],
          [
            18.661296209512,
            59.6895681347222
          ],
          [
            18.661381850362,
            59.6895799630763
          ],
          [
            18.6617039239454,
            59.6896363155972
          ],
          [
            18.6627596727989,
            59.6898876577386
          ],
          [
            18.6635645471587,
            59.6900795489502
          ],
          [
            18.6634586650894,
            59.690185572299
          ],
          [
            18.6632901056954,
            59.690354362281
          ],
          [
            18.6631267110821,
            59.6905611378042
          ],
          [
            18.6630226058829,
            59.6906928727316
          ],
          [
            18.6629480628532,
            59.6908133277433
          ],
          [
            18.6627857805208,
            59.6910755319944
          ],
          [
            18.6625942350727,
            59.6915048445497
          ],
          [
            18.6624947906086,
            59.6919359344008
          ],
          [
            18.6624774139903,
            59.6921977753813
          ],
          [
            18.6624896622944,
            59.6924152205286
          ],
          [
            18.6625221044009,
            59.69272402004
          ],
          [
            18.6626348350001,
            59.6932533976193
          ],
          [
            18.6626775670729,
            59.6934650204127
          ],
          [
            18.6627763591968,
            59.6939543651044
          ],
          [
            18.6628288386437,
            59.6941799806346
          ],
          [
            18.6629353993082,
            59.6946381960744
          ],
          [
            18.6629534105471,
            59.6947058272653
          ],
          [
            18.6630940124704,
            59.6953548116724
          ],
          [
            18.6631330529343,
            59.6955350590728
          ],
          [
            18.6631889029385,
            59.6958072227362
          ],
          [
            18.6632810068025,
            59.6962560801783
          ],
          [
            18.6633892385132,
            59.6967834347705
          ],
          [
            18.6635371378731,
            59.6975435221416
          ],
          [
            18.6635603710763,
            59.6976629351267
          ],
          [
            18.6636611085153,
            59.6981194073154
          ],
          [
            18.6637994723386,
            59.6987463505877
          ],
          [
            18.664013034581,
            59.699716466684
          ],
          [
            18.6641092446934,
            59.7001852448706
          ],
          [
            18.6641390439717,
            59.7003304966208
          ],
          [
            18.664152335258,
            59.7003952483879
          ],
          [
            18.6642767965512,
            59.7009048547704
          ],
          [
            18.6643702085573,
            59.7015389953553
          ],
          [
            18.6644738043113,
            59.7024118160541
          ],
          [
            18.6644810592216,
            59.7024729162878
          ],
          [
            18.6645213473528,
            59.7029789421834
          ],
          [
            18.6645621225598,
            59.7034910308189
          ],
          [
            18.6646902916592,
            59.7045120446229
          ],
          [
            18.664726786222,
            59.7046795629828
          ],
          [
            18.6647691769553,
            59.7048741343625
          ],
          [
            18.6648120217799,
            59.7050481448648
          ],
          [
            18.6648573940406,
            59.705202498338
          ],
          [
            18.664871620237,
            59.7052508914604
          ],
          [
            18.6649639867182,
            59.7055041916058
          ],
          [
            18.6652387901967,
            59.7061258646963
          ],
          [
            18.665566462137,
            59.7067482439165
          ],
          [
            18.6658340776123,
            59.707184958591
          ],
          [
            18.6658865529909,
            59.7072728305326
          ],
          [
            18.6659914224181,
            59.707449448544
          ],
          [
            18.666300123522,
            59.7079798808002
          ],
          [
            18.6665320479352,
            59.7083686126283
          ],
          [
            18.6666808725872,
            59.7086211514353
          ],
          [
            18.6669768335255,
            59.7091412870056
          ],
          [
            18.6671898811173,
            59.7095774488205
          ],
          [
            18.6675404483615,
            59.7104641892859
          ],
          [
            18.667705584043,
            59.7109133576304
          ],
          [
            18.6678786086152,
            59.7113696939344
          ],
          [
            18.6680957055847,
            59.711899071257
          ],
          [
            18.6681377340347,
            59.7120009155013
          ],
          [
            18.6683624132851,
            59.7124665931435
          ],
          [
            18.6684699408524,
            59.7126933282782
          ],
          [
            18.6685738122874,
            59.7129113656562
          ],
          [
            18.6686654779321,
            59.7131042254116
          ],
          [
            18.6688662563526,
            59.7135080274355
          ],
          [
            18.6691864476178,
            59.7141345280923
          ],
          [
            18.6695156361694,
            59.7147834190262
          ],
          [
            18.6695589212703,
            59.714868733476
          ],
          [
            18.6697774391908,
            59.7153370805278
          ],
          [
            18.6699510569964,
            59.7157371558265
          ],
          [
            18.6700584576594,
            59.7160934929261
          ],
          [
            18.6701109631894,
            59.7163162564742
          ],
          [
            18.6701419127641,
            59.71644758763
          ],
          [
            18.6701862421897,
            59.7167288448264
          ],
          [
            18.6702174387786,
            59.7170287525403
          ],
          [
            18.6702276804735,
            59.7173236915499
          ],
          [
            18.6702331149996,
            59.7174798623469
          ],
          [
            18.6702617707859,
            59.7181044957806
          ],
          [
            18.6702877888271,
            59.7187904161856
          ],
          [
            18.6702937495283,
            59.7189153544195
          ],
          [
            18.6703066758083,
            59.7191859127802
          ],
          [
            18.6703303592705,
            59.7194667678513
          ],
          [
            18.6703853155315,
            59.7197793050421
          ],
          [
            18.6704282097588,
            59.7199713083985
          ],
          [
            18.67017321334,
            59.7199762318782
          ],
          [
            18.6698184167435,
            59.7199701312432
          ],
          [
            18.6693526502723,
            59.7199665315453
          ],
          [
            18.6690459048275,
            59.7199724509272
          ],
          [
            18.6687616659095,
            59.7200099736538
          ],
          [
            18.6686462480582,
            59.7200324554114
          ],
          [
            18.6683033233235,
            59.7200992676465
          ],
          [
            18.6678048557929,
            59.72019967735
          ],
          [
            18.6675934661218,
            59.7202350347254
          ],
          [
            18.6673515646045,
            59.7202396225079
          ],
          [
            18.6669648323373,
            59.7202141284126
          ],
          [
            18.667000944103,
            59.720313226128
          ],
          [
            18.6671374676533,
            59.7204981095078
          ],
          [
            18.6673021969422,
            59.7207091074371
          ],
          [
            18.6673701704196,
            59.7207954132919
          ],
          [
            18.6675700388139,
            59.7209452401841
          ],
          [
            18.6676999295695,
            59.7210700392391
          ],
          [
            18.6677727161242,
            59.7211609473937
          ],
          [
            18.6678147094338,
            59.7212311885425
          ],
          [
            18.6678460351224,
            59.7213133773129
          ],
          [
            18.6678601070507,
            59.7214856029812
          ],
          [
            18.6678457408964,
            59.7217109380485
          ],
          [
            18.6678025202626,
            59.7217912291217
          ],
          [
            18.6677355745233,
            59.7218715093549
          ],
          [
            18.6676195337856,
            59.7219482902783
          ],
          [
            18.6672780666694,
            59.7221450353154
          ],
          [
            18.6669854431143,
            59.7223553622824
          ],
          [
            18.6668680085962,
            59.7224618441475
          ],
          [
            18.6667103157513,
            59.7226440640861
          ],
          [
            18.6665876339554,
            59.7228684668665
          ],
          [
            18.6664508230445,
            59.7230706958073
          ],
          [
            18.6663738040137,
            59.7231628881361
          ],
          [
            18.6663291985571,
            59.7232414476949
          ],
          [
            18.6664950828968,
            59.7233014750869
          ],
          [
            18.6667498615469,
            59.7233940567628
          ],
          [
            18.6670841698809,
            59.7235136551366
          ],
          [
            18.6674382385086,
            59.7236371676741
          ],
          [
            18.6675553485948,
            59.7236714125725
          ],
          [
            18.6677922778578,
            59.7236978760433
          ],
          [
            18.6685832083434,
            59.7236790054282
          ],
          [
            18.6688659269487,
            59.7236885281611
          ],
          [
            18.669411885314,
            59.723750345617
          ],
          [
            18.6698293916317,
            59.7237895700784
          ],
          [
            18.6704206420041,
            59.72382940639
          ],
          [
            18.6705260408256,
            59.7238413877166
          ],
          [
            18.6704984627187,
            59.7238750580339
          ],
          [
            18.6703563043295,
            59.7240486435019
          ],
          [
            18.6695749661485,
            59.7243033898437
          ],
          [
            18.6693460861286,
            59.7244680470572
          ],
          [
            18.6691432192958,
            59.7246139808897
          ],
          [
            18.6687638039993,
            59.724919637267
          ],
          [
            18.6686447619976,
            59.7250989831102
          ],
          [
            18.6687402434475,
            59.7254138031687
          ],
          [
            18.6689622041363,
            59.7256781021184
          ],
          [
            18.6692536143024,
            59.7261807535609
          ],
          [
            18.6698250818482,
            59.7265146730051
          ],
          [
            18.6698851836281,
            59.7265360208835
          ],
          [
            18.6700171846449,
            59.7265828988767
          ],
          [
            18.6701332388332,
            59.7266241105263
          ],
          [
            18.6701360130917,
            59.7266834752804
          ],
          [
            18.6702436820834,
            59.7268106647568
          ],
          [
            18.6703464061085,
            59.7269852551598
          ],
          [
            18.6702248462677,
            59.7273759345982
          ],
          [
            18.6702719349906,
            59.7275838475718
          ],
          [
            18.6703032283631,
            59.7277220904506
          ],
          [
            18.6703685751197,
            59.7281029028904
          ],
          [
            18.6704228541045,
            59.7282197657504
          ],
          [
            18.6703206800386,
            59.7287389807508
          ],
          [
            18.6702805186065,
            59.7287921758696
          ],
          [
            18.6702549357124,
            59.7288260598868
          ],
          [
            18.6694805316649,
            59.7292454893806
          ],
          [
            18.6687728671912,
            59.7296328097307
          ],
          [
            18.6685554817611,
            59.7298399834798
          ],
          [
            18.6684226266538,
            59.7300660876363
          ],
          [
            18.6683949093722,
            59.7301951403678
          ],
          [
            18.668457398198,
            59.7304131939401
          ],
          [
            18.6685483429644,
            59.7306610224361
          ],
          [
            18.668741462231,
            59.7309903978834
          ],
          [
            18.6690339379291,
            59.7312965454726
          ],
          [
            18.6692247657923,
            59.7316985951794
          ],
          [
            18.6692352781837,
            59.7319200435627
          ],
          [
            18.6692153999915,
            59.7321447238135
          ],
          [
            18.6695051464417,
            59.7324205021613
          ],
          [
            18.6697056006185,
            59.7327670555237
          ],
          [
            18.6699100269772,
            59.7329623614222
          ],
          [
            18.6710655328741,
            59.7333154105441
          ],
          [
            18.6717257840341,
            59.7335145261649
          ],
          [
            18.6720240785886,
            59.7337991029619
          ],
          [
            18.6724195339564,
            59.7341795121793
          ],
          [
            18.6727866325476,
            59.7344003463215
          ],
          [
            18.6731014952802,
            59.7346179047089
          ],
          [
            18.6738777459812,
            59.7349736094685
          ],
          [
            18.674904899073,
            59.7352392454289
          ],
          [
            18.6754143004356,
            59.7353933099607
          ],
          [
            18.6760500346845,
            59.7357150688659
          ],
          [
            18.6764623797576,
            59.7357282444523
          ],
          [
            18.677272414107,
            59.7357989304503
          ],
          [
            18.6773519015797,
            59.7358551836139
          ],
          [
            18.6775265829274,
            59.7359711057946
          ],
          [
            18.6778311593581,
            59.7360981016717
          ],
          [
            18.6781101342437,
            59.7361057787974
          ],
          [
            18.6783698951309,
            59.7362432611133
          ],
          [
            18.6786263753834,
            59.7364196932791
          ],
          [
            18.678847867685,
            59.7364722701644
          ],
          [
            18.6790282253575,
            59.7365720583456
          ],
          [
            18.6795680341307,
            59.7368508098021
          ],
          [
            18.6797154557516,
            59.737014675646
          ],
          [
            18.6798750844139,
            59.7371807248636
          ],
          [
            18.6804907535689,
            59.7373110354497
          ],
          [
            18.6811705974543,
            59.7376412597072
          ],
          [
            18.6818509761241,
            59.7377014432423
          ],
          [
            18.6824187510228,
            59.737874311377
          ],
          [
            18.6827663583139,
            59.7378439180432
          ],
          [
            18.6829117968092,
            59.7378693014155
          ],
          [
            18.683141180952,
            59.7380022701207
          ],
          [
            18.6832845408422,
            59.7382132755987
          ],
          [
            18.6834653763185,
            59.7383595435778
          ],
          [
            18.6837675894599,
            59.7385686063491
          ],
          [
            18.6840138954936,
            59.7387136739292
          ],
          [
            18.6841745830367,
            59.7389435269746
          ],
          [
            18.6841940206496,
            59.738997444238
          ],
          [
            18.6844876989849,
            59.7390864483717
          ],
          [
            18.6852305374311,
            59.7391855085513
          ],
          [
            18.6854186696305,
            59.739311092726
          ],
          [
            18.6854625948313,
            59.7394062188202
          ],
          [
            18.6857296662248,
            59.7395085338581
          ],
          [
            18.6858698437454,
            59.7395799586023
          ],
          [
            18.6859911685938,
            59.7397268612169
          ],
          [
            18.6861022820112,
            59.7398620505455
          ],
          [
            18.6862282770168,
            59.7399451722227
          ],
          [
            18.6862039996739,
            59.74006884769
          ],
          [
            18.6861999426387,
            59.7400761436893
          ],
          [
            18.6861400418104,
            59.7401318938133
          ],
          [
            18.6861084717197,
            59.7402608168076
          ],
          [
            18.6860996650833,
            59.7402967496425
          ],
          [
            18.6863108705564,
            59.7402958865772
          ],
          [
            18.6864722373665,
            59.7403007108951
          ],
          [
            18.6865769976537,
            59.7403146039276
          ],
          [
            18.686711506995,
            59.7403482993692
          ],
          [
            18.6868757145413,
            59.7404169985994
          ],
          [
            18.6867616027502,
            59.7404951440151
          ],
          [
            18.6865422032524,
            59.74069611257
          ],
          [
            18.6862265889592,
            59.7411146781966
          ],
          [
            18.6858359286419,
            59.741657831803
          ],
          [
            18.6856516809301,
            59.7418685978518
          ],
          [
            18.6852852832174,
            59.7421562182569
          ],
          [
            18.6845446122173,
            59.7425712810857
          ],
          [
            18.6845769650108,
            59.7426067862638
          ],
          [
            18.6845873525982,
            59.7426067139866
          ],
          [
            18.6846210335771,
            59.7426512945002
          ],
          [
            18.6846007691072,
            59.7427261540016
          ],
          [
            18.68455430297,
            59.7428145148477
          ],
          [
            18.6845199592049,
            59.7428931141421
          ],
          [
            18.6845694178335,
            59.7429551256898
          ],
          [
            18.6846365219105,
            59.7430316396301
          ],
          [
            18.684692762886,
            59.7430964793518
          ],
          [
            18.6847090247362,
            59.7431128227866
          ],
          [
            18.6847919725907,
            59.7431865026266
          ],
          [
            18.6848292506038,
            59.7432184159132
          ],
          [
            18.6849320610227,
            59.7433047808685
          ],
          [
            18.6850195563512,
            59.7433808806453
          ],
          [
            18.6851387677407,
            59.7434555251914
          ],
          [
            18.6852767661025,
            59.7435320816873
          ],
          [
            18.6854500295062,
            59.7435771578034
          ],
          [
            18.6856510177534,
            59.743623745362
          ],
          [
            18.6858195040964,
            59.7436617844137
          ],
          [
            18.6860089857922,
            59.7437156263775
          ],
          [
            18.6861296875254,
            59.7437535127085
          ],
          [
            18.6862582642283,
            59.7437846428958
          ],
          [
            18.6864338773276,
            59.7438122404926
          ],
          [
            18.6866077823191,
            59.7438246678349
          ],
          [
            18.6867756627369,
            59.743822028207
          ],
          [
            18.6869595313909,
            59.7438080447907
          ],
          [
            18.6870646610562,
            59.7438224396203
          ],
          [
            18.6872061283114,
            59.7438802664027
          ],
          [
            18.6872867725805,
            59.7439586541115
          ],
          [
            18.6873360381759,
            59.744010936079
          ],
          [
            18.6873815488292,
            59.7440681024497
          ],
          [
            18.6874370366954,
            59.7441417568682
          ],
          [
            18.6875526367977,
            59.744232609984
          ],
          [
            18.6876870329162,
            59.744300013694
          ],
          [
            18.6878447994869,
            59.7443789704193
          ],
          [
            18.6880167191659,
            59.7444899604131
          ],
          [
            18.6881307144901,
            59.7445963887254
          ],
          [
            18.6882235477905,
            59.7447048736792
          ],
          [
            18.6883526046662,
            59.7447937097117
          ],
          [
            18.6884603209194,
            59.7448421103042
          ],
          [
            18.6885453308461,
            59.7448851309118
          ],
          [
            18.6885938593638,
            59.7449014168959
          ],
          [
            18.6887871632251,
            59.7449271601758
          ],
          [
            18.68898774802,
            59.7449610033961
          ],
          [
            18.6891044805854,
            59.7449838740207
          ],
          [
            18.6892062540464,
            59.7450127941001
          ],
          [
            18.6894064867773,
            59.7450927205829
          ],
          [
            18.6896555273649,
            59.7452037903345
          ],
          [
            18.6897944197377,
            59.745255114534
          ],
          [
            18.6899227610984,
            59.7453089263702
          ],
          [
            18.6900329514778,
            59.7453706170386
          ],
          [
            18.6901294476449,
            59.7454349402567
          ],
          [
            18.6902227757978,
            59.7455717952966
          ],
          [
            18.6902175502222,
            59.745628453995
          ],
          [
            18.6901906835202,
            59.7456811347335
          ],
          [
            18.6900410071428,
            59.7458278732931
          ],
          [
            18.6898734902783,
            59.7459708937153
          ],
          [
            18.6897467887152,
            59.7460903124213
          ],
          [
            18.689733146018,
            59.7461587321589
          ],
          [
            18.6897299241454,
            59.746194842214
          ],
          [
            18.6897488678634,
            59.7462253909068
          ],
          [
            18.6897841811144,
            59.7462290009911
          ],
          [
            18.6898966762478,
            59.7461674020997
          ],
          [
            18.6899274953004,
            59.7461466167803
          ],
          [
            18.6899685177185,
            59.7461259693353
          ],
          [
            18.6900085361782,
            59.7461033812363
          ],
          [
            18.6900563953443,
            59.7460870761699
          ],
          [
            18.6901769371729,
            59.7460615264425
          ],
          [
            18.6902959172606,
            59.746043196696
          ],
          [
            18.6907084223297,
            59.7460409366143
          ],
          [
            18.6908507481905,
            59.7460401611572
          ],
          [
            18.6912150345492,
            59.7460381678423
          ],
          [
            18.6914224129151,
            59.746054088073
          ],
          [
            18.6916476599069,
            59.7461082740826
          ],
          [
            18.6918502194098,
            59.7462102172339
          ],
          [
            18.6921246071275,
            59.7463877667972
          ],
          [
            18.6922413651118,
            59.7464049496567
          ],
          [
            18.6923115389254,
            59.7464152721548
          ],
          [
            18.6923820734887,
            59.7464220878207
          ],
          [
            18.6924211943759,
            59.7464258771125
          ],
          [
            18.692455657007,
            59.7460658046274
          ],
          [
            18.6924871827405,
            59.7458769976212
          ],
          [
            18.6924931508489,
            59.7458412160473
          ],
          [
            18.6924991909558,
            59.745805441436
          ],
          [
            18.6925460316217,
            59.7454692267645
          ],
          [
            18.6925483370104,
            59.7453942969666
          ],
          [
            18.6925912123234,
            59.7451372104955
          ],
          [
            18.6926326022874,
            59.7449015368711
          ],
          [
            18.6926444243201,
            59.7448207191666
          ],
          [
            18.6926662614755,
            59.7446649310144
          ],
          [
            18.6926880832558,
            59.7446015738144
          ],
          [
            18.692738885315,
            59.7444241643997
          ],
          [
            18.6927657722303,
            59.7442401439698
          ],
          [
            18.6928132692487,
            59.7439855477128
          ],
          [
            18.6928465382461,
            59.7438341094449
          ],
          [
            18.6929258900683,
            59.7435700197713
          ],
          [
            18.6930208690432,
            59.7433875319821
          ],
          [
            18.6931602042199,
            59.7431443916563
          ],
          [
            18.6932168571512,
            59.7430061161416
          ],
          [
            18.6932446943516,
            59.7428609987119
          ],
          [
            18.6935745718001,
            59.7429662833262
          ],
          [
            18.6939012013838,
            59.7431007729768
          ],
          [
            18.694163633142,
            59.7432068987229
          ],
          [
            18.6945464052396,
            59.7433334120155
          ],
          [
            18.6950548828431,
            59.743470351341
          ],
          [
            18.695702487575,
            59.7436498072202
          ],
          [
            18.6964593148713,
            59.7437869833899
          ],
          [
            18.6970917428897,
            59.7439211878628
          ],
          [
            18.6977633539823,
            59.7441171982284
          ],
          [
            18.6983277068564,
            59.7442472026077
          ],
          [
            18.6990821054105,
            59.744355919917
          ],
          [
            18.6997659908651,
            59.7445630352134
          ],
          [
            18.7004871579476,
            59.7448092221173
          ],
          [
            18.7012930350903,
            59.7449908583128
          ],
          [
            18.7022884783559,
            59.745145523976
          ],
          [
            18.7027818158407,
            59.7452371891208
          ],
          [
            18.7032834528694,
            59.7454693479156
          ],
          [
            18.7033381073732,
            59.7454932141087
          ],
          [
            18.7033419829376,
            59.7454941663244
          ],
          [
            18.7033384559731,
            59.7454947984011
          ],
          [
            18.7035674064779,
            59.7455485001703
          ],
          [
            18.7035231232858,
            59.7455776961981
          ],
          [
            18.7032599110333,
            59.7457512198056
          ],
          [
            18.7032697525718,
            59.7457558140689
          ],
          [
            18.7033005727649,
            59.745770198506
          ],
          [
            18.7034255396485,
            59.7457815397793
          ],
          [
            18.7036631821814,
            59.7457799558487
          ],
          [
            18.7039054308087,
            59.7457947123337
          ],
          [
            18.7040532486863,
            59.7458109472627
          ],
          [
            18.7042002359409,
            59.7458335107013
          ],
          [
            18.7044339527757,
            59.7459008516428
          ],
          [
            18.7048334206085,
            59.7460577883699
          ],
          [
            18.7051658775384,
            59.7461907595332
          ],
          [
            18.7053291592139,
            59.7462545849839
          ],
          [
            18.705502151318,
            59.7463217634568
          ],
          [
            18.7058297534537,
            59.7464528131006
          ],
          [
            18.7059864141084,
            59.7465225110472
          ],
          [
            18.7061296946821,
            59.7465985554141
          ],
          [
            18.706684429835,
            59.7468943211497
          ],
          [
            18.7069011818433,
            59.747024991211
          ],
          [
            18.7069830471738,
            59.7470673609803
          ],
          [
            18.7070752171457,
            59.7471040025211
          ],
          [
            18.7072148662141,
            59.7471416765046
          ],
          [
            18.7073019033732,
            59.7471488331901
          ],
          [
            18.7073897042274,
            59.7471527389328
          ],
          [
            18.7075518929778,
            59.7471529654754
          ],
          [
            18.707660365061,
            59.7471430116553
          ],
          [
            18.7077740576919,
            59.7471377723444
          ],
          [
            18.7078744479463,
            59.7471472099862
          ],
          [
            18.7079723295254,
            59.7471719796345
          ],
          [
            18.7080798392506,
            59.7471962108568
          ],
          [
            18.7082376226583,
            59.7472274682581
          ],
          [
            18.708394288115,
            59.7472514343131
          ],
          [
            18.7085491290973,
            59.7472802748077
          ],
          [
            18.7086905281869,
            59.7473116200011
          ],
          [
            18.7090082003379,
            59.7473823919394
          ],
          [
            18.7091631455053,
            59.7474160959414
          ],
          [
            18.7093170962243,
            59.7474483456921
          ],
          [
            18.709838651425,
            59.7475420957793
          ],
          [
            18.7099093417731,
            59.7475572812754
          ],
          [
            18.7099176773886,
            59.7476321540096
          ],
          [
            18.7099143231233,
            59.7477012521414
          ],
          [
            18.7100055409266,
            59.7478661622204
          ],
          [
            18.7102396515072,
            59.7481248555585
          ],
          [
            18.7103193286798,
            59.7483102463448
          ],
          [
            18.710399791441,
            59.7485470481645
          ],
          [
            18.7105404434584,
            59.7489042559103
          ],
          [
            18.7106689454211,
            59.7491468809569
          ],
          [
            18.7107105651146,
            59.7493363826653
          ],
          [
            18.7107329585435,
            59.7493922066393
          ],
          [
            18.7107339224353,
            59.7493922014268
          ],
          [
            18.7108087722446,
            59.7494214718442
          ],
          [
            18.7109834818425,
            59.7494774448638
          ],
          [
            18.7114680322412,
            59.7496426579234
          ],
          [
            18.7123742252151,
            59.7499155287196
          ],
          [
            18.7129934874435,
            59.7501135730027
          ],
          [
            18.7135873839994,
            59.7502971577428
          ],
          [
            18.7140804371896,
            59.7504530719728
          ],
          [
            18.7143518717912,
            59.7505235958363
          ],
          [
            18.7150047152902,
            59.7506679354913
          ],
          [
            18.7155702281516,
            59.7507855045914
          ],
          [
            18.7169552970146,
            59.7510883300057
          ],
          [
            18.7173502940923,
            59.7511659572898
          ],
          [
            18.7179526204043,
            59.7512910989248
          ],
          [
            18.7182607207779,
            59.7513623874258
          ],
          [
            18.7186290677497,
            59.7514557238548
          ],
          [
            18.7190309644883,
            59.7515848751782
          ],
          [
            18.719355956884,
            59.7517241757968
          ],
          [
            18.7196835493595,
            59.751894596048
          ],
          [
            18.7200180740222,
            59.7521587907061
          ],
          [
            18.7200821604085,
            59.7522200138336
          ],
          [
            18.7200789278007,
            59.7522628298959
          ],
          [
            18.7200436517446,
            59.7523341681586
          ],
          [
            18.7198621923781,
            59.7525071254436
          ],
          [
            18.7197056516508,
            59.7526533824734
          ],
          [
            18.7202317696298,
            59.7528662943314
          ],
          [
            18.7204699820687,
            59.7529576227639
          ],
          [
            18.7205905959343,
            59.7530070689137
          ],
          [
            18.7206631887682,
            59.7530202923253
          ],
          [
            18.7207226316575,
            59.7530048855353
          ],
          [
            18.721482673179,
            59.753332980979
          ],
          [
            18.7217940288025,
            59.7534645668176
          ],
          [
            18.7220034926154,
            59.7535208209171
          ],
          [
            18.7222862638771,
            59.7535786177789
          ],
          [
            18.7226731073378,
            59.7536338959509
          ],
          [
            18.7229956546297,
            59.7536583920051
          ],
          [
            18.7233872748287,
            59.7536669398012
          ],
          [
            18.7239247095622,
            59.7536416028182
          ],
          [
            18.7243406781336,
            59.7536169330766
          ],
          [
            18.7247542756076,
            59.7535718429597
          ],
          [
            18.7258011208935,
            59.7533850961234
          ],
          [
            18.7262276395127,
            59.7533136601117
          ],
          [
            18.7266482666857,
            59.7532373904851
          ],
          [
            18.7272048916005,
            59.7531195028611
          ],
          [
            18.7275364248504,
            59.7530252370554
          ],
          [
            18.7279138456917,
            59.7530264131482
          ],
          [
            18.7279975736484,
            59.7530473345676
          ],
          [
            18.7282457518261,
            59.7531093389259
          ],
          [
            18.7284666722341,
            59.7531607819982
          ],
          [
            18.7285376594166,
            59.75325431845
          ],
          [
            18.7285196776764,
            59.7533186060823
          ],
          [
            18.7284900304507,
            59.7533344033434
          ],
          [
            18.728444102166,
            59.7533423443902
          ],
          [
            18.7283825910554,
            59.7533412510992
          ],
          [
            18.7283327165679,
            59.7533520073202
          ],
          [
            18.7282748081718,
            59.7533750639212
          ],
          [
            18.7281587237707,
            59.7534660486531
          ],
          [
            18.7280847171682,
            59.7535931244604
          ],
          [
            18.7279090755487,
            59.7536968749227
          ],
          [
            18.7276362780045,
            59.753913607148
          ],
          [
            18.7275200743737,
            59.7539479730523
          ],
          [
            18.7273848369503,
            59.7539827535047
          ],
          [
            18.7271244968659,
            59.7540709929411
          ],
          [
            18.7270306474007,
            59.7541422346441
          ],
          [
            18.7269543325155,
            59.7542437117136
          ],
          [
            18.7268758723333,
            59.754313176977
          ],
          [
            18.7267847601564,
            59.7543519444963
          ],
          [
            18.7266975873891,
            59.7543731614933
          ],
          [
            18.7265499068903,
            59.7543939928539
          ],
          [
            18.7263043245716,
            59.7543946275405
          ],
          [
            18.7259912754999,
            59.754406759137
          ],
          [
            18.7256754467745,
            59.7544353467799
          ],
          [
            18.7252858681938,
            59.754522953862
          ],
          [
            18.7249286014906,
            59.7546244386503
          ],
          [
            18.7247565321644,
            59.7546500859813
          ],
          [
            18.7246620146123,
            59.75465081741
          ],
          [
            18.7244146428431,
            59.7546318943724
          ],
          [
            18.7241975681546,
            59.7546201024701
          ],
          [
            18.7235708655042,
            59.7547401941889
          ],
          [
            18.7231768871576,
            59.7548339602221
          ],
          [
            18.7231109043805,
            59.7548931723042
          ],
          [
            18.7229180159035,
            59.7550172524475
          ],
          [
            18.7227746102248,
            59.7550984089299
          ],
          [
            18.7229203752856,
            59.7551810721489
          ],
          [
            18.723022875348,
            59.7552666882223
          ],
          [
            18.7230438948091,
            59.7553261472578
          ],
          [
            18.7230365516419,
            59.755378248768
          ],
          [
            18.7230050119602,
            59.75542488811
          ],
          [
            18.7229076431507,
            59.7555318137053
          ],
          [
            18.7226813025195,
            59.755700123974
          ],
          [
            18.7224447916491,
            59.755896785722
          ],
          [
            18.7223032849911,
            59.7559644852126
          ],
          [
            18.7221992070335,
            59.7560081744236
          ],
          [
            18.7220415557781,
            59.7560430633077
          ],
          [
            18.7216002854127,
            59.7560846180168
          ],
          [
            18.7211301753133,
            59.7561631782599
          ],
          [
            18.7209716085531,
            59.7561861814251
          ],
          [
            18.7208774349504,
            59.7562053995393
          ],
          [
            18.7206864248727,
            59.7562154430558
          ],
          [
            18.720612767452,
            59.7562305917451
          ],
          [
            18.7202198149098,
            59.7563113932286
          ],
          [
            18.7198230486192,
            59.756391240877
          ],
          [
            18.7194482254086,
            59.7564443167233
          ],
          [
            18.7193640526279,
            59.7564562389788
          ],
          [
            18.7192836315566,
            59.7564684144374
          ],
          [
            18.7191786802769,
            59.7564842961493
          ],
          [
            18.7190037964681,
            59.756524155002
          ],
          [
            18.7188664975159,
            59.7565693938926
          ],
          [
            18.7186565425303,
            59.7566551275753
          ],
          [
            18.7186514130775,
            59.756657223484
          ],
          [
            18.7184468323672,
            59.756754598041
          ],
          [
            18.7182292025075,
            59.7568131681228
          ],
          [
            18.7180850239556,
            59.7568271746106
          ],
          [
            18.7179400795464,
            59.7568293484597
          ],
          [
            18.7178731331032,
            59.7568281344043
          ],
          [
            18.7176975908773,
            59.7568249531401
          ],
          [
            18.7173019975661,
            59.7569146475295
          ],
          [
            18.7172095632473,
            59.7569356024737
          ],
          [
            18.7155731914873,
            59.7570525110837
          ],
          [
            18.7133321191529,
            59.7571963668797
          ],
          [
            18.7098988466123,
            59.7574281036373
          ],
          [
            18.708691130864,
            59.75751125507
          ],
          [
            18.7083009223359,
            59.7574301246945
          ],
          [
            18.708234994274,
            59.75741641835
          ],
          [
            18.7081669878943,
            59.7574058179117
          ],
          [
            18.7081317970184,
            59.7574003310018
          ],
          [
            18.7080084033211,
            59.7573958703824
          ],
          [
            18.7079203209491,
            59.757402798913
          ],
          [
            18.7078233667733,
            59.7575403688008
          ],
          [
            18.7077892344198,
            59.7575677953669
          ],
          [
            18.707377569801,
            59.7575252553534
          ],
          [
            18.7073447277916,
            59.7575225132165
          ],
          [
            18.7073350865247,
            59.7575225650972
          ],
          [
            18.7071185053413,
            59.7574945416718
          ],
          [
            18.7068787238558,
            59.7574637237863
          ],
          [
            18.7066251632209,
            59.7574482478364
          ],
          [
            18.7063700970317,
            59.7574355058283
          ],
          [
            18.7063245778183,
            59.7574260208676
          ],
          [
            18.7062837971078,
            59.7574126186064
          ],
          [
            18.7062229450119,
            59.7573749202454
          ],
          [
            18.7061496164111,
            59.757327893333
          ],
          [
            18.7060437772671,
            59.7572290195694
          ],
          [
            18.7058802328644,
            59.7570703988243
          ],
          [
            18.7057243625867,
            59.7569152556879
          ],
          [
            18.7056579992539,
            59.7568508541792
          ],
          [
            18.7055260103781,
            59.7567942467948
          ],
          [
            18.7056193481169,
            59.7566366667967
          ],
          [
            18.7051937081917,
            59.7565708440613
          ],
          [
            18.704496451188,
            59.7566986658876
          ],
          [
            18.7041844510529,
            59.7567466886983
          ],
          [
            18.7036260662967,
            59.7568975555375
          ],
          [
            18.7031994658787,
            59.7570103378969
          ],
          [
            18.7031294497366,
            59.7570288435624
          ],
          [
            18.7027108142057,
            59.7570924642744
          ],
          [
            18.7027611031377,
            59.7572131503434
          ],
          [
            18.7027825920412,
            59.7573006349507
          ],
          [
            18.7028186938084,
            59.7574476360415
          ],
          [
            18.7028786881101,
            59.7576173072249
          ],
          [
            18.702819463055,
            59.7576590860632
          ],
          [
            18.7027730119697,
            59.7576918572855
          ],
          [
            18.7026097885478,
            59.7577159310358
          ],
          [
            18.7023341637825,
            59.7577353813916
          ],
          [
            18.7021748168209,
            59.7577624464141
          ],
          [
            18.7021073839805,
            59.7577738943035
          ],
          [
            18.7020447506541,
            59.7577926405826
          ],
          [
            18.7019314684706,
            59.75782654112
          ],
          [
            18.7017975335323,
            59.7578711903331
          ],
          [
            18.7016193713803,
            59.7579346057799
          ],
          [
            18.7014696076804,
            59.757975817796
          ],
          [
            18.7014502774298,
            59.7579793651166
          ],
          [
            18.7014042151507,
            59.7579878370004
          ],
          [
            18.7013070260864,
            59.7580057055434
          ],
          [
            18.7011239182933,
            59.7580244863048
          ],
          [
            18.7008702939241,
            59.7580302614432
          ],
          [
            18.7007987084275,
            59.7580318930437
          ],
          [
            18.7007272074509,
            59.7580330008695
          ],
          [
            18.7006506375275,
            59.7580341886299
          ],
          [
            18.7004771508475,
            59.7580368858875
          ],
          [
            18.700208953597,
            59.7580549794943
          ],
          [
            18.69985006835,
            59.7580461882042
          ],
          [
            18.6993538682638,
            59.7580186674556
          ],
          [
            18.6990198480703,
            59.7580000120562
          ],
          [
            18.6988513354924,
            59.7579649087118
          ],
          [
            18.6986756103814,
            59.757898855733
          ],
          [
            18.6983425111631,
            59.7577944268478
          ],
          [
            18.6982534654748,
            59.7577783596448
          ],
          [
            18.6980967680043,
            59.7577548680396
          ],
          [
            18.6978553283558,
            59.7577366909415
          ],
          [
            18.6975103838033,
            59.7577234101186
          ],
          [
            18.6974627986903,
            59.7577216672508
          ],
          [
            18.6973188266866,
            59.7577163919123
          ],
          [
            18.6972702035047,
            59.7577146063017
          ],
          [
            18.6971492725286,
            59.7577024435894
          ],
          [
            18.6970409296339,
            59.75770890448
          ],
          [
            18.6969276278632,
            59.7577318832077
          ],
          [
            18.6968357597904,
            59.7577654507213
          ],
          [
            18.6967636199684,
            59.7578203186116
          ],
          [
            18.696677161254,
            59.7578986976299
          ],
          [
            18.6966342471936,
            59.7579641401949
          ],
          [
            18.6965582177689,
            59.7580441333068
          ],
          [
            18.696490084879,
            59.7580908251578
          ],
          [
            18.6963939507615,
            59.7581285615452
          ],
          [
            18.6963255748201,
            59.7581382711587
          ],
          [
            18.6962315513164,
            59.7581253499353
          ],
          [
            18.6960999230649,
            59.758086233339
          ],
          [
            18.6958793699209,
            59.7580106986535
          ],
          [
            18.6957426089941,
            59.7579950791623
          ],
          [
            18.6957123326909,
            59.7579932351242
          ],
          [
            18.6957026710361,
            59.7579923133041
          ],
          [
            18.6956997988365,
            59.7579933014602
          ],
          [
            18.6956192962742,
            59.7580170784138
          ],
          [
            18.6952809029772,
            59.7582518914116
          ],
          [
            18.6951489174488,
            59.7583503714167
          ],
          [
            18.695090740753,
            59.7583813271351
          ],
          [
            18.6950247496659,
            59.7584074593706
          ],
          [
            18.6948856341942,
            59.7584412753081
          ],
          [
            18.694708900793,
            59.7584281016028
          ],
          [
            18.6942664394594,
            59.7583881156961
          ],
          [
            18.6929960675588,
            59.7582736862388
          ],
          [
            18.6928699703259,
            59.7582805057365
          ],
          [
            18.6927317402341,
            59.7583020481867
          ],
          [
            18.6925727853737,
            59.7583275891897
          ],
          [
            18.6924083171877,
            59.7583506423632
          ],
          [
            18.6923036882599,
            59.758395715738
          ],
          [
            18.6922375183446,
            59.7584581343725
          ],
          [
            18.6920227825061,
            59.758545801085
          ],
          [
            18.6920008615104,
            59.7585544535767
          ],
          [
            18.6918695069745,
            59.7586063096914
          ],
          [
            18.6916579464458,
            59.7587064014447
          ],
          [
            18.69134890393,
            59.7587686533961
          ],
          [
            18.6912365194482,
            59.758767256156
          ],
          [
            18.6908017864798,
            59.7587243959575
          ],
          [
            18.6906334016117,
            59.7586825996397
          ],
          [
            18.690441088131,
            59.7585920371292
          ],
          [
            18.6903037399105,
            59.7585396373723
          ],
          [
            18.6900974947665,
            59.7584699830938
          ],
          [
            18.6898956888557,
            59.7584093812792
          ],
          [
            18.6895091622179,
            59.7583112202275
          ],
          [
            18.6893744276026,
            59.758265523632
          ],
          [
            18.6892990419343,
            59.7582577545936
          ],
          [
            18.6892107791592,
            59.7582454261452
          ],
          [
            18.688930797317,
            59.7581817058863
          ],
          [
            18.6886282830402,
            59.7581014481841
          ],
          [
            18.6883631503867,
            59.7580321691155
          ],
          [
            18.6882475022249,
            59.7581757989414
          ],
          [
            18.6881325371084,
            59.7583058037254
          ],
          [
            18.6881292168335,
            59.7583061132099
          ],
          [
            18.6880263406995,
            59.7582823696819
          ],
          [
            18.687902441913,
            59.7582248975156
          ],
          [
            18.6876794231812,
            59.7581575265125
          ],
          [
            18.6872927432339,
            59.7580564330693
          ],
          [
            18.6869404272592,
            59.7579757846526
          ],
          [
            18.6866192616736,
            59.7579072942372
          ],
          [
            18.6864419970418,
            59.7578841374333
          ],
          [
            18.6862977770235,
            59.75786464574
          ],
          [
            18.6861345393496,
            59.7578649508295
          ],
          [
            18.6859624942565,
            59.7578622940231
          ],
          [
            18.6858331065976,
            59.7578740527819
          ],
          [
            18.6856409483922,
            59.7579198703916
          ],
          [
            18.6854437445975,
            59.7579561304844
          ],
          [
            18.6850847396891,
            59.7579924829294
          ],
          [
            18.6849290428844,
            59.7580031725735
          ],
          [
            18.6847798003318,
            59.7580134201919
          ],
          [
            18.6846325928097,
            59.7580199880492
          ],
          [
            18.6844910067894,
            59.7580263170633
          ],
          [
            18.6844679580795,
            59.7580273414953
          ],
          [
            18.6842437033539,
            59.7580448264046
          ],
          [
            18.6838837700189,
            59.7580029634413
          ],
          [
            18.6836539710692,
            59.7580015108071
          ],
          [
            18.6831169257868,
            59.7580060536499
          ],
          [
            18.6826159837024,
            59.7580069388154
          ],
          [
            18.6823078650275,
            59.7579576494971
          ],
          [
            18.6820667883123,
            59.7579012206481
          ],
          [
            18.6818011012486,
            59.7578737238107
          ],
          [
            18.6815173975189,
            59.7578202157843
          ],
          [
            18.6812816004428,
            59.757785327309
          ],
          [
            18.6811076308454,
            59.7577645428802
          ],
          [
            18.6804346157066,
            59.7577160427052
          ],
          [
            18.6797584489617,
            59.7576964992764
          ],
          [
            18.6791019922848,
            59.7576828179405
          ],
          [
            18.6786924045691,
            59.7577167502278
          ],
          [
            18.6782638038251,
            59.7578667101312
          ],
          [
            18.6779996768063,
            59.7580088515735
          ],
          [
            18.6777563722302,
            59.758125230532
          ],
          [
            18.6775126797741,
            59.7581858369159
          ]
        ]
      }
    }
  ]
}
