{
  "type": "FeatureCollection",
  "features": [
    {
      "type": "Feature",
      "properties": {
        "name": "Stage 25: Lundsjön to Vallmotorp",
        "source": "Sörmlandsleden official full GPX",
        "sourceFormat": "official-network-gpx",
        "sourceUrl": "https://www.sormlandsleden.se/wp-content/themes/sormlandsleden.se/Leden-2024-12-04.gpx",
        "lengthKm": 8.47
      },
      "geometry": {
        "type": "LineString",
        "coordinates": [
          [
            16.290188196169833,
            59.08078542332474
          ],
          [
            16.29057793024801,
            59.07985089459684
          ],
          [
            16.290537340698418,
            59.0794937608746
          ],
          [
            16.290614422157727,
            59.07908199982472
          ],
          [
            16.290872014701844,
            59.0787279629637
          ],
          [
            16.291136515455594,
            59.07850350653558
          ],
          [
            16.291070619837825,
            59.07809449339496
          ],
          [
            16.290501287438424,
            59.07805290336778
          ],
          [
            16.289791283011038,
            59.078133482165896
          ],
          [
            16.289336958626997,
            59.078031110941296
          ],
          [
            16.28881970555267,
            59.07763730460929
          ],
          [
            16.289336915811884,
            59.07716006701644
          ],
          [
            16.28956167570391,
            59.07652861709125
          ],
          [
            16.289026270448225,
            59.07638525395577
          ],
          [
            16.288844022694363,
            59.07612610608669
          ],
          [
            16.289730260287257,
            59.075773490023245
          ],
          [
            16.29043190324882,
            59.075621526369616
          ],
          [
            16.29189403015018,
            59.07580728503201
          ],
          [
            16.292301069046633,
            59.07557146919768
          ],
          [
            16.292630029665236,
            59.07510087290269
          ],
          [
            16.292833198396263,
            59.07452588734317
          ],
          [
            16.292818474017654,
            59.07389666560993
          ],
          [
            16.29287846149509,
            59.072970095991536
          ],
          [
            16.293827082426475,
            59.072309861529895
          ],
          [
            16.293464463285943,
            59.07192911515691
          ],
          [
            16.2929778659564,
            59.07155730721319
          ],
          [
            16.29175964871521,
            59.07172864027757
          ],
          [
            16.29118732831189,
            59.071807229698344
          ],
          [
            16.29087843965037,
            59.07164760019314
          ],
          [
            16.29094638590012,
            59.07138857859906
          ],
          [
            16.290818471058227,
            59.070595896823285
          ],
          [
            16.290932828959154,
            59.07024646334834
          ],
          [
            16.29095871514285,
            59.06993574946748
          ],
          [
            16.290408289945816,
            59.06909065593259
          ],
          [
            16.29022252713124,
            59.06870576513496
          ],
          [
            16.29003431321961,
            59.06835179473068
          ],
          [
            16.289717888909355,
            59.06804020227879
          ],
          [
            16.28924072060407,
            59.06771431840118
          ],
          [
            16.288867273288425,
            59.06736233796757
          ],
          [
            16.288524525005105,
            59.067000402139755
          ],
          [
            16.28843899309977,
            59.06662456232993
          ],
          [
            16.288572647408515,
            59.066252096282824
          ],
          [
            16.288260049054646,
            59.06593123645763
          ],
          [
            16.28788710022273,
            59.065580383111126
          ],
          [
            16.287480559611456,
            59.06529128070414
          ],
          [
            16.286985547873734,
            59.064971901148674
          ],
          [
            16.286449870504224,
            59.06470873079725
          ],
          [
            16.286020307547883,
            59.06440725658762
          ],
          [
            16.285363376811226,
            59.06421609754355
          ],
          [
            16.284571721248422,
            59.06421267843591
          ],
          [
            16.284211104835745,
            59.063946784868655
          ],
          [
            16.28421855545428,
            59.063835514053146
          ],
          [
            16.284442256351763,
            59.063569377508614
          ],
          [
            16.284598109114114,
            59.06338324556555
          ],
          [
            16.285093285955444,
            59.062872883997706
          ],
          [
            16.285181799908322,
            59.06261391918795
          ],
          [
            16.284418816459706,
            59.06251258974345
          ],
          [
            16.284205041954408,
            59.06216471449059
          ],
          [
            16.283954957878105,
            59.06183362645754
          ],
          [
            16.28348570012743,
            59.061534022801844
          ],
          [
            16.2831837698736,
            59.061178860079714
          ],
          [
            16.282610223133297,
            59.06092920153286
          ],
          [
            16.28194317226499,
            59.06072513617445
          ],
          [
            16.28121630399711,
            59.06060145774113
          ],
          [
            16.28045262236254,
            59.0603464729429
          ],
          [
            16.279938251348998,
            59.06007861001308
          ],
          [
            16.279420462599482,
            59.059840790671906
          ],
          [
            16.278739646898053,
            59.059688007080986
          ],
          [
            16.278099176056415,
            59.05951647106239
          ],
          [
            16.277398624126906,
            59.059351023663154
          ],
          [
            16.2769046873848,
            59.059071736528914
          ],
          [
            16.2764840806288,
            59.05872099041351
          ],
          [
            16.27645000963552,
            59.05836727439964
          ],
          [
            16.276229849272156,
            59.05799823177731
          ],
          [
            16.276150896051153,
            59.05762297361424
          ],
          [
            16.276240939099356,
            59.05718807160844
          ],
          [
            16.276296848723607,
            59.05709443176493
          ],
          [
            16.2763505753775,
            59.05662817410701
          ],
          [
            16.27626151464909,
            59.05649413548199
          ],
          [
            16.276023820625586,
            59.056406699885194
          ],
          [
            16.27563690786847,
            59.05630858463726
          ],
          [
            16.275199751759864,
            59.05626671666297
          ],
          [
            16.274518325972643,
            59.056203542691875
          ],
          [
            16.273743950811312,
            59.05638381712992
          ],
          [
            16.27321355923132,
            59.05664614357414
          ],
          [
            16.273173885001906,
            59.05676289275329
          ],
          [
            16.272593539744182,
            59.05736545176753
          ],
          [
            16.27246687781455,
            59.05761535328057
          ],
          [
            16.271832978034805,
            59.057769241391526
          ],
          [
            16.27143248472455,
            59.058098252553584
          ],
          [
            16.27108019515587,
            59.05831184735661
          ],
          [
            16.27059965162077,
            59.058636281033266
          ],
          [
            16.270142262966893,
            59.05894159313574
          ],
          [
            16.26965368029469,
            59.0592001360453
          ],
          [
            16.268969019896147,
            59.05936627917156
          ],
          [
            16.26829749731386,
            59.059366917765914
          ],
          [
            16.267605299358355,
            59.05917823746816
          ],
          [
            16.266973120057433,
            59.058931244370996
          ],
          [
            16.26634823419921,
            59.058774028975556
          ],
          [
            16.26582485082334,
            59.058527059593686
          ],
          [
            16.26579648041093,
            59.058136423636256
          ],
          [
            16.265744868723644,
            59.0577607443195
          ],
          [
            16.265622751655226,
            59.057367399981125
          ],
          [
            16.26541764720979,
            59.05709953516916
          ],
          [
            16.26409429436904,
            59.05660287876646
          ],
          [
            16.263567833323457,
            59.056879675020014
          ],
          [
            16.263167344525247,
            59.05717453532121
          ],
          [
            16.262774386921524,
            59.057526968905584
          ],
          [
            16.26226583348237,
            59.057819649603466
          ],
          [
            16.261554012180806,
            59.057986572077645
          ],
          [
            16.261008502166852,
            59.058238918891135
          ],
          [
            16.26043238735026,
            59.058505416617315
          ],
          [
            16.260335974350912,
            59.05855001444246
          ],
          [
            16.259670970865105,
            59.05833497382435
          ],
          [
            16.25902428621219,
            59.05812585107301
          ],
          [
            16.258442668798416,
            59.057969011260894
          ],
          [
            16.25766063800966,
            59.0578860907203
          ],
          [
            16.25699075212502,
            59.05771391735357
          ],
          [
            16.256329053135058,
            59.05751597196026
          ],
          [
            16.25567767332331,
            59.057342081292155
          ],
          [
            16.254976595835366,
            59.05718437867348
          ],
          [
            16.25426466946843,
            59.05701357852025
          ],
          [
            16.25359072922231,
            59.056835034942495
          ],
          [
            16.252946024082526,
            59.05667251277392
          ],
          [
            16.25247690066674,
            59.05639969061807
          ],
          [
            16.252237040809646,
            59.056265143642165
          ],
          [
            16.251878211974137,
            59.05591916723476
          ],
          [
            16.251563279240536,
            59.055581234096216
          ],
          [
            16.2511668331982,
            59.0552598450181
          ],
          [
            16.25064080651414,
            59.05495081175695
          ],
          [
            16.25006031776617,
            59.0547411355654
          ],
          [
            16.249409612262756,
            59.05460195496259
          ],
          [
            16.248684972741202,
            59.05469534951622
          ],
          [
            16.24791486295622,
            59.054798814702266
          ],
          [
            16.247678464229907,
            59.05483723027414
          ],
          [
            16.246437895914678,
            59.054832195897866
          ],
          [
            16.244755638854258,
            59.05446074819939
          ],
          [
            16.244435578853196,
            59.05435449562715
          ],
          [
            16.244150232755803,
            59.0542075436759
          ],
          [
            16.243993598904204,
            59.054096494902645
          ],
          [
            16.243559505248836,
            59.053723090536195
          ],
          [
            16.244460343535565,
            59.052956828024655
          ],
          [
            16.244798932374923,
            59.05264061470036
          ],
          [
            16.245280249001237,
            59.05232150630565
          ],
          [
            16.24567393022744,
            59.051976213846366
          ],
          [
            16.245840731637177,
            59.051602866227455
          ],
          [
            16.245956041726867,
            59.05121448821561
          ],
          [
            16.24558354014286,
            59.05089747611157
          ],
          [
            16.245212562026953,
            59.05055464570754
          ],
          [
            16.24463215324071,
            59.05028128182275
          ],
          [
            16.244267949814596,
            59.04994910009783
          ],
          [
            16.243012999172844,
            59.04902195959645
          ],
          [
            16.242389036315274,
            59.04880166300407
          ],
          [
            16.241665951974145,
            59.04872835002386
          ],
          [
            16.24102030629904,
            59.04856332113364
          ],
          [
            16.240417443879313,
            59.04835831776649
          ],
          [
            16.24047477614411,
            59.04799705625749
          ],
          [
            16.240668503393678,
            59.04760851646451
          ],
          [
            16.240549360710343,
            59.04724170439749
          ],
          [
            16.240838505549437,
            59.04648853504419
          ],
          [
            16.24163225017106,
            59.04637337802032
          ],
          [
            16.241756231306336,
            59.04632470499231
          ],
          [
            16.24206069321507,
            59.04628482580388
          ],
          [
            16.24264935369019,
            59.046083234788
          ],
          [
            16.242760259598633,
            59.046021730313704
          ],
          [
            16.243094747886822,
            59.04549408384148
          ],
          [
            16.24318883450265,
            59.04534721591446
          ],
          [
            16.243337925452263,
            59.0452555414655
          ],
          [
            16.244644489218953,
            59.04476638501039
          ],
          [
            16.24487760006502,
            59.044670302313385
          ],
          [
            16.245032171064715,
            59.0445426954351
          ],
          [
            16.24520707333058,
            59.04436169190343
          ],
          [
            16.24530583867989,
            59.04423143880195
          ],
          [
            16.245354942879885,
            59.04412503168664
          ],
          [
            16.247738801030806,
            59.04405613116256
          ],
          [
            16.2484041240159,
            59.043926303410736
          ],
          [
            16.248949467138083,
            59.04367027115861
          ],
          [
            16.249379348235653,
            59.04335829092746
          ],
          [
            16.249707559786128,
            59.043018561220315
          ],
          [
            16.249992617787637,
            59.04265360427605
          ],
          [
            16.25036255142268,
            59.04229502317278
          ],
          [
            16.250676475795657,
            59.04197106270138
          ],
          [
            16.25114194629302,
            59.04163508590758
          ],
          [
            16.251665622021644,
            59.041330930406204
          ],
          [
            16.252139262821103,
            59.04108517334772
          ],
          [
            16.252752006439312,
            59.04088274048154
          ],
          [
            16.253232519597827,
            59.04074228323064
          ],
          [
            16.253527084284897,
            59.04063976028202
          ],
          [
            16.253755819128017,
            59.04049812886411
          ],
          [
            16.2538841309429,
            59.0403717533597
          ],
          [
            16.253889626281847,
            59.04014578577698
          ],
          [
            16.253691838571836,
            59.039978307217694
          ],
          [
            16.253722801630744,
            59.03963206896192
          ],
          [
            16.253804574604093,
            59.03951514681202
          ],
          [
            16.253940841684184,
            59.03923686100696
          ],
          [
            16.254211469677536,
            59.03884761319686
          ],
          [
            16.254479786888727,
            59.038461679728314
          ]
        ]
      }
    }
  ]
}
