{
  "type": "FeatureCollection",
  "features": [
    {
      "type": "Feature",
      "properties": {
        "name": "Stage 46:1: Skavsta flygplats to Släbro, etapp 46",
        "source": "Sörmlandsleden official full GPX",
        "sourceFormat": "official-network-gpx",
        "sourceUrl": "https://www.sormlandsleden.se/wp-content/themes/sormlandsleden.se/Leden-2024-12-04.gpx",
        "lengthKm": 5.14
      },
      "geometry": {
        "type": "LineString",
        "coordinates": [
          [
            16.925324351424948,
            58.783669451304064
          ],
          [
            16.92601477439116,
            58.7837579157439
          ],
          [
            16.926942467680167,
            58.783479335813176
          ],
          [
            16.927358267321917,
            58.783423207746765
          ],
          [
            16.927676467748768,
            58.783298232925716
          ],
          [
            16.931367874070233,
            58.783373024724206
          ],
          [
            16.931253400139425,
            58.784617392377875
          ],
          [
            16.93123143414275,
            58.78542610217794
          ],
          [
            16.931356660624242,
            58.785690832619075
          ],
          [
            16.93135345672318,
            58.786287391025375
          ],
          [
            16.9313141642239,
            58.78737515565048
          ],
          [
            16.93123034686699,
            58.787860380228196
          ],
          [
            16.931156672056332,
            58.788289313407645
          ],
          [
            16.931205733229792,
            58.78868510923861
          ],
          [
            16.931629052196733,
            58.7889537048031
          ],
          [
            16.93198467854693,
            58.78836233038132
          ],
          [
            16.932016103604,
            58.78805062363473
          ],
          [
            16.932580124251043,
            58.78793176935134
          ],
          [
            16.932970111606203,
            58.7875999186954
          ],
          [
            16.933393068051522,
            58.78724000526886
          ],
          [
            16.933740868480513,
            58.786939853224816
          ],
          [
            16.93418657587833,
            58.786607197068264
          ],
          [
            16.93491992082728,
            58.78602953115516
          ],
          [
            16.936344746688903,
            58.784879668091016
          ],
          [
            16.936515142183374,
            58.78472438091707
          ],
          [
            16.93706441795954,
            58.784856931350824
          ],
          [
            16.939216815720062,
            58.7855725536845
          ],
          [
            16.939531801625687,
            58.78565711910187
          ],
          [
            16.94015371876475,
            58.785668393614316
          ],
          [
            16.94063904283868,
            58.78562335682325
          ],
          [
            16.941066378508026,
            58.785484207896616
          ],
          [
            16.941402641913136,
            58.78534698792766
          ],
          [
            16.941724829517646,
            58.78484327590683
          ],
          [
            16.9423156584717,
            58.783792728829766
          ],
          [
            16.942805792319664,
            58.783028398947565
          ],
          [
            16.94286064624685,
            58.78275458066549
          ],
          [
            16.94296862586998,
            58.78212172492669
          ],
          [
            16.943178093079375,
            58.78121031130231
          ],
          [
            16.943490575047445,
            58.780086415940545
          ],
          [
            16.943790048391538,
            58.778891197751456
          ],
          [
            16.944044548917386,
            58.777928122976334
          ],
          [
            16.944282492004856,
            58.77702952476627
          ],
          [
            16.94459936703129,
            58.77599885139058
          ],
          [
            16.94483048630241,
            58.77518374075198
          ],
          [
            16.94496828713597,
            58.77451947374269
          ],
          [
            16.945171190594156,
            58.77396226397235
          ],
          [
            16.94547311291773,
            58.77354873317766
          ],
          [
            16.945809408271508,
            58.77326992354901
          ],
          [
            16.946585808107663,
            58.772695713465296
          ],
          [
            16.947353477829985,
            58.77225640130959
          ],
          [
            16.949105878701513,
            58.7712873369144
          ],
          [
            16.949357028273663,
            58.77106234788053
          ],
          [
            16.949515724317525,
            58.770794346024225
          ],
          [
            16.949822849800608,
            58.77059343471633
          ],
          [
            16.950438383976884,
            58.77037713516338
          ],
          [
            16.95104068675439,
            58.77017365581933
          ],
          [
            16.9531021544109,
            58.76985020755982
          ],
          [
            16.95784739619645,
            58.769142530531205
          ],
          [
            16.959739512684717,
            58.76941514772665
          ],
          [
            16.960929512965954,
            58.76934868375814
          ],
          [
            16.963193510306215,
            58.769383484688746
          ],
          [
            16.965292092745514,
            58.76993449252592
          ],
          [
            16.965946538990785,
            58.77006604222392
          ],
          [
            16.967081039627793,
            58.77055266742043
          ],
          [
            16.967915490350894,
            58.77072526125924
          ],
          [
            16.96879709756332,
            58.77084460802988
          ],
          [
            16.96941788898582,
            58.77075852360406
          ],
          [
            16.970017036024863,
            58.77068266283011
          ],
          [
            16.970991482260885,
            58.770425107302444
          ],
          [
            16.971466908973177,
            58.77024869656685
          ],
          [
            16.972886345530313,
            58.76982381405256
          ],
          [
            16.973548564574372,
            58.769954908676745
          ],
          [
            16.97393307653604,
            58.770138811208746
          ]
        ]
      }
    }
  ]
}
