{
  "type": "FeatureCollection",
  "features": [
    {
      "type": "Feature",
      "properties": {
        "name": "Stage 56: Trosa to Tullgarns slott",
        "source": "Sörmlandsleden official full GPX",
        "sourceFormat": "official-network-gpx",
        "sourceUrl": "https://www.sormlandsleden.se/wp-content/themes/sormlandsleden.se/Leden-2024-12-04.gpx",
        "lengthKm": 19.36
      },
      "geometry": {
        "type": "LineString",
        "coordinates": [
          [
            17.54593508150246,
            58.89977775192025
          ],
          [
            17.54574132569947,
            58.8996131531599
          ],
          [
            17.545572119908122,
            58.899324562466035
          ],
          [
            17.54557695664389,
            58.89897373068652
          ],
          [
            17.546266480232763,
            58.89832425118366
          ],
          [
            17.546361436532557,
            58.89813606329314
          ],
          [
            17.546486121787463,
            58.89786181245749
          ],
          [
            17.546493713278945,
            58.897330972661386
          ],
          [
            17.546662966029018,
            58.89682609711224
          ],
          [
            17.546825978966172,
            58.89665240355141
          ],
          [
            17.54686576734058,
            58.89649722980556
          ],
          [
            17.54696741661628,
            58.896391420738055
          ],
          [
            17.547212257192758,
            58.89604679000242
          ],
          [
            17.547515749084305,
            58.89573182418051
          ],
          [
            17.547792690739065,
            58.895371407134334
          ],
          [
            17.547997746918465,
            58.89523271193367
          ],
          [
            17.548483246286324,
            58.89508012576246
          ],
          [
            17.54910052523534,
            58.89490160170924
          ],
          [
            17.549596545438543,
            58.894665017209704
          ],
          [
            17.55045296518494,
            58.89493498323155
          ],
          [
            17.55088789638394,
            58.89470276650647
          ],
          [
            17.551187833655916,
            58.89450791569932
          ],
          [
            17.551495622496937,
            58.894248684848854
          ],
          [
            17.551585041713718,
            58.89386352556505
          ],
          [
            17.551775009072195,
            58.8936920103598
          ],
          [
            17.551869571448005,
            58.893439072551466
          ],
          [
            17.551852754404873,
            58.89283821414727
          ],
          [
            17.553450715290293,
            58.89277059042396
          ],
          [
            17.553292218816527,
            58.89261510842541
          ],
          [
            17.553143428881814,
            58.89237507845795
          ],
          [
            17.5532134205048,
            58.89198739608144
          ],
          [
            17.553235155317463,
            58.89155298018818
          ],
          [
            17.553450927962057,
            58.891142898190104
          ],
          [
            17.55374692955246,
            58.89105393910993
          ],
          [
            17.554230080911527,
            58.89091376527003
          ],
          [
            17.554487176789575,
            58.890699502720764
          ],
          [
            17.554827296963822,
            58.89046565975086
          ],
          [
            17.55571358370315,
            58.89055000388411
          ],
          [
            17.55639233835876,
            58.89104981623696
          ],
          [
            17.557242309362,
            58.89154335818409
          ],
          [
            17.558199721498372,
            58.89150480672191
          ],
          [
            17.559515058936864,
            58.89163937368075
          ],
          [
            17.56019451551847,
            58.89176280525241
          ],
          [
            17.560763651717664,
            58.89186208715217
          ],
          [
            17.56133920322506,
            58.89196341847637
          ],
          [
            17.561818367478864,
            58.89215913757874
          ],
          [
            17.562104597934447,
            58.89236749243927
          ],
          [
            17.562716417210975,
            58.89258248860816
          ],
          [
            17.563489523710412,
            58.89268687634795
          ],
          [
            17.56399186489487,
            58.89282881931742
          ],
          [
            17.564432337345835,
            58.89328691872475
          ],
          [
            17.56498494689031,
            58.89336998903914
          ],
          [
            17.56563006128164,
            58.893672350081964
          ],
          [
            17.56601160262038,
            58.8939886505501
          ],
          [
            17.56682925594684,
            58.8939810393786
          ],
          [
            17.567489858700235,
            58.894005196365434
          ],
          [
            17.568172160152535,
            58.89402462776602
          ],
          [
            17.569365088122993,
            58.89353063318475
          ],
          [
            17.5698644324459,
            58.89329108881193
          ],
          [
            17.570421374651712,
            58.89305943326447
          ],
          [
            17.570966551985062,
            58.89284973460047
          ],
          [
            17.57191591529365,
            58.89272049541959
          ],
          [
            17.57321137560419,
            58.892588442413405
          ],
          [
            17.573485172883757,
            58.8926422775979
          ],
          [
            17.57405204968393,
            58.89287309679148
          ],
          [
            17.575467897533994,
            58.892882861070575
          ],
          [
            17.575258119253657,
            58.89325404858326
          ],
          [
            17.575083147815352,
            58.89396857942796
          ],
          [
            17.5750389840414,
            58.89409980031722
          ],
          [
            17.574664659380307,
            58.89441142279605
          ],
          [
            17.57316650152409,
            58.89528843214051
          ],
          [
            17.573213399300688,
            58.89561078589558
          ],
          [
            17.573283261822358,
            58.89588524441127
          ],
          [
            17.57199792127448,
            58.89743288565602
          ],
          [
            17.57143885259523,
            58.89809458473965
          ],
          [
            17.571300632279463,
            58.89819717804545
          ],
          [
            17.571181495480435,
            58.89828233612748
          ],
          [
            17.569619139191463,
            58.89894401677737
          ],
          [
            17.56901855376864,
            58.899470672972335
          ],
          [
            17.568838393626248,
            58.89962324322415
          ],
          [
            17.568121072380016,
            58.900396216265214
          ],
          [
            17.567835467042624,
            58.90058980527248
          ],
          [
            17.566763991720574,
            58.90117553624685
          ],
          [
            17.56910330363916,
            58.901705309727845
          ],
          [
            17.570374383248044,
            58.901970288108664
          ],
          [
            17.57084386194363,
            58.90149064618285
          ],
          [
            17.57111027094128,
            58.90103178106928
          ],
          [
            17.57145158823925,
            58.900371569410204
          ],
          [
            17.57177314305561,
            58.89998557452782
          ],
          [
            17.57222143235741,
            58.899510760456934
          ],
          [
            17.573295914796415,
            58.89888316045548
          ],
          [
            17.574255547753296,
            58.898641631349236
          ],
          [
            17.57497789078905,
            58.898629378219574
          ],
          [
            17.57555820552125,
            58.89845688108297
          ],
          [
            17.576135975251635,
            58.89840168398275
          ],
          [
            17.577795903303766,
            58.89770712579421
          ],
          [
            17.5783643412681,
            58.8977175382795
          ],
          [
            17.579289355835567,
            58.89782738935999
          ],
          [
            17.581288250725287,
            58.897467760283845
          ],
          [
            17.581453326824857,
            58.89741857362071
          ],
          [
            17.582896913760187,
            58.896900857109394
          ],
          [
            17.585877072033757,
            58.89573519616873
          ],
          [
            17.586856391074097,
            58.895277245798106
          ],
          [
            17.587107047737057,
            58.89518455686868
          ],
          [
            17.587534914377944,
            58.89517036679122
          ],
          [
            17.588181458934876,
            58.89529684187655
          ],
          [
            17.58852304519046,
            58.89520962770192
          ],
          [
            17.588998470207127,
            58.895149871094304
          ],
          [
            17.589661055722996,
            58.895097661775075
          ],
          [
            17.59077161985082,
            58.894190051687175
          ],
          [
            17.590909911716572,
            58.89407561711242
          ],
          [
            17.591506128973055,
            58.89371941613734
          ],
          [
            17.59230762012928,
            58.89334053380642
          ],
          [
            17.59234821841452,
            58.89298934258771
          ],
          [
            17.592473513977012,
            58.89282437839337
          ],
          [
            17.592635842235403,
            58.89272831489813
          ],
          [
            17.592920819395754,
            58.89260688153027
          ],
          [
            17.59325625488123,
            58.89222185910465
          ],
          [
            17.59348204684663,
            58.892101721612946
          ],
          [
            17.59380779014946,
            58.892062158993475
          ],
          [
            17.594166890081368,
            58.89206662769447
          ],
          [
            17.59490248033514,
            58.89213092475487
          ],
          [
            17.59510994302562,
            58.89159828150112
          ],
          [
            17.595150908035034,
            58.89122670381127
          ],
          [
            17.595415283912143,
            58.890789516093825
          ],
          [
            17.596081320411347,
            58.890692289935714
          ],
          [
            17.59653669973234,
            58.89043809592416
          ],
          [
            17.597211511144216,
            58.88995952767669
          ],
          [
            17.59739563142685,
            58.88962140177654
          ],
          [
            17.597675120794428,
            58.88933074366297
          ],
          [
            17.597827357332264,
            58.888935288345714
          ],
          [
            17.59806574459289,
            58.88846960408255
          ],
          [
            17.597983972205782,
            58.88830052064816
          ],
          [
            17.598156982574977,
            58.888313523786195
          ],
          [
            17.598724334769432,
            58.88812405084552
          ],
          [
            17.59946488015787,
            58.88827484631506
          ],
          [
            17.600184938762347,
            58.88823350616814
          ],
          [
            17.600801944255444,
            58.88838692358976
          ],
          [
            17.6014021207766,
            58.8883826115146
          ],
          [
            17.601683118940276,
            58.88849812607469
          ],
          [
            17.60189673156462,
            58.88886161097987
          ],
          [
            17.602087097054994,
            58.889032253292164
          ],
          [
            17.602034326263972,
            58.889280617018805
          ],
          [
            17.602839108535914,
            58.889568446586296
          ],
          [
            17.603461060809025,
            58.88971657427138
          ],
          [
            17.604061554890528,
            58.88999585596446
          ],
          [
            17.604476446056655,
            58.890342117616576
          ],
          [
            17.6048232390017,
            58.89067153288394
          ],
          [
            17.605319350794183,
            58.8909411508694
          ],
          [
            17.606059747659767,
            58.89106760187389
          ],
          [
            17.606756616870825,
            58.89106456525467
          ],
          [
            17.60744979364162,
            58.890916731703534
          ],
          [
            17.608134349923436,
            58.890762719704604
          ],
          [
            17.60835257555035,
            58.89053173139845
          ],
          [
            17.608237324804204,
            58.89019610812589
          ],
          [
            17.608446734375754,
            58.88983413715079
          ],
          [
            17.60896247227497,
            58.88955700061342
          ],
          [
            17.609659394893004,
            58.88956808069418
          ],
          [
            17.609757133523182,
            58.889957039983805
          ],
          [
            17.609865374137463,
            58.890357868694
          ],
          [
            17.609960405584175,
            58.89071983548553
          ],
          [
            17.610341648588122,
            58.89088138626018
          ],
          [
            17.611053145706357,
            58.89098127688507
          ],
          [
            17.61138156633232,
            58.89103108539614
          ],
          [
            17.61169845040144,
            58.890802486364024
          ],
          [
            17.611997627880324,
            58.89068440754944
          ],
          [
            17.612303162375166,
            58.890590785677546
          ],
          [
            17.612807566664927,
            58.89048873873907
          ],
          [
            17.613007091713587,
            58.89045032493709
          ],
          [
            17.61319459258948,
            58.89043314619508
          ],
          [
            17.613683277255536,
            58.89040801738762
          ],
          [
            17.614004661728615,
            58.89039496453919
          ],
          [
            17.614796397412984,
            58.89052053001627
          ],
          [
            17.615458206806586,
            58.89065186314821
          ],
          [
            17.61620339621843,
            58.89075664731509
          ],
          [
            17.6166835105553,
            58.890973185070465
          ],
          [
            17.61691391198497,
            58.8913319400088
          ],
          [
            17.617016252357658,
            58.89171608252329
          ],
          [
            17.61689182653835,
            58.892096488742624
          ],
          [
            17.616878174747793,
            58.89276951605148
          ],
          [
            17.616581992207415,
            58.89308567433396
          ],
          [
            17.616328164614014,
            58.893345110138874
          ],
          [
            17.61634028492181,
            58.893746914060316
          ],
          [
            17.61637889545127,
            58.89380569117408
          ],
          [
            17.616378585098637,
            58.89404460260131
          ],
          [
            17.61627170875355,
            58.89419344698948
          ],
          [
            17.616265623727262,
            58.894269531166984
          ],
          [
            17.616284899306148,
            58.8946383125164
          ],
          [
            17.616168680793127,
            58.89502408554731
          ],
          [
            17.61564220178981,
            58.89532067511537
          ],
          [
            17.61541176863725,
            58.895635566908204
          ],
          [
            17.61540449244492,
            58.89578039805416
          ],
          [
            17.616246973346023,
            58.895496818696394
          ],
          [
            17.616690034155653,
            58.8953323738948
          ],
          [
            17.616997372080284,
            58.8953236220363
          ],
          [
            17.61705095777819,
            58.895663960574055
          ],
          [
            17.616709702747166,
            58.89605477982097
          ],
          [
            17.616756463792843,
            58.896445545157874
          ],
          [
            17.61690986530808,
            58.896785314131854
          ],
          [
            17.61696904160984,
            58.89719018806462
          ],
          [
            17.616716492053747,
            58.89755240827529
          ],
          [
            17.616471667354357,
            58.8979165353285
          ],
          [
            17.616277355721095,
            58.89827534819788
          ],
          [
            17.616010536305406,
            58.89865920042122
          ],
          [
            17.61600447300198,
            58.899147031821705
          ],
          [
            17.61535098580713,
            58.89952057241475
          ],
          [
            17.615132795674054,
            58.89957875488397
          ],
          [
            17.614775084252745,
            58.89963951200325
          ],
          [
            17.614299445649017,
            58.89971255866095
          ],
          [
            17.6134649106778,
            58.89988531097249
          ],
          [
            17.612930348988506,
            58.8999551278451
          ],
          [
            17.612523106155784,
            58.900024483706176
          ],
          [
            17.612045927719684,
            58.9001587616563
          ],
          [
            17.611789840146585,
            58.90022287462315
          ],
          [
            17.611275679784946,
            58.90031983830885
          ],
          [
            17.610991388807335,
            58.900322322435414
          ],
          [
            17.61067944282182,
            58.90028014544552
          ],
          [
            17.610302276116357,
            58.90019699741752
          ],
          [
            17.609728908223765,
            58.89997256965044
          ],
          [
            17.60952318607123,
            58.89987818348307
          ],
          [
            17.60938161375523,
            58.899780787878285
          ],
          [
            17.60927483378712,
            58.89963009728664
          ],
          [
            17.609172911280517,
            58.89963241418427
          ],
          [
            17.608654316592276,
            58.899849543069664
          ],
          [
            17.608492142335933,
            58.899896105357016
          ],
          [
            17.60826216317027,
            58.899952352396404
          ],
          [
            17.607833516810803,
            58.89995130546226
          ],
          [
            17.607574059891988,
            58.89990510302562
          ],
          [
            17.607455543489632,
            58.899865588881674
          ],
          [
            17.606672017177004,
            58.89960906627586
          ],
          [
            17.60610429088576,
            58.89980271300483
          ],
          [
            17.605321898237435,
            58.90008279669202
          ],
          [
            17.60468629406817,
            58.900309636068776
          ],
          [
            17.604472089703254,
            58.900342776749014
          ],
          [
            17.60377408987738,
            58.900433351977895
          ],
          [
            17.603367233296822,
            58.90047144324428
          ],
          [
            17.601588351949275,
            58.900883152515135
          ],
          [
            17.601648664848863,
            58.90093517146924
          ],
          [
            17.601789695732112,
            58.9011202192105
          ],
          [
            17.602053938994977,
            58.901472209770105
          ],
          [
            17.602116401130964,
            58.901875451493616
          ],
          [
            17.602122058401054,
            58.90226220768016
          ],
          [
            17.601999711324034,
            58.90266339326328
          ],
          [
            17.601884178123584,
            58.90301913498506
          ],
          [
            17.601894622797342,
            58.90340557662139
          ],
          [
            17.6019101113532,
            58.90380584527982
          ],
          [
            17.601915697675917,
            58.90418714628863
          ],
          [
            17.60215251410921,
            58.904552679833664
          ],
          [
            17.602427476159715,
            58.90490457574809
          ],
          [
            17.602441185797403,
            58.90530584988141
          ],
          [
            17.60227053706481,
            58.90566513518133
          ],
          [
            17.602030247417538,
            58.90603132166712
          ],
          [
            17.60172018287658,
            58.90637487939032
          ],
          [
            17.601708451645827,
            58.906698107231556
          ],
          [
            17.601669129973722,
            58.90704763248153
          ],
          [
            17.60193207449897,
            58.9072613660724
          ],
          [
            17.60167062843687,
            58.907414741834614
          ],
          [
            17.60131459234966,
            58.90734511935042
          ],
          [
            17.600808891848775,
            58.90752168575555
          ],
          [
            17.600289764007073,
            58.90779896556011
          ],
          [
            17.60022843609684,
            58.908117392766464
          ],
          [
            17.599325917509226,
            58.908611354999344
          ],
          [
            17.598888727523438,
            58.9088909830827
          ],
          [
            17.59934116738754,
            58.909148807579676
          ],
          [
            17.599418246526543,
            58.90930414018894
          ],
          [
            17.599128436043276,
            58.90971597828547
          ],
          [
            17.599279613745725,
            58.909844358706096
          ],
          [
            17.59929435646905,
            58.91020335760504
          ],
          [
            17.59947997696819,
            58.91060431498145
          ],
          [
            17.59896947293106,
            58.91078543817151
          ],
          [
            17.59830997061766,
            58.91086505930695
          ],
          [
            17.5977055291491,
            58.91070730263606
          ],
          [
            17.596890454831588,
            58.91066796510688
          ],
          [
            17.59604983598561,
            58.91065885555269
          ],
          [
            17.5954186898693,
            58.91081747705437
          ],
          [
            17.594991241352922,
            58.91116349489266
          ],
          [
            17.594402941324276,
            58.91111414233869
          ],
          [
            17.59358217360727,
            58.911224420601584
          ],
          [
            17.59313733293275,
            58.91148779600943
          ],
          [
            17.592051447995765,
            58.91168523144311
          ],
          [
            17.59160837586937,
            58.91187341347991
          ],
          [
            17.59142113964823,
            58.912227570779685
          ],
          [
            17.591178320616134,
            58.91239539616286
          ],
          [
            17.59091505343184,
            58.91254116552695
          ],
          [
            17.59070698213683,
            58.91281268638717
          ],
          [
            17.59053136617507,
            58.91317851284341
          ],
          [
            17.590634712792315,
            58.91354925822823
          ],
          [
            17.59052905858578,
            58.91391105718539
          ],
          [
            17.589901402130657,
            58.91387700998588
          ],
          [
            17.589509029528227,
            58.91352032891641
          ],
          [
            17.589404292992736,
            58.9131419157269
          ],
          [
            17.589418121001014,
            58.91276115547433
          ],
          [
            17.589228248701748,
            58.91244549953874
          ],
          [
            17.58888964040246,
            58.91250912156181
          ],
          [
            17.588747742517885,
            58.91273904483626
          ],
          [
            17.58839768039026,
            58.91275442521549
          ],
          [
            17.588419186535653,
            58.91225145114567
          ],
          [
            17.588308228627515,
            58.91209051361086
          ],
          [
            17.58848335634525,
            58.91163356461266
          ],
          [
            17.587535992515043,
            58.911774943692066
          ],
          [
            17.58698167178022,
            58.911850299423
          ],
          [
            17.58634496649663,
            58.91207960734591
          ],
          [
            17.5861327432009,
            58.91217442462289
          ],
          [
            17.586006231705653,
            58.91262837948958
          ],
          [
            17.58561399292373,
            58.91311979390098
          ],
          [
            17.58530709064195,
            58.91348632298975
          ],
          [
            17.584967755119518,
            58.91370385167462
          ],
          [
            17.58462676461401,
            58.91383054875188
          ],
          [
            17.583939218504977,
            58.91385612346438
          ],
          [
            17.58335632694718,
            58.91401860447855
          ],
          [
            17.582926884455365,
            58.914276420766846
          ],
          [
            17.582335709925115,
            58.91440726847564
          ],
          [
            17.58208144560007,
            58.914749095576596
          ],
          [
            17.581476529622996,
            58.9149764245851
          ],
          [
            17.581104937656335,
            58.91529616017636
          ],
          [
            17.580626824030517,
            58.915339222513936
          ],
          [
            17.580421452498708,
            58.91522497895027
          ],
          [
            17.579913574523513,
            58.91557189314012
          ],
          [
            17.579422973794177,
            58.91588677549221
          ],
          [
            17.57859816733852,
            58.91639647561175
          ],
          [
            17.578270456723274,
            58.91665066152771
          ],
          [
            17.577940118545808,
            58.91692719225969
          ],
          [
            17.5773470752125,
            58.91715363936763
          ],
          [
            17.577215228157936,
            58.91721012505226
          ],
          [
            17.57695603616819,
            58.91733770307444
          ],
          [
            17.57697138195507,
            58.917517762838294
          ],
          [
            17.57703145838056,
            58.917560769597756
          ],
          [
            17.577028003690366,
            58.91776436807196
          ],
          [
            17.57710034719891,
            58.91785477599686
          ],
          [
            17.577774436672364,
            58.91819770024501
          ],
          [
            17.579015297305183,
            58.91884664581308
          ],
          [
            17.58004350561539,
            58.91939129210311
          ],
          [
            17.580628123255394,
            58.91938328956166
          ],
          [
            17.580690384138617,
            58.91936399962177
          ],
          [
            17.581042526230814,
            58.91935959818014
          ],
          [
            17.581114355796988,
            58.91933785635219
          ],
          [
            17.581996175108447,
            58.919334743216154
          ],
          [
            17.582296250957196,
            58.919379907050114
          ],
          [
            17.582630636232828,
            58.919452142822536
          ],
          [
            17.582972493843688,
            58.91954531882928
          ],
          [
            17.584446959293448,
            58.920113327166256
          ],
          [
            17.584972824795383,
            58.92021450915461
          ],
          [
            17.585057285067037,
            58.920264145428966
          ],
          [
            17.585158156454888,
            58.920366193025686
          ],
          [
            17.5852389361087,
            58.920479020949244
          ],
          [
            17.5853420435114,
            58.92061009647226
          ],
          [
            17.585357247427144,
            58.92070714322774
          ],
          [
            17.585384373516206,
            58.92113674009562
          ],
          [
            17.585407991622887,
            58.921289542948415
          ],
          [
            17.58551861882504,
            58.921432153385226
          ],
          [
            17.585599746467256,
            58.921546964004605
          ],
          [
            17.58562745253725,
            58.92176645328479
          ],
          [
            17.58573760346742,
            58.92204971341532
          ],
          [
            17.585543980204793,
            58.92246137361351
          ],
          [
            17.58516683784249,
            58.9225171702257
          ],
          [
            17.585164597320883,
            58.92287613608831
          ],
          [
            17.58529731741006,
            58.92327404237399
          ],
          [
            17.585532213301907,
            58.923626881733085
          ],
          [
            17.585671976423264,
            58.92400597155831
          ],
          [
            17.5858276306493,
            58.924340103094295
          ],
          [
            17.58564824144401,
            58.9247070937134
          ],
          [
            17.58596540916968,
            58.9250592574641
          ],
          [
            17.586284933405683,
            58.92544125398341
          ],
          [
            17.586722844687294,
            58.92579846733503
          ],
          [
            17.58696770292519,
            58.92601026601636
          ],
          [
            17.586482181936333,
            58.92617966463493
          ],
          [
            17.585876302851158,
            58.92641034076409
          ],
          [
            17.585237056655206,
            58.92652352351168
          ],
          [
            17.584751404770223,
            58.92677235504145
          ],
          [
            17.58426862903647,
            58.92702373703035
          ],
          [
            17.583885713129874,
            58.927218137961056
          ],
          [
            17.583634113806905,
            58.927409608020945
          ],
          [
            17.583777722684903,
            58.92752805800067
          ],
          [
            17.58401654341461,
            58.92760113758561
          ],
          [
            17.584386893071553,
            58.92766438067275
          ],
          [
            17.584728791787274,
            58.92782974714922
          ],
          [
            17.584755860633013,
            58.9281359343736
          ],
          [
            17.584630853632586,
            58.92828839906091
          ],
          [
            17.584641702498296,
            58.92858980470657
          ],
          [
            17.584790307659173,
            58.928721620273684
          ],
          [
            17.58484870478628,
            58.92883395130546
          ],
          [
            17.584986375904357,
            58.92894901854939
          ],
          [
            17.584898223737866,
            58.92933438304264
          ],
          [
            17.58489254849186,
            58.92946209287102
          ],
          [
            17.584873139369872,
            58.92956534813952
          ],
          [
            17.58490597525578,
            58.92997168092109
          ],
          [
            17.58488167141359,
            58.93042378571805
          ],
          [
            17.585613545601067,
            58.9305937426275
          ],
          [
            17.58690539857976,
            58.93071562451413
          ],
          [
            17.586177527341153,
            58.93176465152727
          ],
          [
            17.58589999771627,
            58.93207698287884
          ],
          [
            17.58558868954195,
            58.93246495258725
          ],
          [
            17.585346445304317,
            58.93283462316018
          ],
          [
            17.58509259647783,
            58.933171312228176
          ],
          [
            17.584451860795525,
            58.93340276350342
          ],
          [
            17.584024000962042,
            58.93372520277042
          ],
          [
            17.58344546527926,
            58.93400864215854
          ],
          [
            17.5831837007256,
            58.93443888658191
          ],
          [
            17.582910621817195,
            58.93460627088355
          ],
          [
            17.582377651343,
            58.93473699464144
          ],
          [
            17.581891932901986,
            58.93498109354854
          ],
          [
            17.581911619912727,
            58.93510697705211
          ],
          [
            17.581941377568054,
            58.93538082235652
          ],
          [
            17.582420057094694,
            58.93554368723164
          ],
          [
            17.582736329796465,
            58.935778355672404
          ],
          [
            17.58269626637683,
            58.935965657598466
          ],
          [
            17.58294137939007,
            58.93630076020687
          ],
          [
            17.58311858912985,
            58.936691345500655
          ],
          [
            17.58321431683434,
            58.93705055799373
          ],
          [
            17.583508631985044,
            58.937166540868986
          ],
          [
            17.58305832809923,
            58.937439628141206
          ],
          [
            17.58240313414228,
            58.93761717213315
          ],
          [
            17.582251495236232,
            58.93800509943122
          ],
          [
            17.581819900407464,
            58.93827314908628
          ],
          [
            17.581605419050348,
            58.93862001187665
          ],
          [
            17.5816898848803,
            58.93901179858491
          ],
          [
            17.58127424098293,
            58.93931129902103
          ],
          [
            17.58072936223318,
            58.93949246355605
          ],
          [
            17.58026532074312,
            58.93983388858103
          ],
          [
            17.579844256104387,
            58.940136058876035
          ],
          [
            17.579231359004144,
            58.940095415826846
          ],
          [
            17.578494090730253,
            58.94011508507543
          ],
          [
            17.57788477316246,
            58.94038876292726
          ],
          [
            17.57727694798488,
            58.94056757259269
          ],
          [
            17.577706592265816,
            58.94098546024201
          ],
          [
            17.577602082568497,
            58.9414015747179
          ],
          [
            17.577286159047826,
            58.94162930414838
          ],
          [
            17.576994332144956,
            58.94197634707457
          ],
          [
            17.576571890379082,
            58.94229016598706
          ],
          [
            17.57636358236127,
            58.942429536122766
          ],
          [
            17.57627915021243,
            58.942635950455674
          ],
          [
            17.576143149685038,
            58.943008592460785
          ],
          [
            17.575892694690985,
            58.9431629345668
          ],
          [
            17.57542760962068,
            58.943269835994435
          ],
          [
            17.575169275402683,
            58.94335274310442
          ],
          [
            17.5744354731642,
            58.94362851365166
          ],
          [
            17.57370947997678,
            58.94388581387858
          ],
          [
            17.573291126538212,
            58.94401736255546
          ],
          [
            17.57308435893189,
            58.944093970488154
          ],
          [
            17.572952702772213,
            58.944151345188246
          ],
          [
            17.57284040584131,
            58.944236393222376
          ],
          [
            17.572774967047895,
            58.944326705632996
          ],
          [
            17.572782060423545,
            58.944534141006905
          ],
          [
            17.572748123199226,
            58.94457904133258
          ],
          [
            17.572769584378143,
            58.94478860857568
          ],
          [
            17.572707242130676,
            58.94482021266867
          ],
          [
            17.572558774026675,
            58.94499527000777
          ],
          [
            17.57230915792518,
            58.94515420211127
          ],
          [
            17.57193880045605,
            58.9454219286306
          ],
          [
            17.57177195281907,
            58.9454439233131
          ],
          [
            17.570002405813753,
            58.94616304188235
          ],
          [
            17.568483968717437,
            58.946784967220026
          ],
          [
            17.568298392774686,
            58.94685638042604
          ],
          [
            17.56821439474056,
            58.946925294051795
          ],
          [
            17.568125692979343,
            58.947001913777946
          ],
          [
            17.568035709390163,
            58.94710264411824
          ],
          [
            17.567933577372294,
            58.94718352837573
          ],
          [
            17.56776744300655,
            58.947307293396904
          ],
          [
            17.566986704787244,
            58.94789155713591
          ],
          [
            17.566309800031494,
            58.94850424429744
          ],
          [
            17.565584054044415,
            58.9491351074743
          ],
          [
            17.5649461489166,
            58.949702819844646
          ],
          [
            17.564610034235656,
            58.949954413165486
          ],
          [
            17.56426407568315,
            58.950213449410406
          ],
          [
            17.564708746606545,
            58.95045664931415
          ],
          [
            17.565967648373846,
            58.95106048446661
          ],
          [
            17.566965762900903,
            58.951514869517844
          ],
          [
            17.567070096486987,
            58.95155650297582
          ],
          [
            17.568531692372467,
            58.952281112562524
          ],
          [
            17.569895283429613,
            58.95295823258193
          ],
          [
            17.57091534511087,
            58.95346503708385
          ],
          [
            17.57235587160048,
            58.954186648223086
          ],
          [
            17.57379160036059,
            58.954909064344854
          ],
          [
            17.575060528516563,
            58.95549893347699
          ],
          [
            17.5754249993601,
            58.95569577505451
          ],
          [
            17.575504037768972,
            58.955812009298164
          ],
          [
            17.575555631877823,
            58.955993177329454
          ],
          [
            17.575578599159417,
            58.9562636236418
          ],
          [
            17.575701311591793,
            58.956556827692744
          ],
          [
            17.575767749841813,
            58.95663289699634
          ],
          [
            17.575370623412923,
            58.956896365968284
          ]
        ]
      }
    }
  ]
}
