{
  "type": "FeatureCollection",
  "features": [
    {
      "type": "Feature",
      "properties": {
        "name": "Stage 34: Brytsebo to Holmtorp",
        "source": "OpenStreetMap route relation",
        "sourceFormat": "osm-relation",
        "sourceUrl": "https://www.openstreetmap.org/relation/3690159",
        "lengthKm": 12.4,
        "routeWarning": "The official catalog distance is 13 km; Sörmlandsleden's 2025 long-distance pass lists 12.5 km and OSM relation 3690159 measures about 12.4 km despite a stale 15 km tag. This drawn line uses the OSM Stage 34 relation because the official full-network GPX shortest path was truncated to about 9 km and missed the Fjällmossen/Lilla Göljen arc.",
        "currentOfficialDistanceKm": 13,
        "geometryConfidence": "osm-relation-corrected-official-network-truncated"
      },
      "geometry": {
        "type": "LineString",
        "coordinates": [
          [
            16.55106,
            58.6510994
          ],
          [
            16.5510267,
            58.6512186
          ],
          [
            16.5510054,
            58.651352
          ],
          [
            16.5510483,
            58.6515027
          ],
          [
            16.5514024,
            58.6516869
          ],
          [
            16.5516813,
            58.6517762
          ],
          [
            16.551971,
            58.6519716
          ],
          [
            16.5525718,
            58.6523958
          ],
          [
            16.5529688,
            58.6526358
          ],
          [
            16.5531726,
            58.6528423
          ],
          [
            16.5530109,
            58.652971
          ],
          [
            16.5529727,
            58.6532395
          ],
          [
            16.5528771,
            58.6535577
          ],
          [
            16.5525521,
            58.6539157
          ],
          [
            16.5519555,
            58.6540934
          ],
          [
            16.5517402,
            58.65404
          ],
          [
            16.5515555,
            58.6540432
          ],
          [
            16.551075,
            58.6543219
          ],
          [
            16.5511433,
            58.6545967
          ],
          [
            16.5512091,
            58.6548995
          ],
          [
            16.5512626,
            58.6549947
          ],
          [
            16.5514434,
            58.6551885
          ],
          [
            16.5516346,
            58.655626
          ],
          [
            16.551708,
            58.6558678
          ],
          [
            16.5515199,
            58.656153
          ],
          [
            16.5511767,
            58.6565018
          ],
          [
            16.551,
            58.6565649
          ],
          [
            16.550823,
            58.6566877
          ],
          [
            16.5503295,
            58.6571062
          ],
          [
            16.5502115,
            58.6572122
          ],
          [
            16.5502812,
            58.6573378
          ],
          [
            16.550426,
            58.6573992
          ],
          [
            16.5504636,
            58.6574997
          ],
          [
            16.5508604,
            58.6576871
          ],
          [
            16.5509518,
            58.6578429
          ],
          [
            16.5511449,
            58.658133
          ],
          [
            16.551102,
            58.6583116
          ],
          [
            16.5512521,
            58.6584371
          ],
          [
            16.5512951,
            58.6585907
          ],
          [
            16.5515418,
            58.6587469
          ],
          [
            16.5517671,
            58.6588808
          ],
          [
            16.5517993,
            58.6589311
          ],
          [
            16.551971,
            58.6591571
          ],
          [
            16.5523143,
            58.659238
          ],
          [
            16.5526684,
            58.6593775
          ],
          [
            16.5528372,
            58.6594422
          ],
          [
            16.5529902,
            58.6595003
          ],
          [
            16.5530546,
            58.6596174
          ],
          [
            16.5537734,
            58.6596063
          ],
          [
            16.5540684,
            58.65969
          ],
          [
            16.5543206,
            58.6595505
          ],
          [
            16.5542936,
            58.6594896
          ],
          [
            16.5545352,
            58.6594333
          ],
          [
            16.5548463,
            58.6595086
          ],
          [
            16.5554364,
            58.6594947
          ],
          [
            16.5556617,
            58.6595393
          ],
          [
            16.5559621,
            58.659623
          ],
          [
            16.5563053,
            58.660109
          ],
          [
            16.5567076,
            58.6602736
          ],
          [
            16.5565951,
            58.6604377
          ],
          [
            16.5570348,
            58.6606252
          ],
          [
            16.5580006,
            58.6608228
          ],
          [
            16.5584832,
            58.6610827
          ],
          [
            16.5586603,
            58.6610353
          ],
          [
            16.5589714,
            58.6610548
          ],
          [
            16.5593308,
            58.6610437
          ],
          [
            16.5596634,
            58.6611051
          ],
          [
            16.5601356,
            58.6613529
          ],
          [
            16.5607419,
            58.6615286
          ],
          [
            16.5610369,
            58.6617267
          ],
          [
            16.5611656,
            58.661869
          ],
          [
            16.5615518,
            58.6620727
          ],
          [
            16.5626246,
            58.6623633
          ],
          [
            16.5630805,
            58.6624108
          ],
          [
            16.5631825,
            58.6625168
          ],
          [
            16.5635474,
            58.6625833
          ],
          [
            16.5636009,
            58.6627065
          ],
          [
            16.5637942,
            58.6627981
          ],
          [
            16.5639873,
            58.6630101
          ],
          [
            16.5643413,
            58.6630603
          ],
          [
            16.5646417,
            58.6631384
          ],
          [
            16.5648671,
            58.6633281
          ],
          [
            16.5649368,
            58.6634899
          ],
          [
            16.564883,
            58.6635518
          ],
          [
            16.56506,
            58.6636634
          ],
          [
            16.5650973,
            58.6637909
          ],
          [
            16.5652586,
            58.6637781
          ],
          [
            16.5655585,
            58.6637775
          ],
          [
            16.5663892,
            58.6637371
          ],
          [
            16.5665584,
            58.6637443
          ],
          [
            16.5667485,
            58.6637324
          ],
          [
            16.5671001,
            58.6637748
          ],
          [
            16.5673618,
            58.6638261
          ],
          [
            16.5679346,
            58.6639977
          ],
          [
            16.5681925,
            58.6639879
          ],
          [
            16.5684656,
            58.6639681
          ],
          [
            16.5686862,
            58.6639838
          ],
          [
            16.5687831,
            58.6640814
          ],
          [
            16.568826,
            58.6641986
          ],
          [
            16.5689333,
            58.6644775
          ],
          [
            16.5689869,
            58.6646505
          ],
          [
            16.5692015,
            58.6647119
          ],
          [
            16.5692659,
            58.6650578
          ],
          [
            16.5690298,
            58.6653033
          ],
          [
            16.5692981,
            58.6654205
          ],
          [
            16.5694053,
            58.6655153
          ],
          [
            16.5693624,
            58.6657217
          ],
          [
            16.5693517,
            58.6658166
          ],
          [
            16.5696843,
            58.6660063
          ],
          [
            16.5695556,
            58.666196
          ],
          [
            16.5694697,
            58.6662462
          ],
          [
            16.5694912,
            58.6667595
          ],
          [
            16.569577,
            58.6669548
          ],
          [
            16.5696414,
            58.6672337
          ],
          [
            16.5698238,
            58.667535
          ],
          [
            16.5699954,
            58.6677358
          ],
          [
            16.570328,
            58.6679311
          ],
          [
            16.5706928,
            58.6680929
          ],
          [
            16.5712185,
            58.6683384
          ],
          [
            16.5719695,
            58.6685448
          ],
          [
            16.5729137,
            58.6686563
          ],
          [
            16.5731497,
            58.6687233
          ],
          [
            16.5734608,
            58.66874
          ],
          [
            16.5741046,
            58.6686954
          ],
          [
            16.5747912,
            58.6687233
          ],
          [
            16.575038,
            58.6688237
          ],
          [
            16.575274,
            58.6690357
          ],
          [
            16.5754008,
            58.6692045
          ],
          [
            16.5753274,
            58.6692172
          ],
          [
            16.5751444,
            58.6692885
          ],
          [
            16.5749235,
            58.6694102
          ],
          [
            16.5747564,
            58.6695282
          ],
          [
            16.5747041,
            58.6696448
          ],
          [
            16.5747226,
            58.6697591
          ],
          [
            16.5747906,
            58.6698363
          ],
          [
            16.575108,
            58.6699641
          ],
          [
            16.5752588,
            58.6700687
          ],
          [
            16.5752901,
            58.670184
          ],
          [
            16.5752579,
            58.6702708
          ],
          [
            16.5751812,
            58.6703765
          ],
          [
            16.5750466,
            58.6704603
          ],
          [
            16.5749087,
            58.6705577
          ],
          [
            16.574282,
            58.6708374
          ],
          [
            16.5742654,
            58.6710623
          ],
          [
            16.5742654,
            58.6714171
          ],
          [
            16.5742986,
            58.6719795
          ],
          [
            16.5744198,
            58.6722937
          ],
          [
            16.5741322,
            58.6729571
          ],
          [
            16.5744151,
            58.6732427
          ],
          [
            16.5743153,
            58.673433
          ],
          [
            16.5741988,
            58.6737964
          ],
          [
            16.5743433,
            58.6739409
          ],
          [
            16.5747479,
            58.6740473
          ],
          [
            16.5751509,
            58.6742961
          ],
          [
            16.5753137,
            58.6747048
          ],
          [
            16.5754174,
            58.6748914
          ],
          [
            16.5758462,
            58.6752758
          ],
          [
            16.5759897,
            58.6753617
          ],
          [
            16.5760103,
            58.6755316
          ],
          [
            16.5756857,
            58.6757695
          ],
          [
            16.5753969,
            58.6759852
          ],
          [
            16.5752827,
            58.6762624
          ],
          [
            16.5748811,
            58.6766204
          ],
          [
            16.5741655,
            58.6767292
          ],
          [
            16.5734183,
            58.6767384
          ],
          [
            16.5728292,
            58.6768521
          ],
          [
            16.5719581,
            58.6771894
          ],
          [
            16.5713692,
            58.6771757
          ],
          [
            16.5708256,
            58.676882
          ],
          [
            16.5695499,
            58.6769326
          ],
          [
            16.5690014,
            58.6769638
          ],
          [
            16.568075,
            58.6771185
          ],
          [
            16.5669933,
            58.677205
          ],
          [
            16.5666772,
            58.6773261
          ],
          [
            16.5661447,
            58.6777586
          ],
          [
            16.565063,
            58.6781912
          ],
          [
            16.5644972,
            58.6784334
          ],
          [
            16.5644972,
            58.6786929
          ],
          [
            16.5643974,
            58.6789005
          ],
          [
            16.5643142,
            58.6794541
          ],
          [
            16.5644146,
            58.6800952
          ],
          [
            16.5645452,
            58.6802691
          ],
          [
            16.5643515,
            58.6803983
          ],
          [
            16.5644273,
            58.6805055
          ],
          [
            16.5643136,
            58.68065
          ],
          [
            16.5639022,
            58.6807155
          ],
          [
            16.5632991,
            58.6806479
          ],
          [
            16.5626174,
            58.6807664
          ],
          [
            16.5619544,
            58.680938
          ],
          [
            16.5616246,
            58.6812506
          ],
          [
            16.5617204,
            58.681578
          ],
          [
            16.5614852,
            58.6819021
          ],
          [
            16.5602705,
            58.6824903
          ],
          [
            16.5594717,
            58.6827757
          ],
          [
            16.5579574,
            58.6831563
          ],
          [
            16.5571586,
            58.6832341
          ],
          [
            16.5569072,
            58.6832741
          ],
          [
            16.556057,
            58.6837619
          ],
          [
            16.5553762,
            58.6842209
          ],
          [
            16.5558481,
            58.6844169
          ],
          [
            16.556382,
            58.6847135
          ],
          [
            16.5571184,
            58.685192
          ],
          [
            16.5576362,
            58.6854766
          ],
          [
            16.5574043,
            58.6856174
          ],
          [
            16.5571995,
            58.6857911
          ],
          [
            16.5568313,
            58.6859537
          ],
          [
            16.5563343,
            58.6861068
          ],
          [
            16.5557912,
            58.686236
          ],
          [
            16.555423,
            58.6863508
          ],
          [
            16.5551284,
            58.6864369
          ],
          [
            16.5546497,
            58.6865517
          ],
          [
            16.5544472,
            58.6866378
          ],
          [
            16.5542263,
            58.6867861
          ],
          [
            16.5539524,
            58.6870607
          ],
          [
            16.5535795,
            58.6871935
          ],
          [
            16.5534591,
            58.6872313
          ],
          [
            16.5532486,
            58.6873774
          ],
          [
            16.5529426,
            58.6875854
          ],
          [
            16.5524928,
            58.6878038
          ],
          [
            16.552238,
            58.6880634
          ],
          [
            16.5518054,
            58.68836
          ],
          [
            16.5516382,
            58.6885091
          ],
          [
            16.5514924,
            58.6887236
          ],
          [
            16.5513728,
            58.6889484
          ],
          [
            16.5511909,
            58.6891243
          ],
          [
            16.5510322,
            58.6893168
          ],
          [
            16.5510133,
            58.6893789
          ],
          [
            16.5510767,
            58.6894591
          ],
          [
            16.5512069,
            58.6895977
          ],
          [
            16.5514854,
            58.6896911
          ],
          [
            16.5515661,
            58.6898191
          ],
          [
            16.5517053,
            58.6899727
          ],
          [
            16.5516879,
            58.6899985
          ],
          [
            16.5516865,
            58.6900086
          ],
          [
            16.5517148,
            58.6900512
          ],
          [
            16.5516542,
            58.690176
          ],
          [
            16.5519895,
            58.6905127
          ],
          [
            16.5520816,
            58.6907566
          ],
          [
            16.5520447,
            58.6909097
          ],
          [
            16.5518599,
            58.6910809
          ],
          [
            16.5518045,
            58.6911212
          ],
          [
            16.5516397,
            58.6912493
          ],
          [
            16.5512807,
            58.6914359
          ],
          [
            16.550977,
            58.691632
          ],
          [
            16.5506732,
            58.6918664
          ],
          [
            16.5505535,
            58.6920386
          ],
          [
            16.5503326,
            58.6922395
          ],
          [
            16.5503326,
            58.6924356
          ],
          [
            16.5503234,
            58.6926221
          ],
          [
            16.5502313,
            58.6927465
          ],
          [
            16.5500196,
            58.6928661
          ],
          [
            16.5497159,
            58.6929665
          ],
          [
            16.5493293,
            58.6930478
          ],
          [
            16.5490531,
            58.6931243
          ],
          [
            16.5488414,
            58.6932248
          ],
          [
            16.5485284,
            58.6934496
          ],
          [
            16.5484088,
            58.6935692
          ],
          [
            16.5483996,
            58.6938275
          ],
          [
            16.5485284,
            58.694014
          ],
          [
            16.5486849,
            58.6941957
          ],
          [
            16.5487683,
            58.6943352
          ],
          [
            16.5488138,
            58.6943966
          ],
          [
            16.5489594,
            58.6945358
          ],
          [
            16.5490851,
            58.6947
          ],
          [
            16.5490541,
            58.6948964
          ],
          [
            16.549205,
            58.694973
          ],
          [
            16.5493477,
            58.6950567
          ],
          [
            16.5495778,
            58.695138
          ],
          [
            16.5496929,
            58.6951715
          ],
          [
            16.5499,
            58.6951834
          ],
          [
            16.5500657,
            58.6951499
          ],
          [
            16.5502267,
            58.6950925
          ],
          [
            16.5505595,
            58.6950463
          ],
          [
            16.5511115,
            58.6949603
          ],
          [
            16.5515661,
            58.6949801
          ],
          [
            16.5518238,
            58.6950017
          ],
          [
            16.5522196,
            58.6950519
          ],
          [
            16.5523897,
            58.6950946
          ],
          [
            16.5524958,
            58.6951212
          ],
          [
            16.5525648,
            58.6951858
          ],
          [
            16.5526657,
            58.6952548
          ],
          [
            16.5526522,
            58.6953699
          ],
          [
            16.552597,
            58.6955086
          ],
          [
            16.5525569,
            58.6956524
          ],
          [
            16.5526661,
            58.6957573
          ],
          [
            16.5527029,
            58.6958052
          ],
          [
            16.5528087,
            58.6958817
          ],
          [
            16.5530067,
            58.6959534
          ],
          [
            16.5532644,
            58.6959726
          ],
          [
            16.5534347,
            58.695951
          ],
          [
            16.5536096,
            58.6958913
          ],
          [
            16.5537753,
            58.6958769
          ],
          [
            16.5541404,
            58.6958267
          ],
          [
            16.5544366,
            58.6957765
          ],
          [
            16.5547027,
            58.6957243
          ],
          [
            16.5549581,
            58.6956569
          ],
          [
            16.5552573,
            58.695511
          ],
          [
            16.555492,
            58.6954082
          ],
          [
            16.5556485,
            58.6953102
          ],
          [
            16.5558648,
            58.6952288
          ],
          [
            16.5562677,
            58.6951408
          ],
          [
            16.5567224,
            58.6951234
          ],
          [
            16.5571535,
            58.6950136
          ],
          [
            16.5573974,
            58.6949419
          ],
          [
            16.5575447,
            58.694839
          ],
          [
            16.5575999,
            58.6947314
          ],
          [
            16.5576828,
            58.6946525
          ],
          [
            16.5578025,
            58.6945927
          ],
          [
            16.5579635,
            58.694564
          ],
          [
            16.5580599,
            58.6944941
          ],
          [
            16.5582535,
            58.6944612
          ],
          [
            16.5584276,
            58.6943401
          ],
          [
            16.5587066,
            58.6942938
          ],
          [
            16.5589812,
            58.6942866
          ],
          [
            16.5592791,
            58.6943185
          ],
          [
            16.5595303,
            58.6943906
          ],
          [
            16.559846,
            58.6945092
          ],
          [
            16.5601958,
            58.6946622
          ],
          [
            16.5604996,
            58.6948535
          ],
          [
            16.5607205,
            58.6951453
          ],
          [
            16.5606917,
            58.6953256
          ],
          [
            16.5609034,
            58.695575
          ],
          [
            16.5607743,
            58.695788
          ],
          [
            16.5605493,
            58.6959598
          ],
          [
            16.5602913,
            58.6960208
          ],
          [
            16.5600405,
            58.6961041
          ],
          [
            16.559816,
            58.6962072
          ],
          [
            16.5594856,
            58.696365
          ],
          [
            16.5593308,
            58.6964897
          ],
          [
            16.5590871,
            58.6966167
          ],
          [
            16.5589686,
            58.6967706
          ],
          [
            16.5589139,
            58.6970671
          ],
          [
            16.5589022,
            58.6972355
          ],
          [
            16.559128,
            58.6975462
          ],
          [
            16.5594962,
            58.697924
          ],
          [
            16.5599381,
            58.6982014
          ],
          [
            16.5602971,
            58.6983449
          ],
          [
            16.5605916,
            58.6983688
          ],
          [
            16.5608678,
            58.6982875
          ],
          [
            16.5610167,
            58.6981412
          ],
          [
            16.5611348,
            58.6978811
          ],
          [
            16.561328,
            58.6977997
          ],
          [
            16.5615305,
            58.6976849
          ],
          [
            16.5618067,
            58.6975701
          ],
          [
            16.5624602,
            58.6972879
          ],
          [
            16.5628745,
            58.6971301
          ],
          [
            16.5633715,
            58.6969053
          ],
          [
            16.5637121,
            58.6967331
          ],
          [
            16.5640895,
            58.6964988
          ],
          [
            16.5647247,
            58.6962358
          ],
          [
            16.5651389,
            58.6961257
          ],
          [
            16.5655992,
            58.6960062
          ],
          [
            16.5660594,
            58.6959966
          ],
          [
            16.5666301,
            58.6959153
          ],
          [
            16.5670812,
            58.695791
          ],
          [
            16.5674862,
            58.6957192
          ],
          [
            16.5678452,
            58.6957336
          ],
          [
            16.5682778,
            58.6957718
          ],
          [
            16.5687749,
            58.6957431
          ],
          [
            16.5691151,
            58.6955024
          ],
          [
            16.5693297,
            58.6953203
          ],
          [
            16.5697031,
            58.6950792
          ],
          [
            16.5701104,
            58.6949021
          ],
          [
            16.5707374,
            58.6947179
          ],
          [
            16.5709878,
            58.694595
          ],
          [
            16.5712514,
            58.6945076
          ],
          [
            16.5715323,
            58.6943003
          ],
          [
            16.5718393,
            58.6940833
          ],
          [
            16.5721424,
            58.69392
          ],
          [
            16.5723929,
            58.6937002
          ],
          [
            16.5726157,
            58.6936808
          ],
          [
            16.5727161,
            58.6937067
          ],
          [
            16.5728129,
            58.6937041
          ],
          [
            16.5730311,
            58.6936674
          ],
          [
            16.5732676,
            58.6934889
          ],
          [
            16.573655,
            58.6932597
          ],
          [
            16.5741675,
            58.6930064
          ],
          [
            16.5746016,
            58.6928351
          ],
          [
            16.5750803,
            58.6927251
          ],
          [
            16.575292,
            58.6927012
          ],
          [
            16.5755587,
            58.6925774
          ],
          [
            16.5757739,
            58.6924691
          ],
          [
            16.575958,
            58.6922866
          ],
          [
            16.5762307,
            58.6920351
          ],
          [
            16.5765644,
            58.6918103
          ],
          [
            16.5768081,
            58.691601
          ],
          [
            16.5769,
            58.691515
          ],
          [
            16.5771054,
            58.6914097
          ],
          [
            16.5772029,
            58.6913092
          ],
          [
            16.5772527,
            58.6911056
          ],
          [
            16.5774504,
            58.69096
          ],
          [
            16.5776694,
            58.6908299
          ],
          [
            16.5778803,
            58.6906718
          ],
          [
            16.5781616,
            58.6906574
          ],
          [
            16.5783864,
            58.6906734
          ],
          [
            16.5785635,
            58.6907095
          ],
          [
            16.5786794,
            58.6907639
          ],
          [
            16.5790384,
            58.6908214
          ],
          [
            16.5792594,
            58.6908548
          ],
          [
            16.5796951,
            58.690854
          ],
          [
            16.5799158,
            58.6907363
          ],
          [
            16.5801006,
            58.6905668
          ],
          [
            16.5802109,
            58.6903132
          ],
          [
            16.5803673,
            58.690242
          ],
          [
            16.5803879,
            58.6900056
          ],
          [
            16.5803449,
            58.6897519
          ],
          [
            16.5803087,
            58.6896637
          ],
          [
            16.5800418,
            58.6894867
          ],
          [
            16.5797656,
            58.6893624
          ],
          [
            16.57951,
            58.6892536
          ],
          [
            16.5795081,
            58.6891913
          ],
          [
            16.5796454,
            58.6890321
          ],
          [
            16.5798577,
            58.6888696
          ],
          [
            16.5800418,
            58.6886017
          ],
          [
            16.5800602,
            58.6883817
          ],
          [
            16.580051,
            58.6881999
          ],
          [
            16.5799958,
            58.6880229
          ],
          [
            16.5800878,
            58.687865
          ],
          [
            16.5802627,
            58.687712
          ],
          [
            16.580456,
            58.6875828
          ],
          [
            16.5806217,
            58.6873962
          ],
          [
            16.5807414,
            58.6872623
          ],
          [
            16.5807431,
            58.6871137
          ],
          [
            16.5807952,
            58.6869682
          ],
          [
            16.5807236,
            58.6867889
          ],
          [
            16.580626,
            58.6866638
          ],
          [
            16.5805348,
            58.6865961
          ],
          [
            16.5803982,
            58.6865319
          ],
          [
            16.5802504,
            58.6865272
          ],
          [
            16.580075,
            58.6863689
          ],
          [
            16.5800315,
            58.6862258
          ],
          [
            16.5801619,
            58.6860602
          ],
          [
            16.5807269,
            58.6858531
          ],
          [
            16.5815092,
            58.6855294
          ],
          [
            16.5820814,
            58.6854277
          ],
          [
            16.5827261,
            58.6855331
          ],
          [
            16.58332,
            58.6855557
          ],
          [
            16.5837798,
            58.6855592
          ],
          [
            16.5853268,
            58.6851524
          ],
          [
            16.5876895,
            58.6845043
          ],
          [
            16.5880083,
            58.6843146
          ],
          [
            16.5881123,
            58.6842256
          ],
          [
            16.588213,
            58.6841625
          ],
          [
            16.5883404,
            58.6840428
          ],
          [
            16.5886657,
            58.6837719
          ],
          [
            16.5889309,
            58.6836025
          ],
          [
            16.5893677,
            58.6833087
          ],
          [
            16.5900867,
            58.6828724
          ],
          [
            16.5902497,
            58.6827565
          ],
          [
            16.5904775,
            58.6825782
          ],
          [
            16.590638,
            58.6824329
          ],
          [
            16.5908308,
            58.682211
          ],
          [
            16.5909667,
            58.6820132
          ],
          [
            16.5911645,
            58.6817927
          ],
          [
            16.5912942,
            58.681614
          ],
          [
            16.591416,
            58.6813812
          ],
          [
            16.5914997,
            58.6811815
          ],
          [
            16.5914506,
            58.6810467
          ],
          [
            16.5913872,
            58.6809307
          ],
          [
            16.5913139,
            58.6807766
          ],
          [
            16.5912655,
            58.6804298
          ],
          [
            16.5912176,
            58.6802337
          ],
          [
            16.5911012,
            58.6800643
          ],
          [
            16.5910179,
            58.6799233
          ],
          [
            16.5909496,
            58.6798362
          ],
          [
            16.5908832,
            58.6797862
          ],
          [
            16.5907412,
            58.6796975
          ],
          [
            16.5906025,
            58.6795474
          ],
          [
            16.5905969,
            58.6794242
          ],
          [
            16.5907853,
            58.6791582
          ],
          [
            16.5908132,
            58.6790247
          ],
          [
            16.5908057,
            58.6788885
          ],
          [
            16.5908526,
            58.678762
          ],
          [
            16.5909734,
            58.6786556
          ],
          [
            16.5910524,
            58.6785607
          ],
          [
            16.5910829,
            58.6784683
          ],
          [
            16.5910175,
            58.6783765
          ],
          [
            16.5909177,
            58.678304
          ],
          [
            16.5907856,
            58.6781723
          ],
          [
            16.5907856,
            58.6781063
          ],
          [
            16.5908142,
            58.6780317
          ],
          [
            16.590893,
            58.6779543
          ],
          [
            16.5911025,
            58.6778328
          ],
          [
            16.5912296,
            58.6777149
          ],
          [
            16.5913266,
            58.6775307
          ],
          [
            16.5913337,
            58.6774248
          ],
          [
            16.5913752,
            58.6773483
          ],
          [
            16.5914935,
            58.6772387
          ],
          [
            16.5918548,
            58.6770493
          ],
          [
            16.5920537,
            58.6769687
          ],
          [
            16.5921733,
            58.6769001
          ],
          [
            16.5922667,
            58.6768297
          ],
          [
            16.5923727,
            58.67673
          ],
          [
            16.5924524,
            58.6766248
          ],
          [
            16.5925508,
            58.6764718
          ],
          [
            16.5925713,
            58.6763953
          ],
          [
            16.5925635,
            58.6762589
          ],
          [
            16.5925264,
            58.6761288
          ],
          [
            16.5924616,
            58.6760265
          ],
          [
            16.5924226,
            58.6759333
          ],
          [
            16.592446,
            58.6758391
          ],
          [
            16.5925552,
            58.675749
          ],
          [
            16.5928784,
            58.6755827
          ],
          [
            16.5930076,
            58.6754772
          ],
          [
            16.5931046,
            58.6753595
          ],
          [
            16.5931658,
            58.6752451
          ],
          [
            16.5932125,
            58.6750929
          ],
          [
            16.5932188,
            58.6750153
          ]
        ]
      }
    }
  ]
}
