{
  "type": "FeatureCollection",
  "features": [
    {
      "type": "Feature",
      "properties": {
        "name": "Stage 39: Västra Kovik to Dragsviken",
        "source": "Sörmlandsleden official full GPX",
        "sourceFormat": "official-network-gpx",
        "sourceUrl": "https://www.sormlandsleden.se/wp-content/themes/sormlandsleden.se/Leden-2024-12-04.gpx",
        "lengthKm": 5.71,
        "routeWarning": "The official catalog and long-distance-pass distance is 6 km, while Naturkartan exposes about 5639 m, this local line measures about 5.7 km, OSM relation 3822358 measures about 5.8 km, and third-party sources cluster around 5.77-5.8 km. Start/end topology is continuous from Stage 38 to Stage 40; treat this as normal rounded source-distance drift, not a broken route.",
        "currentOfficialDistanceKm": 6,
        "geometryConfidence": "rounded-source-distance-drift"
      },
      "geometry": {
        "type": "LineString",
        "coordinates": [
          [
            16.938196235471125,
            58.61853067981614
          ],
          [
            16.938979542769925,
            58.61857549003693
          ],
          [
            16.94042217919798,
            58.618664132990695
          ],
          [
            16.94078824388701,
            58.61859867830991
          ],
          [
            16.940858491495092,
            58.61847271276888
          ],
          [
            16.94104266915392,
            58.618272027225174
          ],
          [
            16.941190243444883,
            58.61806911406748
          ],
          [
            16.941512738358877,
            58.617972819198535
          ],
          [
            16.94189412674067,
            58.61783548086434
          ],
          [
            16.94245590816647,
            58.61759784491695
          ],
          [
            16.942574795089207,
            58.617469922704956
          ],
          [
            16.94280518826164,
            58.61735385654023
          ],
          [
            16.947694790038234,
            58.618522401012505
          ],
          [
            16.948447477544455,
            58.61854121853911
          ],
          [
            16.949958349240962,
            58.61847548255245
          ],
          [
            16.951097581714343,
            58.618976038703025
          ],
          [
            16.951730305061076,
            58.61917415595573
          ],
          [
            16.952421129727053,
            58.61919926243945
          ],
          [
            16.95392579953913,
            58.61910009931084
          ],
          [
            16.954666178599194,
            58.61906660991678
          ],
          [
            16.955484787451642,
            58.618937324239816
          ],
          [
            16.95626441272549,
            58.6188256390921
          ],
          [
            16.95688684013266,
            58.61890783615258
          ],
          [
            16.957594209925354,
            58.618972976484606
          ],
          [
            16.95839468093674,
            58.61921120424336
          ],
          [
            16.959135710710164,
            58.619280377888494
          ],
          [
            16.959806438281657,
            58.619289706269726
          ],
          [
            16.960921761276506,
            58.61955697862215
          ],
          [
            16.96171755607134,
            58.61964005023674
          ],
          [
            16.962412639426216,
            58.61986625788147
          ],
          [
            16.96361048688054,
            58.62007108756352
          ],
          [
            16.964258288735923,
            58.620139991896494
          ],
          [
            16.964939735366553,
            58.62030219181642
          ],
          [
            16.965729830589883,
            58.62034900862524
          ],
          [
            16.966407551697117,
            58.62080358180813
          ],
          [
            16.96705064755038,
            58.62119860225202
          ],
          [
            16.967766979019327,
            58.62117608610007
          ],
          [
            16.968146998993912,
            58.621159253386594
          ],
          [
            16.968538690714155,
            58.62115764281636
          ],
          [
            16.968878984653607,
            58.621365632504016
          ],
          [
            16.969523068439205,
            58.62159045055306
          ],
          [
            16.97010123254317,
            58.621797928635935
          ],
          [
            16.970654892557828,
            58.622042463345345
          ],
          [
            16.971154247695242,
            58.62233463775158
          ],
          [
            16.97147052609398,
            58.62266079602448
          ],
          [
            16.971642163858604,
            58.62304757559314
          ],
          [
            16.971564639287703,
            58.623402597852056
          ],
          [
            16.970968566808317,
            58.623658574747814
          ],
          [
            16.9703062300593,
            58.62383360083764
          ],
          [
            16.969700907886565,
            58.62400298667501
          ],
          [
            16.9690575240825,
            58.62419447083509
          ],
          [
            16.96876773149697,
            58.62454445194833
          ],
          [
            16.968648820295495,
            58.62487742554813
          ],
          [
            16.969258238474584,
            58.625331782673584
          ],
          [
            16.96923469538993,
            58.62569465633614
          ],
          [
            16.96899657107684,
            58.625922029833575
          ],
          [
            16.9692616820002,
            58.626271639841136
          ],
          [
            16.969745739011078,
            58.62660728294389
          ],
          [
            16.97037444915857,
            58.62675382443639
          ],
          [
            16.971028111101464,
            58.626783863111
          ],
          [
            16.971410094165023,
            58.626783692855625
          ],
          [
            16.972111205174954,
            58.62610406222513
          ],
          [
            16.973460701149843,
            58.62558272295498
          ],
          [
            16.974145526388103,
            58.625455964173995
          ],
          [
            16.975046151516906,
            58.62546704420649
          ],
          [
            16.975808135266472,
            58.62536510270685
          ],
          [
            16.976432846979694,
            58.62528366448846
          ],
          [
            16.97724994239124,
            58.62506706779381
          ],
          [
            16.9778412355555,
            58.624853738414984
          ],
          [
            16.97811397776097,
            58.62458315705936
          ],
          [
            16.978481079438456,
            58.624449248935576
          ],
          [
            16.979212963129964,
            58.624511950997714
          ],
          [
            16.97995882400891,
            58.624508936083586
          ],
          [
            16.98139672891108,
            58.624535389129264
          ],
          [
            16.98215745639768,
            58.624459993014874
          ],
          [
            16.98288207326054,
            58.62441116240373
          ],
          [
            16.98366351010951,
            58.62434775238299
          ],
          [
            16.984306748883604,
            58.62426637877302
          ],
          [
            16.9850419789547,
            58.624245943993536
          ],
          [
            16.9856410428563,
            58.62409913902617
          ],
          [
            16.98634095038036,
            58.62399208899398
          ],
          [
            16.9871310213643,
            58.62403625896706
          ],
          [
            16.987857829661152,
            58.624247222967895
          ],
          [
            16.988560721057468,
            58.62426684116551
          ],
          [
            16.989297014149702,
            58.62428858028
          ],
          [
            16.98990162246192,
            58.624533121638024
          ],
          [
            16.99054517737344,
            58.6246608311606
          ],
          [
            16.990844725187205,
            58.62483958560162
          ],
          [
            16.99127392562336,
            58.62515326959387
          ],
          [
            16.991593383214614,
            58.625266057600726
          ],
          [
            16.99222774650619,
            58.625558361139156
          ],
          [
            16.993046348640288,
            58.62584239063762
          ],
          [
            16.99356220567652,
            58.626086867720694
          ],
          [
            16.994518547195696,
            58.62607325925256
          ],
          [
            16.994902341064808,
            58.62592219070667
          ],
          [
            16.995916533907444,
            58.62579580079449
          ],
          [
            16.99646482858215,
            58.62600815826123
          ],
          [
            16.99680532631214,
            58.62636946562012
          ],
          [
            16.997153391768357,
            58.6264573775555
          ],
          [
            16.997723362324255,
            58.626534658853394
          ],
          [
            16.998218055562944,
            58.62655765257718
          ],
          [
            16.998846843923005,
            58.62655454178728
          ],
          [
            16.999727182753986,
            58.62662474889049
          ],
          [
            17.000325174447507,
            58.6267798685264
          ],
          [
            17.000648076959433,
            58.6268697212989
          ],
          [
            17.00098241306316,
            58.62692963716557
          ],
          [
            17.001809004333737,
            58.62698772091021
          ],
          [
            17.001955955616857,
            58.6273212879137
          ],
          [
            17.00203244224563,
            58.62749201420747
          ],
          [
            17.002029778692506,
            58.627667213282265
          ],
          [
            17.002109889355314,
            58.62798075359454
          ],
          [
            17.002279446191046,
            58.628051664872125
          ],
          [
            17.002486018208785,
            58.62796065491823
          ],
          [
            17.003013180136985,
            58.62808451220019
          ],
          [
            17.00343579467792,
            58.62841600688427
          ],
          [
            17.003826090855522,
            58.62841389591175
          ],
          [
            17.004134681482928,
            58.628846118177066
          ],
          [
            17.003942731730007,
            58.629050100471716
          ],
          [
            17.00423441414289,
            58.62933087516471
          ],
          [
            17.004202246289655,
            58.62945623070628
          ],
          [
            17.004299773563144,
            58.629559746326635
          ],
          [
            17.004265234020544,
            58.62968038486742
          ],
          [
            17.004433959997893,
            58.62988067065554
          ],
          [
            17.004837434842745,
            58.629962376080584
          ],
          [
            17.004810685905213,
            58.630118340021674
          ],
          [
            17.0051168414274,
            58.63019252776147
          ],
          [
            17.0056330031204,
            58.6301567817485
          ],
          [
            17.006035774231908,
            58.63032880158249
          ],
          [
            17.00613819394344,
            58.63055488316008
          ],
          [
            17.006666749692513,
            58.63116293224081
          ],
          [
            17.005951504608788,
            58.631578903168815
          ],
          [
            17.005274966073237,
            58.632011252105094
          ],
          [
            17.00501755047776,
            58.63253905566988
          ],
          [
            17.005091658558843,
            58.63269377130421
          ]
        ]
      }
    }
  ]
}
