{
  "type": "FeatureCollection",
  "features": [
    {
      "type": "Feature",
      "properties": {
        "name": "Stage 15: Fredriksberg, väg 223 to Skottvångs gruva",
        "source": "Sörmlandsleden official full GPX",
        "sourceFormat": "official-network-gpx",
        "sourceUrl": "https://www.sormlandsleden.se/wp-content/themes/sormlandsleden.se/Leden-2024-12-04.gpx",
        "lengthKm": 9.5
      },
      "geometry": {
        "type": "LineString",
        "coordinates": [
          [
            17.18403081241324,
            59.193689776642586
          ],
          [
            17.1838250985338,
            59.19423912982846
          ],
          [
            17.183429808077694,
            59.19450850691267
          ],
          [
            17.182992957675463,
            59.194801013853514
          ],
          [
            17.182501804043046,
            59.19509426558695
          ],
          [
            17.18212944654607,
            59.19547480280957
          ],
          [
            17.18212662731978,
            59.19584520935012
          ],
          [
            17.182535533697944,
            59.19616918836528
          ],
          [
            17.182283756058226,
            59.19642284415445
          ],
          [
            17.181582556273153,
            59.19661083615943
          ],
          [
            17.180919653331472,
            59.196764775260064
          ],
          [
            17.180103924189513,
            59.19722146246045
          ],
          [
            17.179404388351657,
            59.19726619108967
          ],
          [
            17.17771233642077,
            59.19727068138104
          ],
          [
            17.17708056878598,
            59.197192277875594
          ],
          [
            17.17701642724706,
            59.197252579625754
          ],
          [
            17.176784063955502,
            59.19757743767511
          ],
          [
            17.177004594108727,
            59.197930401567234
          ],
          [
            17.177466840962037,
            59.198265762363185
          ],
          [
            17.177905708363266,
            59.198555001999075
          ],
          [
            17.17821371417075,
            59.19891077229506
          ],
          [
            17.17852247597179,
            59.199289916800254
          ],
          [
            17.178751482041744,
            59.199625021312784
          ],
          [
            17.178589550838673,
            59.19994270344181
          ],
          [
            17.178205662186723,
            59.20025889616807
          ],
          [
            17.17744760228079,
            59.200352234140425
          ],
          [
            17.176713065059182,
            59.200400367301086
          ],
          [
            17.17636051224898,
            59.200713976977866
          ],
          [
            17.177302078097917,
            59.20129453418918
          ],
          [
            17.177446886373716,
            59.201674558591975
          ],
          [
            17.177049284991835,
            59.201967258647
          ],
          [
            17.176568274363106,
            59.202219796785414
          ],
          [
            17.176268919482396,
            59.20259553084224
          ],
          [
            17.176227456615294,
            59.20297720679029
          ],
          [
            17.176333518443045,
            59.20336147413073
          ],
          [
            17.176476299608005,
            59.20374572220531
          ],
          [
            17.176522459028376,
            59.2041001231459
          ],
          [
            17.17644622846852,
            59.20450839969488
          ],
          [
            17.176049248695545,
            59.20482839282757
          ],
          [
            17.175622231334636,
            59.20514384821278
          ],
          [
            17.175231230346093,
            59.205455458950325
          ],
          [
            17.175192546851942,
            59.20588488379467
          ],
          [
            17.175548103396025,
            59.20617470035773
          ],
          [
            17.175872456713222,
            59.2065297335158
          ],
          [
            17.175897472787703,
            59.20686890537236
          ],
          [
            17.176282783302778,
            59.20722212283586
          ],
          [
            17.176587698002084,
            59.20740452942567
          ],
          [
            17.176133187448563,
            59.20757637108504
          ],
          [
            17.175316067841603,
            59.2077946091704
          ],
          [
            17.174798297127523,
            59.20822283014051
          ],
          [
            17.174190442778006,
            59.208401147282714
          ],
          [
            17.173583589921897,
            59.208626390595555
          ],
          [
            17.172841563015407,
            59.20870414863394
          ],
          [
            17.172127152298554,
            59.20872050373266
          ],
          [
            17.171407431190822,
            59.20884479303004
          ],
          [
            17.17074143031962,
            59.2089749064768
          ],
          [
            17.170141507509076,
            59.208823586599124
          ],
          [
            17.169561588454247,
            59.208565326017435
          ],
          [
            17.16885469322899,
            59.208422611636124
          ],
          [
            17.16811000811543,
            59.208307179182874
          ],
          [
            17.16741092254452,
            59.20842458282542
          ],
          [
            17.166658153792675,
            59.20841264556302
          ],
          [
            17.166002813751255,
            59.20824120691074
          ],
          [
            17.16526452622554,
            59.20822137103357
          ],
          [
            17.16457325646559,
            59.20833930307723
          ],
          [
            17.163874201314346,
            59.2084312009529
          ],
          [
            17.163092812516048,
            59.208546647609566
          ],
          [
            17.16233529355677,
            59.20855998295578
          ],
          [
            17.161721394578652,
            59.208381100816894
          ],
          [
            17.161243739440852,
            59.20810898744318
          ],
          [
            17.161141941153872,
            59.20797265875475
          ],
          [
            17.1611762616746,
            59.207593106601145
          ],
          [
            17.161431161448895,
            59.207257584176666
          ],
          [
            17.16156150333022,
            59.20687593847677
          ],
          [
            17.161452553225125,
            59.20662805568466
          ],
          [
            17.16086002363069,
            59.206360326422605
          ],
          [
            17.160011369819117,
            59.20646784235243
          ],
          [
            17.159810031540367,
            59.2067537359422
          ],
          [
            17.15939044946574,
            59.20689124684658
          ],
          [
            17.159045976671205,
            59.206829720935055
          ],
          [
            17.15881483099194,
            59.2063337301157
          ],
          [
            17.15833038654353,
            59.20637047264123
          ],
          [
            17.157701903403417,
            59.206534943112835
          ],
          [
            17.15732374696537,
            59.206599357624846
          ],
          [
            17.15683459971528,
            59.20667749967398
          ],
          [
            17.156309250924068,
            59.20664885010007
          ],
          [
            17.15547562127378,
            59.20676632676834
          ],
          [
            17.15508434524889,
            59.20710615523623
          ],
          [
            17.1547421808771,
            59.20744419799206
          ],
          [
            17.15431248680181,
            59.20776545795078
          ],
          [
            17.153754991442092,
            59.208038556836755
          ],
          [
            17.15314031378612,
            59.20821448310367
          ],
          [
            17.152808249215163,
            59.20856836799593
          ],
          [
            17.1530540361799,
            59.209011059066974
          ],
          [
            17.152923270784807,
            59.20932153648933
          ],
          [
            17.152355983239435,
            59.20954955624011
          ],
          [
            17.1518487355603,
            59.20944683229801
          ],
          [
            17.151098474631553,
            59.209680799156516
          ],
          [
            17.150301374444748,
            59.210015695254306
          ],
          [
            17.149805370558724,
            59.21040182581259
          ],
          [
            17.148645927204115,
            59.210797232527085
          ],
          [
            17.14817849377737,
            59.21098594197887
          ],
          [
            17.1478184299473,
            59.211185911409146
          ],
          [
            17.14769032300761,
            59.211474635331214
          ],
          [
            17.14734285340756,
            59.21167438150265
          ],
          [
            17.147168769341455,
            59.21190725477564
          ],
          [
            17.14713470929933,
            59.21219903864556
          ],
          [
            17.146946006813522,
            59.21249334641983
          ],
          [
            17.146802757395353,
            59.212766906431206
          ],
          [
            17.14635400343269,
            59.2127306563422
          ],
          [
            17.145639942703163,
            59.21286328169275
          ],
          [
            17.14522478883112,
            59.21311364967768
          ],
          [
            17.14493780385194,
            59.21313344527304
          ],
          [
            17.14461489086329,
            59.21300604681264
          ],
          [
            17.14426528269092,
            59.21284970679107
          ],
          [
            17.144555992410968,
            59.21247151385931
          ],
          [
            17.14454503678927,
            59.212104671147564
          ],
          [
            17.144791349552474,
            59.21170869273493
          ],
          [
            17.14491526934114,
            59.21156623605465
          ],
          [
            17.144946981419388,
            59.21124329391325
          ],
          [
            17.1450559021486,
            59.211119368202475
          ],
          [
            17.14511806741919,
            59.21095701558166
          ],
          [
            17.145195615102317,
            59.21077991448156
          ],
          [
            17.145308129625686,
            59.21067798724749
          ],
          [
            17.145475394421506,
            59.210605988529494
          ],
          [
            17.145769549411,
            59.21051595653128
          ],
          [
            17.145949497490392,
            59.21035076029524
          ],
          [
            17.1469187088993,
            59.210007756977404
          ],
          [
            17.146816240954394,
            59.2096620658655
          ],
          [
            17.14717600323446,
            59.20922140659126
          ],
          [
            17.147057788980028,
            59.20893230233341
          ],
          [
            17.14724041361788,
            59.20856797150939
          ],
          [
            17.147824235448017,
            59.20824471922796
          ],
          [
            17.148081200376424,
            59.20789129921426
          ],
          [
            17.147677937635887,
            59.20754632168196
          ],
          [
            17.148052472120845,
            59.20709911230547
          ],
          [
            17.148050073260563,
            59.206510402960376
          ],
          [
            17.150690688260106,
            59.20651934281048
          ],
          [
            17.15180545758414,
            59.20604005786459
          ],
          [
            17.15231981558501,
            59.20575999710966
          ],
          [
            17.152702186290437,
            59.205464227603656
          ],
          [
            17.153045432573382,
            59.20510209698349
          ],
          [
            17.153380608469686,
            59.20473501363191
          ],
          [
            17.1537594249498,
            59.20442277051968
          ],
          [
            17.154236379343043,
            59.20407983875498
          ],
          [
            17.154802627817087,
            59.20382935027191
          ],
          [
            17.155295833373916,
            59.203542788178936
          ],
          [
            17.155536788514496,
            59.203203700739174
          ],
          [
            17.155788255852286,
            59.202817768448526
          ],
          [
            17.155913551053533,
            59.202438174120275
          ],
          [
            17.15657891982242,
            59.20167070871592
          ],
          [
            17.156903820698655,
            59.20137093098207
          ],
          [
            17.157180807374196,
            59.2010541706389
          ],
          [
            17.156267824240967,
            59.20090159827846
          ],
          [
            17.15564632094672,
            59.200690248823
          ],
          [
            17.15508327712428,
            59.200555754832976
          ],
          [
            17.155326885570382,
            59.2002731694094
          ],
          [
            17.15518091108502,
            59.19985639109896
          ],
          [
            17.154339504482287,
            59.19961336292024
          ],
          [
            17.15397942616554,
            59.19959585398193
          ],
          [
            17.15344205412233,
            59.19931504054755
          ],
          [
            17.15300294456546,
            59.199044771318064
          ],
          [
            17.152695424416297,
            59.198685938460365
          ],
          [
            17.15205652540959,
            59.198249635348624
          ],
          [
            17.15198676397523,
            59.19789365130191
          ],
          [
            17.1522751288363,
            59.19758348704887
          ],
          [
            17.152251072526933,
            59.197172847919425
          ],
          [
            17.151678266414486,
            59.196716995159456
          ],
          [
            17.15045345184421,
            59.196351220466475
          ],
          [
            17.149944816266537,
            59.196095780042434
          ],
          [
            17.149492849825858,
            59.19578469855504
          ],
          [
            17.149597524366026,
            59.195322980544155
          ],
          [
            17.15001426053076,
            59.19505912217449
          ],
          [
            17.149708013005213,
            59.1947060427747
          ],
          [
            17.149539770097807,
            59.19435286898507
          ],
          [
            17.149260889452314,
            59.19409397481117
          ],
          [
            17.148443400195024,
            59.193926077402686
          ],
          [
            17.14745768562526,
            59.19362197187423
          ],
          [
            17.14705576408851,
            59.19371620040892
          ],
          [
            17.146716115341633,
            59.1936583284494
          ],
          [
            17.146341151848013,
            59.19352237580455
          ],
          [
            17.145866072623146,
            59.193330840759685
          ],
          [
            17.144499067902647,
            59.19316407710195
          ],
          [
            17.14431543784818,
            59.19277536754877
          ],
          [
            17.14461364115625,
            59.19238922817196
          ],
          [
            17.144876320840147,
            59.192054439594955
          ],
          [
            17.145477463718567,
            59.1918539070796
          ],
          [
            17.145963947336174,
            59.191533253391725
          ],
          [
            17.146369943608065,
            59.191039933117004
          ],
          [
            17.146037273307705,
            59.190793957367255
          ],
          [
            17.145554416768146,
            59.19043848135196
          ],
          [
            17.145086125925015,
            59.18986262563313
          ],
          [
            17.144680806040732,
            59.18981069804062
          ],
          [
            17.144173720989592,
            59.189859064961404
          ],
          [
            17.143718613669762,
            59.18959053515697
          ],
          [
            17.143340649752506,
            59.18959351516022
          ],
          [
            17.14287797671238,
            59.18987393831012
          ],
          [
            17.14211853205843,
            59.18993818797147
          ],
          [
            17.141474085682404,
            59.18971551948014
          ],
          [
            17.141059866478034,
            59.18942727202117
          ],
          [
            17.141237977810754,
            59.18923335129807
          ],
          [
            17.14133274147089,
            59.189044084258256
          ],
          [
            17.141325098368725,
            59.18862956986928
          ],
          [
            17.14128416831002,
            59.18829447817018
          ],
          [
            17.14125545998218,
            59.18790027497473
          ],
          [
            17.14125309875806,
            59.18749566468901
          ],
          [
            17.141388980066647,
            59.187109075658284
          ],
          [
            17.141450212855357,
            59.186738348997864
          ],
          [
            17.141534434616187,
            59.18632713782015
          ],
          [
            17.14125905542685,
            59.185970420511175
          ],
          [
            17.140781092857274,
            59.185677183090924
          ],
          [
            17.140177371593783,
            59.185368234486916
          ],
          [
            17.139515262187082,
            59.185245252830676
          ],
          [
            17.138761866748016,
            59.18519212050323
          ],
          [
            17.137854193857045,
            59.18497454518504
          ],
          [
            17.13754879954673,
            59.18504923955244
          ],
          [
            17.137531662298723,
            59.18504630311888
          ],
          [
            17.136956291453128,
            59.184799717399926
          ],
          [
            17.13635178303481,
            59.184589834815526
          ],
          [
            17.136074036112763,
            59.18428568297032
          ],
          [
            17.136132383468112,
            59.18383601561539
          ],
          [
            17.136350247388407,
            59.18349043494933
          ],
          [
            17.136687246405888,
            59.18311551008513
          ],
          [
            17.136793745408234,
            59.18293432973283
          ],
          [
            17.13691278883793,
            59.18272365291561
          ],
          [
            17.136987298653164,
            59.18255024201509
          ],
          [
            17.136964581072636,
            59.182018019123504
          ],
          [
            17.136580458514675,
            59.182034586076256
          ],
          [
            17.136213363455074,
            59.18207330978039
          ],
          [
            17.135801555508102,
            59.182126396562595
          ],
          [
            17.135472069406383,
            59.182187952211486
          ]
        ]
      }
    }
  ]
}
