{
  "type": "FeatureCollection",
  "features": [
    {
      "type": "Feature",
      "properties": {
        "name": "Stage 26: Vallmotorp to Knorranvägen",
        "source": "Sörmlandsleden official full GPX",
        "sourceFormat": "official-network-gpx",
        "sourceUrl": "https://www.sormlandsleden.se/wp-content/themes/sormlandsleden.se/Leden-2024-12-04.gpx",
        "lengthKm": 8.27
      },
      "geometry": {
        "type": "LineString",
        "coordinates": [
          [
            16.254479786888727,
            59.038461679728314
          ],
          [
            16.248755349672066,
            59.03351703672445
          ],
          [
            16.2493429922713,
            59.03308713795403
          ],
          [
            16.249513076088615,
            59.0327289960643
          ],
          [
            16.249555886971677,
            59.03235812210533
          ],
          [
            16.24953096466867,
            59.03195440369418
          ],
          [
            16.249657636907965,
            59.03161983684799
          ],
          [
            16.249934743515695,
            59.03124211213512
          ],
          [
            16.249998932529788,
            59.03081259947718
          ],
          [
            16.24975107867142,
            59.03047794529578
          ],
          [
            16.249614382281123,
            59.03012435315781
          ],
          [
            16.24983790373252,
            59.02979188100448
          ],
          [
            16.249748875213545,
            59.029374860661825
          ],
          [
            16.24959908099568,
            59.02900814682556
          ],
          [
            16.24993979235305,
            59.02866271284554
          ],
          [
            16.250273689210317,
            59.02836582488349
          ],
          [
            16.251411558494567,
            59.02756018540101
          ],
          [
            16.2520006182656,
            59.02729515646292
          ],
          [
            16.252435446634145,
            59.02700386500136
          ],
          [
            16.253469710250755,
            59.02646997453986
          ],
          [
            16.25403654107171,
            59.026223308626506
          ],
          [
            16.254805602871354,
            59.026056249204174
          ],
          [
            16.255470222812335,
            59.025982692731546
          ],
          [
            16.256233697857937,
            59.02596925857128
          ],
          [
            16.256966185901643,
            59.0260008709412
          ],
          [
            16.25747833229816,
            59.02568815945999
          ],
          [
            16.258181263659086,
            59.02502473234595
          ],
          [
            16.258767612816985,
            59.024771413439225
          ],
          [
            16.259156491459876,
            59.02459729753718
          ],
          [
            16.25895050303036,
            59.02434534986782
          ],
          [
            16.258913333396496,
            59.023441885763916
          ],
          [
            16.259119786151462,
            59.02308855950881
          ],
          [
            16.259425076043883,
            59.022750957556816
          ],
          [
            16.2595086926761,
            59.02236360486897
          ],
          [
            16.259380299865303,
            59.02196439698409
          ],
          [
            16.25935044868232,
            59.021190411340214
          ],
          [
            16.258743083507493,
            59.02090559688347
          ],
          [
            16.258375113409024,
            59.0202116380484
          ],
          [
            16.258055635527494,
            59.019837479778516
          ],
          [
            16.257916508124918,
            59.0194629978757
          ],
          [
            16.258458302234338,
            59.0191022076488
          ],
          [
            16.259069233768816,
            59.01899606938728
          ],
          [
            16.258900787718105,
            59.01862603161962
          ],
          [
            16.25882415841024,
            59.01827455600761
          ],
          [
            16.258857250241146,
            59.01789826913032
          ],
          [
            16.258781769176064,
            59.01750714329405
          ],
          [
            16.258949201561837,
            59.01730555498127
          ],
          [
            16.259372240699044,
            59.01699843012368
          ],
          [
            16.25987718193711,
            59.01671389626582
          ],
          [
            16.259998548485335,
            59.01633588762792
          ],
          [
            16.259633967316347,
            59.01597468833246
          ],
          [
            16.259492440732775,
            59.01566039013068
          ],
          [
            16.25974808386786,
            59.01527822391662
          ],
          [
            16.259622052697768,
            59.014903437370165
          ],
          [
            16.25947303557463,
            59.01451184172758
          ],
          [
            16.259518248686067,
            59.0141191954805
          ],
          [
            16.259934366827405,
            59.013797408722795
          ],
          [
            16.259789435392626,
            59.01344277785568
          ],
          [
            16.259694985870013,
            59.01308957366771
          ],
          [
            16.259524123254142,
            59.012713353234865
          ],
          [
            16.25926277832551,
            59.012416203848126
          ],
          [
            16.258473817340374,
            59.0123759447293
          ],
          [
            16.25774517197535,
            59.01236692121882
          ],
          [
            16.256963411448854,
            59.01230873284786
          ],
          [
            16.256265477036504,
            59.01218637350995
          ],
          [
            16.25557839785363,
            59.01202656376809
          ],
          [
            16.254628245247236,
            59.01189639373568
          ],
          [
            16.2544686230131,
            59.011740885604084
          ],
          [
            16.254273483779116,
            59.011584816274905
          ],
          [
            16.253701108994,
            59.01154175750044
          ],
          [
            16.253228331227827,
            59.01153097123166
          ],
          [
            16.252901972445873,
            59.01140946633859
          ],
          [
            16.25238601698286,
            59.01130644267574
          ],
          [
            16.25180766369544,
            59.01145541098698
          ],
          [
            16.251349769345403,
            59.01162039313783
          ],
          [
            16.250497577204595,
            59.01149665109263
          ],
          [
            16.249882890887054,
            59.011466599042656
          ],
          [
            16.249178308487075,
            59.011501036300444
          ],
          [
            16.248522328825356,
            59.01164395402165
          ],
          [
            16.247732487871076,
            59.01158935134899
          ],
          [
            16.24734140713858,
            59.01128454940144
          ],
          [
            16.247091435064572,
            59.01108564172791
          ],
          [
            16.246699716766067,
            59.01090194704827
          ],
          [
            16.2458878817546,
            59.01071662574981
          ],
          [
            16.244680837748273,
            59.010617072992495
          ],
          [
            16.24466387619553,
            59.00988123114887
          ],
          [
            16.245034466834568,
            59.00911614930223
          ],
          [
            16.244832869415447,
            59.0091038797305
          ],
          [
            16.24059065972223,
            59.008259473374615
          ],
          [
            16.237759778005803,
            59.00762201018278
          ],
          [
            16.23203558512582,
            59.0063961702571
          ],
          [
            16.229495788790437,
            59.005701634847256
          ],
          [
            16.229155679929445,
            59.0055409800901
          ],
          [
            16.230668883258264,
            59.00486129665984
          ],
          [
            16.231567086720013,
            59.00439038410714
          ],
          [
            16.232434611622736,
            59.003904351326064
          ],
          [
            16.233820735797188,
            59.00302751638526
          ],
          [
            16.234502048773543,
            59.00255311929523
          ],
          [
            16.234833788035136,
            59.00230441043676
          ],
          [
            16.23601931147719,
            59.00119058030292
          ],
          [
            16.236620512852898,
            59.000576098872024
          ],
          [
            16.237344852662414,
            59.0001253433024
          ],
          [
            16.238248914397253,
            58.99983068417764
          ],
          [
            16.238717977091017,
            58.99968436737449
          ],
          [
            16.239007693253626,
            58.999545516889384
          ],
          [
            16.23924015119791,
            58.99931785450999
          ],
          [
            16.239456559734176,
            58.998862205351365
          ],
          [
            16.239672323102557,
            58.99856584348172
          ],
          [
            16.240065962924582,
            58.99807421579946
          ],
          [
            16.24057169615273,
            58.99744084804662
          ],
          [
            16.240996111798584,
            58.996988753375184
          ],
          [
            16.24222270191562,
            58.995511726354955
          ],
          [
            16.242469571413263,
            58.9952144359407
          ],
          [
            16.243477204211143,
            58.994088067542705
          ],
          [
            16.24373076938064,
            58.99358022725901
          ],
          [
            16.244031934546502,
            58.99359353082388
          ],
          [
            16.24433592950022,
            58.99359121074826
          ],
          [
            16.244765560819577,
            58.99362906929312
          ],
          [
            16.24510223090632,
            58.9936757352762
          ],
          [
            16.245659226604346,
            58.993732934506575
          ],
          [
            16.246331197531383,
            58.99386978833623
          ],
          [
            16.24798866609488,
            58.99419375914269
          ],
          [
            16.24848827072011,
            58.993863618944694
          ],
          [
            16.24889999689169,
            58.99358014332297
          ],
          [
            16.24932917758694,
            58.993105098263044
          ],
          [
            16.249642271205644,
            58.99259417137615
          ],
          [
            16.250054969975793,
            58.99250689037466
          ],
          [
            16.25032309099825,
            58.99192059862872
          ],
          [
            16.25127934185436,
            58.99157134702328
          ],
          [
            16.251478165332955,
            58.99124341217528
          ],
          [
            16.2515381001637,
            58.990876108463276
          ],
          [
            16.2517471108441,
            58.990648164356166
          ],
          [
            16.25191840062043,
            58.989884593506176
          ],
          [
            16.25248725831906,
            58.989853464345536
          ],
          [
            16.253022573101124,
            58.989762880469804
          ],
          [
            16.253498595118376,
            58.9895598141724
          ],
          [
            16.253930494120898,
            58.98930195624878
          ],
          [
            16.254727355724917,
            58.98871787268684
          ],
          [
            16.25470314561522,
            58.98848878213198
          ],
          [
            16.255243722506844,
            58.98840304377684
          ],
          [
            16.256490596415595,
            58.98854234634209
          ]
        ]
      }
    }
  ]
}
