{
  "type": "FeatureCollection",
  "features": [
    {
      "type": "Feature",
      "properties": {
        "name": "Stage 40: Dragsviken to Mellsjön",
        "source": "Sörmlandsleden official full GPX",
        "sourceFormat": "official-network-gpx",
        "sourceUrl": "https://www.sormlandsleden.se/wp-content/themes/sormlandsleden.se/Leden-2024-12-04.gpx",
        "lengthKm": 3.39,
        "routeWarning": "The official catalog distance is 4 km. Naturkartan exposes about 3505 m, this local line measures about 3.4 km, AllTrails lists 3.4 km, Hiking Project 3.1 km, and OSM relation 3822587 measures about 3.4 km even though its distance tag still says 4.5 km. Start/end topology is continuous from Stage 39 at Dragsviken to Stage 41 at Mellsjön; keep 4 km as the planning distance and treat shorter map values as measured-geometry drift.",
        "currentOfficialDistanceKm": 4,
        "geometryConfidence": "rounded-source-distance-drift-stale-osm-tag"
      },
      "geometry": {
        "type": "LineString",
        "coordinates": [
          [
            17.005091658558843,
            58.63269377130421
          ],
          [
            17.005030627692225,
            58.63295621938451
          ],
          [
            17.004789358310923,
            58.633202442141915
          ],
          [
            17.003497884893882,
            58.63339852814201
          ],
          [
            17.002786731348895,
            58.63355918386054
          ],
          [
            17.0020535320914,
            58.633588294944765
          ],
          [
            17.00139766259683,
            58.633506130022155
          ],
          [
            16.999958796448272,
            58.633434783413335
          ],
          [
            16.999066938596794,
            58.63340711729816
          ],
          [
            16.998199162214526,
            58.633296941751716
          ],
          [
            16.997369674214344,
            58.63338499297733
          ],
          [
            16.996468427851198,
            58.63349871255848
          ],
          [
            16.995586871703594,
            58.633560177431704
          ],
          [
            16.994516490812725,
            58.63356857167052
          ],
          [
            16.994189784888597,
            58.633816824837204
          ],
          [
            16.993232385579375,
            58.633972675260495
          ],
          [
            16.992545200241892,
            58.63409710564984
          ],
          [
            16.99248329179531,
            58.6342287186931
          ],
          [
            16.992970078249524,
            58.63454812757234
          ],
          [
            16.991496510377846,
            58.63552428226622
          ],
          [
            16.991738075428763,
            58.63580299199255
          ],
          [
            16.991294420141102,
            58.63613087842978
          ],
          [
            16.991109064520874,
            58.636668477613604
          ],
          [
            16.991185558207523,
            58.63722753050528
          ],
          [
            16.990571016763553,
            58.6375562971466
          ],
          [
            16.98969844508725,
            58.637999336649926
          ],
          [
            16.989260929346216,
            58.638263316268485
          ],
          [
            16.98895301906788,
            58.63945929033382
          ],
          [
            16.988448638322396,
            58.63965400713439
          ],
          [
            16.98793426919312,
            58.639964811322976
          ],
          [
            16.98740260317364,
            58.63994416266634
          ],
          [
            16.986618744347055,
            58.639933854223166
          ],
          [
            16.98559975360577,
            58.64024003391224
          ],
          [
            16.985195016924102,
            58.64037114356428
          ],
          [
            16.98336400045753,
            58.64036319562382
          ],
          [
            16.982693688136685,
            58.6406114685999
          ],
          [
            16.982523098069333,
            58.640875784838855
          ],
          [
            16.98248132502027,
            58.6410565799302
          ],
          [
            16.98218355579124,
            58.641396135442115
          ],
          [
            16.98207255493355,
            58.64140452670635
          ],
          [
            16.98183722052406,
            58.64130245967441
          ],
          [
            16.981487290317133,
            58.6410700560114
          ],
          [
            16.98128467918141,
            58.64101455111166
          ],
          [
            16.980969732527914,
            58.640960006779004
          ],
          [
            16.98003765061383,
            58.64087804747908
          ],
          [
            16.97993564387307,
            58.64086170313109
          ],
          [
            16.977841278150244,
            58.64088144368836
          ],
          [
            16.977773245560048,
            58.64090113076214
          ],
          [
            16.975730872752486,
            58.640917734320425
          ],
          [
            16.97561567142833,
            58.64096877057316
          ],
          [
            16.974748857245057,
            58.640928675012155
          ],
          [
            16.974082583786554,
            58.64084424131297
          ],
          [
            16.97371798381131,
            58.64111364719236
          ],
          [
            16.973328367238906,
            58.64133287292653
          ],
          [
            16.973079955401474,
            58.64154933210546
          ],
          [
            16.972487372396806,
            58.6417226899523
          ],
          [
            16.971907575809578,
            58.641660219079576
          ],
          [
            16.971270419682522,
            58.64160177193652
          ],
          [
            16.971164883644562,
            58.64140744229232
          ],
          [
            16.971166785954605,
            58.64120575167029
          ],
          [
            16.96951473346927,
            58.640913632934684
          ],
          [
            16.969057681005168,
            58.64062936162677
          ],
          [
            16.968394483543324,
            58.640485766062895
          ],
          [
            16.967637571028956,
            58.64054087984819
          ],
          [
            16.96737529748875,
            58.640799871477284
          ],
          [
            16.967583695730312,
            58.6410237208847
          ],
          [
            16.96731778518287,
            58.64131660879328
          ],
          [
            16.966970176523454,
            58.64131441597884
          ],
          [
            16.966231003291917,
            58.64150563728376
          ],
          [
            16.965789660209364,
            58.64149015645855
          ],
          [
            16.96423667174665,
            58.6416874762397
          ],
          [
            16.964004890281636,
            58.64172595509059
          ],
          [
            16.963368450195762,
            58.6419556082434
          ],
          [
            16.962718170189486,
            58.64209160452635
          ],
          [
            16.962135228519116,
            58.64206521350817
          ]
        ]
      }
    }
  ]
}
