{
  "type": "FeatureCollection",
  "features": [
    {
      "type": "Feature",
      "properties": {
        "name": "Östertälje - Tvetaberg, Sörmlandsleden, etapp 9 by Naturkartan"
      },
      "geometry": {
        "type": "LineString",
        "coordinates": [
          [
            17.599273,
            59.1569962
          ],
          [
            17.5992205,
            59.1570377
          ],
          [
            17.5990566,
            59.1571672
          ],
          [
            17.5991894,
            59.1574378
          ],
          [
            17.5993772,
            59.1578159
          ],
          [
            17.5994507,
            59.1581584
          ],
          [
            17.5993327,
            59.1586752
          ],
          [
            17.5993322,
            59.1590198
          ],
          [
            17.5997304,
            59.1593671
          ],
          [
            17.6000534,
            59.1595484
          ],
          [
            17.6002036,
            59.1599132
          ],
          [
            17.6001702,
            59.1600617
          ],
          [
            17.6001286,
            59.1602468
          ],
          [
            17.6003464,
            59.1604744
          ],
          [
            17.6003192,
            59.1606985
          ],
          [
            17.6002479,
            59.1609288
          ],
          [
            17.6001426,
            59.1611472
          ],
          [
            17.6001169,
            59.1612995
          ],
          [
            17.6001376,
            59.1613761
          ],
          [
            17.6001881,
            59.1614456
          ],
          [
            17.6004932,
            59.1618472
          ],
          [
            17.6003627,
            59.1622845
          ],
          [
            17.600579,
            59.162753
          ],
          [
            17.6006488,
            59.1628562
          ],
          [
            17.6007315,
            59.1629167
          ],
          [
            17.6009371,
            59.1629906
          ],
          [
            17.6010103,
            59.1630269
          ],
          [
            17.6010666,
            59.1630726
          ],
          [
            17.6010788,
            59.1631832
          ],
          [
            17.601016,
            59.1633002
          ],
          [
            17.6008993,
            59.1633721
          ],
          [
            17.6007363,
            59.1634557
          ],
          [
            17.6003343,
            59.1640045
          ],
          [
            17.6000207,
            59.1644958
          ],
          [
            17.5999974,
            59.1645321
          ],
          [
            17.5997482,
            59.1649062
          ],
          [
            17.5995875,
            59.1651281
          ],
          [
            17.5994456,
            59.1653049
          ],
          [
            17.598943,
            59.1654612
          ],
          [
            17.5983511,
            59.1656695
          ],
          [
            17.59779,
            59.165753
          ],
          [
            17.5972605,
            59.1658303
          ],
          [
            17.5966754,
            59.1660442
          ],
          [
            17.5961852,
            59.1663077
          ],
          [
            17.5958633,
            59.1666495
          ],
          [
            17.5956947,
            59.166956
          ],
          [
            17.595526,
            59.1672702
          ],
          [
            17.5954978,
            59.1673766
          ],
          [
            17.5955162,
            59.1674447
          ],
          [
            17.5956534,
            59.1674464
          ],
          [
            17.596281,
            59.1674709
          ],
          [
            17.5964762,
            59.1674785
          ],
          [
            17.5973241,
            59.1675381
          ],
          [
            17.5976488,
            59.167598
          ],
          [
            17.5979249,
            59.1676817
          ],
          [
            17.5982025,
            59.1678291
          ],
          [
            17.5985287,
            59.1680183
          ],
          [
            17.5988062,
            59.1682886
          ],
          [
            17.5990169,
            59.1686243
          ],
          [
            17.5992043,
            59.1689643
          ],
          [
            17.5993459,
            59.1691409
          ],
          [
            17.5993898,
            59.1691932
          ],
          [
            17.5994832,
            59.1693081
          ],
          [
            17.5999565,
            59.1694735
          ],
          [
            17.6000758,
            59.169536
          ],
          [
            17.6001698,
            59.1695852
          ],
          [
            17.6001772,
            59.1696017
          ],
          [
            17.5998427,
            59.169726
          ],
          [
            17.5996072,
            59.1698995
          ],
          [
            17.5986615,
            59.1706346
          ],
          [
            17.5985505,
            59.1707187
          ],
          [
            17.598631,
            59.1707548
          ],
          [
            17.5988775,
            59.1708537
          ],
          [
            17.5999178,
            59.1711829
          ],
          [
            17.6008438,
            59.1713611
          ],
          [
            17.6018103,
            59.1714844
          ],
          [
            17.6024823,
            59.1715535
          ],
          [
            17.6030704,
            59.1716029
          ],
          [
            17.6035504,
            59.1716106
          ],
          [
            17.6040716,
            59.1715866
          ],
          [
            17.604792,
            59.1716348
          ],
          [
            17.6055685,
            59.1716877
          ],
          [
            17.6061766,
            59.1717716
          ],
          [
            17.6068075,
            59.1719004
          ],
          [
            17.6069609,
            59.1719598
          ],
          [
            17.6072735,
            59.1721433
          ],
          [
            17.6073327,
            59.172287
          ],
          [
            17.6073827,
            59.1725547
          ],
          [
            17.607389,
            59.1726789
          ],
          [
            17.607391,
            59.1728193
          ],
          [
            17.6074431,
            59.1729113
          ],
          [
            17.6075776,
            59.1730833
          ],
          [
            17.607734,
            59.1733692
          ],
          [
            17.608011,
            59.1735301
          ],
          [
            17.6088258,
            59.1739358
          ],
          [
            17.6092711,
            59.1742224
          ],
          [
            17.609719,
            59.1744856
          ],
          [
            17.6101955,
            59.1747413
          ],
          [
            17.6108001,
            59.1750056
          ],
          [
            17.611346,
            59.1752057
          ],
          [
            17.6118686,
            59.1756488
          ],
          [
            17.6121086,
            59.1759089
          ],
          [
            17.6122284,
            59.1761671
          ],
          [
            17.6122826,
            59.1762626
          ],
          [
            17.6123516,
            59.1764045
          ],
          [
            17.6124796,
            59.1765294
          ],
          [
            17.6126948,
            59.176726
          ],
          [
            17.6129695,
            59.1768711
          ],
          [
            17.613073,
            59.1770773
          ],
          [
            17.6132018,
            59.1773456
          ],
          [
            17.6132161,
            59.1773788
          ],
          [
            17.6134777,
            59.177355
          ],
          [
            17.613644,
            59.1773457
          ],
          [
            17.6137485,
            59.1773776
          ],
          [
            17.6138872,
            59.1773951
          ],
          [
            17.61403,
            59.1773972
          ],
          [
            17.6145426,
            59.1773663
          ],
          [
            17.6147284,
            59.1773566
          ],
          [
            17.615216,
            59.1773312
          ],
          [
            17.6157547,
            59.1772777
          ],
          [
            17.6162613,
            59.1772056
          ],
          [
            17.6169247,
            59.1770745
          ],
          [
            17.6171679,
            59.1770192
          ],
          [
            17.6172112,
            59.1770737
          ],
          [
            17.6172919,
            59.1771151
          ],
          [
            17.6174169,
            59.1771014
          ],
          [
            17.6176803,
            59.1770709
          ],
          [
            17.6182776,
            59.1770247
          ],
          [
            17.6184662,
            59.1770235
          ],
          [
            17.6186525,
            59.1770615
          ],
          [
            17.6187555,
            59.1771451
          ],
          [
            17.6189331,
            59.1773891
          ],
          [
            17.6190711,
            59.1776071
          ],
          [
            17.6191502,
            59.1777116
          ],
          [
            17.6192001,
            59.1777777
          ],
          [
            17.6194701,
            59.1778297
          ],
          [
            17.6196533,
            59.1778966
          ],
          [
            17.6198168,
            59.1780152
          ],
          [
            17.6199516,
            59.1781147
          ],
          [
            17.6200592,
            59.1782475
          ],
          [
            17.6200816,
            59.1783166
          ],
          [
            17.6200577,
            59.1784601
          ],
          [
            17.6200449,
            59.1788675
          ],
          [
            17.6199954,
            59.179273
          ],
          [
            17.6199765,
            59.1793649
          ],
          [
            17.6200218,
            59.1794242
          ],
          [
            17.6201153,
            59.1795171
          ],
          [
            17.6204836,
            59.1797217
          ],
          [
            17.6207296,
            59.1798584
          ],
          [
            17.6208162,
            59.1799115
          ],
          [
            17.6214226,
            59.1802836
          ],
          [
            17.6217592,
            59.1804903
          ],
          [
            17.6220451,
            59.1806468
          ],
          [
            17.6222165,
            59.1807085
          ],
          [
            17.6225466,
            59.180843
          ],
          [
            17.6226779,
            59.1809578
          ],
          [
            17.622783,
            59.1811154
          ],
          [
            17.6227917,
            59.1813091
          ],
          [
            17.6227744,
            59.1814917
          ],
          [
            17.6230304,
            59.1814058
          ],
          [
            17.6232336,
            59.1813299
          ],
          [
            17.6236478,
            59.1813302
          ],
          [
            17.6239911,
            59.1813624
          ],
          [
            17.6243128,
            59.1814595
          ],
          [
            17.6245634,
            59.1815352
          ],
          [
            17.6247485,
            59.1816122
          ],
          [
            17.6257298,
            59.1820209
          ],
          [
            17.6258467,
            59.1820697
          ],
          [
            17.6261385,
            59.1821212
          ],
          [
            17.6263263,
            59.1821544
          ],
          [
            17.6264788,
            59.1821814
          ],
          [
            17.6269997,
            59.1821873
          ],
          [
            17.6272437,
            59.182166
          ],
          [
            17.6272708,
            59.1822869
          ],
          [
            17.6272545,
            59.1823958
          ],
          [
            17.6271803,
            59.1824974
          ],
          [
            17.6269543,
            59.1825701
          ],
          [
            17.6266137,
            59.1827226
          ],
          [
            17.6263636,
            59.1829218
          ],
          [
            17.6261768,
            59.1830145
          ],
          [
            17.6261339,
            59.1830524
          ],
          [
            17.6255671,
            59.183553
          ],
          [
            17.6257786,
            59.1836225
          ],
          [
            17.6261243,
            59.1837357
          ],
          [
            17.6266733,
            59.1839131
          ],
          [
            17.6267193,
            59.1839744
          ],
          [
            17.6267549,
            59.1840218
          ],
          [
            17.6268552,
            59.1841479
          ],
          [
            17.6269075,
            59.1842204
          ],
          [
            17.6269963,
            59.1843622
          ],
          [
            17.6268954,
            59.1844409
          ],
          [
            17.6266283,
            59.1846584
          ],
          [
            17.6264782,
            59.1847898
          ],
          [
            17.626529,
            59.1849829
          ],
          [
            17.6267002,
            59.1850571
          ],
          [
            17.6268791,
            59.185105
          ],
          [
            17.627058,
            59.1851342
          ],
          [
            17.6273629,
            59.1851238
          ],
          [
            17.6277125,
            59.1850946
          ],
          [
            17.6279402,
            59.1850717
          ],
          [
            17.6282329,
            59.1850155
          ],
          [
            17.6283024,
            59.1849993
          ],
          [
            17.6283443,
            59.1851084
          ],
          [
            17.6283833,
            59.1851925
          ],
          [
            17.6284646,
            59.1853404
          ],
          [
            17.6285581,
            59.1854612
          ],
          [
            17.6286476,
            59.1855653
          ],
          [
            17.6287777,
            59.1856944
          ],
          [
            17.6288671,
            59.1858319
          ],
          [
            17.6288793,
            59.1859693
          ],
          [
            17.628962,
            59.1860987
          ],
          [
            17.6288599,
            59.1862225
          ],
          [
            17.6288074,
            59.1862888
          ],
          [
            17.6280594,
            59.1872292
          ],
          [
            17.627633,
            59.1877238
          ],
          [
            17.6277797,
            59.1877376
          ],
          [
            17.6278944,
            59.1877503
          ],
          [
            17.6280059,
            59.1877566
          ],
          [
            17.6279892,
            59.1877817
          ],
          [
            17.6279244,
            59.1880087
          ],
          [
            17.6278829,
            59.1882399
          ],
          [
            17.6278719,
            59.1884307
          ],
          [
            17.6281391,
            59.1884738
          ],
          [
            17.6285813,
            59.1885138
          ],
          [
            17.6289458,
            59.1885055
          ],
          [
            17.6291131,
            59.1884887
          ],
          [
            17.6295057,
            59.1884596
          ],
          [
            17.6301914,
            59.188362
          ],
          [
            17.630649,
            59.1882488
          ],
          [
            17.6310813,
            59.1880779
          ],
          [
            17.6311438,
            59.1881224
          ],
          [
            17.6312069,
            59.1881714
          ],
          [
            17.6313832,
            59.1883036
          ],
          [
            17.631389,
            59.1885089
          ],
          [
            17.631428,
            59.1887686
          ],
          [
            17.6314181,
            59.1888754
          ],
          [
            17.6313848,
            59.1889439
          ],
          [
            17.6313021,
            59.1890986
          ],
          [
            17.6311235,
            59.1892635
          ],
          [
            17.630986,
            59.1893643
          ],
          [
            17.6309166,
            59.1894151
          ],
          [
            17.630434,
            59.1898754
          ],
          [
            17.6304401,
            59.1898887
          ],
          [
            17.630445,
            59.1899274
          ],
          [
            17.6304294,
            59.1899546
          ],
          [
            17.6302913,
            59.1900814
          ],
          [
            17.630129,
            59.1902174
          ],
          [
            17.6299546,
            59.1904303
          ],
          [
            17.6299104,
            59.1904866
          ],
          [
            17.6297656,
            59.1906529
          ],
          [
            17.6296435,
            59.1907861
          ],
          [
            17.6295832,
            59.1908569
          ],
          [
            17.6295094,
            59.1909262
          ],
          [
            17.6293807,
            59.191098
          ],
          [
            17.6293404,
            59.1911729
          ],
          [
            17.629323,
            59.1912498
          ],
          [
            17.6293204,
            59.1913494
          ],
          [
            17.6293538,
            59.1914408
          ],
          [
            17.6294135,
            59.1915635
          ],
          [
            17.6295421,
            59.1915496
          ],
          [
            17.6296312,
            59.1917086
          ],
          [
            17.6297229,
            59.1917088
          ],
          [
            17.629847,
            59.1917402
          ],
          [
            17.630011,
            59.1918061
          ],
          [
            17.6300847,
            59.1918768
          ],
          [
            17.6301184,
            59.1918789
          ],
          [
            17.6307262,
            59.1919104
          ],
          [
            17.6308284,
            59.191919
          ],
          [
            17.6308921,
            59.1920541
          ],
          [
            17.6310128,
            59.192072
          ],
          [
            17.6311694,
            59.1921057
          ],
          [
            17.6312105,
            59.1920835
          ],
          [
            17.6312259,
            59.1920771
          ],
          [
            17.6312785,
            59.1920516
          ],
          [
            17.6313691,
            59.1920396
          ],
          [
            17.6314944,
            59.1920475
          ],
          [
            17.6316309,
            59.1920577
          ],
          [
            17.6317925,
            59.1920652
          ],
          [
            17.6322098,
            59.1920847
          ],
          [
            17.6326633,
            59.1921066
          ],
          [
            17.6328746,
            59.192132
          ],
          [
            17.6330261,
            59.1921391
          ],
          [
            17.6329381,
            59.191872
          ],
          [
            17.6331129,
            59.1911282
          ],
          [
            17.6334241,
            59.1906233
          ],
          [
            17.6334471,
            59.1905969
          ],
          [
            17.6342181,
            59.1898199
          ],
          [
            17.6347593,
            59.1892796
          ],
          [
            17.6352533,
            59.1885015
          ],
          [
            17.636412,
            59.187548
          ],
          [
            17.6379753,
            59.1866898
          ],
          [
            17.6389892,
            59.1862447
          ],
          [
            17.6396038,
            59.1860037
          ],
          [
            17.6406817,
            59.1856786
          ],
          [
            17.6421059,
            59.1853695
          ],
          [
            17.6434099,
            59.1851024
          ],
          [
            17.6450943,
            59.1847602
          ],
          [
            17.6463254,
            59.1845019
          ],
          [
            17.6481892,
            59.1841631
          ],
          [
            17.6493184,
            59.1839611
          ],
          [
            17.6497667,
            59.1839042
          ],
          [
            17.650005,
            59.1839102
          ],
          [
            17.6506197,
            59.1840732
          ],
          [
            17.6509013,
            59.1842244
          ],
          [
            17.6512714,
            59.1844868
          ],
          [
            17.6517515,
            59.1846723
          ],
          [
            17.6520761,
            59.1846984
          ],
          [
            17.6523229,
            59.1846888
          ],
          [
            17.6525397,
            59.1846357
          ],
          [
            17.6527171,
            59.1846215
          ],
          [
            17.6528834,
            59.1846737
          ],
          [
            17.6534557,
            59.1851504
          ],
          [
            17.6548447,
            59.1845307
          ],
          [
            17.6560726,
            59.1848661
          ],
          [
            17.6562172,
            59.1848738
          ],
          [
            17.6567356,
            59.1848616
          ],
          [
            17.6572785,
            59.1848661
          ],
          [
            17.6577547,
            59.1848021
          ],
          [
            17.6582354,
            59.1846526
          ],
          [
            17.6591452,
            59.1842173
          ],
          [
            17.6592459,
            59.1841887
          ],
          [
            17.6602399,
            59.1839059
          ],
          [
            17.6602942,
            59.1839409
          ],
          [
            17.6604213,
            59.1840465
          ],
          [
            17.6605374,
            59.1841151
          ],
          [
            17.6607544,
            59.1842415
          ],
          [
            17.6607971,
            59.1842703
          ]
        ]
      }
    }
  ]
}
