{
  "type": "FeatureCollection",
  "features": [
    {
      "type": "Feature",
      "properties": {
        "name": "Stage 15:2: Mellan-Marviken, etapp 15 to Skottvångs gruva",
        "source": "Sörmlandsleden official full GPX",
        "sourceFormat": "official-network-gpx",
        "sourceUrl": "https://www.sormlandsleden.se/wp-content/themes/sormlandsleden.se/Leden-2024-12-04.gpx",
        "lengthKm": 4.2
      },
      "geometry": {
        "type": "LineString",
        "coordinates": [
          [
            17.148081200376424,
            59.20789129921426
          ],
          [
            17.147677937635887,
            59.20754632168196
          ],
          [
            17.148052472120845,
            59.20709911230547
          ],
          [
            17.148050073260563,
            59.206510402960376
          ],
          [
            17.150690688260106,
            59.20651934281048
          ],
          [
            17.15180545758414,
            59.20604005786459
          ],
          [
            17.15231981558501,
            59.20575999710966
          ],
          [
            17.152702186290437,
            59.205464227603656
          ],
          [
            17.153045432573382,
            59.20510209698349
          ],
          [
            17.153380608469686,
            59.20473501363191
          ],
          [
            17.1537594249498,
            59.20442277051968
          ],
          [
            17.154236379343043,
            59.20407983875498
          ],
          [
            17.154802627817087,
            59.20382935027191
          ],
          [
            17.155295833373916,
            59.203542788178936
          ],
          [
            17.155536788514496,
            59.203203700739174
          ],
          [
            17.155788255852286,
            59.202817768448526
          ],
          [
            17.155913551053533,
            59.202438174120275
          ],
          [
            17.15657891982242,
            59.20167070871592
          ],
          [
            17.156903820698655,
            59.20137093098207
          ],
          [
            17.157180807374196,
            59.2010541706389
          ],
          [
            17.156267824240967,
            59.20090159827846
          ],
          [
            17.15564632094672,
            59.200690248823
          ],
          [
            17.15508327712428,
            59.200555754832976
          ],
          [
            17.155326885570382,
            59.2002731694094
          ],
          [
            17.15518091108502,
            59.19985639109896
          ],
          [
            17.154339504482287,
            59.19961336292024
          ],
          [
            17.15397942616554,
            59.19959585398193
          ],
          [
            17.15344205412233,
            59.19931504054755
          ],
          [
            17.15300294456546,
            59.199044771318064
          ],
          [
            17.152695424416297,
            59.198685938460365
          ],
          [
            17.15205652540959,
            59.198249635348624
          ],
          [
            17.15198676397523,
            59.19789365130191
          ],
          [
            17.1522751288363,
            59.19758348704887
          ],
          [
            17.152251072526933,
            59.197172847919425
          ],
          [
            17.151678266414486,
            59.196716995159456
          ],
          [
            17.15045345184421,
            59.196351220466475
          ],
          [
            17.149944816266537,
            59.196095780042434
          ],
          [
            17.149492849825858,
            59.19578469855504
          ],
          [
            17.149597524366026,
            59.195322980544155
          ],
          [
            17.15001426053076,
            59.19505912217449
          ],
          [
            17.149708013005213,
            59.1947060427747
          ],
          [
            17.149539770097807,
            59.19435286898507
          ],
          [
            17.149260889452314,
            59.19409397481117
          ],
          [
            17.148443400195024,
            59.193926077402686
          ],
          [
            17.14745768562526,
            59.19362197187423
          ],
          [
            17.14705576408851,
            59.19371620040892
          ],
          [
            17.146716115341633,
            59.1936583284494
          ],
          [
            17.146341151848013,
            59.19352237580455
          ],
          [
            17.145866072623146,
            59.193330840759685
          ],
          [
            17.144499067902647,
            59.19316407710195
          ],
          [
            17.14431543784818,
            59.19277536754877
          ],
          [
            17.14461364115625,
            59.19238922817196
          ],
          [
            17.144876320840147,
            59.192054439594955
          ],
          [
            17.145477463718567,
            59.1918539070796
          ],
          [
            17.145963947336174,
            59.191533253391725
          ],
          [
            17.146369943608065,
            59.191039933117004
          ],
          [
            17.146037273307705,
            59.190793957367255
          ],
          [
            17.145554416768146,
            59.19043848135196
          ],
          [
            17.145086125925015,
            59.18986262563313
          ],
          [
            17.144680806040732,
            59.18981069804062
          ],
          [
            17.144173720989592,
            59.189859064961404
          ],
          [
            17.143718613669762,
            59.18959053515697
          ],
          [
            17.143340649752506,
            59.18959351516022
          ],
          [
            17.14287797671238,
            59.18987393831012
          ],
          [
            17.14211853205843,
            59.18993818797147
          ],
          [
            17.141474085682404,
            59.18971551948014
          ],
          [
            17.141059866478034,
            59.18942727202117
          ],
          [
            17.141237977810754,
            59.18923335129807
          ],
          [
            17.14133274147089,
            59.189044084258256
          ],
          [
            17.141325098368725,
            59.18862956986928
          ],
          [
            17.14128416831002,
            59.18829447817018
          ],
          [
            17.14125545998218,
            59.18790027497473
          ],
          [
            17.14125309875806,
            59.18749566468901
          ],
          [
            17.141388980066647,
            59.187109075658284
          ],
          [
            17.141450212855357,
            59.186738348997864
          ],
          [
            17.141534434616187,
            59.18632713782015
          ],
          [
            17.14125905542685,
            59.185970420511175
          ],
          [
            17.140781092857274,
            59.185677183090924
          ],
          [
            17.140177371593783,
            59.185368234486916
          ],
          [
            17.139515262187082,
            59.185245252830676
          ],
          [
            17.138761866748016,
            59.18519212050323
          ],
          [
            17.137854193857045,
            59.18497454518504
          ],
          [
            17.13754879954673,
            59.18504923955244
          ],
          [
            17.137531662298723,
            59.18504630311888
          ],
          [
            17.136956291453128,
            59.184799717399926
          ],
          [
            17.13635178303481,
            59.184589834815526
          ],
          [
            17.136074036112763,
            59.18428568297032
          ],
          [
            17.136132383468112,
            59.18383601561539
          ],
          [
            17.136350247388407,
            59.18349043494933
          ],
          [
            17.136687246405888,
            59.18311551008513
          ],
          [
            17.136793745408234,
            59.18293432973283
          ],
          [
            17.13691278883793,
            59.18272365291561
          ],
          [
            17.136987298653164,
            59.18255024201509
          ],
          [
            17.136964581072636,
            59.182018019123504
          ],
          [
            17.136580458514675,
            59.182034586076256
          ],
          [
            17.136213363455074,
            59.18207330978039
          ],
          [
            17.135801555508102,
            59.182126396562595
          ],
          [
            17.135472069406383,
            59.182187952211486
          ]
        ]
      }
    }
  ]
}
