{
  "type": "FeatureCollection",
  "features": [
    {
      "type": "Feature",
      "properties": {
        "name": "Stage 22: Hagtorp, väg 53 to Hälleforsnäs",
        "source": "Sörmlandsleden official full GPX",
        "sourceFormat": "official-network-gpx",
        "sourceUrl": "https://www.sormlandsleden.se/wp-content/themes/sormlandsleden.se/Leden-2024-12-04.gpx",
        "lengthKm": 15.81
      },
      "geometry": {
        "type": "LineString",
        "coordinates": [
          [
            16.617192611656705,
            59.197177478957826
          ],
          [
            16.61556578091125,
            59.19714316235735
          ],
          [
            16.615007712308863,
            59.197146830157564
          ],
          [
            16.615007705133237,
            59.19714469512608
          ],
          [
            16.614911367423936,
            59.19715496525261
          ],
          [
            16.61452301513273,
            59.197163505088454
          ],
          [
            16.613590189900208,
            59.19748914313845
          ],
          [
            16.61309090625014,
            59.1976439045624
          ],
          [
            16.612286891793815,
            59.19778052528537
          ],
          [
            16.612011225088164,
            59.19790261914532
          ],
          [
            16.61141517848878,
            59.19814384510193
          ],
          [
            16.611113216117676,
            59.19850265039386
          ],
          [
            16.610861659627474,
            59.19881820460115
          ],
          [
            16.610477814166824,
            59.199174920822664
          ],
          [
            16.609994604472117,
            59.199401070431605
          ],
          [
            16.609511593686957,
            59.199696567937174
          ],
          [
            16.60881292045441,
            59.199898353879824
          ],
          [
            16.608276637599676,
            59.20014031527999
          ],
          [
            16.608053275808512,
            59.200512218352415
          ],
          [
            16.607507537962878,
            59.20074946783366
          ],
          [
            16.606784065574306,
            59.20088847605529
          ],
          [
            16.60604618082002,
            59.200949678736905
          ],
          [
            16.605463415681157,
            59.20117946718399
          ],
          [
            16.604780457791136,
            59.20135523912943
          ],
          [
            16.604124973166613,
            59.20122576293005
          ],
          [
            16.603638302999922,
            59.20093283936243
          ],
          [
            16.60343066447763,
            59.200752359311984
          ],
          [
            16.60259899779676,
            59.20069257468029
          ],
          [
            16.601890014214757,
            59.200622139030656
          ],
          [
            16.601303645669578,
            59.200250099106164
          ],
          [
            16.601020487276884,
            59.199827907154614
          ],
          [
            16.60130740916782,
            59.199239383220515
          ],
          [
            16.601301744731163,
            59.19893037066694
          ],
          [
            16.600724852346264,
            59.19868754867512
          ],
          [
            16.600314227499823,
            59.19840038920154
          ],
          [
            16.599976196587136,
            59.19803075439755
          ],
          [
            16.599507386,
            59.197743675830885
          ],
          [
            16.598822639026036,
            59.19762975317294
          ],
          [
            16.598166967750647,
            59.197769160692225
          ],
          [
            16.597426570186908,
            59.1977915521345
          ],
          [
            16.59674163087692,
            59.19792497307012
          ],
          [
            16.59612884697128,
            59.19791404552136
          ],
          [
            16.595871005838244,
            59.197775771206025
          ],
          [
            16.595682212535824,
            59.19761961319932
          ],
          [
            16.595592249364035,
            59.19752098587092
          ],
          [
            16.595321100130118,
            59.19737234651835
          ],
          [
            16.594830126422636,
            59.197432521576076
          ],
          [
            16.59446696803239,
            59.197439623907435
          ],
          [
            16.594285156837575,
            59.19744414713656
          ],
          [
            16.593526364634304,
            59.19715302804305
          ],
          [
            16.593176725697415,
            59.19721320599672
          ],
          [
            16.59273088025575,
            59.197048961263214
          ],
          [
            16.591886358712774,
            59.19699759084509
          ],
          [
            16.591424788958367,
            59.19703384857955
          ],
          [
            16.59083055789943,
            59.19715951718321
          ],
          [
            16.590121349965237,
            59.197403407791455
          ],
          [
            16.589776398400943,
            59.197620892977504
          ],
          [
            16.58917929182886,
            59.197814373596415
          ],
          [
            16.588888057540178,
            59.19811273522244
          ],
          [
            16.587980752498144,
            59.198173769469314
          ],
          [
            16.58731297357133,
            59.19773877594133
          ],
          [
            16.586783127093938,
            59.19789567737772
          ],
          [
            16.586475724486725,
            59.19795523858995
          ],
          [
            16.58606762189899,
            59.19802420030477
          ],
          [
            16.5854251239753,
            59.19812231090005
          ],
          [
            16.584916369067493,
            59.19820555418755
          ],
          [
            16.584265857117938,
            59.19837900693792
          ],
          [
            16.583532909653407,
            59.19838959359127
          ],
          [
            16.583452019524593,
            59.198367264472665
          ],
          [
            16.582851073885326,
            59.19837377913168
          ],
          [
            16.582350091723026,
            59.198283484500536
          ],
          [
            16.581176588797494,
            59.19788658184304
          ],
          [
            16.58084441987473,
            59.197751990236995
          ],
          [
            16.580531361987,
            59.19752114687486
          ],
          [
            16.580258380638785,
            59.197297494660326
          ],
          [
            16.579992966345817,
            59.19719426114511
          ],
          [
            16.579695158241044,
            59.19705822530748
          ],
          [
            16.578465073986802,
            59.19673578186166
          ],
          [
            16.57815024391638,
            59.19666007139457
          ],
          [
            16.577592597106854,
            59.196267272004654
          ],
          [
            16.577216074490778,
            59.19639491002434
          ],
          [
            16.576802248112923,
            59.1964975808588
          ],
          [
            16.576386645669192,
            59.196576471557194
          ],
          [
            16.575446137423235,
            59.196559058114346
          ],
          [
            16.57463196506127,
            59.19684550222181
          ],
          [
            16.57427288087757,
            59.19692325783892
          ],
          [
            16.573762892435617,
            59.19699727160142
          ],
          [
            16.573505348890258,
            59.19705019305912
          ],
          [
            16.573053574472446,
            59.197062121884855
          ],
          [
            16.57248351902807,
            59.19715056481804
          ],
          [
            16.57193765498982,
            59.19729080191744
          ],
          [
            16.571157754364716,
            59.19754229171499
          ],
          [
            16.570396644274393,
            59.197638971075776
          ],
          [
            16.569824086925482,
            59.1976259455237
          ],
          [
            16.56944393547275,
            59.198185581197215
          ],
          [
            16.568927417264064,
            59.198705844210785
          ],
          [
            16.56841586784179,
            59.19925301155221
          ],
          [
            16.567669611455337,
            59.199443676027705
          ],
          [
            16.56749438666005,
            59.200188176375
          ],
          [
            16.567164879548677,
            59.20050654904713
          ],
          [
            16.566737684785604,
            59.20080196498677
          ],
          [
            16.56606210931896,
            59.20067578679504
          ],
          [
            16.565300845635257,
            59.20052364832788
          ],
          [
            16.56479639720223,
            59.200731063622555
          ],
          [
            16.56409640442992,
            59.20095806738841
          ],
          [
            16.563611200519865,
            59.20122991967236
          ],
          [
            16.563179384863965,
            59.20149437215393
          ],
          [
            16.56237265121779,
            59.20145141261339
          ],
          [
            16.561635871441613,
            59.201422385039535
          ],
          [
            16.56093809939191,
            59.20129249408679
          ],
          [
            16.56019668541611,
            59.20118010144684
          ],
          [
            16.559456602709766,
            59.20104566072861
          ],
          [
            16.558711727753398,
            59.200957966259296
          ],
          [
            16.557958601525733,
            59.200939481966046
          ],
          [
            16.557263773415848,
            59.200981814457826
          ],
          [
            16.556519175790044,
            59.201066173683245
          ],
          [
            16.55581629272303,
            59.2012130647535
          ],
          [
            16.55517027878904,
            59.20142544407774
          ],
          [
            16.5545056709125,
            59.201480233315344
          ],
          [
            16.553759571558636,
            59.201413487661675
          ],
          [
            16.55303288164431,
            59.201410748455196
          ],
          [
            16.552774551858516,
            59.2010459218514
          ],
          [
            16.55205867035555,
            59.20098481144763
          ],
          [
            16.551361271384017,
            59.20096715046123
          ],
          [
            16.54976412719473,
            59.20097567575864
          ],
          [
            16.549063009772947,
            59.200920004165184
          ],
          [
            16.548388976139492,
            59.200780438587536
          ],
          [
            16.547633957136743,
            59.20076178778612
          ],
          [
            16.54696842700126,
            59.20085504285402
          ],
          [
            16.54632614830252,
            59.20110690184351
          ],
          [
            16.54564739865754,
            59.201055463040234
          ],
          [
            16.544921182678426,
            59.201076354303375
          ],
          [
            16.544186886463088,
            59.201191440046685
          ],
          [
            16.54342287447319,
            59.20118773935204
          ],
          [
            16.542774352123747,
            59.20104716952242
          ],
          [
            16.54207128774762,
            59.20107736560374
          ],
          [
            16.541285373914242,
            59.20126415959412
          ],
          [
            16.54090588266283,
            59.20129264378877
          ],
          [
            16.53990385063798,
            59.201301788032865
          ],
          [
            16.539197499836206,
            59.20110305801687
          ],
          [
            16.53845448133855,
            59.200989271232615
          ],
          [
            16.537704466021655,
            59.20103132635185
          ],
          [
            16.537044515334863,
            59.20114954513455
          ],
          [
            16.536560205839695,
            59.201448064480104
          ],
          [
            16.535959146740367,
            59.20164497111928
          ],
          [
            16.53521903532054,
            59.20170634403691
          ],
          [
            16.534505164056956,
            59.2018406134067
          ],
          [
            16.533825276652053,
            59.20181787450317
          ],
          [
            16.53314501792277,
            59.20186261378474
          ],
          [
            16.53253758278249,
            59.202090826474375
          ],
          [
            16.532155171989327,
            59.20243378463178
          ],
          [
            16.53172283154986,
            59.2027519501367
          ],
          [
            16.53132014413647,
            59.20305378408431
          ],
          [
            16.53071943942412,
            59.20325646929571
          ],
          [
            16.529999582941645,
            59.203329223777835
          ],
          [
            16.529175008808192,
            59.2032851709924
          ],
          [
            16.528459835939145,
            59.20316913688258
          ],
          [
            16.52777419164634,
            59.20316923462334
          ],
          [
            16.527244364229794,
            59.20294192320792
          ],
          [
            16.52665360884761,
            59.202785906075235
          ],
          [
            16.525974046969118,
            59.202945738326214
          ],
          [
            16.525469914045473,
            59.203185729054724
          ],
          [
            16.524965207186966,
            59.203468481831536
          ],
          [
            16.52423627402943,
            59.203575999829
          ],
          [
            16.52345126882029,
            59.20364877839099
          ],
          [
            16.522700407979322,
            59.20359373167317
          ],
          [
            16.521249780262746,
            59.203369924151964
          ],
          [
            16.520562421004225,
            59.20326340270728
          ],
          [
            16.520027563618562,
            59.20299310277764
          ],
          [
            16.519567384884013,
            59.20276076151024
          ],
          [
            16.51884838265021,
            59.20288366556792
          ],
          [
            16.518107502436578,
            59.20299721322955
          ],
          [
            16.517408703861122,
            59.20303822629938
          ],
          [
            16.516786275044232,
            59.202888376969966
          ],
          [
            16.51676043346399,
            59.202472496868836
          ],
          [
            16.516751821658875,
            59.20209410644816
          ],
          [
            16.516628781740366,
            59.20171532091811
          ],
          [
            16.516534920637802,
            59.201340653490426
          ],
          [
            16.516400397718513,
            59.20095360673376
          ],
          [
            16.516744510702605,
            59.20061636675798
          ],
          [
            16.516960936147306,
            59.2002740100374
          ],
          [
            16.517213130539833,
            59.199915229875735
          ],
          [
            16.517327253620955,
            59.19953286492724
          ],
          [
            16.517223037757283,
            59.199139512981944
          ],
          [
            16.517098684228543,
            59.19875082718056
          ],
          [
            16.517240252792792,
            59.19836046811568
          ],
          [
            16.517416589460264,
            59.19799878187964
          ],
          [
            16.516976882107294,
            59.1978043610519
          ],
          [
            16.516318982754356,
            59.19768199691415
          ],
          [
            16.51582238465123,
            59.1974118533889
          ],
          [
            16.51577240756814,
            59.197031771152375
          ],
          [
            16.515673827492286,
            59.19671266237435
          ],
          [
            16.515307819816215,
            59.19634775821404
          ],
          [
            16.51498788747445,
            59.196005247200915
          ],
          [
            16.51424407746448,
            59.1958895512608
          ],
          [
            16.5134591050206,
            59.19588463265158
          ],
          [
            16.512654263366784,
            59.19579597791774
          ],
          [
            16.51217045564406,
            59.195706617112634
          ],
          [
            16.51156276228893,
            59.19547981662269
          ],
          [
            16.511405417027497,
            59.19513920049794
          ],
          [
            16.511287015342283,
            59.19472669547229
          ],
          [
            16.51085387751589,
            59.19444107331929
          ],
          [
            16.51021085812183,
            59.194280401729664
          ],
          [
            16.509436053929946,
            59.19435184057523
          ],
          [
            16.508832103787608,
            59.19460510844144
          ],
          [
            16.508262221246373,
            59.19480689754251
          ],
          [
            16.50755238602291,
            59.194715711863935
          ],
          [
            16.50690780518009,
            59.19450720907276
          ],
          [
            16.506234046027053,
            59.194241419926136
          ],
          [
            16.505818059986698,
            59.193969530438245
          ],
          [
            16.50528059882835,
            59.19369863964474
          ],
          [
            16.504582081189984,
            59.19354928024316
          ],
          [
            16.50411583794585,
            59.19331301114164
          ],
          [
            16.503958408283406,
            59.19291254545509
          ],
          [
            16.50354642931115,
            59.19258232688123
          ],
          [
            16.502869231262373,
            59.19260363944056
          ],
          [
            16.50209602300809,
            59.19264919353791
          ],
          [
            16.50155291635365,
            59.19239232145295
          ],
          [
            16.501702468430636,
            59.19202085508712
          ],
          [
            16.502074986475694,
            59.1916744032483
          ],
          [
            16.502114338313305,
            59.19138764847486
          ],
          [
            16.501868115864657,
            59.19135851259371
          ],
          [
            16.501326254515277,
            59.19130067998092
          ],
          [
            16.5006090361854,
            59.191212429121805
          ],
          [
            16.49995655092457,
            59.19110308668116
          ],
          [
            16.49965202743169,
            59.191034717722694
          ],
          [
            16.49943987881118,
            59.190941015576065
          ],
          [
            16.49942536863383,
            59.19080423876572
          ],
          [
            16.499564507488607,
            59.19058245737278
          ],
          [
            16.49959929750715,
            59.19039849792014
          ],
          [
            16.499606055825623,
            59.19032289928429
          ],
          [
            16.49960465590144,
            59.19013046882535
          ],
          [
            16.499586619268925,
            59.190029936102505
          ],
          [
            16.499521812014752,
            59.18989547143332
          ],
          [
            16.499446519120696,
            59.18976166747618
          ],
          [
            16.49933657387761,
            59.18964854864697
          ],
          [
            16.49910668729732,
            59.18952247441674
          ],
          [
            16.49885798517666,
            59.18946337680056
          ],
          [
            16.498535642669943,
            59.18943841696756
          ],
          [
            16.498035556814536,
            59.18942535107073
          ],
          [
            16.49737292510713,
            59.189429555264034
          ],
          [
            16.497053590743825,
            59.18945402974812
          ],
          [
            16.49678147904705,
            59.189508211876536
          ],
          [
            16.49653655441269,
            59.18956523437227
          ],
          [
            16.496492377014647,
            59.18953878598575
          ],
          [
            16.49667382712139,
            59.189420499357595
          ],
          [
            16.49686934500845,
            59.18932334880981
          ],
          [
            16.497032615643505,
            59.18923183137694
          ],
          [
            16.497129061111323,
            59.18910352751518
          ],
          [
            16.49715023526014,
            59.18904239507227
          ],
          [
            16.497163171719293,
            59.18891919264337
          ],
          [
            16.49706246479447,
            59.1888032708533
          ],
          [
            16.496848290290586,
            59.18873362539501
          ],
          [
            16.496551627661578,
            59.18872340126425
          ],
          [
            16.496042353690598,
            59.18884229879676
          ],
          [
            16.49572432582227,
            59.18891734393424
          ],
          [
            16.495493053098247,
            59.18889113474579
          ],
          [
            16.495319308619628,
            59.18876503846936
          ],
          [
            16.494984118349535,
            59.18850845568113
          ],
          [
            16.494740174427545,
            59.18842548164641
          ],
          [
            16.494511857488533,
            59.18838813955113
          ],
          [
            16.494326810491803,
            59.18839185631128
          ],
          [
            16.49416573725541,
            59.188376693023564
          ],
          [
            16.49395673709179,
            59.1883517010613
          ],
          [
            16.493817070923736,
            59.18831561725587
          ],
          [
            16.493657687574302,
            59.188225477966185
          ],
          [
            16.49361227809147,
            59.18802991866772
          ],
          [
            16.493587556924474,
            59.18783125558315
          ],
          [
            16.49325737522765,
            59.1876426273926
          ],
          [
            16.491372797841283,
            59.187667938526246
          ],
          [
            16.490794069235857,
            59.188185141258735
          ],
          [
            16.49007847856023,
            59.188197561437775
          ],
          [
            16.48937401338461,
            59.18831822654867
          ],
          [
            16.488760458338593,
            59.18846967879688
          ],
          [
            16.488061321327542,
            59.18849523686077
          ],
          [
            16.487408320697263,
            59.1883374888659
          ],
          [
            16.486648118502664,
            59.18819759102113
          ],
          [
            16.485951975576683,
            59.188134510491324
          ],
          [
            16.48522223060302,
            59.18809677909847
          ],
          [
            16.484479943317687,
            59.18811902861364
          ],
          [
            16.48372891330134,
            59.18815960310354
          ],
          [
            16.483196062715056,
            59.18788846714551
          ],
          [
            16.482626656109286,
            59.18761725433087
          ],
          [
            16.481952548973958,
            59.1874606338633
          ],
          [
            16.481277947258437,
            59.18727617406768
          ],
          [
            16.48088851365045,
            59.186973712876345
          ],
          [
            16.480865843281645,
            59.1867309697753
          ],
          [
            16.4810414907476,
            59.186644086647505
          ],
          [
            16.481103124316704,
            59.18655468428825
          ],
          [
            16.481174707574613,
            59.18641983894816
          ],
          [
            16.481148385520903,
            59.18634406336469
          ],
          [
            16.481077585472256,
            59.18627742534062
          ],
          [
            16.48087252611871,
            59.18607020009963
          ],
          [
            16.480631755269616,
            59.18581412015516
          ],
          [
            16.480419375858023,
            59.1855716416249
          ],
          [
            16.480284814484307,
            59.18540394281303
          ],
          [
            16.480028821569277,
            59.18524332039075
          ],
          [
            16.479745959672748,
            59.18512778164247
          ],
          [
            16.479582082070312,
            59.185067551002405
          ],
          [
            16.479301067263265,
            59.18503341074066
          ],
          [
            16.479154599916363,
            59.18500122511566
          ],
          [
            16.479045868280068,
            59.18492339004971
          ],
          [
            16.47899332743278,
            59.184811931240034
          ],
          [
            16.47897609779774,
            59.18470241223361
          ],
          [
            16.478939454805637,
            59.184582892239625
          ],
          [
            16.47889945502219,
            59.18442036167781
          ],
          [
            16.478905226319572,
            59.18424645434463
          ],
          [
            16.478893735125222,
            59.18419026105372
          ],
          [
            16.47888510533735,
            59.18395233972239
          ],
          [
            16.478846425906845,
            59.183893180781766
          ],
          [
            16.47877523917051,
            59.18380090049882
          ],
          [
            16.478624506106726,
            59.18364999481143
          ],
          [
            16.478361200149052,
            59.183417674206716
          ],
          [
            16.4779663367701,
            59.18310947795368
          ],
          [
            16.477975085686413,
            59.18299464511509
          ],
          [
            16.478067847673938,
            59.18289008544999
          ],
          [
            16.478310659065084,
            59.18269778115213
          ],
          [
            16.478642139480094,
            59.18246603146728
          ],
          [
            16.479056985409688,
            59.18218211939099
          ],
          [
            16.479175635183122,
            59.182101693777874
          ],
          [
            16.479327522599082,
            59.18197045737697
          ],
          [
            16.48005765911725,
            59.18151746126223
          ],
          [
            16.48042635573909,
            59.18129490309173
          ],
          [
            16.480582624603866,
            59.181203024319835
          ],
          [
            16.480648599549355,
            59.1810925912189
          ],
          [
            16.480755128450756,
            59.18098739737537
          ],
          [
            16.480808234960033,
            59.180917070333024
          ],
          [
            16.48136713464511,
            59.18058360701032
          ],
          [
            16.481684382691075,
            59.18038040900777
          ],
          [
            16.481791200796906,
            59.18030818519494
          ],
          [
            16.481908666494125,
            59.18020891829274
          ],
          [
            16.48199335097464,
            59.18012075555309
          ],
          [
            16.482140684535487,
            59.179969044393076
          ],
          [
            16.482285577516766,
            59.17982461034076
          ],
          [
            16.482284808718344,
            59.179637692592536
          ],
          [
            16.48130095572151,
            59.17963489868056
          ],
          [
            16.480154109161624,
            59.17991414129992
          ],
          [
            16.47963608579332,
            59.17991989240063
          ],
          [
            16.47908044046579,
            59.17992845419438
          ],
          [
            16.478889841138496,
            59.17994177133414
          ],
          [
            16.478394320923893,
            59.17996571822097
          ],
          [
            16.47785362574154,
            59.17998255290848
          ],
          [
            16.47729239235486,
            59.18000725136252
          ],
          [
            16.47693052807855,
            59.18005305904569
          ],
          [
            16.476596743983283,
            59.18007829559975
          ],
          [
            16.476084102398353,
            59.1800821149595
          ],
          [
            16.47565676180505,
            59.1800842677684
          ],
          [
            16.47539208864932,
            59.180107316997756
          ],
          [
            16.47468731348076,
            59.18012343195739
          ],
          [
            16.473981548257,
            59.180119465210986
          ],
          [
            16.473554364545446,
            59.179730829891675
          ],
          [
            16.473667120195078,
            59.179358331384805
          ],
          [
            16.473767414428455,
            59.1789703842952
          ],
          [
            16.473326519164498,
            59.17865460559391
          ],
          [
            16.472917277529287,
            59.1784578091831
          ],
          [
            16.47211776763848,
            59.17849918147277
          ],
          [
            16.471388761136833,
            59.178581471226515
          ],
          [
            16.47064529441939,
            59.17864164986414
          ],
          [
            16.46992539603467,
            59.17856977212243
          ],
          [
            16.469267783740463,
            59.178461044862644
          ],
          [
            16.468553572377072,
            59.17830803038058
          ],
          [
            16.467855056491935,
            59.17817400075408
          ],
          [
            16.467602434675605,
            59.17807689430337
          ],
          [
            16.466980786543576,
            59.17791414896809
          ],
          [
            16.46708397544299,
            59.17753677150892
          ],
          [
            16.466897099371742,
            59.17717259296195
          ],
          [
            16.466598674204324,
            59.17678884106661
          ],
          [
            16.466590825970826,
            59.17668121938411
          ],
          [
            16.46640703715786,
            59.17643028717712
          ],
          [
            16.46648211910018,
            59.176056700836085
          ],
          [
            16.46689698669663,
            59.17572672963842
          ],
          [
            16.467286728729043,
            59.17539322692392
          ],
          [
            16.4673412933552,
            59.17501406530589
          ],
          [
            16.467428020617835,
            59.174661896954085
          ],
          [
            16.46717024016198,
            59.1743351074232
          ],
          [
            16.466788073136854,
            59.174018525543474
          ],
          [
            16.466344329084812,
            59.17367668901829
          ],
          [
            16.46613777052103,
            59.17331789477912
          ],
          [
            16.465657796545536,
            59.17302595275285
          ],
          [
            16.46500923315516,
            59.172870246713686
          ],
          [
            16.464341098035714,
            59.17269007325491
          ],
          [
            16.46413206253799,
            59.17230277687835
          ],
          [
            16.464331845577302,
            59.17194387384236
          ],
          [
            16.46485333740739,
            59.17165957571685
          ],
          [
            16.465249088111275,
            59.17137358658138
          ],
          [
            16.46554914178978,
            59.17100879890583
          ],
          [
            16.465731613621166,
            59.17066026541577
          ],
          [
            16.46561366122402,
            59.17029872723312
          ],
          [
            16.46533058215456,
            59.169905972990406
          ],
          [
            16.465450522845547,
            59.169492663230635
          ],
          [
            16.465328621242556,
            59.1691015639612
          ],
          [
            16.46525641701107,
            59.16896941230616
          ],
          [
            16.464885699761297,
            59.168637826632995
          ],
          [
            16.464486288582414,
            59.168307983743574
          ],
          [
            16.46399618441916,
            59.16799632398149
          ],
          [
            16.463791657884588,
            59.16760895918615
          ],
          [
            16.46390913243712,
            59.16722563939181
          ],
          [
            16.464100953333876,
            59.16685800207369
          ],
          [
            16.464388197418256,
            59.1664803317491
          ],
          [
            16.464792817620793,
            59.166174698113366
          ],
          [
            16.465157619946748,
            59.16584563059123
          ],
          [
            16.465243623330288,
            59.165469704458495
          ],
          [
            16.465164961847353,
            59.16509011296867
          ],
          [
            16.46490359971598,
            59.16473952989472
          ],
          [
            16.465496580712948,
            59.16452688514265
          ],
          [
            16.466080837913662,
            59.16429700665033
          ],
          [
            16.46650745943446,
            59.163989877450135
          ],
          [
            16.46713447064762,
            59.16375845815217
          ],
          [
            16.467659810884403,
            59.16349363185489
          ],
          [
            16.468127348477413,
            59.16318893391873
          ],
          [
            16.468573137591846,
            59.16287181285068
          ],
          [
            16.468921231996763,
            59.1625448821211
          ],
          [
            16.46947751728344,
            59.162260000012395
          ],
          [
            16.4701668908288,
            59.162085261499705
          ],
          [
            16.470562665554574,
            59.161575165748935
          ],
          [
            16.47111662320846,
            59.16135271782344
          ],
          [
            16.47197581838552,
            59.16143743068552
          ],
          [
            16.472654152009127,
            59.161754278424866
          ],
          [
            16.473052149008684,
            59.16166591294056
          ],
          [
            16.47365797289748,
            59.16165207591982
          ],
          [
            16.47455977561308,
            59.161361880596594
          ],
          [
            16.47554532163915,
            59.16101595224282
          ],
          [
            16.475563552387413,
            59.16069052562737
          ],
          [
            16.475574379443486,
            59.16050396768612
          ],
          [
            16.475382823357236,
            59.160086102260465
          ],
          [
            16.47506885597071,
            59.160113578276196
          ],
          [
            16.474702073944215,
            59.16010271397469
          ],
          [
            16.47436807140273,
            59.16006618845386
          ],
          [
            16.474099189268937,
            59.159970436390005
          ],
          [
            16.4737024790171,
            59.15974245411268
          ],
          [
            16.47417664467444,
            59.15937651800157
          ],
          [
            16.47452848452179,
            59.15901000229715
          ],
          [
            16.468506046647953,
            59.15793267969924
          ]
        ]
      }
    }
  ]
}
