{
  "type": "FeatureCollection",
  "features": [
    {
      "type": "Feature",
      "properties": {
        "name": "Stage 37:2: Kärrgruvorna to Koppartorp",
        "source": "Sörmlandsleden official full GPX",
        "sourceFormat": "official-network-gpx",
        "sourceUrl": "https://www.sormlandsleden.se/wp-content/themes/sormlandsleden.se/Leden-2024-12-04.gpx",
        "lengthKm": 6.83,
        "routeWarning": "The official catalog distance is 8 km and the 2025 long-distance pass lists 7.5 km, while Naturkartan/current official-network geometry measures about 6.8-6.9 km and OSM/third-party sources range roughly 7.1-8.3 km. The official page has an active 2025-10-25 bark-beetle damage notice with a temporary signed reroute and no machine-readable reroute geometry. Use 8 km for planning and follow current orange markings, ribbons and signs on site.",
        "currentOfficialDistanceKm": 8,
        "geometryConfidence": "active-temporary-reroute-no-machine-geometry"
      },
      "geometry": {
        "type": "LineString",
        "coordinates": [
          [
            16.858180172455747,
            58.64706844449635
          ],
          [
            16.86193852089682,
            58.64737637490839
          ],
          [
            16.86188816214101,
            58.647128641995316
          ],
          [
            16.861810640267652,
            58.646762174657766
          ],
          [
            16.862283239843933,
            58.64644977118869
          ],
          [
            16.862889174842522,
            58.64618274075303
          ],
          [
            16.863295890814754,
            58.646029682361785
          ],
          [
            16.863454360036492,
            58.645970045330266
          ],
          [
            16.86415308272939,
            58.64584111184059
          ],
          [
            16.864919516736993,
            58.645786045868405
          ],
          [
            16.86566535273138,
            58.645995616054655
          ],
          [
            16.866748110109715,
            58.64611882371418
          ],
          [
            16.867447231854815,
            58.64605925399283
          ],
          [
            16.86817377610111,
            58.64609962632747
          ],
          [
            16.86892110476424,
            58.64614860405013
          ],
          [
            16.86958240005613,
            58.64616481801302
          ],
          [
            16.87031410008906,
            58.646297931192564
          ],
          [
            16.870725914959518,
            58.64658097494731
          ],
          [
            16.870778259995035,
            58.646976886693764
          ],
          [
            16.870376626074666,
            58.64731566926854
          ],
          [
            16.870062245623476,
            58.6476644849568
          ],
          [
            16.870130826814126,
            58.64805348475323
          ],
          [
            16.870175865926946,
            58.64843298056325
          ],
          [
            16.87017757762114,
            58.648806949013256
          ],
          [
            16.870447302562862,
            58.64912668532583
          ],
          [
            16.870951188866343,
            58.64942168408849
          ],
          [
            16.871349852741194,
            58.64975164857526
          ],
          [
            16.87146125474915,
            58.649989229105756
          ],
          [
            16.87095958662315,
            58.650226463052036
          ],
          [
            16.870625470128267,
            58.65058439391131
          ],
          [
            16.87051184397534,
            58.65082521729095
          ],
          [
            16.87041566383692,
            58.651221170788745
          ],
          [
            16.870245391954548,
            58.65160446022457
          ],
          [
            16.870775762784195,
            58.651877002626755
          ],
          [
            16.87141512346302,
            58.65206592819276
          ],
          [
            16.872101154381483,
            58.65222517691404
          ],
          [
            16.873489651359645,
            58.65248204356997
          ],
          [
            16.874190524415948,
            58.65261760366603
          ],
          [
            16.87491734004443,
            58.65268358755561
          ],
          [
            16.875496636092702,
            58.65297985301291
          ],
          [
            16.87595637305174,
            58.65324415407563
          ],
          [
            16.876424691037798,
            58.653539114026536
          ],
          [
            16.877720694689874,
            58.65391293239373
          ],
          [
            16.87807179427149,
            58.654217859663156
          ],
          [
            16.87798979218624,
            58.65458155604204
          ],
          [
            16.87779231439098,
            58.65496105916356
          ],
          [
            16.877588245922187,
            58.655357376895466
          ],
          [
            16.877932581696793,
            58.65602425150929
          ],
          [
            16.878493135070137,
            58.65633132970585
          ],
          [
            16.878985419425025,
            58.65660100279084
          ],
          [
            16.879569474750994,
            58.656805920729376
          ],
          [
            16.880295901755815,
            58.65676732628816
          ],
          [
            16.88103640319985,
            58.6566478599906
          ],
          [
            16.88121807153442,
            58.656995288698404
          ],
          [
            16.881361846642033,
            58.65738533165064
          ],
          [
            16.880773954101226,
            58.65783198575719
          ],
          [
            16.881020853771187,
            58.65815186008082
          ],
          [
            16.88151304029562,
            58.65805798738687
          ],
          [
            16.881731597792502,
            58.6576780108088
          ],
          [
            16.882442861470345,
            58.65760341391178
          ],
          [
            16.88318367494001,
            58.65746849665786
          ],
          [
            16.88372573624532,
            58.65726140690318
          ],
          [
            16.884261055341756,
            58.656970131455196
          ],
          [
            16.884563038579255,
            58.65662575322527
          ],
          [
            16.884811897202592,
            58.656266000032986
          ],
          [
            16.88495677685649,
            58.65592031408355
          ],
          [
            16.88520959779275,
            58.65552213856331
          ],
          [
            16.88537234583969,
            58.655182093353766
          ],
          [
            16.885592026432008,
            58.65478736489023
          ],
          [
            16.885870789508033,
            58.654436837020135
          ],
          [
            16.886166363848343,
            58.65405616805417
          ],
          [
            16.88596359486462,
            58.65367589399188
          ],
          [
            16.885191134614814,
            58.65303398989486
          ],
          [
            16.884513968268536,
            58.65292265776899
          ],
          [
            16.883775483731966,
            58.652985444392264
          ],
          [
            16.881666988306982,
            58.65260299283429
          ],
          [
            16.881133442480753,
            58.65243218811382
          ],
          [
            16.881159073854484,
            58.651635841980294
          ],
          [
            16.881137402433307,
            58.65127733261144
          ],
          [
            16.880124531181544,
            58.65063707532168
          ],
          [
            16.87990496479243,
            58.65048633991181
          ],
          [
            16.879971764290655,
            58.65027063284899
          ],
          [
            16.88002666787796,
            58.650056383572895
          ],
          [
            16.880443405503602,
            58.64958000915527
          ],
          [
            16.88058449221297,
            58.6493890460228
          ],
          [
            16.880610386475166,
            58.64918046315495
          ],
          [
            16.880949226766496,
            58.64871580408763
          ],
          [
            16.88210438361698,
            58.648814271200195
          ],
          [
            16.882610826514885,
            58.648736270282775
          ],
          [
            16.883353903538396,
            58.64856034639232
          ],
          [
            16.8835526264498,
            58.64846006557307
          ],
          [
            16.883533244590005,
            58.648230767667116
          ],
          [
            16.88554053883685,
            58.647134912399224
          ],
          [
            16.886046287452285,
            58.646809875239086
          ],
          [
            16.88649038149867,
            58.64666711395637
          ],
          [
            16.888172931393907,
            58.64721940240616
          ],
          [
            16.88921306302834,
            58.647742368641126
          ],
          [
            16.889781614041354,
            58.64797159238865
          ],
          [
            16.890419987743588,
            58.64842381012827
          ],
          [
            16.890872923729642,
            58.648433457500616
          ],
          [
            16.891492588500025,
            58.648261022650956
          ],
          [
            16.891534897517374,
            58.647900766756244
          ],
          [
            16.891607279124045,
            58.64768462122774
          ],
          [
            16.89114605289262,
            58.64736198545745
          ],
          [
            16.890530798090865,
            58.64719537687672
          ],
          [
            16.88980909602368,
            58.64715041725343
          ],
          [
            16.889368729239987,
            58.646900592235575
          ],
          [
            16.889517694593916,
            58.64651877025597
          ],
          [
            16.88971825916673,
            58.64616797496278
          ],
          [
            16.890413231248644,
            58.64598823888856
          ],
          [
            16.891025872777043,
            58.64569213085852
          ],
          [
            16.891693978014242,
            58.64551906814536
          ],
          [
            16.892362579385445,
            58.64538529762155
          ],
          [
            16.8927522013299,
            58.64512840357769
          ],
          [
            16.892419616387514,
            58.64477347301607
          ],
          [
            16.892309823647814,
            58.644416497735506
          ],
          [
            16.89214847806363,
            58.64408306772037
          ],
          [
            16.89184451365055,
            58.643787662115216
          ],
          [
            16.89148696294247,
            58.64358974521789
          ],
          [
            16.89193967890079,
            58.64333167240278
          ],
          [
            16.892669369157193,
            58.64303831316881
          ],
          [
            16.893058230178838,
            58.64283288952957
          ],
          [
            16.893540353071202,
            58.6425893756715
          ],
          [
            16.893989556652162,
            58.64161188319467
          ],
          [
            16.893521463463852,
            58.64130630056943
          ],
          [
            16.89312633342806,
            58.641012380676045
          ],
          [
            16.89287161824808,
            58.64063613132179
          ],
          [
            16.893153714450055,
            58.640311388425815
          ],
          [
            16.893597974035742,
            58.639942974469655
          ],
          [
            16.89500227459023,
            58.6398471606883
          ],
          [
            16.89615278562429,
            58.64025418832136
          ],
          [
            16.896891635043684,
            58.640398553657334
          ],
          [
            16.897496415137503,
            58.640730804365056
          ],
          [
            16.897338745132295,
            58.6409260029017
          ],
          [
            16.897720179468205,
            58.641201777734224
          ],
          [
            16.897859098270008,
            58.64157405665973
          ],
          [
            16.898564963486443,
            58.642667157688955
          ],
          [
            16.899290235894743,
            58.64385849313731
          ],
          [
            16.89985172474138,
            58.64439807760785
          ],
          [
            16.900278261184145,
            58.6447609084743
          ],
          [
            16.90032428365504,
            58.6449161793168
          ]
        ]
      }
    }
  ]
}
