{
  "type": "FeatureCollection",
  "features": [
    {
      "type": "Feature",
      "properties": {
        "name": "Stage 43: Skyrshyttan to Sandstugan",
        "source": "Sörmlandsleden official full GPX",
        "sourceFormat": "official-network-gpx",
        "sourceUrl": "https://www.sormlandsleden.se/wp-content/themes/sormlandsleden.se/Leden-2024-12-04.gpx",
        "lengthKm": 5.77,
        "routeWarning": "The official catalog and 2025 long-distance-pass distance is 6 km. Naturkartan exposes about 5863 m, this local official-network line measures about 5.8 km, OSM relation 6575005 measures about 5.95 km despite a stale 5 km distance tag, Äventyrligare lists 5.8 km, while AllTrails and older personal logs around 4.7-5.0 km appear simplified or lower-confidence. Start/end topology is continuous from Stage 42 to Stage 44; keep 6 km as the rounded official planning distance.",
        "currentOfficialDistanceKm": 6,
        "geometryConfidence": "rounded-official-distance-stale-osm-tag"
      },
      "geometry": {
        "type": "LineString",
        "coordinates": [
          [
            16.88666196595704,
            58.67642871018496
          ],
          [
            16.886203040635074,
            58.67676348485559
          ],
          [
            16.886024946899248,
            58.6770759119171
          ],
          [
            16.885980876151606,
            58.677423182157554
          ],
          [
            16.885835469268347,
            58.67798446108286
          ],
          [
            16.885571078223606,
            58.678276572006695
          ],
          [
            16.884503779699344,
            58.678457426087164
          ],
          [
            16.88420518414574,
            58.67858960582082
          ],
          [
            16.88456325126588,
            58.679375405988175
          ],
          [
            16.883815269231174,
            58.68003215814262
          ],
          [
            16.883335137426315,
            58.680517286382226
          ],
          [
            16.883018307820553,
            58.68093420572864
          ],
          [
            16.883447604120136,
            58.681328153521925
          ],
          [
            16.883868306931618,
            58.68166694414104
          ],
          [
            16.884590960762193,
            58.68175288988697
          ],
          [
            16.88556795510338,
            58.682370553805775
          ],
          [
            16.885999240578,
            58.6827077486274
          ],
          [
            16.886621552113745,
            58.68293688460555
          ],
          [
            16.8877122707528,
            58.6834806976396
          ],
          [
            16.88905478735748,
            58.683719324513824
          ],
          [
            16.889675590183344,
            58.68395682426872
          ],
          [
            16.890214308836452,
            58.68419217289795
          ],
          [
            16.89083991865769,
            58.6845071699994
          ],
          [
            16.891145149018985,
            58.68472963860767
          ],
          [
            16.891611244178684,
            58.685033863922314
          ],
          [
            16.89060097673556,
            58.68545594165445
          ],
          [
            16.889273621722072,
            58.68641558730423
          ],
          [
            16.888781771040403,
            58.68685110706274
          ],
          [
            16.888772562779977,
            58.68717650214537
          ],
          [
            16.888910862152436,
            58.68751525069018
          ],
          [
            16.889064641035738,
            58.68788506064198
          ],
          [
            16.889274515471183,
            58.6883179002748
          ],
          [
            16.889431107602807,
            58.68862982030868
          ],
          [
            16.88968388457653,
            58.68905898852735
          ],
          [
            16.889890938312668,
            58.689411387357296
          ],
          [
            16.889906321170557,
            58.68970155559689
          ],
          [
            16.889941454564312,
            58.68975423530172
          ],
          [
            16.889954145139317,
            58.69014093250143
          ],
          [
            16.889986461618253,
            58.69019345424218
          ],
          [
            16.889992614234473,
            58.69065580156524
          ],
          [
            16.890013591875302,
            58.69070318155071
          ],
          [
            16.890005981598396,
            58.69092631442379
          ],
          [
            16.889978043201797,
            58.69097166762331
          ],
          [
            16.88995008008532,
            58.69105829680255
          ],
          [
            16.889926156285703,
            58.691132411913664
          ],
          [
            16.888260514658526,
            58.69308724564207
          ],
          [
            16.886408377181006,
            58.6928872014455
          ],
          [
            16.885194215835114,
            58.692890684897826
          ],
          [
            16.884071567126195,
            58.693029124437125
          ],
          [
            16.883594510410887,
            58.69289573598056
          ],
          [
            16.8828342450287,
            58.69235380822846
          ],
          [
            16.881474947484303,
            58.691865594152276
          ],
          [
            16.880308443902024,
            58.691546651296335
          ],
          [
            16.87907008814117,
            58.691224896706345
          ],
          [
            16.8783894275872,
            58.690901469998266
          ],
          [
            16.87747853415868,
            58.69044651402884
          ],
          [
            16.87640274373222,
            58.690279611776205
          ],
          [
            16.875752770406685,
            58.69010637634356
          ],
          [
            16.87395498212176,
            58.689495959790634
          ],
          [
            16.87276615123308,
            58.68921774700114
          ],
          [
            16.87105214445681,
            58.688982090011166
          ],
          [
            16.870403584704157,
            58.68970955388387
          ],
          [
            16.869981360209685,
            58.6903681240309
          ],
          [
            16.868875644936576,
            58.69109482385976
          ],
          [
            16.868453073711805,
            58.691430198612146
          ],
          [
            16.86835512958432,
            58.69183266593542
          ],
          [
            16.867577672525208,
            58.692107296150745
          ],
          [
            16.867436369659487,
            58.69262984340246
          ],
          [
            16.86709485297397,
            58.693182322663205
          ],
          [
            16.867519321128356,
            58.694165570759935
          ],
          [
            16.867096611254464,
            58.69451903206876
          ],
          [
            16.864628104562122,
            58.69566675763878
          ],
          [
            16.864133484839392,
            58.69593759791558
          ],
          [
            16.866975933747714,
            58.69717421545609
          ],
          [
            16.86726559033458,
            58.69744844079847
          ],
          [
            16.867076764879332,
            58.697799862905185
          ],
          [
            16.866623440829432,
            58.69866719761825
          ],
          [
            16.866196350926966,
            58.69931159630157
          ],
          [
            16.86560968520854,
            58.69960552575993
          ],
          [
            16.865058021557203,
            58.69961676985516
          ],
          [
            16.863929304811858,
            58.69962142364734
          ],
          [
            16.863916661706998,
            58.699893290975055
          ],
          [
            16.863885215089866,
            58.70040699844337
          ],
          [
            16.867510899228478,
            58.70122564611223
          ],
          [
            16.86894483713682,
            58.7015771448538
          ],
          [
            16.870111701324166,
            58.701860504317544
          ],
          [
            16.87094216928182,
            58.701992602381296
          ],
          [
            16.87214708903237,
            58.7023843802879
          ],
          [
            16.87353149144241,
            58.702752139860046
          ],
          [
            16.874212049130435,
            58.7029602671698
          ],
          [
            16.874856202965645,
            58.70305230998768
          ],
          [
            16.87486572112796,
            58.703376322774396
          ]
        ]
      }
    }
  ]
}
