{
  "type": "FeatureCollection",
  "features": [
    {
      "type": "Feature",
      "properties": {
        "name": "Stage 36:2: Gälkhyttan to Fada kvarn",
        "source": "Sörmlandsleden official full GPX",
        "sourceFormat": "official-network-gpx",
        "sourceUrl": "https://www.sormlandsleden.se/wp-content/themes/sormlandsleden.se/Leden-2024-12-04.gpx",
        "lengthKm": 6.3,
        "routeWarning": "Stage 36:2 has two official same-endpoint alternatives: the shorter/northern route, listed as 7 km, and the longer Pilthyttedammen/Överdammen shelter route, listed as 9 km. This drawn line is the shorter official-GPX-derived option and measures about 6.3 km; the Överdammen shelter, toilet and fireplace belong to the longer alternative. Naturkartan's 5.1 km geometry appears incomplete for endpoint routing, and OSM relation 3696288 does not cleanly encode both options.",
        "currentOfficialDistanceKm": 7,
        "alternateOfficialDistanceKm": 9,
        "geometryConfidence": "short-option-only-official-alternatives"
      },
      "geometry": {
        "type": "LineString",
        "coordinates": [
          [
            16.810968370455555,
            58.69226643015281
          ],
          [
            16.811682273539112,
            58.69212052774788
          ],
          [
            16.812281919552525,
            58.69202931581942
          ],
          [
            16.81286668153301,
            58.6924113366887
          ],
          [
            16.81336548898164,
            58.692702954328894
          ],
          [
            16.813953313583667,
            58.6928419029826
          ],
          [
            16.814685921071632,
            58.69290525256783
          ],
          [
            16.81531712760845,
            58.69312628427342
          ],
          [
            16.815783141463903,
            58.693375422343756
          ],
          [
            16.81614509785721,
            58.69370809599089
          ],
          [
            16.816857413300987,
            58.69389557857798
          ],
          [
            16.81748746682247,
            58.69408994600077
          ],
          [
            16.81817982668383,
            58.69418107571891
          ],
          [
            16.818879326267652,
            58.69429096281131
          ],
          [
            16.81953772973826,
            58.6945163562918
          ],
          [
            16.820139594623267,
            58.69464411987676
          ],
          [
            16.820740566779044,
            58.69484520986131
          ],
          [
            16.821318023644135,
            58.69513446148203
          ],
          [
            16.821826434277405,
            58.69538087102066
          ],
          [
            16.822365265021723,
            58.6957012543986
          ],
          [
            16.822872232897936,
            58.696002684981586
          ],
          [
            16.823509197253333,
            58.69616908692175
          ],
          [
            16.82403434138047,
            58.69637011315704
          ],
          [
            16.82446642998796,
            58.69670204866109
          ],
          [
            16.824777868463364,
            58.69705766811905
          ],
          [
            16.825026972981192,
            58.697401620491945
          ],
          [
            16.82532521424069,
            58.69774658422267
          ],
          [
            16.825879113416825,
            58.69802692190808
          ],
          [
            16.82630537149241,
            58.6983351431648
          ],
          [
            16.826648670732137,
            58.698653680496435
          ],
          [
            16.826576180976012,
            58.69900007448655
          ],
          [
            16.82611505924253,
            58.699313673246095
          ],
          [
            16.825205180365877,
            58.69993465007925
          ],
          [
            16.825926391892704,
            58.70026394963508
          ],
          [
            16.826721181492015,
            58.70026886394621
          ],
          [
            16.827366221187095,
            58.70043008783921
          ],
          [
            16.827749698682364,
            58.70072958538958
          ],
          [
            16.82778323829035,
            58.70090690704437
          ],
          [
            16.828526626145788,
            58.70103459650647
          ],
          [
            16.828246576716833,
            58.70177123190025
          ],
          [
            16.82859858168964,
            58.701826166294595
          ],
          [
            16.82887169302812,
            58.70199919312578
          ],
          [
            16.829260128155294,
            58.70230295019256
          ],
          [
            16.82966030419321,
            58.702660616847865
          ],
          [
            16.830052688677227,
            58.70299041986526
          ],
          [
            16.830300097601125,
            58.70331028622651
          ],
          [
            16.830039835162754,
            58.703686760519126
          ],
          [
            16.830323611191545,
            58.704170217619655
          ],
          [
            16.830343097008363,
            58.704882812320804
          ],
          [
            16.830202731833303,
            58.70531381867057
          ],
          [
            16.830792613547015,
            58.706070944345434
          ],
          [
            16.831381138627435,
            58.70601047151564
          ],
          [
            16.83193015054075,
            58.70619945299782
          ],
          [
            16.832619178448873,
            58.70715120559954
          ],
          [
            16.832643509001105,
            58.707405877364806
          ],
          [
            16.83256313788708,
            58.707727997831014
          ],
          [
            16.832637472034335,
            58.707970559278955
          ],
          [
            16.83266766654442,
            58.708786439503086
          ],
          [
            16.83228527181719,
            58.709304771204785
          ],
          [
            16.831758918855428,
            58.70978957151408
          ],
          [
            16.831562585344127,
            58.71014199640214
          ],
          [
            16.831706283712762,
            58.7105241613967
          ],
          [
            16.833257138605735,
            58.71117008014318
          ],
          [
            16.834555304102267,
            58.71165736341716
          ],
          [
            16.835392387570153,
            58.71233171650828
          ],
          [
            16.835980699245123,
            58.7125908716491
          ],
          [
            16.83686551141826,
            58.71283319068983
          ],
          [
            16.837514977248528,
            58.71336007014838
          ],
          [
            16.837686818610482,
            58.71374513508067
          ],
          [
            16.83791821614174,
            58.71413474930069
          ],
          [
            16.838084524385838,
            58.71451859401636
          ],
          [
            16.838011825976242,
            58.71488883961073
          ],
          [
            16.83771740890646,
            58.715205123335544
          ],
          [
            16.83708130035814,
            58.71543309725918
          ],
          [
            16.83654762597429,
            58.715705177874774
          ],
          [
            16.83643150212451,
            58.716098523993054
          ],
          [
            16.83642879836227,
            58.716466291931226
          ],
          [
            16.836354129666177,
            58.71687248774952
          ],
          [
            16.836141735934547,
            58.717239256951245
          ],
          [
            16.836669015850244,
            58.71726633844616
          ],
          [
            16.83714099593026,
            58.71738384475538
          ],
          [
            16.837512359309525,
            58.717467041129325
          ],
          [
            16.837931157298133,
            58.717609324499094
          ],
          [
            16.83844652371712,
            58.71770073948857
          ],
          [
            16.83892211435848,
            58.71777713628281
          ],
          [
            16.839366268211773,
            58.7176774229145
          ],
          [
            16.839866115664847,
            58.7176001210554
          ],
          [
            16.84031784823386,
            58.71753511359473
          ],
          [
            16.8408105354079,
            58.71745911077857
          ],
          [
            16.841253050069916,
            58.71744273168903
          ],
          [
            16.841753150313963,
            58.717438589503196
          ],
          [
            16.842262455549257,
            58.717437014679
          ],
          [
            16.84275314955995,
            58.71738883053279
          ],
          [
            16.84337726942099,
            58.717432476556155
          ],
          [
            16.844252274169925,
            58.717628244378936
          ],
          [
            16.84447656708145,
            58.71822471279978
          ],
          [
            16.845045118542057,
            58.71816164942014
          ],
          [
            16.845270777484156,
            58.71783597109174
          ],
          [
            16.845977290450527,
            58.71769597235366
          ],
          [
            16.846350662958017,
            58.71797395193925
          ],
          [
            16.846290442363895,
            58.71825211104868
          ],
          [
            16.84599343616016,
            58.71866248822575
          ],
          [
            16.846320214122645,
            58.718809633421074
          ],
          [
            16.84608112613435,
            58.71926865048476
          ],
          [
            16.845800099840307,
            58.71957198439513
          ],
          [
            16.845727967248155,
            58.72000433819807
          ],
          [
            16.846064803481458,
            58.7205750285457
          ],
          [
            16.846092736598745,
            58.72097194359721
          ],
          [
            16.84600683005555,
            58.72140321843497
          ],
          [
            16.84626491346103,
            58.721764767714845
          ],
          [
            16.846476808179748,
            58.72177640134693
          ],
          [
            16.846907955161953,
            58.72193641059495
          ],
          [
            16.847574861597,
            58.721867837157085
          ],
          [
            16.847852749748334,
            58.72191580841516
          ],
          [
            16.84826004606711,
            58.72196020074063
          ],
          [
            16.84940212178387,
            58.72186348739684
          ],
          [
            16.84955022943618,
            58.72203247869692
          ],
          [
            16.849788780145374,
            58.722260225407304
          ],
          [
            16.84963823193376,
            58.72253863548988
          ],
          [
            16.84915633605725,
            58.72283916744039
          ],
          [
            16.84883387265085,
            58.72307958411238
          ],
          [
            16.848918811028554,
            58.723327591331895
          ],
          [
            16.848703808632177,
            58.72374878868349
          ],
          [
            16.848643489775686,
            58.723874611692466
          ],
          [
            16.848486834470133,
            58.7241177546264
          ],
          [
            16.848515835961653,
            58.724538058735526
          ],
          [
            16.848374996727546,
            58.72483001442566
          ],
          [
            16.848060588157264,
            58.72533434306046
          ],
          [
            16.848150058905677,
            58.72560013016288
          ],
          [
            16.84756578724226,
            58.72574267556931
          ],
          [
            16.846882307582895,
            58.725952314123155
          ],
          [
            16.846344268771027,
            58.726406468273574
          ],
          [
            16.845900988924807,
            58.72651470767592
          ],
          [
            16.845161770252158,
            58.72662749733197
          ],
          [
            16.844519885906113,
            58.72675018117281
          ],
          [
            16.844089314286965,
            58.72694985872638
          ],
          [
            16.84433100885359,
            58.72746896444854
          ],
          [
            16.844375031967342,
            58.727730197245435
          ],
          [
            16.844229267720575,
            58.72808714769192
          ],
          [
            16.84426685737454,
            58.72840068602885
          ],
          [
            16.844045952537076,
            58.72858356355351
          ],
          [
            16.844031724182134,
            58.728857518207384
          ],
          [
            16.84347347986679,
            58.72905885869501
          ],
          [
            16.842631838869817,
            58.72909901478866
          ],
          [
            16.842024510405754,
            58.72897692874475
          ],
          [
            16.84186073861421,
            58.72897227232763
          ],
          [
            16.841924682957625,
            58.7284746244201
          ],
          [
            16.841502488739266,
            58.72847708908311
          ]
        ]
      }
    }
  ]
}
