{
  "type": "FeatureCollection",
  "features": [
    {
      "type": "Feature",
      "properties": {
        "name": "Stage 22:1: Hälleforsnäs jvstn to Edströmsvallen",
        "source": "OpenStreetMap route relation",
        "sourceFormat": "osm-relation",
        "sourceUrl": "https://www.openstreetmap.org/relation/9636667",
        "lengthKm": 1.45,
        "routeWarning": "Stage 22:1 is the official 1.5 km Hälleforsnäs station-to-Edströmsvallen connector. Bruksslingan and the Bruksdammen stage junction are continuation/access context after the connector, not part of the official 22:1 distance.",
        "currentOfficialDistanceKm": 1.5,
        "geometryConfidence": "official-connector-split-from-bruksslingan-continuation"
      },
      "geometry": {
        "type": "LineString",
        "coordinates": [
          [
            16.5038902,
            59.1615742
          ],
          [
            16.5025251,
            59.1618603
          ],
          [
            16.5005096,
            59.162017
          ],
          [
            16.5004428,
            59.1617616
          ],
          [
            16.500578,
            59.1615844
          ],
          [
            16.5007561,
            59.1613692
          ],
          [
            16.5014642,
            59.1612373
          ],
          [
            16.5018719,
            59.1609073
          ],
          [
            16.5018934,
            59.1605773
          ],
          [
            16.5013905,
            59.1604786
          ],
          [
            16.5008279,
            59.1602155
          ],
          [
            16.5002143,
            59.1597433
          ],
          [
            16.4992914,
            59.1590582
          ],
          [
            16.4980104,
            59.1585345
          ],
          [
            16.4969872,
            59.1580249
          ],
          [
            16.4966148,
            59.1575742
          ],
          [
            16.4958209,
            59.1572771
          ],
          [
            16.4947694,
            59.1570791
          ],
          [
            16.493574,
            59.1566522
          ],
          [
            16.4925502,
            59.1565867
          ],
          [
            16.4917148,
            59.1566635
          ],
          [
            16.4898032,
            59.1568025
          ],
          [
            16.487984,
            59.1566865
          ],
          [
            16.4869276,
            59.1564234
          ]
        ]
      }
    }
  ]
}
