{
  "type": "FeatureCollection",
  "features": [
    {
      "type": "Feature",
      "properties": {
        "name": "Stage 18: Finnsjön to Ånhammar",
        "source": "Sörmlandsleden official full GPX",
        "sourceFormat": "official-network-gpx",
        "sourceUrl": "https://www.sormlandsleden.se/wp-content/themes/sormlandsleden.se/Leden-2024-12-04.gpx",
        "lengthKm": 10.36
      },
      "geometry": {
        "type": "LineString",
        "coordinates": [
          [
            16.96141449804267,
            59.20699183825875
          ],
          [
            16.96067069250759,
            59.20657539847368
          ],
          [
            16.96012197554884,
            59.20680295074378
          ],
          [
            16.959473261225362,
            59.20688701215307
          ],
          [
            16.958839308014095,
            59.20704355197385
          ],
          [
            16.958451813943523,
            59.20702508689508
          ],
          [
            16.957906762660176,
            59.20672182660128
          ],
          [
            16.957379301684345,
            59.206633883273405
          ],
          [
            16.956024283760954,
            59.206191172953154
          ],
          [
            16.955479826691437,
            59.20595126383284
          ],
          [
            16.954833299084378,
            59.20594669119047
          ],
          [
            16.9541280506204,
            59.2059433099407
          ],
          [
            16.953710161211607,
            59.20611413233217
          ],
          [
            16.95322546419736,
            59.20602005426351
          ],
          [
            16.95192352018812,
            59.206196660448214
          ],
          [
            16.951354448223523,
            59.20577378319344
          ],
          [
            16.950599583236965,
            59.2054531959281
          ],
          [
            16.951240423761178,
            59.20524868613273
          ],
          [
            16.95163129903979,
            59.204837247777775
          ],
          [
            16.95205656338775,
            59.20457145645102
          ],
          [
            16.952057642191903,
            59.204353751188
          ],
          [
            16.951949981566074,
            59.20415923842319
          ],
          [
            16.951607110940884,
            59.20378118374342
          ],
          [
            16.951440747963066,
            59.20353412964752
          ],
          [
            16.951172645081563,
            59.203426014493374
          ],
          [
            16.95057593139584,
            59.203271109493016
          ],
          [
            16.949948459341158,
            59.20300497365738
          ],
          [
            16.949239825493784,
            59.202948642179855
          ],
          [
            16.948539811113026,
            59.20313075538044
          ],
          [
            16.948280272709205,
            59.2034518868309
          ],
          [
            16.94794886401127,
            59.20382570491878
          ],
          [
            16.947522754406442,
            59.204068425495926
          ],
          [
            16.9470050934154,
            59.20433589560892
          ],
          [
            16.946508605442716,
            59.20454132928345
          ],
          [
            16.945805434288967,
            59.204510567030844
          ],
          [
            16.94504530240639,
            59.20453316856307
          ],
          [
            16.94432283063059,
            59.204637441664886
          ],
          [
            16.943699852175722,
            59.20454151924578
          ],
          [
            16.943104109705583,
            59.20435689391833
          ],
          [
            16.942380990071626,
            59.20440825104284
          ],
          [
            16.941755721750745,
            59.20448190233991
          ],
          [
            16.941128608011304,
            59.20428057848885
          ],
          [
            16.94062427382852,
            59.20415621607517
          ],
          [
            16.940099595997612,
            59.20380283358564
          ],
          [
            16.940076350573012,
            59.20350775776576
          ],
          [
            16.940582411873102,
            59.20333969790229
          ],
          [
            16.941140008553997,
            59.203171536403104
          ],
          [
            16.941253277593216,
            59.20311290577521
          ],
          [
            16.941134340730095,
            59.20276335566228
          ],
          [
            16.94092238253559,
            59.202481163492415
          ],
          [
            16.93971136149421,
            59.202380501298116
          ],
          [
            16.939057119373174,
            59.20224511461119
          ],
          [
            16.938434128518615,
            59.201991421153345
          ],
          [
            16.937712431306856,
            59.20166421168898
          ],
          [
            16.937384989523558,
            59.20146682111961
          ],
          [
            16.93691626404228,
            59.2011986881308
          ],
          [
            16.93681700640589,
            59.20086136621617
          ],
          [
            16.93675783758199,
            59.200462183948034
          ],
          [
            16.93673849480457,
            59.2000940123348
          ],
          [
            16.936708390963794,
            59.199697429844655
          ],
          [
            16.93599511847565,
            59.19970881190614
          ],
          [
            16.935392134606698,
            59.19933525031105
          ],
          [
            16.935187783369813,
            59.19905402940503
          ],
          [
            16.935086485879978,
            59.19866711468686
          ],
          [
            16.93488251858534,
            59.198241186487294
          ],
          [
            16.934369449673003,
            59.19796556102978
          ],
          [
            16.93416987217569,
            59.19758349986633
          ],
          [
            16.933326420550593,
            59.197451163114216
          ],
          [
            16.93273662599489,
            59.19728185370913
          ],
          [
            16.932376745243204,
            59.19716574734631
          ],
          [
            16.93226786016335,
            59.19683289192817
          ],
          [
            16.932349011958156,
            59.196464817784026
          ],
          [
            16.931974177331274,
            59.19611851444816
          ],
          [
            16.931868915014682,
            59.19600306363233
          ],
          [
            16.931599046019183,
            59.19568154553369
          ],
          [
            16.93105437476483,
            59.19552733706299
          ],
          [
            16.930681178777824,
            59.19512937214326
          ],
          [
            16.930470032407957,
            59.19485306182412
          ],
          [
            16.93058785247868,
            59.194604507899705
          ],
          [
            16.930147990195564,
            59.19441013558684
          ],
          [
            16.929948156989546,
            59.194046093305744
          ],
          [
            16.9299007257276,
            59.19363220868922
          ],
          [
            16.92912493913297,
            59.193064232398676
          ],
          [
            16.928932315690098,
            59.19272487585206
          ],
          [
            16.92877177672893,
            59.192510162339566
          ],
          [
            16.928519553316857,
            59.19217261010887
          ],
          [
            16.928379705771572,
            59.19151300130238
          ],
          [
            16.929061788857005,
            59.19130009324605
          ],
          [
            16.929721876418466,
            59.19121774712188
          ],
          [
            16.93048315335457,
            59.191178302186835
          ],
          [
            16.930997358355718,
            59.190877419406974
          ],
          [
            16.93164459636883,
            59.190694316591525
          ],
          [
            16.93218135026216,
            59.19041915214103
          ],
          [
            16.93208646963857,
            59.1899838960701
          ],
          [
            16.93226395783496,
            59.18958428323828
          ],
          [
            16.932529724121974,
            59.189203429197
          ],
          [
            16.932610339381984,
            59.18904121989072
          ],
          [
            16.932601381880076,
            59.18882672948371
          ],
          [
            16.932609662481468,
            59.18860176252323
          ],
          [
            16.93254198628181,
            59.188477871646384
          ],
          [
            16.93241268448063,
            59.18836403820043
          ],
          [
            16.93194996474582,
            59.18809699819521
          ],
          [
            16.931666855640852,
            59.18780674299338
          ],
          [
            16.93162759955507,
            59.187413426854185
          ],
          [
            16.931416583830373,
            59.18698183243358
          ],
          [
            16.931659919521636,
            59.18658871649218
          ],
          [
            16.932546592038104,
            59.18646395983556
          ],
          [
            16.93299989272987,
            59.18587417744517
          ],
          [
            16.933857837029894,
            59.185734629038066
          ],
          [
            16.93418343089468,
            59.18549111788885
          ],
          [
            16.93460047530288,
            59.185227645779136
          ],
          [
            16.935372688931693,
            59.185111609166945
          ],
          [
            16.936062599434496,
            59.18507077637097
          ],
          [
            16.935909507894088,
            59.184696448943384
          ],
          [
            16.935568525026017,
            59.18437876231638
          ],
          [
            16.935517699771303,
            59.184225567386015
          ],
          [
            16.935432220543547,
            59.18383231780028
          ],
          [
            16.935319172489667,
            59.18336591546586
          ],
          [
            16.934597302813742,
            59.18326938332438
          ],
          [
            16.93411798833444,
            59.18304343431294
          ],
          [
            16.93395572614767,
            59.18252929853307
          ],
          [
            16.9337423152432,
            59.1822280667299
          ],
          [
            16.9336487408843,
            59.1819211124486
          ],
          [
            16.933813455446263,
            59.18157408983131
          ],
          [
            16.934335169480164,
            59.181251464781965
          ],
          [
            16.934538390230806,
            59.1808162385623
          ],
          [
            16.934346986912832,
            59.18050020832093
          ],
          [
            16.933775502926213,
            59.18029178200176
          ],
          [
            16.933071404043705,
            59.1801982757209
          ],
          [
            16.932379742755955,
            59.179963758507625
          ],
          [
            16.93199974212281,
            59.179641582763026
          ],
          [
            16.931551769434,
            59.17940116858594
          ],
          [
            16.930782853964278,
            59.17949544541062
          ],
          [
            16.930046760433804,
            59.17964503814923
          ],
          [
            16.92932038310799,
            59.179775646057024
          ],
          [
            16.928795974618534,
            59.17962269451827
          ],
          [
            16.928701507754305,
            59.17926591398883
          ],
          [
            16.92889381661736,
            59.17886144299227
          ],
          [
            16.928878693087693,
            59.178477547708404
          ],
          [
            16.928858244118178,
            59.17802859243614
          ],
          [
            16.929044491429572,
            59.17771425129345
          ],
          [
            16.928972753927475,
            59.17739620738308
          ],
          [
            16.928333097365023,
            59.177173255751974
          ],
          [
            16.927736481262748,
            59.176986514548126
          ],
          [
            16.92709635809843,
            59.17672683731872
          ],
          [
            16.926420227018497,
            59.1765253433142
          ],
          [
            16.925841513584555,
            59.17630597167942
          ],
          [
            16.92513710789879,
            59.17613065002895
          ],
          [
            16.92436645276172,
            59.17624113713181
          ],
          [
            16.923693082542478,
            59.17597117143512
          ],
          [
            16.923166064473325,
            59.17570253843329
          ],
          [
            16.922582153744838,
            59.175440720197926
          ],
          [
            16.921973276660314,
            59.175261035981954
          ],
          [
            16.921234706665004,
            59.17515800632041
          ],
          [
            16.920533580909222,
            59.17499932616721
          ],
          [
            16.919979925374246,
            59.17486472227074
          ],
          [
            16.919256452651492,
            59.17475407949074
          ],
          [
            16.91916821942034,
            59.17421372794496
          ],
          [
            16.918814096875085,
            59.17392556470275
          ],
          [
            16.91866972983458,
            59.17388471775021
          ],
          [
            16.917928150614774,
            59.17386812727796
          ],
          [
            16.917485632479686,
            59.173817663476036
          ],
          [
            16.916915907449116,
            59.17361986852418
          ],
          [
            16.916451457829236,
            59.17339224541834
          ],
          [
            16.9167091172507,
            59.17287134834777
          ],
          [
            16.917040550690345,
            59.17245092945105
          ],
          [
            16.91692177219563,
            59.172083373802664
          ],
          [
            16.91666663028901,
            59.17174165571188
          ],
          [
            16.91668853026288,
            59.17124792657983
          ],
          [
            16.91711180973659,
            59.17080624551459
          ],
          [
            16.917523057860254,
            59.17053704537069
          ],
          [
            16.917604350919195,
            59.17023026397108
          ],
          [
            16.917813416063666,
            59.16984034286461
          ],
          [
            16.91805540423152,
            59.169481929412626
          ],
          [
            16.918344663359083,
            59.16896472100958
          ],
          [
            16.91831900994691,
            59.16849476683009
          ],
          [
            16.91811074390411,
            59.16811357284951
          ],
          [
            16.91789288657915,
            59.16777550307567
          ],
          [
            16.917859921972763,
            59.1674436591447
          ],
          [
            16.91729364009417,
            59.167180044848685
          ],
          [
            16.916565951309018,
            59.166891659413224
          ],
          [
            16.9161673212644,
            59.16654498882222
          ],
          [
            16.916128474084847,
            59.16613834809123
          ],
          [
            16.915732664471932,
            59.16589731238979
          ],
          [
            16.9154575616216,
            59.16565270472592
          ],
          [
            16.914962099614783,
            59.16537570093728
          ],
          [
            16.914606633121366,
            59.16500634402684
          ],
          [
            16.914274633494312,
            59.16461961455185
          ],
          [
            16.914117184595085,
            59.164351542921395
          ],
          [
            16.91391692204386,
            59.16410364385246
          ],
          [
            16.91421737967749,
            59.16363604330251
          ],
          [
            16.91439920190701,
            59.163135009128005
          ],
          [
            16.91442202628841,
            59.162685435576634
          ],
          [
            16.91443851764093,
            59.162322945680216
          ],
          [
            16.914640045764827,
            59.16195128531562
          ],
          [
            16.914436277619835,
            59.161593532584135
          ],
          [
            16.914524071210487,
            59.161192788305314
          ],
          [
            16.91513041762688,
            59.16096104141582
          ],
          [
            16.915817917317778,
            59.1608226248863
          ],
          [
            16.9165300819267,
            59.160647381856194
          ],
          [
            16.916900740369197,
            59.160307229039034
          ],
          [
            16.916992240473977,
            59.16018506494421
          ],
          [
            16.916364774294,
            59.15988159106751
          ],
          [
            16.9161053087856,
            59.159706571356566
          ],
          [
            16.916027664877227,
            59.15957953134009
          ],
          [
            16.915927107488635,
            59.15920078908927
          ],
          [
            16.915781545600165,
            59.15882161309396
          ],
          [
            16.915739927132417,
            59.15843245419483
          ],
          [
            16.9158160468125,
            59.158271169445186
          ],
          [
            16.915616438450584,
            59.1578955487457
          ],
          [
            16.915397183782147,
            59.15754170636249
          ],
          [
            16.914920016513157,
            59.157196057568015
          ],
          [
            16.91465307456557,
            59.15686171163486
          ],
          [
            16.914825977445204,
            59.15647869077146
          ],
          [
            16.915452263357057,
            59.15626124909048
          ],
          [
            16.916013557253955,
            59.15600752250927
          ],
          [
            16.916581543065366,
            59.15576270479108
          ],
          [
            16.91713152316608,
            59.15548720967358
          ],
          [
            16.917617110546452,
            59.155149625390955
          ],
          [
            16.91788658288329,
            59.15482107958491
          ],
          [
            16.91801959380441,
            59.15444496838473
          ],
          [
            16.91791826470465,
            59.15403665162563
          ],
          [
            16.917967975628663,
            59.15366436470658
          ],
          [
            16.917861536865253,
            59.15328902457071
          ],
          [
            16.917773517216308,
            59.15292929508152
          ],
          [
            16.91764639035902,
            59.152618969845896
          ],
          [
            16.917315985650117,
            59.1522720497261
          ],
          [
            16.917204692658423,
            59.15191784619873
          ],
          [
            16.91774651200866,
            59.15159979110476
          ],
          [
            16.91798638677855,
            59.15142579793879
          ],
          [
            16.9180167486051,
            59.151219675762654
          ],
          [
            16.91790910106938,
            59.150996513480585
          ],
          [
            16.917621645148063,
            59.15088308787453
          ],
          [
            16.917236716732162,
            59.15078001273003
          ],
          [
            16.917146557700914,
            59.1507367556283
          ],
          [
            16.91714562286509,
            59.1506372430183
          ],
          [
            16.917186532664605,
            59.15052734551164
          ],
          [
            16.917237812572505,
            59.15035206170973
          ],
          [
            16.917352808432497,
            59.15018980739347
          ],
          [
            16.917852816809518,
            59.14999481722107
          ],
          [
            16.91799974769688,
            59.149828525798455
          ],
          [
            16.91808793963928,
            59.149699203520896
          ],
          [
            16.918003727196393,
            59.149596514351394
          ],
          [
            16.917468562742542,
            59.14952865657633
          ],
          [
            16.917066172470133,
            59.14950626818555
          ],
          [
            16.91625618107159,
            59.14920937785711
          ],
          [
            16.9155596062488,
            59.14895611114371
          ],
          [
            16.914889384643228,
            59.148879558246165
          ],
          [
            16.914521458004398,
            59.1488258021994
          ],
          [
            16.91425628275613,
            59.14875362338153
          ],
          [
            16.914059290316953,
            59.14859603369619
          ],
          [
            16.913582222007136,
            59.14844128418653
          ],
          [
            16.912829341116694,
            59.148221665537605
          ],
          [
            16.912122233608986,
            59.14801793493548
          ],
          [
            16.91148088159435,
            59.14787075809095
          ],
          [
            16.9116916891567,
            59.14740503229754
          ],
          [
            16.911714220052936,
            59.14727381275288
          ],
          [
            16.911625527380473,
            59.14717324613263
          ],
          [
            16.91106272018071,
            59.14661894549809
          ],
          [
            16.91067093356628,
            59.146215206108955
          ],
          [
            16.91098849419684,
            59.145903344699974
          ]
        ]
      }
    }
  ]
}
