{
  "type": "FeatureCollection",
  "features": [
    {
      "type": "Feature",
      "properties": {
        "name": "Tyresta by-Handen (Rudans gård), Sörmlandsleden, etapp 4 by Naturkartan"
      },
      "geometry": {
        "type": "LineString",
        "coordinates": [
          [
            18.2376916,
            59.167971
          ],
          [
            18.2375443,
            59.1678802
          ],
          [
            18.237276,
            59.1675928
          ],
          [
            18.2366103,
            59.1672117
          ],
          [
            18.2359844,
            59.1669346
          ],
          [
            18.2360856,
            59.1668892
          ],
          [
            18.2359549,
            59.1668114
          ],
          [
            18.2357648,
            59.1667284
          ],
          [
            18.2353276,
            59.1664403
          ],
          [
            18.235216,
            59.1664007
          ],
          [
            18.2351968,
            59.1663852
          ],
          [
            18.235156,
            59.1663523
          ],
          [
            18.235233,
            59.166315
          ],
          [
            18.2352937,
            59.1662856
          ],
          [
            18.2354611,
            59.1660856
          ],
          [
            18.2356084,
            59.1659997
          ],
          [
            18.2356624,
            59.16593
          ],
          [
            18.2358683,
            59.165864
          ],
          [
            18.2361859,
            59.165666
          ],
          [
            18.2363061,
            59.1655076
          ],
          [
            18.2362632,
            59.1653932
          ],
          [
            18.2359369,
            59.1652261
          ],
          [
            18.2357224,
            59.1650105
          ],
          [
            18.235216,
            59.1647201
          ],
          [
            18.2346667,
            59.1644386
          ],
          [
            18.2343749,
            59.1643242
          ],
          [
            18.2341432,
            59.1643066
          ],
          [
            18.2340157,
            59.1643225
          ],
          [
            18.233508,
            59.1643858
          ],
          [
            18.2333878,
            59.1643814
          ],
          [
            18.232478,
            59.1641966
          ],
          [
            18.2321519,
            59.1642054
          ],
          [
            18.2315164,
            59.1642771
          ],
          [
            18.2312402,
            59.1644301
          ],
          [
            18.2308955,
            59.1646843
          ],
          [
            18.230255,
            59.1645837
          ],
          [
            18.2298001,
            59.1646541
          ],
          [
            18.2292165,
            59.1648917
          ],
          [
            18.2290105,
            59.1649137
          ],
          [
            18.228724,
            59.1649351
          ],
          [
            18.2285985,
            59.1648961
          ],
          [
            18.2284545,
            59.1648517
          ],
          [
            18.2281763,
            59.1648265
          ],
          [
            18.2277488,
            59.1647652
          ],
          [
            18.226921,
            59.1647938
          ],
          [
            18.2267274,
            59.1648785
          ],
          [
            18.2265042,
            59.1649302
          ],
          [
            18.2263583,
            59.1649225
          ],
          [
            18.2254228,
            59.1648064
          ],
          [
            18.2250849,
            59.1648759
          ],
          [
            18.2248999,
            59.1649024
          ],
          [
            18.2247578,
            59.1648739
          ],
          [
            18.2246932,
            59.1648829
          ],
          [
            18.2244303,
            59.1648458
          ],
          [
            18.2241922,
            59.1648071
          ],
          [
            18.2239218,
            59.1647479
          ],
          [
            18.2234401,
            59.1646101
          ],
          [
            18.22235,
            59.1644606
          ],
          [
            18.2218179,
            59.1641834
          ],
          [
            18.2210969,
            59.1639018
          ],
          [
            18.2205304,
            59.1638622
          ],
          [
            18.2198352,
            59.1640382
          ],
          [
            18.2193545,
            59.1641482
          ],
          [
            18.2191056,
            59.1643022
          ],
          [
            18.2185735,
            59.1643506
          ],
          [
            18.2183503,
            59.1643242
          ],
          [
            18.2180241,
            59.1643858
          ],
          [
            18.2175435,
            59.1646233
          ],
          [
            18.2168998,
            59.1647201
          ],
          [
            18.2163419,
            59.1647113
          ],
          [
            18.2160157,
            59.1647685
          ],
          [
            18.2156295,
            59.1647377
          ],
          [
            18.2152518,
            59.1649841
          ],
          [
            18.215063,
            59.1651689
          ],
          [
            18.2145909,
            59.1656088
          ],
          [
            18.2141703,
            59.1658068
          ],
          [
            18.2135781,
            59.1659827
          ],
          [
            18.2134322,
            59.1660707
          ],
          [
            18.2126941,
            59.1659476
          ],
          [
            18.2118873,
            59.1659344
          ],
          [
            18.2115268,
            59.165864
          ],
          [
            18.2112693,
            59.1658772
          ],
          [
            18.2110289,
            59.16593
          ],
          [
            18.2108401,
            59.1660531
          ],
          [
            18.2099217,
            59.1660531
          ],
          [
            18.2095097,
            59.1660047
          ],
          [
            18.2085516,
            59.1657639
          ],
          [
            18.2083401,
            59.1657234
          ],
          [
            18.2080012,
            59.1656847
          ],
          [
            18.2077159,
            59.1656396
          ],
          [
            18.2074294,
            59.1656096
          ],
          [
            18.2071644,
            59.1655357
          ],
          [
            18.2066,
            59.1653998
          ],
          [
            18.2060937,
            59.1652657
          ],
          [
            18.205716,
            59.1652129
          ],
          [
            18.204767,
            59.1652926
          ],
          [
            18.2047271,
            59.165291
          ],
          [
            18.2047042,
            59.1653178
          ],
          [
            18.2046812,
            59.165339
          ],
          [
            18.2041024,
            59.1655868
          ],
          [
            18.2040681,
            59.165798
          ],
          [
            18.2041282,
            59.1662071
          ],
          [
            18.2040531,
            59.1663083
          ],
          [
            18.203788,
            59.1665156
          ],
          [
            18.2035182,
            59.1665978
          ],
          [
            18.2036561,
            59.166933
          ],
          [
            18.2036567,
            59.1670539
          ],
          [
            18.2036733,
            59.1671749
          ],
          [
            18.2036132,
            59.1672409
          ],
          [
            18.2034934,
            59.1672671
          ],
          [
            18.203403,
            59.1672868
          ],
          [
            18.2033171,
            59.1673133
          ],
          [
            18.2032152,
            59.1673358
          ],
          [
            18.2031325,
            59.1673201
          ],
          [
            18.202772,
            59.1671221
          ],
          [
            18.202506,
            59.1670254
          ],
          [
            18.2021283,
            59.166977
          ],
          [
            18.2019738,
            59.1669946
          ],
          [
            18.2016477,
            59.1672453
          ],
          [
            18.2015447,
            59.1672365
          ],
          [
            18.2013644,
            59.1671749
          ],
          [
            18.2011584,
            59.1669506
          ],
          [
            18.2010983,
            59.1668186
          ],
          [
            18.2007808,
            59.1666162
          ],
          [
            18.2004066,
            59.1665922
          ],
          [
            18.2000941,
            59.1664931
          ],
          [
            18.1995855,
            59.1663886
          ],
          [
            18.1991405,
            59.1664155
          ],
          [
            18.1988189,
            59.166415
          ],
          [
            18.1983524,
            59.1662632
          ],
          [
            18.1978457,
            59.166165
          ],
          [
            18.1976281,
            59.1661416
          ],
          [
            18.1969924,
            59.1660278
          ],
          [
            18.1967763,
            59.1660745
          ],
          [
            18.1966662,
            59.1660443
          ],
          [
            18.1958798,
            59.1657144
          ],
          [
            18.1955279,
            59.1654064
          ],
          [
            18.1953133,
            59.1652041
          ],
          [
            18.1950816,
            59.1651249
          ],
          [
            18.1949014,
            59.1650457
          ],
          [
            18.1948327,
            59.1649797
          ],
          [
            18.194661,
            59.1648301
          ],
          [
            18.1946267,
            59.1646673
          ],
          [
            18.1944722,
            59.1645046
          ],
          [
            18.1942233,
            59.1644914
          ],
          [
            18.193777,
            59.1644122
          ],
          [
            18.1934594,
            59.1642538
          ],
          [
            18.1934852,
            59.1637786
          ],
          [
            18.1938113,
            59.1635851
          ],
          [
            18.1939057,
            59.1635235
          ],
          [
            18.1939229,
            59.1634223
          ],
          [
            18.193777,
            59.1633123
          ],
          [
            18.1929444,
            59.1631715
          ],
          [
            18.1924724,
            59.1630307
          ],
          [
            18.1923093,
            59.1630219
          ],
          [
            18.1920947,
            59.1629603
          ],
          [
            18.1918715,
            59.1628459
          ],
          [
            18.1916913,
            59.1628063
          ],
          [
            18.1911506,
            59.1628899
          ],
          [
            18.1901711,
            59.1626747
          ],
          [
            18.1901292,
            59.1626655
          ],
          [
            18.1892709,
            59.1624323
          ],
          [
            18.1886271,
            59.1622872
          ],
          [
            18.1885413,
            59.1619748
          ],
          [
            18.1877345,
            59.1617988
          ],
          [
            18.1876058,
            59.1616624
          ],
          [
            18.1872109,
            59.1615216
          ],
          [
            18.1871337,
            59.1615049
          ],
          [
            18.18691,
            59.161495
          ],
          [
            18.1867062,
            59.1614403
          ],
          [
            18.1865323,
            59.1613011
          ],
          [
            18.1864229,
            59.1612266
          ],
          [
            18.1853249,
            59.160873
          ],
          [
            18.1852188,
            59.160836
          ],
          [
            18.1848699,
            59.1607145
          ],
          [
            18.1846448,
            59.1607141
          ],
          [
            18.1843851,
            59.1607678
          ],
          [
            18.1837168,
            59.1609836
          ],
          [
            18.1832117,
            59.1612061
          ],
          [
            18.182929,
            59.1613657
          ],
          [
            18.1821383,
            59.1613368
          ],
          [
            18.1819349,
            59.1612992
          ],
          [
            18.1817349,
            59.1612532
          ],
          [
            18.1813573,
            59.1611124
          ],
          [
            18.1812886,
            59.1609188
          ],
          [
            18.1813058,
            59.1607648
          ],
          [
            18.1811513,
            59.1606372
          ],
          [
            18.180765,
            59.1606152
          ],
          [
            18.1803616,
            59.1606812
          ],
          [
            18.1799668,
            59.1607296
          ],
          [
            18.1797522,
            59.1607164
          ],
          [
            18.1783618,
            59.1601136
          ],
          [
            18.178276,
            59.160096
          ],
          [
            18.1781215,
            59.1601092
          ],
          [
            18.1776666,
            59.1599464
          ],
          [
            18.1773318,
            59.1598056
          ],
          [
            18.1770142,
            59.1597968
          ],
          [
            18.1766023,
            59.1598716
          ],
          [
            18.1764306,
            59.15992
          ],
          [
            18.1758298,
            59.1598232
          ],
          [
            18.1757223,
            59.1597675
          ],
          [
            18.1753544,
            59.1594129
          ],
          [
            18.1753301,
            59.15931
          ],
          [
            18.1754994,
            59.1590324
          ],
          [
            18.1754475,
            59.158852
          ],
          [
            18.1753556,
            59.1587168
          ],
          [
            18.1753016,
            59.1585391
          ],
          [
            18.1750436,
            59.1581955
          ],
          [
            18.1749143,
            59.1580945
          ],
          [
            18.1748148,
            59.1579471
          ],
          [
            18.1745814,
            59.1576712
          ],
          [
            18.1739688,
            59.1573912
          ],
          [
            18.17375,
            59.1574187
          ],
          [
            18.1734362,
            59.1575386
          ],
          [
            18.1729927,
            59.1577368
          ],
          [
            18.1727325,
            59.1578831
          ],
          [
            18.1723674,
            59.1580585
          ],
          [
            18.1718668,
            59.158138
          ],
          [
            18.1714981,
            59.158138
          ],
          [
            18.1712559,
            59.1581814
          ],
          [
            18.1711005,
            59.1581217
          ],
          [
            18.1706884,
            59.1580458
          ],
          [
            18.1704625,
            59.1580422
          ],
          [
            18.1701301,
            59.1579939
          ],
          [
            18.170019,
            59.1578431
          ],
          [
            18.1695126,
            59.1576979
          ],
          [
            18.1691618,
            59.1575803
          ],
          [
            18.1689917,
            59.1575504
          ],
          [
            18.1689649,
            59.1574715
          ],
          [
            18.168855,
            59.1573561
          ],
          [
            18.1686846,
            59.1572654
          ],
          [
            18.168506,
            59.1572434
          ],
          [
            18.1671351,
            59.1572032
          ],
          [
            18.1667033,
            59.1573337
          ],
          [
            18.1663599,
            59.1576645
          ],
          [
            18.1662334,
            59.1577494
          ],
          [
            18.1657273,
            59.157885
          ],
          [
            18.1651634,
            59.1582555
          ],
          [
            18.1650351,
            59.1583115
          ],
          [
            18.1649662,
            59.1583077
          ],
          [
            18.164895,
            59.1583051
          ],
          [
            18.16343,
            59.1579345
          ],
          [
            18.1632289,
            59.1579031
          ],
          [
            18.162863,
            59.157889
          ],
          [
            18.1623987,
            59.1578562
          ],
          [
            18.1617837,
            59.1577464
          ],
          [
            18.1609905,
            59.1577133
          ],
          [
            18.1605233,
            59.1577271
          ],
          [
            18.1603667,
            59.1577628
          ],
          [
            18.1602953,
            59.157848
          ],
          [
            18.1601414,
            59.158197
          ],
          [
            18.1599298,
            59.1583921
          ],
          [
            18.1597237,
            59.1584305
          ],
          [
            18.1594214,
            59.1584113
          ],
          [
            18.1592071,
            59.1583756
          ],
          [
            18.1587812,
            59.1582712
          ],
          [
            18.1583745,
            59.1582409
          ],
          [
            18.1576271,
            59.1582464
          ],
          [
            18.1573495,
            59.1582464
          ],
          [
            18.1571874,
            59.1583151
          ],
          [
            18.1571317,
            59.1583765
          ],
          [
            18.157063,
            59.1584669
          ],
          [
            18.1570808,
            59.158583
          ],
          [
            18.1571645,
            59.1586152
          ],
          [
            18.1572405,
            59.1586432
          ],
          [
            18.1574231,
            59.158636
          ],
          [
            18.1575709,
            59.1586802
          ],
          [
            18.15756,
            59.1587525
          ],
          [
            18.1575998,
            59.158991
          ],
          [
            18.1577859,
            59.1591483
          ],
          [
            18.1578655,
            59.1592947
          ],
          [
            18.1579161,
            59.1593344
          ],
          [
            18.158133,
            59.1594158
          ],
          [
            18.1581872,
            59.1594537
          ],
          [
            18.1582107,
            59.1594971
          ],
          [
            18.1581926,
            59.1595224
          ],
          [
            18.1580209,
            59.1596164
          ],
          [
            18.1579739,
            59.1596724
          ],
          [
            18.1579685,
            59.1597194
          ],
          [
            18.1579956,
            59.159761
          ],
          [
            18.1580643,
            59.1598079
          ],
          [
            18.1582089,
            59.1599164
          ],
          [
            18.1583536,
            59.1599903
          ],
          [
            18.1582828,
            59.1600925
          ],
          [
            18.1582462,
            59.1601592
          ],
          [
            18.1582102,
            59.1602195
          ],
          [
            18.1581358,
            59.1602711
          ],
          [
            18.1580398,
            59.1603044
          ],
          [
            18.1577447,
            59.16034
          ],
          [
            18.1573153,
            59.1603929
          ],
          [
            18.1570391,
            59.1604248
          ],
          [
            18.1569458,
            59.1603474
          ],
          [
            18.1566483,
            59.1601334
          ],
          [
            18.1565379,
            59.160078
          ],
          [
            18.1564467,
            59.1600534
          ],
          [
            18.1564251,
            59.1600129
          ],
          [
            18.156298,
            59.1599391
          ],
          [
            18.1560029,
            59.1598144
          ],
          [
            18.1554278,
            59.1597088
          ],
          [
            18.1548528,
            59.1594536
          ],
          [
            18.1540374,
            59.159282
          ],
          [
            18.1531876,
            59.15926
          ],
          [
            18.1518401,
            59.1591236
          ],
          [
            18.1515483,
            59.1591588
          ],
          [
            18.1495528,
            59.1589759
          ],
          [
            18.1486235,
            59.1588138
          ],
          [
            18.1480402,
            59.1587928
          ],
          [
            18.1476453,
            59.1587153
          ],
          [
            18.14651,
            59.1583183
          ],
          [
            18.1461184,
            59.1581601
          ],
          [
            18.1445595,
            59.1575301
          ],
          [
            18.1438149,
            59.1571083
          ],
          [
            18.1428061,
            59.1566903
          ],
          [
            18.142424,
            59.1565318
          ],
          [
            18.1413688,
            59.156171
          ],
          [
            18.1398066,
            59.1554405
          ],
          [
            18.1387938,
            59.1551676
          ],
          [
            18.138605,
            59.1551412
          ],
          [
            18.1383218,
            59.155172
          ],
          [
            18.1372141,
            59.1554055
          ],
          [
            18.1358584,
            59.1556913
          ],
          [
            18.1352576,
            59.1558937
          ],
          [
            18.1351227,
            59.1559108
          ],
          [
            18.13505,
            59.1557231
          ],
          [
            18.1349585,
            59.1555994
          ],
          [
            18.1348359,
            59.1554725
          ],
          [
            18.1346095,
            59.1552829
          ],
          [
            18.1344919,
            59.1551659
          ],
          [
            18.1342598,
            59.1549063
          ],
          [
            18.1341407,
            59.1549234
          ],
          [
            18.1340349,
            59.1549504
          ],
          [
            18.1339752,
            59.1549847
          ],
          [
            18.1338385,
            59.1550608
          ],
          [
            18.1342307,
            59.1556302
          ],
          [
            18.1339911,
            59.1556505
          ],
          [
            18.1338711,
            59.1556686
          ],
          [
            18.1336887,
            59.1556999
          ],
          [
            18.1335646,
            59.1557212
          ],
          [
            18.1329856,
            59.1558355
          ],
          [
            18.1326857,
            59.155902
          ],
          [
            18.1325681,
            59.1559281
          ],
          [
            18.1324255,
            59.1559566
          ],
          [
            18.1318931,
            59.1557045
          ],
          [
            18.1313352,
            59.1555373
          ],
          [
            18.1310691,
            59.1555329
          ],
          [
            18.1308631,
            59.1556385
          ],
          [
            18.1304511,
            59.1560037
          ],
          [
            18.1304597,
            59.1560741
          ],
          [
            18.1306142,
            59.1562106
          ],
          [
            18.1307429,
            59.1564526
          ],
          [
            18.1306914,
            59.1566506
          ],
          [
            18.1307687,
            59.1567386
          ],
          [
            18.1311206,
            59.1568794
          ],
          [
            18.1316527,
            59.1572447
          ],
          [
            18.1318416,
            59.1577111
          ],
          [
            18.132099,
            59.1579531
          ],
          [
            18.1322707,
            59.158512
          ],
          [
            18.1323394,
            59.1593524
          ],
          [
            18.1322192,
            59.15959
          ],
          [
            18.132318,
            59.1596562
          ],
          [
            18.1321052,
            59.1598564
          ],
          [
            18.1314555,
            59.1598118
          ],
          [
            18.1306316,
            59.1597579
          ],
          [
            18.1305711,
            59.1597512
          ],
          [
            18.130542,
            59.1597429
          ],
          [
            18.130523,
            59.1597317
          ],
          [
            18.1305065,
            59.1596974
          ],
          [
            18.1304905,
            59.1595787
          ],
          [
            18.1304826,
            59.1595563
          ],
          [
            18.1304653,
            59.1595297
          ],
          [
            18.1304392,
            59.1595148
          ],
          [
            18.130408,
            59.1595032
          ],
          [
            18.1303415,
            59.1594842
          ],
          [
            18.1301899,
            59.1598185
          ],
          [
            18.1301544,
            59.1598865
          ],
          [
            18.1300616,
            59.1601931
          ],
          [
            18.1300946,
            59.1604643
          ],
          [
            18.1301835,
            59.1606329
          ],
          [
            18.1303072,
            59.1608067
          ],
          [
            18.1304038,
            59.1609141
          ],
          [
            18.1306168,
            59.1611508
          ],
          [
            18.1309522,
            59.1615333
          ],
          [
            18.1310445,
            59.1616468
          ],
          [
            18.1313877,
            59.1622061
          ],
          [
            18.1317458,
            59.1628868
          ],
          [
            18.1322924,
            59.1640474
          ],
          [
            18.1324503,
            59.164377
          ]
        ]
      }
    }
  ]
}
