{
  "type": "FeatureCollection",
  "features": [
    {
      "type": "Feature",
      "properties": {
        "name": "Stage 61: Berga vägskäl to Kvarnsjön",
        "source": "Sörmlandsleden official full GPX",
        "sourceFormat": "official-network-gpx",
        "sourceUrl": "https://www.sormlandsleden.se/wp-content/themes/sormlandsleden.se/Leden-2024-12-04.gpx",
        "lengthKm": 5.33
      },
      "geometry": {
        "type": "LineString",
        "coordinates": [
          [
            17.766161908093352,
            59.126281465303535
          ],
          [
            17.766169955541116,
            59.12597538299626
          ],
          [
            17.766190504225488,
            59.12569699791486
          ],
          [
            17.766148941503985,
            59.12533272568823
          ],
          [
            17.766997032287765,
            59.12482310971732
          ],
          [
            17.76745351701073,
            59.12456782128184
          ],
          [
            17.767793251985694,
            59.124378321317366
          ],
          [
            17.76821336745281,
            59.124169851041444
          ],
          [
            17.768670751974717,
            59.12407965784512
          ],
          [
            17.769987304545992,
            59.12387252287245
          ],
          [
            17.77059120841092,
            59.12390360845377
          ],
          [
            17.77109520953626,
            59.12369961098212
          ],
          [
            17.77152870396898,
            59.1235591478069
          ],
          [
            17.771964741945304,
            59.12349553356997
          ],
          [
            17.77235498352962,
            59.12345151281602
          ],
          [
            17.773072796066202,
            59.123411672383256
          ],
          [
            17.773724178683697,
            59.12342727320122
          ],
          [
            17.774907445997556,
            59.12354665524094
          ],
          [
            17.775738899456414,
            59.12363220394762
          ],
          [
            17.77586842542288,
            59.123559212199716
          ],
          [
            17.77591925551257,
            59.12333848283809
          ],
          [
            17.776133613080198,
            59.123112440130924
          ],
          [
            17.776399253343502,
            59.122967558932146
          ],
          [
            17.77688342576969,
            59.12261281607009
          ],
          [
            17.77735270784143,
            59.122301465021394
          ],
          [
            17.777929103392204,
            59.12195073116736
          ],
          [
            17.77867142684005,
            59.1215177026098
          ],
          [
            17.7798334654378,
            59.12206352554165
          ],
          [
            17.780068571391396,
            59.12242561225195
          ],
          [
            17.78046522715229,
            59.12271568645737
          ],
          [
            17.781172510542373,
            59.12290751389193
          ],
          [
            17.781876946972382,
            59.12296147974349
          ],
          [
            17.78247736269917,
            59.12326685477282
          ],
          [
            17.783038677848364,
            59.12366598602896
          ],
          [
            17.783656477044307,
            59.123852110121355
          ],
          [
            17.78444327758411,
            59.123955557555384
          ],
          [
            17.7850582706357,
            59.1239563818623
          ],
          [
            17.78555695875388,
            59.12405444803742
          ],
          [
            17.786132057897895,
            59.124310538898115
          ],
          [
            17.78673337293629,
            59.12460282316664
          ],
          [
            17.787256825783107,
            59.12481015967219
          ],
          [
            17.787877212378078,
            59.125092933532756
          ],
          [
            17.788465411376894,
            59.12533085168465
          ],
          [
            17.789157325510885,
            59.12557649581185
          ],
          [
            17.789623961664066,
            59.12586856982418
          ],
          [
            17.790025751306676,
            59.12622604784179
          ],
          [
            17.790421008922458,
            59.12654243836334
          ],
          [
            17.790841292266734,
            59.12687758307326
          ],
          [
            17.791410859551885,
            59.1271379844555
          ],
          [
            17.792077021019953,
            59.12730764095034
          ],
          [
            17.792655934116087,
            59.12749923646514
          ],
          [
            17.79331686482883,
            59.12769993094175
          ],
          [
            17.79385519801682,
            59.12798766370809
          ],
          [
            17.794342090950295,
            59.12827377115228
          ],
          [
            17.794991066277724,
            59.12846848342244
          ],
          [
            17.79570527081745,
            59.12862014210755
          ],
          [
            17.79644106575551,
            59.12872201497448
          ],
          [
            17.79715453849366,
            59.12882720658337
          ],
          [
            17.79730154576729,
            59.12910128111603
          ],
          [
            17.797214185621513,
            59.12948369104353
          ],
          [
            17.797573455272172,
            59.12979035565214
          ],
          [
            17.798064339617035,
            59.13010187343561
          ],
          [
            17.79873509495815,
            59.13029193966344
          ],
          [
            17.799354360399075,
            59.13049243660255
          ],
          [
            17.79991440577062,
            59.13073412924536
          ],
          [
            17.80055299951602,
            59.130942641661456
          ],
          [
            17.8012661716608,
            59.13114430675532
          ],
          [
            17.801962106064025,
            59.131181776192044
          ],
          [
            17.802592422745132,
            59.13137070686363
          ],
          [
            17.8031013419807,
            59.13164272249454
          ],
          [
            17.80369182048251,
            59.131908789408506
          ],
          [
            17.804346027362143,
            59.1320568875883
          ],
          [
            17.805100627347656,
            59.13215625261701
          ],
          [
            17.80583527936213,
            59.13225888021368
          ],
          [
            17.806506943470602,
            59.13246085881076
          ],
          [
            17.80707181524748,
            59.132658940625895
          ],
          [
            17.80779868817517,
            59.13286495926571
          ],
          [
            17.807332708944447,
            59.13317130536522
          ],
          [
            17.806991174481517,
            59.133531540063785
          ],
          [
            17.80663985730122,
            59.13387571067878
          ],
          [
            17.80638220887612,
            59.134236349549404
          ],
          [
            17.80627639299508,
            59.13459029728154
          ],
          [
            17.806023454627713,
            59.134981754800876
          ],
          [
            17.80560997677256,
            59.135326138536506
          ],
          [
            17.805165822790073,
            59.13557235408597
          ],
          [
            17.805143535835285,
            59.1359534025081
          ],
          [
            17.80516662171959,
            59.13635872440508
          ],
          [
            17.80535790275912,
            59.13671165353254
          ],
          [
            17.804650269754983,
            59.1368759201752
          ],
          [
            17.803960648736208,
            59.13708481853471
          ],
          [
            17.803367146517193,
            59.13729421266882
          ],
          [
            17.80302467990586,
            59.137594683859625
          ],
          [
            17.802782162964682,
            59.13795131430986
          ],
          [
            17.80249406794361,
            59.13833508942216
          ],
          [
            17.801926670418908,
            59.13856555131764
          ],
          [
            17.80149257669756,
            59.138881615136185
          ],
          [
            17.801115468768305,
            59.13924669438825
          ],
          [
            17.800788781660984,
            59.13956795628424
          ],
          [
            17.800527079013094,
            59.13992686893082
          ],
          [
            17.800710615301345,
            59.14026080146045
          ],
          [
            17.801009934483286,
            59.14063551495804
          ],
          [
            17.800845007913463,
            59.14102002752751
          ],
          [
            17.800594069359764,
            59.14136904550888
          ],
          [
            17.80055488414656,
            59.141768319661324
          ],
          [
            17.800672530112323,
            59.14214330612379
          ],
          [
            17.800759209469987,
            59.14252987434732
          ],
          [
            17.800570099534117,
            59.14291728921461
          ],
          [
            17.79990203077647,
            59.14307580828237
          ],
          [
            17.799313288734385,
            59.14325257902668
          ],
          [
            17.799152993366725,
            59.143349271469106
          ],
          [
            17.79895881778461,
            59.14373855879742
          ],
          [
            17.798477908516425,
            59.14384159646396
          ],
          [
            17.79839832826039,
            59.143877202544104
          ],
          [
            17.79808127599809,
            59.14421466468998
          ],
          [
            17.797586420772138,
            59.144979582246606
          ],
          [
            17.797461131420327,
            59.145296959103185
          ],
          [
            17.797471974552828,
            59.14548757157031
          ],
          [
            17.79769609875107,
            59.145688643062925
          ],
          [
            17.798081734767102,
            59.14606192639285
          ],
          [
            17.798090667872685,
            59.14641446039709
          ],
          [
            17.79757455063699,
            59.14693804919275
          ],
          [
            17.797547175455072,
            59.14733010762043
          ],
          [
            17.79742621641113,
            59.14772664376869
          ],
          [
            17.797163568733687,
            59.1480430684503
          ],
          [
            17.79714389615038,
            59.14841672637344
          ],
          [
            17.797556216572477,
            59.14870837582181
          ],
          [
            17.797956911757144,
            59.149045674181984
          ],
          [
            17.798232723677824,
            59.14938402598996
          ]
        ]
      }
    }
  ]
}
