{
  "type": "FeatureCollection",
  "features": [
    {
      "type": "Feature",
      "properties": {
        "name": "Stage 44: Sandstugan to Lindbacke",
        "source": "Sörmlandsleden official full GPX",
        "sourceFormat": "official-network-gpx",
        "sourceUrl": "https://www.sormlandsleden.se/wp-content/themes/sormlandsleden.se/Leden-2024-12-04.gpx",
        "lengthKm": 12.13
      },
      "geometry": {
        "type": "LineString",
        "coordinates": [
          [
            16.87486572112796,
            58.703376322774396
          ],
          [
            16.874128341141233,
            58.70613261391692
          ],
          [
            16.87488686941284,
            58.70607328975276
          ],
          [
            16.875453426912745,
            58.70631529763432
          ],
          [
            16.876133957295195,
            58.706278074720764
          ],
          [
            16.87652247057895,
            58.706136404245946
          ],
          [
            16.87665794550525,
            58.70600739800237
          ],
          [
            16.877085724383612,
            58.705707363492245
          ],
          [
            16.877745413200312,
            58.70557184728294
          ],
          [
            16.878411528046286,
            58.7056496943898
          ],
          [
            16.879066896692873,
            58.70562859795924
          ],
          [
            16.87995553747446,
            58.705370157934766
          ],
          [
            16.880670933661094,
            58.70542851269305
          ],
          [
            16.881345545382636,
            58.70561596255036
          ],
          [
            16.882018758264863,
            58.705799636732586
          ],
          [
            16.882557399139195,
            58.706052953345655
          ],
          [
            16.883089698067593,
            58.70636720597132
          ],
          [
            16.883640207721083,
            58.706527432647995
          ],
          [
            16.883660863038013,
            58.706832833436295
          ],
          [
            16.883622830743576,
            58.7071725796838
          ],
          [
            16.88336423036794,
            58.707337573840235
          ],
          [
            16.883204431617163,
            58.707424193676054
          ],
          [
            16.883114556808177,
            58.70759517093632
          ],
          [
            16.88338143268958,
            58.70782660040363
          ],
          [
            16.883975686374303,
            58.708140185027226
          ],
          [
            16.88420663125253,
            58.70853145412863
          ],
          [
            16.885088983497273,
            58.70902239079273
          ],
          [
            16.885630363584067,
            58.70960301143985
          ],
          [
            16.88590950770033,
            58.7099476177669
          ],
          [
            16.886356593400407,
            58.71000755611354
          ],
          [
            16.886624182402038,
            58.71024505137513
          ],
          [
            16.886790021043222,
            58.710491518409846
          ],
          [
            16.887111796599065,
            58.710094455561666
          ],
          [
            16.887354787793793,
            58.709834220228394
          ],
          [
            16.887659014023743,
            58.709644267649
          ],
          [
            16.888414221552523,
            58.70955952634936
          ],
          [
            16.88884157608908,
            58.709581025752925
          ],
          [
            16.88915142358218,
            58.70957455767697
          ],
          [
            16.889390924758526,
            58.709515766625245
          ],
          [
            16.88920745239635,
            58.70961256962072
          ],
          [
            16.88931254857714,
            58.70978382920602
          ],
          [
            16.889246356464312,
            58.70988146688413
          ],
          [
            16.889348359365293,
            58.709959249602214
          ],
          [
            16.88937652922917,
            58.7100576507082
          ],
          [
            16.88946722725209,
            58.71012796778389
          ],
          [
            16.88952281336828,
            58.71023622056538
          ],
          [
            16.88986221299299,
            58.71032457795836
          ],
          [
            16.889981429902896,
            58.7104283713498
          ],
          [
            16.890236153691962,
            58.7105412047226
          ],
          [
            16.890624351775468,
            58.71039348988252
          ],
          [
            16.89080403590036,
            58.710389554179564
          ],
          [
            16.890984053730655,
            58.71019320069995
          ],
          [
            16.891012845446262,
            58.710040341533414
          ],
          [
            16.89119719002935,
            58.710054878630075
          ],
          [
            16.89144377854359,
            58.709979475452776
          ],
          [
            16.892322637325606,
            58.710251364364105
          ],
          [
            16.895757186008456,
            58.71075662297237
          ],
          [
            16.896465939614558,
            58.710766730822286
          ],
          [
            16.897216484702234,
            58.710813294366396
          ],
          [
            16.898265786757495,
            58.71071404281428
          ],
          [
            16.898981801269336,
            58.710507229770556
          ],
          [
            16.89943115018896,
            58.710577997544455
          ],
          [
            16.90033689329837,
            58.710597882302565
          ],
          [
            16.900155023698268,
            58.71101549812176
          ],
          [
            16.900198784814187,
            58.71152145101318
          ],
          [
            16.900227485691207,
            58.71190165819579
          ],
          [
            16.90018349746925,
            58.71219477103431
          ],
          [
            16.899746873606315,
            58.71250705073197
          ],
          [
            16.899732830162506,
            58.71313375321915
          ],
          [
            16.89938280895426,
            58.713591700838684
          ],
          [
            16.899310778206374,
            58.714038274865125
          ],
          [
            16.899025505008183,
            58.71436027003412
          ],
          [
            16.898735434855176,
            58.714853023395335
          ],
          [
            16.898560148712114,
            58.71504931254335
          ],
          [
            16.898583978184593,
            58.71522784954733
          ],
          [
            16.898031829118935,
            58.71581052410837
          ],
          [
            16.897728904381154,
            58.7162239371018
          ],
          [
            16.89741044080116,
            58.716804189541726
          ],
          [
            16.897619194090247,
            58.717127791209315
          ],
          [
            16.897551202501074,
            58.71762020943712
          ],
          [
            16.897295349683954,
            58.717881481336754
          ],
          [
            16.89686204261368,
            58.71827401055301
          ],
          [
            16.896711467591018,
            58.718659887271976
          ],
          [
            16.89686927231116,
            58.71924150518967
          ],
          [
            16.897195264704386,
            58.7194090813607
          ],
          [
            16.897747500077525,
            58.71949666575446
          ],
          [
            16.898135978912205,
            58.719693366949635
          ],
          [
            16.898502265242968,
            58.72000516984895
          ],
          [
            16.899405226873508,
            58.72042501967668
          ],
          [
            16.899756873157997,
            58.72090115859984
          ],
          [
            16.89953800199375,
            58.721297217033765
          ],
          [
            16.899337486808474,
            58.72176083504785
          ],
          [
            16.899099743193364,
            58.7221183832215
          ],
          [
            16.89897379039694,
            58.722498868083235
          ],
          [
            16.898859758983054,
            58.72275704511277
          ],
          [
            16.90095509408459,
            58.72229159056911
          ],
          [
            16.901792523590743,
            58.722413398953485
          ],
          [
            16.902103284473153,
            58.722784579465554
          ],
          [
            16.902202686299617,
            58.72313696353201
          ],
          [
            16.902651591816266,
            58.72347436877073
          ],
          [
            16.903190038311525,
            58.72373868627524
          ],
          [
            16.903741579292806,
            58.72401439200593
          ],
          [
            16.90427211861682,
            58.724279593012255
          ],
          [
            16.904852640697126,
            58.72448746056071
          ],
          [
            16.905495521167882,
            58.724606128990885
          ],
          [
            16.906041761344458,
            58.72473583639955
          ],
          [
            16.9070501149323,
            58.72470245717206
          ],
          [
            16.90775477263231,
            58.724859578993566
          ],
          [
            16.90849100894588,
            58.72483128179294
          ],
          [
            16.909011098813604,
            58.725043734149466
          ],
          [
            16.909584232396934,
            58.725148093998904
          ],
          [
            16.910023458704934,
            58.72532705088799
          ],
          [
            16.909993912454766,
            58.7255527067048
          ],
          [
            16.909301263319236,
            58.72615555884176
          ],
          [
            16.909291311589367,
            58.72656234081066
          ],
          [
            16.90954199733446,
            58.72693553875368
          ],
          [
            16.90979850834984,
            58.727412535428066
          ],
          [
            16.91013226649996,
            58.7276257658475
          ],
          [
            16.910683397487045,
            58.72788207945515
          ],
          [
            16.911018784641346,
            58.72813747473737
          ],
          [
            16.910453173679972,
            58.728387915843335
          ],
          [
            16.910109086790328,
            58.72872827955267
          ],
          [
            16.910412722894655,
            58.72909351591687
          ],
          [
            16.911495555464967,
            58.72961552886066
          ],
          [
            16.911907360458123,
            58.729931123876874
          ],
          [
            16.91236253772775,
            58.730260724897796
          ],
          [
            16.912766929141743,
            58.730538714021954
          ],
          [
            16.913349514669857,
            58.73077983104866
          ],
          [
            16.913834156472802,
            58.73112026430397
          ],
          [
            16.914434345241443,
            58.731318333586046
          ],
          [
            16.915164404177855,
            58.731318894433294
          ],
          [
            16.915856439396183,
            58.73136057833108
          ],
          [
            16.916606588339246,
            58.73141941085918
          ],
          [
            16.91736636857213,
            58.73146837758617
          ],
          [
            16.918116464422965,
            58.73147038939027
          ],
          [
            16.918755213035936,
            58.73156949040418
          ],
          [
            16.919416287244292,
            58.73176787382702
          ],
          [
            16.91953084407755,
            58.73213175446396
          ],
          [
            16.920751614832813,
            58.73251706956927
          ],
          [
            16.92142826613552,
            58.732557505220676
          ],
          [
            16.922085214769858,
            58.73241125621279
          ],
          [
            16.92277841438607,
            58.73245432783926
          ],
          [
            16.923517679331397,
            58.73256487830473
          ],
          [
            16.92406590085421,
            58.73260872753694
          ],
          [
            16.9240720361484,
            58.73254805784663
          ],
          [
            16.924151248874907,
            58.73240285953664
          ],
          [
            16.924286879008534,
            58.732245003218935
          ],
          [
            16.924477606561638,
            58.732101778624106
          ],
          [
            16.924850977641686,
            58.73183535859539
          ],
          [
            16.924975148933612,
            58.73173199775528
          ],
          [
            16.925277165465616,
            58.73150514655653
          ],
          [
            16.9255076342448,
            58.73135473928039
          ],
          [
            16.925704641937443,
            58.73125206585902
          ],
          [
            16.926145513113887,
            58.73105681715221
          ],
          [
            16.926268513160238,
            58.73128990040123
          ],
          [
            16.92636617601712,
            58.73142692091564
          ],
          [
            16.92709323278041,
            58.731823507533676
          ],
          [
            16.927357182628057,
            58.73198225811925
          ],
          [
            16.92818633470222,
            58.73240819756858
          ],
          [
            16.928596531558004,
            58.73258343591621
          ],
          [
            16.928932633649783,
            58.732689879182544
          ],
          [
            16.929427571619627,
            58.73277799450816
          ],
          [
            16.929983842024264,
            58.73284979189879
          ],
          [
            16.930210552623716,
            58.7328822712091
          ],
          [
            16.930380478800046,
            58.7329177184828
          ],
          [
            16.93054728545875,
            58.732969684231094
          ],
          [
            16.931152004861072,
            58.73324978772969
          ],
          [
            16.931330809979983,
            58.73332358620719
          ],
          [
            16.932250485506035,
            58.73353276725071
          ],
          [
            16.933106170280876,
            58.73353150250245
          ],
          [
            16.93505025693763,
            58.73337412000664
          ],
          [
            16.93531991380152,
            58.73333713505734
          ],
          [
            16.935996770927854,
            58.73315848221714
          ],
          [
            16.936968211397662,
            58.73292192800496
          ],
          [
            16.937345561991165,
            58.732804148522376
          ],
          [
            16.93747819561928,
            58.732760340805335
          ],
          [
            16.937829264663158,
            58.73259586330436
          ],
          [
            16.93783016221473,
            58.732593881819504
          ],
          [
            16.93791594709175,
            58.73256432650121
          ],
          [
            16.938168413127453,
            58.7324381679751
          ],
          [
            16.938606586890316,
            58.732280774394525
          ],
          [
            16.939648816965207,
            58.73190372959702
          ],
          [
            16.93985002657472,
            58.73182887989488
          ],
          [
            16.940012996932772,
            58.73175919279812
          ],
          [
            16.940329411008054,
            58.731599785965656
          ],
          [
            16.94039201356955,
            58.73158819986097
          ],
          [
            16.940825974659028,
            58.731365013321565
          ],
          [
            16.94114583797031,
            58.73120048300575
          ],
          [
            16.941300444734715,
            58.73114303811891
          ],
          [
            16.94157512441426,
            58.73105952489951
          ],
          [
            16.942626658832058,
            58.73126436540368
          ],
          [
            16.942526415713882,
            58.731499230208165
          ],
          [
            16.94257297008002,
            58.73171986428632
          ],
          [
            16.942800812614472,
            58.73196399128063
          ],
          [
            16.94305960488189,
            58.73219072545298
          ],
          [
            16.943414264758147,
            58.73237220922969
          ],
          [
            16.943754925342848,
            58.7325456676335
          ],
          [
            16.944121295626044,
            58.73274753883229
          ],
          [
            16.94433325933309,
            58.73298607259284
          ],
          [
            16.944384628974163,
            58.73324148415378
          ],
          [
            16.94437058973291,
            58.733480972789856
          ],
          [
            16.94437967318783,
            58.73373194475092
          ],
          [
            16.94463489935765,
            58.73396108840128
          ],
          [
            16.944862312935648,
            58.73420173224453
          ],
          [
            16.944982186403468,
            58.734471367225844
          ],
          [
            16.945169722007396,
            58.73469111421256
          ],
          [
            16.945430247319532,
            58.73491742400583
          ],
          [
            16.945726167367873,
            58.73501441621179
          ],
          [
            16.94622084596235,
            58.73493160869068
          ],
          [
            16.946644185685795,
            58.73498569501366
          ],
          [
            16.946679794283163,
            58.73508627666735
          ],
          [
            16.946742125886495,
            58.73517065219454
          ],
          [
            16.947374241857084,
            58.73545864144568
          ],
          [
            16.94758216738153,
            58.735506259961774
          ],
          [
            16.948397087380055,
            58.735766574994756
          ],
          [
            16.948875508750064,
            58.735760330314065
          ],
          [
            16.949066350178718,
            58.73572009861781
          ],
          [
            16.9500770963435,
            58.735718258525075
          ],
          [
            16.95023225860111,
            58.735775573072466
          ],
          [
            16.951290331629597,
            58.73603960701784
          ],
          [
            16.95179785126926,
            58.736115496650996
          ],
          [
            16.95200102033845,
            58.73586562197665
          ],
          [
            16.952304121817093,
            58.73550186373039
          ],
          [
            16.952937432756546,
            58.73534130142006
          ],
          [
            16.95354544456591,
            58.73507237952403
          ],
          [
            16.954095402929113,
            58.73482955818514
          ],
          [
            16.95471697261019,
            58.734619937523995
          ],
          [
            16.955579530707023,
            58.73420170917325
          ],
          [
            16.956253832104917,
            58.73459534082479
          ],
          [
            16.956521541190728,
            58.73479118497176
          ],
          [
            16.956838166475247,
            58.73510264099439
          ],
          [
            16.95697709971479,
            58.735271556209526
          ],
          [
            16.957057904366398,
            58.735531381380994
          ],
          [
            16.95722866081508,
            58.73574976666083
          ],
          [
            16.957372735809738,
            58.735881530760096
          ],
          [
            16.957756316502962,
            58.736189380207165
          ],
          [
            16.958213230788186,
            58.736491639012804
          ],
          [
            16.958771855752627,
            58.73685283938243
          ],
          [
            16.958909969846644,
            58.73719082361729
          ],
          [
            16.958903821855607,
            58.737344199911135
          ],
          [
            16.958748905510866,
            58.73755242417362
          ],
          [
            16.95838803813664,
            58.737917814389746
          ],
          [
            16.957822380804405,
            58.73838379924336
          ],
          [
            16.95748161184231,
            58.73873904479992
          ],
          [
            16.957479222100574,
            58.73886579365176
          ],
          [
            16.957771522255097,
            58.73956714643971
          ],
          [
            16.957904630741794,
            58.739870009004065
          ],
          [
            16.957954283125044,
            58.74016627613416
          ],
          [
            16.95797001088322,
            58.740424429970965
          ],
          [
            16.957917872483435,
            58.74068618675071
          ],
          [
            16.957805770389413,
            58.74093988546408
          ],
          [
            16.95767096575974,
            58.74124305413821
          ],
          [
            16.957273720620552,
            58.741978483007834
          ],
          [
            16.95708395219362,
            58.74222813005665
          ],
          [
            16.95690168481765,
            58.74242672924704
          ],
          [
            16.95640203610085,
            58.7426373064594
          ],
          [
            16.95836431435475,
            58.743498022090236
          ],
          [
            16.959504515573833,
            58.74395313536345
          ],
          [
            16.961524131953638,
            58.74458832014205
          ],
          [
            16.963002937198393,
            58.744907071027754
          ],
          [
            16.965759722553223,
            58.74535985352271
          ],
          [
            16.96654385371764,
            58.74549933966538
          ],
          [
            16.96784048043125,
            58.74580403124756
          ],
          [
            16.969014766617928,
            58.74608335407061
          ],
          [
            16.96968297470352,
            58.745872510091985
          ],
          [
            16.970467860918443,
            58.745647355791625
          ],
          [
            16.971420274735,
            58.74541516616763
          ],
          [
            16.972510601640607,
            58.74523289607461
          ],
          [
            16.9734383843568,
            58.74511925314907
          ],
          [
            16.974942867402532,
            58.744964139217984
          ],
          [
            16.975495857298355,
            58.744896115406036
          ],
          [
            16.977168563328913,
            58.74461208401256
          ],
          [
            16.9779962694098,
            58.744490235784205
          ],
          [
            16.979650404644826,
            58.74446731776541
          ],
          [
            16.982107816552684,
            58.744470218300755
          ],
          [
            16.982293723657886,
            58.744493813481604
          ],
          [
            16.98319678094472,
            58.74453329379736
          ],
          [
            16.98519926274028,
            58.744559213321466
          ],
          [
            16.985934697641135,
            58.74458290694514
          ],
          [
            16.98737187485085,
            58.744599672044835
          ],
          [
            16.988353791526375,
            58.744604927229226
          ],
          [
            16.994109641775413,
            58.74464629782799
          ]
        ]
      }
    }
  ]
}
