{
  "type": "FeatureCollection",
  "features": [
    {
      "type": "Feature",
      "properties": {
        "name": "Stage 54: Karlfors kvarn to Gisekvarn",
        "source": "Sörmlandsleden official full GPX",
        "sourceFormat": "official-network-gpx",
        "sourceUrl": "https://www.sormlandsleden.se/wp-content/themes/sormlandsleden.se/Leden-2024-12-04.gpx",
        "lengthKm": 8.24
      },
      "geometry": {
        "type": "LineString",
        "coordinates": [
          [
            17.38102712875523,
            58.846494404496525
          ],
          [
            17.3803539307462,
            58.84664913346943
          ],
          [
            17.379842758306744,
            58.84691531331581
          ],
          [
            17.379535007349507,
            58.847233929953546
          ],
          [
            17.379225690401352,
            58.84784995330194
          ],
          [
            17.37922640404778,
            58.84824976980202
          ],
          [
            17.379194132525576,
            58.84863542769886
          ],
          [
            17.378685546895337,
            58.84896555549471
          ],
          [
            17.37868735442873,
            58.84937915693676
          ],
          [
            17.3786089121623,
            58.849704416848375
          ],
          [
            17.37856182353285,
            58.850078825710916
          ],
          [
            17.37867020910055,
            58.850449298153336
          ],
          [
            17.378806741405896,
            58.85087210878174
          ],
          [
            17.378514127898285,
            58.851147601047224
          ],
          [
            17.37785053542112,
            58.85117203349974
          ],
          [
            17.377033224637728,
            58.85138864158319
          ],
          [
            17.376546039714455,
            58.85152464289478
          ],
          [
            17.37608536974567,
            58.85183006676062
          ],
          [
            17.37559511692713,
            58.85215656277922
          ],
          [
            17.374734695318566,
            58.85217231210099
          ],
          [
            17.374307160057597,
            58.85232464904753
          ],
          [
            17.374067363877362,
            58.85259449844203
          ],
          [
            17.37393703359753,
            58.85300495198447
          ],
          [
            17.37347460173083,
            58.853327837626495
          ],
          [
            17.37277459137868,
            58.85336906146446
          ],
          [
            17.37220130727862,
            58.85337525689133
          ],
          [
            17.37147281106546,
            58.85351519503868
          ],
          [
            17.370916161036263,
            58.85369964450369
          ],
          [
            17.37036139122734,
            58.85347622850421
          ],
          [
            17.36959991208999,
            58.85351219016718
          ],
          [
            17.368965687403694,
            58.853310328987774
          ],
          [
            17.368308286245263,
            58.85319438056295
          ],
          [
            17.367575584982944,
            58.853249494710944
          ],
          [
            17.36683858232784,
            58.853343515134675
          ],
          [
            17.366235882571154,
            58.85350829633361
          ],
          [
            17.365595781116625,
            58.853625503505825
          ],
          [
            17.364884490024963,
            58.85347569314149
          ],
          [
            17.364194607577847,
            58.85355845702067
          ],
          [
            17.36381358263617,
            58.853878893512714
          ],
          [
            17.36333475739372,
            58.85425664618416
          ],
          [
            17.363324299590836,
            58.85465165800181
          ],
          [
            17.363155997947676,
            58.85506820518124
          ],
          [
            17.363226738715547,
            58.855394867162744
          ],
          [
            17.36314524114694,
            58.85554718101115
          ],
          [
            17.362891436808052,
            58.855822199979194
          ],
          [
            17.36333066213656,
            58.855947956079945
          ],
          [
            17.363767058474387,
            58.85617516149541
          ],
          [
            17.36388027781715,
            58.85630729666262
          ],
          [
            17.364141077117633,
            58.85673302104564
          ],
          [
            17.36430629798564,
            58.85700428424696
          ],
          [
            17.365322751224447,
            58.85743570270922
          ],
          [
            17.366217316683397,
            58.857074748772895
          ],
          [
            17.366484652146294,
            58.85700219435117
          ],
          [
            17.367212692965154,
            58.856887703167445
          ],
          [
            17.367767486775918,
            58.85660437467228
          ],
          [
            17.368653275875026,
            58.85596783374578
          ],
          [
            17.370668053263103,
            58.85558435766385
          ],
          [
            17.371273149174762,
            58.85595096921312
          ],
          [
            17.370990302224666,
            58.85629870825168
          ],
          [
            17.369912974165807,
            58.85686658823812
          ],
          [
            17.369622379164785,
            58.85705384612336
          ],
          [
            17.369324374576827,
            58.85721152619531
          ],
          [
            17.369005131109247,
            58.85753896365153
          ],
          [
            17.368770916091346,
            58.857692868756246
          ],
          [
            17.369257424849163,
            58.85784211696841
          ],
          [
            17.369801806671248,
            58.857900192197874
          ],
          [
            17.370425190664765,
            58.857795551744154
          ],
          [
            17.37110705055247,
            58.85779032381079
          ],
          [
            17.372209220002418,
            58.85790862233742
          ],
          [
            17.37241268125356,
            58.85805830582608
          ],
          [
            17.3730808579872,
            58.858039571679114
          ],
          [
            17.37369152334455,
            58.85794569654615
          ],
          [
            17.374409581230246,
            58.85811003178945
          ],
          [
            17.37450933889267,
            58.858518932837065
          ],
          [
            17.37494950341964,
            58.85875314819107
          ],
          [
            17.375331390279474,
            58.85909121202679
          ],
          [
            17.375323221399427,
            58.859482024157565
          ],
          [
            17.37527178831198,
            58.8598593524777
          ],
          [
            17.37629113471341,
            58.8604447583215
          ],
          [
            17.376803437135752,
            58.86070816247817
          ],
          [
            17.377077383254672,
            58.861041596920835
          ],
          [
            17.377187297592307,
            58.86216270169188
          ],
          [
            17.377538044162332,
            58.86250018983181
          ],
          [
            17.377833237826206,
            58.8628284549919
          ],
          [
            17.378392693230786,
            58.86309619178357
          ],
          [
            17.378821730654067,
            58.86340275352331
          ],
          [
            17.37931200646075,
            58.863701931681554
          ],
          [
            17.379671602949635,
            58.864034150399895
          ],
          [
            17.380109175469418,
            58.86448064699164
          ],
          [
            17.380595730979994,
            58.864353555628576
          ],
          [
            17.381233909375016,
            58.86422227245057
          ],
          [
            17.381752146858158,
            58.86395115826034
          ],
          [
            17.382309326649164,
            58.863759416071304
          ],
          [
            17.382963312746906,
            58.86389478692945
          ],
          [
            17.383724051196026,
            58.863888939246046
          ],
          [
            17.384463137984568,
            58.86384169037898
          ],
          [
            17.385155676979732,
            58.86374755227579
          ],
          [
            17.38586207407562,
            58.86358194943751
          ],
          [
            17.386504019077165,
            58.863424486478884
          ],
          [
            17.387240415598512,
            58.863265071278256
          ],
          [
            17.387930796414167,
            58.863150051748875
          ],
          [
            17.388490055822388,
            58.86289670402922
          ],
          [
            17.388860523959874,
            58.86255415037828
          ],
          [
            17.389456021648968,
            58.86236852487245
          ],
          [
            17.390207528163085,
            58.86229167593938
          ],
          [
            17.390857974484508,
            58.86250151122318
          ],
          [
            17.391377994188417,
            58.86275861802957
          ],
          [
            17.392070927847225,
            58.862898749779646
          ],
          [
            17.39277194131028,
            58.8630045436294
          ],
          [
            17.393475767172276,
            58.86315349266481
          ],
          [
            17.39398800689892,
            58.86341037804756
          ],
          [
            17.394135349685506,
            58.86367410746668
          ],
          [
            17.393945081493303,
            58.864476708307635
          ],
          [
            17.394479204368018,
            58.864705038015664
          ],
          [
            17.395078228368543,
            58.864866908337504
          ],
          [
            17.39581792160036,
            58.86498063067603
          ],
          [
            17.39658834635457,
            58.865042598540825
          ],
          [
            17.397261991844193,
            58.86494001519209
          ],
          [
            17.398010704126243,
            58.86487088421052
          ],
          [
            17.39874583369848,
            58.86472954722867
          ],
          [
            17.39945421630521,
            58.864772717711915
          ],
          [
            17.399810893787247,
            58.865080564076486
          ],
          [
            17.40007347275674,
            58.86559596316893
          ],
          [
            17.40004218697016,
            58.86595415918442
          ],
          [
            17.400050617436033,
            58.866357000864525
          ],
          [
            17.40017395843548,
            58.86671039684886
          ],
          [
            17.400456249111063,
            58.86710483141556
          ],
          [
            17.40092054731019,
            58.86739831956644
          ],
          [
            17.40147269021009,
            58.86764685643103
          ],
          [
            17.402053374518406,
            58.86792001980995
          ],
          [
            17.40260581202878,
            58.86814927969626
          ],
          [
            17.40322996258462,
            58.868446418896156
          ],
          [
            17.4037555604659,
            58.86870703776074
          ],
          [
            17.404336383167927,
            58.86895927470599
          ],
          [
            17.40486811052452,
            58.86870224148876
          ],
          [
            17.405512565957125,
            58.86858363955631
          ],
          [
            17.40620550525555,
            58.86863612303933
          ],
          [
            17.40691270666444,
            58.868473348999714
          ],
          [
            17.407384183329174,
            58.86819952749177
          ],
          [
            17.40726701129452,
            58.867786961632426
          ],
          [
            17.407397628310314,
            58.867412195123755
          ],
          [
            17.4075648745182,
            58.867046980848805
          ],
          [
            17.40816811097134,
            58.8667719931894
          ],
          [
            17.407892360287416,
            58.866039190620874
          ],
          [
            17.407700377700085,
            58.86575037005992
          ],
          [
            17.407874372572568,
            58.86538702156134
          ],
          [
            17.408223511422307,
            58.8654899624294
          ],
          [
            17.408500246716976,
            58.86549371884616
          ],
          [
            17.408731834386163,
            58.86547331017846
          ],
          [
            17.40898563557151,
            58.8654346686912
          ],
          [
            17.40935985429841,
            58.86533695933909
          ],
          [
            17.410151034523615,
            58.86510022479068
          ],
          [
            17.410605531788864,
            58.865043174078686
          ],
          [
            17.411508901078847,
            58.86449561339183
          ],
          [
            17.412089529718568,
            58.86420958703221
          ],
          [
            17.412251678629488,
            58.86441757991134
          ],
          [
            17.41229672634121,
            58.864544801630466
          ],
          [
            17.412371290703188,
            58.86466324814402
          ],
          [
            17.412393334879027,
            58.86483663603563
          ],
          [
            17.41240491924625,
            58.864951774066284
          ],
          [
            17.41250177545138,
            58.865016784718385
          ],
          [
            17.41281120874477,
            58.865269102904506
          ],
          [
            17.4129717838111,
            58.865443221383586
          ],
          [
            17.412980559775527,
            58.8656130750211
          ],
          [
            17.41294108017043,
            58.8657443150772
          ],
          [
            17.412918967030873,
            58.8659294771159
          ],
          [
            17.412969675779692,
            58.86601608719335
          ],
          [
            17.413381372628617,
            58.86599792914157
          ],
          [
            17.41417311195489,
            58.865970744582285
          ],
          [
            17.414392328033408,
            58.866002613766774
          ],
          [
            17.414567476722866,
            58.8660493723652
          ],
          [
            17.414801692787226,
            58.86612435032402
          ],
          [
            17.41504825239856,
            58.866229921248504
          ],
          [
            17.415225481251923,
            58.866337598079525
          ],
          [
            17.415536356755414,
            58.866566556975336
          ],
          [
            17.41567433829496,
            58.866715753968634
          ],
          [
            17.4158330520481,
            58.86686776848508
          ],
          [
            17.415898566243506,
            58.86697335309349
          ],
          [
            17.41594401330037,
            58.867058129979036
          ],
          [
            17.415996555743654,
            58.86720693976999
          ],
          [
            17.41606494982355,
            58.8673946787211
          ],
          [
            17.416087468402097,
            58.86750071158397
          ],
          [
            17.416176072747767,
            58.86780822922119
          ],
          [
            17.41619880124757,
            58.86796069804386
          ],
          [
            17.41620517537132,
            58.8681206296326
          ],
          [
            17.41617618603663,
            58.8682783266865
          ],
          [
            17.416119450019533,
            58.86849357619319
          ],
          [
            17.416091844912113,
            58.86866588652556
          ],
          [
            17.416047482164316,
            58.868719081003526
          ],
          [
            17.416064897328035,
            58.86888960066334
          ],
          [
            17.416148920459754,
            58.869006522042866
          ],
          [
            17.41646690100949,
            58.86938256843329
          ],
          [
            17.417074542148157,
            58.86999038704237
          ],
          [
            17.417372438655573,
            58.87032395660241
          ],
          [
            17.417471592763953,
            58.87042804461705
          ],
          [
            17.417459198040145,
            58.870577215165945
          ],
          [
            17.417158339163702,
            58.87109026391109
          ],
          [
            17.416910278696637,
            58.87151326468593
          ],
          [
            17.416872461914785,
            58.871626113727
          ],
          [
            17.416885618238297,
            58.871702878000875
          ],
          [
            17.417267322702585,
            58.87223728493249
          ],
          [
            17.417497256673766,
            58.87236907393444
          ],
          [
            17.4178615243132,
            58.87253705679122
          ],
          [
            17.418498683338598,
            58.87268669040554
          ],
          [
            17.418799894678113,
            58.87275582719335
          ],
          [
            17.41908231105922,
            58.8728084199397
          ],
          [
            17.419515596634692,
            58.8729021303397
          ],
          [
            17.419977103967792,
            58.87314472264568
          ],
          [
            17.42024914637107,
            58.87344339612817
          ],
          [
            17.420302984543568,
            58.87353563659841
          ],
          [
            17.42030785160449,
            58.87367950104744
          ],
          [
            17.420218566188748,
            58.87381439651612
          ],
          [
            17.420115517376686,
            58.87397392036399
          ],
          [
            17.42006795234859,
            58.874098295590855
          ],
          [
            17.420073776991487,
            58.87433336048534
          ],
          [
            17.420311630518157,
            58.87442279689425
          ],
          [
            17.42050094511884,
            58.874470583626284
          ],
          [
            17.421321325205632,
            58.87473678640511
          ],
          [
            17.421882052869588,
            58.87493001465525
          ],
          [
            17.42167295631034,
            58.87520850800924
          ]
        ]
      }
    }
  ]
}
