{
  "type": "FeatureCollection",
  "features": [
    {
      "type": "Feature",
      "properties": {
        "name": "Stage 32:2: Kolmårdens djurpark to Lövsjöns sydspets, etapp 32",
        "source": "official-provisional-network",
        "sourceFormat": "official-provisional-network",
        "sourceUrl": "https://www.sormlandsleden.se/vandring/etapp/etapp-32-2/",
        "lengthKm": 1.83
      },
      "geometry": {
        "type": "LineString",
        "coordinates": [
          [
            16.463837030610694,
            58.66749316446782
          ],
          [
            16.463002764492007,
            58.66762034337297
          ],
          [
            16.46309234438881,
            58.667893354566765
          ],
          [
            16.464743664756313,
            58.66812407605413
          ],
          [
            16.465588297201187,
            58.66840932649275
          ],
          [
            16.466294423763784,
            58.66875667149812
          ],
          [
            16.466994411816305,
            58.66922463311718
          ],
          [
            16.468056076364086,
            58.67000750543145
          ],
          [
            16.468502912359405,
            58.67038865732607
          ],
          [
            16.469030839806454,
            58.670798998820366
          ],
          [
            16.469562995825434,
            58.67125332917024
          ],
          [
            16.469981618825177,
            58.671656912050224
          ],
          [
            16.470311307792652,
            58.67220728348513
          ],
          [
            16.47078143810097,
            58.67265281493819
          ],
          [
            16.471111533543645,
            58.67305640829829
          ],
          [
            16.47216233288249,
            58.67388255808444
          ],
          [
            16.47260752701561,
            58.67440400467755
          ],
          [
            16.47291587798701,
            58.67495191884749
          ],
          [
            16.473125855026264,
            58.67565632169164
          ],
          [
            16.473349027449256,
            58.67632070964225
          ],
          [
            16.473646944258196,
            58.6767934126241
          ],
          [
            16.47399485734351,
            58.67666400095848
          ],
          [
            16.474436548670877,
            58.676728382340954
          ],
          [
            16.474738518788694,
            58.67682434682051
          ],
          [
            16.475368339823735,
            58.67701410484408
          ],
          [
            16.475808889155743,
            58.67713315321091
          ],
          [
            16.476216743098135,
            58.6774014883705
          ],
          [
            16.476393402381103,
            58.67768896610992
          ],
          [
            16.476530138575328,
            58.67804030555563
          ],
          [
            16.476525962734886,
            58.6783729630721
          ],
          [
            16.476826552105408,
            58.678569576194676
          ],
          [
            16.477146016421557,
            58.67878289288406
          ],
          [
            16.477131945652847,
            58.67895044560782
          ],
          [
            16.47776329016035,
            58.67920134242526
          ],
          [
            16.47776932258891,
            58.679318889719504
          ],
          [
            16.478239585713546,
            58.67980186684729
          ],
          [
            16.478598014983543,
            58.68014108644959
          ]
        ]
      }
    }
  ]
}
