{
  "type": "FeatureCollection",
  "features": [
    {
      "type": "Feature",
      "properties": {
        "name": "Stage 27:1: Stora Djulö to Etapp 27",
        "source": "Sörmlandsleden official full GPX",
        "sourceFormat": "official-network-gpx",
        "sourceUrl": "https://www.sormlandsleden.se/wp-content/themes/sormlandsleden.se/Leden-2024-12-04.gpx",
        "lengthKm": 3.78
      },
      "geometry": {
        "type": "LineString",
        "coordinates": [
          [
            16.212590635560396,
            58.97294745643869
          ],
          [
            16.21576976253794,
            58.97432815897709
          ],
          [
            16.216465406847426,
            58.974705297628034
          ],
          [
            16.21702365860934,
            58.97487999100102
          ],
          [
            16.218777122520272,
            58.97533384369404
          ],
          [
            16.22030722781378,
            58.9757396281674
          ],
          [
            16.220906166457674,
            58.97595918845767
          ],
          [
            16.221084455337394,
            58.97598947630588
          ],
          [
            16.221819936165875,
            58.976213124294674
          ],
          [
            16.222938731281225,
            58.97657449857497
          ],
          [
            16.223611939535648,
            58.97679146687347
          ],
          [
            16.22509159214179,
            58.97726357655211
          ],
          [
            16.225683874499193,
            58.97742336704149
          ],
          [
            16.22649213835939,
            58.97761935709115
          ],
          [
            16.22783991517971,
            58.977959316391306
          ],
          [
            16.229024856459244,
            58.97848961918592
          ],
          [
            16.229309440910182,
            58.97861213123296
          ],
          [
            16.2296474890895,
            58.97897490937267
          ],
          [
            16.22967583821424,
            58.979052130560355
          ],
          [
            16.230498747110662,
            58.979460021022334
          ],
          [
            16.231087857756236,
            58.97949790535271
          ],
          [
            16.231751962194583,
            58.97961933653256
          ],
          [
            16.232434141434705,
            58.979483307948186
          ],
          [
            16.23311498712187,
            58.979291008737114
          ],
          [
            16.23380694397359,
            58.97909856183539
          ],
          [
            16.234588481785753,
            58.979009356073355
          ],
          [
            16.2351760386766,
            58.978978157591825
          ],
          [
            16.235869716074873,
            58.97895599657335
          ],
          [
            16.236175448395723,
            58.97899228973271
          ],
          [
            16.236765236066717,
            58.97894715957526
          ],
          [
            16.23701791163961,
            58.978840956225305
          ],
          [
            16.237333649358465,
            58.97871604297051
          ],
          [
            16.238086363606175,
            58.978411379709385
          ],
          [
            16.23848541426513,
            58.97821559669012
          ],
          [
            16.239153959499273,
            58.977900069553804
          ],
          [
            16.239668215884336,
            58.977651439020484
          ],
          [
            16.23998342221056,
            58.97754490307032
          ],
          [
            16.2409620526294,
            58.977002634381805
          ],
          [
            16.241671813488125,
            58.97685755680185
          ],
          [
            16.242372771808757,
            58.97666791536386
          ],
          [
            16.243022176504155,
            58.97651262945697
          ],
          [
            16.243676608416212,
            58.976314819959704
          ],
          [
            16.244338163516915,
            58.976118849196055
          ],
          [
            16.245032862676386,
            58.97600735803909
          ],
          [
            16.245724017507573,
            58.975960508169194
          ],
          [
            16.24645819995657,
            58.97589818619081
          ],
          [
            16.24703143816773,
            58.975602208675504
          ],
          [
            16.247601641568945,
            58.97537820789828
          ],
          [
            16.248251525703232,
            58.97518305664944
          ],
          [
            16.248891927869103,
            58.97504122780946
          ],
          [
            16.249645545272518,
            58.97493587897021
          ],
          [
            16.250376094585018,
            58.97484331838426
          ],
          [
            16.251256274954137,
            58.97468404647827
          ],
          [
            16.25172412800253,
            58.97453722516653
          ],
          [
            16.252199408058996,
            58.97436588782888
          ],
          [
            16.253337297873134,
            58.974049135960726
          ],
          [
            16.2536955220773,
            58.97385801640284
          ],
          [
            16.25400463974947,
            58.97355418226299
          ],
          [
            16.25474743223004,
            58.97334203932119
          ],
          [
            16.256171123286922,
            58.97298601448973
          ],
          [
            16.25669608153117,
            58.972561317502006
          ],
          [
            16.257345373698296,
            58.97218237760171
          ],
          [
            16.258387228114643,
            58.97191488442564
          ],
          [
            16.259229683829577,
            58.97183464987275
          ],
          [
            16.259993822109102,
            58.971557087033304
          ],
          [
            16.258463257251154,
            58.970658365914105
          ],
          [
            16.25804666836692,
            58.9700618397697
          ],
          [
            16.258173415023634,
            58.969736704779514
          ],
          [
            16.259265249934522,
            58.96946107109653
          ],
          [
            16.25994366818196,
            58.96960642424396
          ],
          [
            16.26171038447246,
            58.97086489992388
          ]
        ]
      }
    }
  ]
}
