{
  "type": "FeatureCollection",
  "features": [
    {
      "type": "Feature",
      "properties": {
        "name": "Stage 45:1: Nyköpingshus to Strandstugeviken",
        "source": "OpenStreetMap route relation",
        "sourceFormat": "osm-relation",
        "sourceUrl": "https://www.openstreetmap.org/relation/9628620",
        "lengthKm": 10.45,
        "routeWarning": "The official catalog and OSM relation metadata list Stage 45:1 as 12 km from Nyköpingshus to Strandstugeviken. This drawn line uses OSM relation 9628620 to avoid a stale/wrong official-network GPX segment that pointed west of Nyköping; the point-to-point OSM line measures about 10.5 km, while Naturkartan/AllTrails/Äventyrligare/RouteYou values around 15-20 km appear to include Arnöhalvön loop or connector variants. Keep 12 km as the planning distance and show Arnöhalvön/Gästabudet/Örstigsnäs as related loop options only.",
        "currentOfficialDistanceKm": 12,
        "geometryConfidence": "osm-relation-point-to-point-loop-variant-distance-drift"
      },
      "geometry": {
        "type": "LineString",
        "coordinates": [
          [
            17.0097613,
            58.7486792
          ],
          [
            17.0093406,
            58.7480941
          ],
          [
            17.0090644,
            58.7479592
          ],
          [
            17.0091922,
            58.7478501
          ],
          [
            17.0092994,
            58.7477584
          ],
          [
            17.009247,
            58.7477505
          ],
          [
            17.009286,
            58.7476905
          ],
          [
            17.0093229,
            58.747596
          ],
          [
            17.0093193,
            58.7474701
          ],
          [
            17.0092741,
            58.7474125
          ],
          [
            17.009168,
            58.7473307
          ],
          [
            17.0090515,
            58.7472883
          ],
          [
            17.0089265,
            58.7472679
          ],
          [
            17.0087515,
            58.7472605
          ],
          [
            17.0079614,
            58.7472629
          ],
          [
            17.0076825,
            58.7472644
          ],
          [
            17.0073758,
            58.747309
          ],
          [
            17.0072947,
            58.74728
          ],
          [
            17.0066255,
            58.7472955
          ],
          [
            17.006677,
            58.7471717
          ],
          [
            17.0067017,
            58.7470954
          ],
          [
            17.0067371,
            58.7470145
          ],
          [
            17.0066754,
            58.7469902
          ],
          [
            17.0065901,
            58.7469438
          ],
          [
            17.0065482,
            58.7468792
          ],
          [
            17.006525,
            58.7467804
          ],
          [
            17.0065223,
            58.7462385
          ],
          [
            17.0066231,
            58.7459174
          ],
          [
            17.0066229,
            58.7458731
          ],
          [
            17.0065152,
            58.7455688
          ],
          [
            17.0065043,
            58.7448863
          ],
          [
            17.0065124,
            58.7447757
          ],
          [
            17.0065491,
            58.7446595
          ],
          [
            17.0065428,
            58.7443346
          ],
          [
            17.0066071,
            58.7442394
          ],
          [
            17.0068287,
            58.7441979
          ],
          [
            17.006771,
            58.7441322
          ],
          [
            17.0067657,
            58.7440608
          ],
          [
            17.0068191,
            58.744006
          ],
          [
            17.0066274,
            58.7439134
          ],
          [
            17.0065321,
            58.7438449
          ],
          [
            17.0065034,
            58.7437972
          ],
          [
            17.0064786,
            58.74351
          ],
          [
            17.006429,
            58.7432229
          ],
          [
            17.0063042,
            58.7427019
          ],
          [
            17.0062955,
            58.7426656
          ],
          [
            17.0062764,
            58.7421526
          ],
          [
            17.0062708,
            58.7419684
          ],
          [
            17.0062809,
            58.7412956
          ],
          [
            17.0062725,
            58.7409753
          ],
          [
            17.0062677,
            58.7406957
          ],
          [
            17.0063142,
            58.7405332
          ],
          [
            17.0065731,
            58.7404886
          ],
          [
            17.0067286,
            58.7404691
          ],
          [
            17.007072,
            58.7405721
          ],
          [
            17.0075065,
            58.7406166
          ],
          [
            17.0076133,
            58.7406239
          ],
          [
            17.0076654,
            58.7406275
          ],
          [
            17.0078243,
            58.7406212
          ],
          [
            17.0079641,
            58.7405855
          ],
          [
            17.0081687,
            58.7403565
          ],
          [
            17.0087152,
            58.7401851
          ],
          [
            17.0088363,
            58.7401591
          ],
          [
            17.009216,
            58.7401138
          ],
          [
            17.0094591,
            58.7400682
          ],
          [
            17.0099366,
            58.7398901
          ],
          [
            17.0105106,
            58.739659
          ],
          [
            17.0106822,
            58.7395616
          ],
          [
            17.0113796,
            58.7392721
          ],
          [
            17.012195,
            58.7390605
          ],
          [
            17.0129138,
            58.7389213
          ],
          [
            17.0137399,
            58.7387766
          ],
          [
            17.0139456,
            58.7387352
          ],
          [
            17.0145285,
            58.7386179
          ],
          [
            17.0150649,
            58.7385427
          ],
          [
            17.0156604,
            58.7384453
          ],
          [
            17.0162022,
            58.7383089
          ],
          [
            17.0167279,
            58.738217
          ],
          [
            17.0172443,
            58.7381142
          ],
          [
            17.0173341,
            58.7382295
          ],
          [
            17.0175058,
            58.7382615
          ],
          [
            17.0189756,
            58.7380959
          ],
          [
            17.0207646,
            58.7379038
          ],
          [
            17.0225242,
            58.7378189
          ],
          [
            17.0231652,
            58.7377549
          ],
          [
            17.0238465,
            58.7377744
          ],
          [
            17.0244205,
            58.7377465
          ],
          [
            17.0247075,
            58.7377201
          ],
          [
            17.0248014,
            58.7378635
          ],
          [
            17.0249167,
            58.7379859
          ],
          [
            17.0251474,
            58.7379651
          ],
          [
            17.0253941,
            58.7378565
          ],
          [
            17.0254809,
            58.7377246
          ],
          [
            17.0255689,
            58.7377618
          ],
          [
            17.0256885,
            58.7377959
          ],
          [
            17.0258041,
            58.7378061
          ],
          [
            17.0271033,
            58.7377876
          ],
          [
            17.0292032,
            58.7377737
          ],
          [
            17.0294904,
            58.7377263
          ],
          [
            17.0297795,
            58.7376686
          ],
          [
            17.0303911,
            58.7376909
          ],
          [
            17.0314103,
            58.7377076
          ],
          [
            17.031818,
            58.7376324
          ],
          [
            17.0328319,
            58.7373707
          ],
          [
            17.0338458,
            58.7369921
          ],
          [
            17.0344895,
            58.7367081
          ],
          [
            17.0350635,
            58.7364353
          ],
          [
            17.0357609,
            58.7361513
          ],
          [
            17.0365709,
            58.7358618
          ],
          [
            17.0368713,
            58.7357922
          ],
          [
            17.0378798,
            58.7357003
          ],
          [
            17.038427,
            58.7355862
          ],
          [
            17.0388883,
            58.7354386
          ],
          [
            17.0393979,
            58.735227
          ],
          [
            17.0399719,
            58.7350795
          ],
          [
            17.0407766,
            58.7350934
          ],
          [
            17.0415705,
            58.7351324
          ],
          [
            17.0419729,
            58.7351825
          ],
          [
            17.0423752,
            58.7351379
          ],
          [
            17.042917,
            58.735046
          ],
          [
            17.0433837,
            58.7349458
          ],
          [
            17.0439148,
            58.7347398
          ],
          [
            17.0447302,
            58.7344085
          ],
          [
            17.0463556,
            58.733757
          ],
          [
            17.0474607,
            58.7337431
          ],
          [
            17.0478649,
            58.7334675
          ],
          [
            17.0483082,
            58.7332113
          ],
          [
            17.048775,
            58.7326349
          ],
          [
            17.0498478,
            58.7323788
          ],
          [
            17.0501751,
            58.7322033
          ],
          [
            17.0507222,
            58.7322646
          ],
          [
            17.0526132,
            58.7321491
          ],
          [
            17.0532033,
            58.7321254
          ],
          [
            17.0539651,
            58.7319235
          ],
          [
            17.054767,
            58.7318247
          ],
          [
            17.0560652,
            58.7318219
          ],
          [
            17.0567626,
            58.7318831
          ],
          [
            17.0571113,
            58.7319973
          ],
          [
            17.0574492,
            58.7319903
          ],
          [
            17.0578515,
            58.7317718
          ],
          [
            17.0581788,
            58.7316214
          ],
          [
            17.0584094,
            58.7315991
          ],
          [
            17.058742,
            58.7315407
          ],
          [
            17.0591659,
            58.7314543
          ],
          [
            17.0596433,
            58.7315044
          ],
          [
            17.060641,
            58.7314432
          ],
          [
            17.0620143,
            58.7313346
          ],
          [
            17.0622128,
            58.731187
          ],
          [
            17.06276,
            58.7309448
          ],
          [
            17.0631033,
            58.7308808
          ],
          [
            17.0639026,
            58.7306357
          ],
          [
            17.0642728,
            58.7304854
          ],
          [
            17.0649916,
            58.7304213
          ],
          [
            17.0656675,
            58.7304603
          ],
          [
            17.065925,
            58.7304603
          ],
          [
            17.0667833,
            58.7303378
          ],
          [
            17.0677167,
            58.7301346
          ],
          [
            17.0687413,
            58.7301206
          ],
          [
            17.0698089,
            58.7297586
          ],
          [
            17.0702112,
            58.7296806
          ],
          [
            17.0705599,
            58.7297196
          ],
          [
            17.0715469,
            58.7295414
          ],
          [
            17.0727593,
            58.7293423
          ],
          [
            17.0745509,
            58.7297113
          ],
          [
            17.0747763,
            58.7298115
          ],
          [
            17.0744812,
            58.7303267
          ],
          [
            17.074551,
            58.7304659
          ],
          [
            17.0754468,
            58.7306748
          ],
          [
            17.0774424,
            58.7312288
          ],
          [
            17.0777804,
            58.7314237
          ],
          [
            17.0788601,
            58.731467
          ],
          [
            17.0812029,
            58.7318748
          ],
          [
            17.081632,
            58.732014
          ],
          [
            17.0824903,
            58.7321894
          ],
          [
            17.0834184,
            58.7326488
          ],
          [
            17.0840675,
            58.7334869
          ],
          [
            17.0843947,
            58.7342052
          ],
          [
            17.0845878,
            58.7347871
          ],
          [
            17.0848668,
            58.7351532
          ],
          [
            17.0861059,
            58.7348357
          ],
          [
            17.0861381,
            58.7347076
          ],
          [
            17.0864251,
            58.7346032
          ],
          [
            17.0877314,
            58.7342232
          ],
          [
            17.0877904,
            58.7341384
          ],
          [
            17.0876831,
            58.733981
          ],
          [
            17.0880157,
            58.7336496
          ],
          [
            17.0882571,
            58.7335661
          ],
          [
            17.0887077,
            58.7333907
          ],
          [
            17.0889491,
            58.7332264
          ],
          [
            17.0890027,
            58.7330371
          ],
          [
            17.0887398,
            58.7327893
          ],
          [
            17.0889491,
            58.7321239
          ],
          [
            17.0894158,
            58.7316143
          ],
          [
            17.0895284,
            58.7313748
          ],
          [
            17.089566,
            58.7311465
          ],
          [
            17.0900809,
            58.7308458
          ],
          [
            17.0901507,
            58.7305813
          ],
          [
            17.0903453,
            58.7303843
          ],
          [
            17.090238,
            58.7301726
          ],
          [
            17.0902294,
            58.7301143
          ],
          [
            17.0901951,
            58.7298831
          ],
          [
            17.0898518,
            58.7296603
          ],
          [
            17.0888433,
            58.7291813
          ],
          [
            17.0887694,
            58.729152
          ],
          [
            17.0878545,
            58.7287941
          ],
          [
            17.0863591,
            58.7283257
          ],
          [
            17.0843373,
            58.7280562
          ],
          [
            17.0842676,
            58.7280433
          ],
          [
            17.0836514,
            58.7279293
          ],
          [
            17.0832651,
            58.7278578
          ],
          [
            17.0822052,
            58.7276915
          ],
          [
            17.0819539,
            58.7276507
          ],
          [
            17.0819014,
            58.7276232
          ],
          [
            17.0817083,
            58.7276505
          ],
          [
            17.0808015,
            58.7276964
          ],
          [
            17.080593,
            58.727707
          ],
          [
            17.0794719,
            58.7277329
          ],
          [
            17.0778819,
            58.7276218
          ],
          [
            17.0760772,
            58.7276222
          ],
          [
            17.0758814,
            58.7277105
          ],
          [
            17.0757285,
            58.7277272
          ],
          [
            17.0753154,
            58.7277272
          ],
          [
            17.0750391,
            58.7277175
          ],
          [
            17.0747671,
            58.727693
          ],
          [
            17.074092,
            58.7275532
          ],
          [
            17.0730781,
            58.7272107
          ],
          [
            17.0723755,
            58.7269713
          ],
          [
            17.0724433,
            58.7269005
          ],
          [
            17.072222,
            58.7268475
          ],
          [
            17.0732133,
            58.7264107
          ],
          [
            17.0734545,
            58.7262902
          ],
          [
            17.0736849,
            58.7260972
          ],
          [
            17.0740604,
            58.7259663
          ],
          [
            17.0753747,
            58.7257853
          ],
          [
            17.075779,
            58.7256624
          ],
          [
            17.0758789,
            58.7256321
          ],
          [
            17.076283,
            58.7254354
          ],
          [
            17.076571,
            58.7252952
          ],
          [
            17.0767368,
            58.7252341
          ],
          [
            17.077735,
            58.7248663
          ],
          [
            17.0785371,
            58.7245892
          ],
          [
            17.0788106,
            58.7245014
          ],
          [
            17.0790574,
            58.7243887
          ],
          [
            17.0794838,
            58.724145
          ],
          [
            17.0797408,
            58.7240229
          ],
          [
            17.0800069,
            58.7239111
          ],
          [
            17.0803086,
            58.7238213
          ],
          [
            17.080438,
            58.7237645
          ],
          [
            17.0804941,
            58.7237141
          ],
          [
            17.0804977,
            58.7236674
          ],
          [
            17.0804947,
            58.7236095
          ],
          [
            17.0804339,
            58.7234841
          ],
          [
            17.0801758,
            58.7231814
          ],
          [
            17.0800199,
            58.722867
          ],
          [
            17.0798168,
            58.7224574
          ],
          [
            17.0798057,
            58.722435
          ],
          [
            17.0796689,
            58.7221587
          ],
          [
            17.0796984,
            58.7220116
          ],
          [
            17.0800364,
            58.7216161
          ],
          [
            17.0806318,
            58.7212819
          ],
          [
            17.0809864,
            58.7210506
          ],
          [
            17.081125,
            58.7209435
          ],
          [
            17.0812264,
            58.7208611
          ],
          [
            17.081276,
            58.7207325
          ],
          [
            17.0812448,
            58.7205463
          ],
          [
            17.0810658,
            58.7196631
          ],
          [
            17.0807497,
            58.7186502
          ],
          [
            17.0807404,
            58.7184707
          ],
          [
            17.0807922,
            58.7183728
          ],
          [
            17.08084,
            58.7182825
          ],
          [
            17.0811791,
            58.7181501
          ],
          [
            17.0816285,
            58.7180255
          ],
          [
            17.0821185,
            58.7178676
          ],
          [
            17.0826964,
            58.7176904
          ],
          [
            17.0830816,
            58.7175956
          ],
          [
            17.0836735,
            58.717559
          ],
          [
            17.0839413,
            58.7175534
          ],
          [
            17.0844682,
            58.7176212
          ],
          [
            17.0846131,
            58.7176399
          ],
          [
            17.0851859,
            58.7176735
          ],
          [
            17.0856642,
            58.7178134
          ],
          [
            17.0858493,
            58.7178675
          ],
          [
            17.0861475,
            58.7179885
          ],
          [
            17.0863406,
            58.7181556
          ],
          [
            17.0868621,
            58.7184429
          ],
          [
            17.0871305,
            58.7185166
          ],
          [
            17.0878569,
            58.7184994
          ],
          [
            17.0888391,
            58.7186967
          ],
          [
            17.0893976,
            58.7189478
          ],
          [
            17.0905222,
            58.7191486
          ],
          [
            17.0908709,
            58.7192299
          ],
          [
            17.0916085,
            58.719402
          ],
          [
            17.09176,
            58.7195601
          ],
          [
            17.0917788,
            58.7197287
          ],
          [
            17.0916907,
            58.7199361
          ],
          [
            17.0916641,
            58.7199826
          ],
          [
            17.0914535,
            58.7203519
          ],
          [
            17.0912615,
            58.7205816
          ]
        ]
      }
    }
  ]
}
