{
  "type": "FeatureCollection",
  "features": [
    {
      "type": "Feature",
      "properties": {
        "name": "Stage 24: Svalboviken to Lundsjön",
        "source": "Sörmlandsleden official full GPX",
        "sourceFormat": "official-network-gpx",
        "sourceUrl": "https://www.sormlandsleden.se/wp-content/themes/sormlandsleden.se/Leden-2024-12-04.gpx",
        "lengthKm": 15.81
      },
      "geometry": {
        "type": "LineString",
        "coordinates": [
          [
            16.32910412949314,
            59.171519136746696
          ],
          [
            16.328945179565377,
            59.1714746913286
          ],
          [
            16.32800305772485,
            59.1721959164787
          ],
          [
            16.32764550410539,
            59.172487971681754
          ],
          [
            16.32716787998562,
            59.172738729061905
          ],
          [
            16.32675287960031,
            59.17293978527506
          ],
          [
            16.32567121688876,
            59.17324010357762
          ],
          [
            16.324468066352875,
            59.17352097689036
          ],
          [
            16.323854435460003,
            59.17359985239362
          ],
          [
            16.3233886718323,
            59.173569591239946
          ],
          [
            16.322715644005893,
            59.17349160852047
          ],
          [
            16.32198560275781,
            59.17340310814987
          ],
          [
            16.321241144922862,
            59.173283403806124
          ],
          [
            16.320425202570966,
            59.17317855439098
          ],
          [
            16.320750272780344,
            59.17292686548865
          ],
          [
            16.32094828565818,
            59.17271202171577
          ],
          [
            16.320935313425984,
            59.172136331149346
          ],
          [
            16.320930963489708,
            59.17145471703941
          ],
          [
            16.31981661444442,
            59.17130368469113
          ],
          [
            16.319162579671023,
            59.17111294076754
          ],
          [
            16.318767250737793,
            59.17084068866708
          ],
          [
            16.318575825335664,
            59.170464102958164
          ],
          [
            16.318250039353565,
            59.170123203459816
          ],
          [
            16.317848007679988,
            59.1697910869096
          ],
          [
            16.317486114682392,
            59.1694461801229
          ],
          [
            16.317319382291547,
            59.16907358971422
          ],
          [
            16.31743456325813,
            59.16869160730082
          ],
          [
            16.317444050400226,
            59.16828511331741
          ],
          [
            16.31759343557816,
            59.167929315755494
          ],
          [
            16.31783119423904,
            59.16755850077206
          ],
          [
            16.318219340407765,
            59.167206612855246
          ],
          [
            16.31825426939735,
            59.16682167777729
          ],
          [
            16.318063819185472,
            59.16648219900125
          ],
          [
            16.317796312969378,
            59.16611062609575
          ],
          [
            16.317579821911117,
            59.16571540695444
          ],
          [
            16.31723250850157,
            59.16537395901163
          ],
          [
            16.316917327268502,
            59.165011975862676
          ],
          [
            16.316112351100784,
            59.1649198068501
          ],
          [
            16.315375050638394,
            59.16505435922525
          ],
          [
            16.314481450837782,
            59.16500277372036
          ],
          [
            16.313754571798988,
            59.1649924611414
          ],
          [
            16.313353871115158,
            59.16471488098517
          ],
          [
            16.31339246063757,
            59.1642114475181
          ],
          [
            16.313584503050883,
            59.16384670759926
          ],
          [
            16.31364426540681,
            59.163476041435594
          ],
          [
            16.313433219509868,
            59.1631426761264
          ],
          [
            16.313035932946303,
            59.162848808055095
          ],
          [
            16.312678413465772,
            59.16247637404742
          ],
          [
            16.312158136540273,
            59.16219810661074
          ],
          [
            16.31195013637795,
            59.16185352928825
          ],
          [
            16.311599479353056,
            59.16168646527814
          ],
          [
            16.31185144745194,
            59.16100307663831
          ],
          [
            16.31191903630507,
            59.160619031093766
          ],
          [
            16.311835663971365,
            59.16026446640759
          ],
          [
            16.311751332515648,
            59.15985042674828
          ],
          [
            16.311822454613438,
            59.159485256447915
          ],
          [
            16.31179630423467,
            59.159123722612875
          ],
          [
            16.311911965214986,
            59.158449162902436
          ],
          [
            16.311152878154985,
            59.15839790352473
          ],
          [
            16.310014297564436,
            59.15846090386292
          ],
          [
            16.309518818085703,
            59.15830772285239
          ],
          [
            16.3087743863634,
            59.1582139319574
          ],
          [
            16.30804787371561,
            59.15825880984981
          ],
          [
            16.307302338151782,
            59.158365290320376
          ],
          [
            16.30657512387585,
            59.158554921166015
          ],
          [
            16.305914258314203,
            59.158621990907235
          ],
          [
            16.305575646748466,
            59.15884857484867
          ],
          [
            16.304308307356205,
            59.15891318048178
          ],
          [
            16.303539208558803,
            59.15894449588815
          ],
          [
            16.30277424210752,
            59.15889623275492
          ],
          [
            16.302593324275623,
            59.15845943503341
          ],
          [
            16.30273475622121,
            59.15808906071102
          ],
          [
            16.30299922458825,
            59.157717204811874
          ],
          [
            16.303324918219936,
            59.157374440256866
          ],
          [
            16.303542927668868,
            59.15700526339347
          ],
          [
            16.303714724939066,
            59.1566109836218
          ],
          [
            16.303115584537725,
            59.15643394945509
          ],
          [
            16.302526459304836,
            59.15625427700072
          ],
          [
            16.30177960552278,
            59.15637873258048
          ],
          [
            16.301223432042498,
            59.156104746800075
          ],
          [
            16.300952325312945,
            59.15599151097582
          ],
          [
            16.30140308328085,
            59.15566796258087
          ],
          [
            16.300985048774244,
            59.155257526201474
          ],
          [
            16.30020319436587,
            59.15523718637499
          ],
          [
            16.29973471758443,
            59.15492024603076
          ],
          [
            16.299444559090567,
            59.15456359100828
          ],
          [
            16.299583956457738,
            59.154187879617744
          ],
          [
            16.299432738817238,
            59.15394967722009
          ],
          [
            16.299707383152032,
            59.15347414079882
          ],
          [
            16.299491484368772,
            59.153108610681265
          ],
          [
            16.29910418576731,
            59.15280962367488
          ],
          [
            16.298687095981606,
            59.15261847991967
          ],
          [
            16.298550842514118,
            59.15211099132966
          ],
          [
            16.298989930660582,
            59.15173669657149
          ],
          [
            16.298910863930924,
            59.151392780069955
          ],
          [
            16.298544067951667,
            59.15120613794948
          ],
          [
            16.29807151559927,
            59.151115571408546
          ],
          [
            16.297836025300732,
            59.15088423533852
          ],
          [
            16.297811783375604,
            59.15052447221114
          ],
          [
            16.29773761097499,
            59.15012869471661
          ],
          [
            16.297719372554532,
            59.14971910990804
          ],
          [
            16.298089174676196,
            59.14932871315345
          ],
          [
            16.298385559798295,
            59.14897527783234
          ],
          [
            16.298622176318897,
            59.14860890364651
          ],
          [
            16.29862500038818,
            59.14824733775486
          ],
          [
            16.297980281694596,
            59.14800828658736
          ],
          [
            16.297323977864487,
            59.14775219125679
          ],
          [
            16.297051763840848,
            59.147416899267306
          ],
          [
            16.29633908607056,
            59.147192846816424
          ],
          [
            16.295471132355345,
            59.14703959251219
          ],
          [
            16.294919418435825,
            59.146843101498135
          ],
          [
            16.294373099059808,
            59.14668105710417
          ],
          [
            16.2940196824027,
            59.146354675506736
          ],
          [
            16.293738355200574,
            59.14623350946739
          ],
          [
            16.293281260398867,
            59.1462683224958
          ],
          [
            16.292978708284995,
            59.14636465729593
          ],
          [
            16.29227965332532,
            59.1461846554418
          ],
          [
            16.29197002986385,
            59.14570815132518
          ],
          [
            16.29170822463773,
            59.1452194623619
          ],
          [
            16.291908440238334,
            59.14488552752124
          ],
          [
            16.29178006549359,
            59.14448079327599
          ],
          [
            16.2912899524527,
            59.14420752565277
          ],
          [
            16.29083997062956,
            59.14386747570774
          ],
          [
            16.290930200204365,
            59.143516734536874
          ],
          [
            16.291567450939723,
            59.143311684245795
          ],
          [
            16.29223796297007,
            59.14308188618012
          ],
          [
            16.29240828629213,
            59.14276125305079
          ],
          [
            16.29184224129779,
            59.1425073712178
          ],
          [
            16.291198306813566,
            59.14224838577311
          ],
          [
            16.29055377289231,
            59.142052753385386
          ],
          [
            16.289948140991427,
            59.14182424557925
          ],
          [
            16.28935047698178,
            59.14162484639684
          ],
          [
            16.2887984147611,
            59.141351603658045
          ],
          [
            16.288569249664814,
            59.140977545037785
          ],
          [
            16.288600025652457,
            59.140604819165745
          ],
          [
            16.288690176920525,
            59.140214481482076
          ],
          [
            16.288512653118293,
            59.139862353720666
          ],
          [
            16.28794710503527,
            59.1394872367
          ],
          [
            16.28716988824241,
            59.13925445348943
          ],
          [
            16.28658129991584,
            59.13935438740044
          ],
          [
            16.28584854946767,
            59.13958220519598
          ],
          [
            16.285347072802058,
            59.13974772456232
          ],
          [
            16.285083128818016,
            59.139423160435236
          ],
          [
            16.284860021095152,
            59.139055990269064
          ],
          [
            16.284670835011205,
            59.138659115956855
          ],
          [
            16.284289806635265,
            59.13829020312819
          ],
          [
            16.28390183975473,
            59.13808947502567
          ],
          [
            16.283691203530267,
            59.13769819298967
          ],
          [
            16.283856274660216,
            59.13734814310493
          ],
          [
            16.28346374591533,
            59.137016320243454
          ],
          [
            16.283425140003402,
            59.13662825532939
          ],
          [
            16.28355894800162,
            59.13625293974432
          ],
          [
            16.28380357767943,
            59.135895172661485
          ],
          [
            16.28387891671848,
            59.13553741690994
          ],
          [
            16.283705403753366,
            59.1351539169472
          ],
          [
            16.282995176108344,
            59.134551072434896
          ],
          [
            16.282730138017325,
            59.13457870979749
          ],
          [
            16.282439976185444,
            59.1346538713276
          ],
          [
            16.28222829980183,
            59.13475075158755
          ],
          [
            16.282050662707952,
            59.13469114265246
          ],
          [
            16.281769157329336,
            59.1343593254093
          ],
          [
            16.281087237109716,
            59.13417291262385
          ],
          [
            16.280340726879896,
            59.13411194838494
          ],
          [
            16.27970064938607,
            59.13386670835476
          ],
          [
            16.279330112948298,
            59.13357936735907
          ],
          [
            16.27926866623662,
            59.13319982468713
          ],
          [
            16.279236692177403,
            59.13283506102967
          ],
          [
            16.278744734541537,
            59.13254284638146
          ],
          [
            16.278175784119888,
            59.13228897445834
          ],
          [
            16.27755405317639,
            59.13207235017417
          ],
          [
            16.276994727700544,
            59.13181603453172
          ],
          [
            16.276252936180537,
            59.131450709033885
          ],
          [
            16.27568317091817,
            59.13147806210274
          ],
          [
            16.274567689860106,
            59.13139747931342
          ],
          [
            16.27466124091443,
            59.131091672134204
          ],
          [
            16.27428144546121,
            59.13077578097104
          ],
          [
            16.273954605236124,
            59.130468058886066
          ],
          [
            16.274180908266146,
            59.13009512871457
          ],
          [
            16.274457122288414,
            59.129749825832434
          ],
          [
            16.275068608666615,
            59.129440527760146
          ],
          [
            16.27551832790499,
            59.12911579337005
          ],
          [
            16.275860779137368,
            59.12880337901648
          ],
          [
            16.275250272469755,
            59.12839518059542
          ],
          [
            16.274763730785104,
            59.12805689560679
          ],
          [
            16.273977484578644,
            59.12779452580184
          ],
          [
            16.274225227270517,
            59.12745597361528
          ],
          [
            16.274281725161494,
            59.12707377735208
          ],
          [
            16.274571340092113,
            59.12675743630074
          ],
          [
            16.27515494974608,
            59.12649747279686
          ],
          [
            16.275731312014386,
            59.12623063779917
          ],
          [
            16.276298475291185,
            59.12598072240364
          ],
          [
            16.27684083172933,
            59.12570877871357
          ],
          [
            16.277348589680138,
            59.1254508246379
          ],
          [
            16.277878656887925,
            59.12514681904708
          ],
          [
            16.278393939448662,
            59.12485902992548
          ],
          [
            16.27835193482473,
            59.124485081755225
          ],
          [
            16.27876806279078,
            59.12417218127657
          ],
          [
            16.27903419701328,
            59.123816117485354
          ],
          [
            16.27918567547089,
            59.123428712447726
          ],
          [
            16.27950778049974,
            59.12309516681948
          ],
          [
            16.27986953680624,
            59.122773750176556
          ],
          [
            16.28039451990866,
            59.122491029523474
          ],
          [
            16.280898004039127,
            59.12217934331304
          ],
          [
            16.28143268147771,
            59.121901545261785
          ],
          [
            16.281912523757274,
            59.12162367208389
          ],
          [
            16.282257843257312,
            59.12125857808991
          ],
          [
            16.282484781490087,
            59.12099329058351
          ],
          [
            16.282572808660042,
            59.12057238926171
          ],
          [
            16.282647170446324,
            59.12018267865579
          ],
          [
            16.282536858487497,
            59.11981884345115
          ],
          [
            16.28239696259652,
            59.119375873174164
          ],
          [
            16.282252427258395,
            59.11899040778999
          ],
          [
            16.282151353652427,
            59.118302284790914
          ],
          [
            16.281232841434825,
            59.11813230985893
          ],
          [
            16.28003235768879,
            59.11792108206836
          ],
          [
            16.279478795502914,
            59.1175416831214
          ],
          [
            16.279029376550657,
            59.117137915461285
          ],
          [
            16.280406993765286,
            59.116696736546466
          ],
          [
            16.28064363613351,
            59.116250970723115
          ],
          [
            16.28120196104025,
            59.11570126803247
          ],
          [
            16.281146381725954,
            59.11546122847235
          ],
          [
            16.280895889913715,
            59.11500335726798
          ],
          [
            16.28086481454472,
            59.11445451232966
          ],
          [
            16.281250190717156,
            59.11409116861709
          ],
          [
            16.281742272693812,
            59.11379746345052
          ],
          [
            16.282608315715745,
            59.11362497207239
          ],
          [
            16.283112910165997,
            59.11335404062176
          ],
          [
            16.283057634149134,
            59.11294029005152
          ],
          [
            16.283033464637683,
            59.1122839315924
          ],
          [
            16.283034573435316,
            59.1118917641562
          ],
          [
            16.28354268447827,
            59.11134582033575
          ],
          [
            16.283877248092313,
            59.11118406958643
          ],
          [
            16.283602037582742,
            59.11106206042964
          ],
          [
            16.28332054160836,
            59.11102391365243
          ],
          [
            16.282984229034994,
            59.110951122097916
          ],
          [
            16.282525516205542,
            59.110715526599876
          ],
          [
            16.28230000331757,
            59.11059266567623
          ],
          [
            16.282158230534943,
            59.110471846705735
          ],
          [
            16.28191953407317,
            59.11030048688854
          ],
          [
            16.28165863845981,
            59.11014795097623
          ],
          [
            16.280626201165244,
            59.10985552537029
          ],
          [
            16.2803333353493,
            59.10979153901274
          ],
          [
            16.27993285393642,
            59.10970404944684
          ],
          [
            16.27950126177917,
            59.10968251755458
          ],
          [
            16.27910796960228,
            59.109462170856936
          ],
          [
            16.27895961729163,
            59.109345475977065
          ],
          [
            16.27869866034327,
            59.10919877789261
          ],
          [
            16.278183010188858,
            59.10911432554158
          ],
          [
            16.27782011950705,
            59.10906286582027
          ],
          [
            16.277433747035285,
            59.1089861488713
          ],
          [
            16.277232372195996,
            59.108886802663285
          ],
          [
            16.277175369769985,
            59.10883911579052
          ],
          [
            16.27712680145291,
            59.108712212405415
          ],
          [
            16.27704742237421,
            59.10851807052391
          ],
          [
            16.27694924639622,
            59.10835285937025
          ],
          [
            16.27679274881026,
            59.10797708488972
          ],
          [
            16.276720835569066,
            59.10788226884854
          ],
          [
            16.275823054274497,
            59.107264295207415
          ],
          [
            16.27545665213579,
            59.10698604649743
          ],
          [
            16.275230077737806,
            59.106532706340374
          ],
          [
            16.27440334856119,
            59.10582258150143
          ],
          [
            16.273360418627117,
            59.1058002644637
          ],
          [
            16.272967151645872,
            59.10556681193498
          ],
          [
            16.272277794508742,
            59.1055482646669
          ],
          [
            16.27162834262304,
            59.10540902789441
          ],
          [
            16.271233846724687,
            59.10505552874947
          ],
          [
            16.270887651735965,
            59.104720029260896
          ],
          [
            16.270617921906002,
            59.1043768947261
          ],
          [
            16.270181177171956,
            59.10404824155683
          ],
          [
            16.269800378754226,
            59.10371316439643
          ],
          [
            16.26935418707124,
            59.10335667201971
          ],
          [
            16.269111604549554,
            59.10301727763586
          ],
          [
            16.269179236559566,
            59.10266082869451
          ],
          [
            16.269549884493582,
            59.10234356595404
          ],
          [
            16.270852088234765,
            59.10186192864472
          ],
          [
            16.27148982044042,
            59.101686448795206
          ],
          [
            16.272150508840106,
            59.10147476558249
          ],
          [
            16.272751701353258,
            59.10123937008572
          ],
          [
            16.273217859914485,
            59.10106846228626
          ],
          [
            16.274116149677234,
            59.100743719503704
          ],
          [
            16.274329598379456,
            59.10048633901357
          ],
          [
            16.27492020595172,
            59.100234872707155
          ],
          [
            16.27542699400453,
            59.100202759408674
          ],
          [
            16.275847212585617,
            59.10000451803906
          ],
          [
            16.276347130255417,
            59.099880475503376
          ],
          [
            16.276484468203847,
            59.099594021193866
          ],
          [
            16.27719578421772,
            59.09931386180201
          ],
          [
            16.27727712974503,
            59.09892090556467
          ],
          [
            16.276926794105318,
            59.09867665687171
          ],
          [
            16.27655524389447,
            59.098316531151035
          ],
          [
            16.276774084294615,
            59.09797615465332
          ],
          [
            16.277313857778314,
            59.097439547376084
          ],
          [
            16.276144184095216,
            59.097226714188004
          ],
          [
            16.27519557807432,
            59.09708167165579
          ],
          [
            16.27438619264799,
            59.096750274898255
          ],
          [
            16.273920105157345,
            59.09651620010744
          ],
          [
            16.273705540658106,
            59.096171284761674
          ],
          [
            16.273841004185492,
            59.09586094872902
          ],
          [
            16.27368580757604,
            59.09553543247338
          ],
          [
            16.273846625377853,
            59.09532721466938
          ],
          [
            16.27460453648999,
            59.094985909628825
          ],
          [
            16.275383330813177,
            59.094482999878124
          ],
          [
            16.27579375247813,
            59.094174793990696
          ],
          [
            16.276104335881683,
            59.09385934185894
          ],
          [
            16.276919603283712,
            59.093212547886196
          ],
          [
            16.277980370589965,
            59.093083376934295
          ],
          [
            16.278985474921466,
            59.09272546264939
          ],
          [
            16.2791827093131,
            59.09237017056242
          ],
          [
            16.279775309515596,
            59.09208170723731
          ],
          [
            16.280339375406413,
            59.09187033407047
          ],
          [
            16.280994035628957,
            59.09165742827164
          ],
          [
            16.281732855442208,
            59.09152617093113
          ],
          [
            16.28185483585593,
            59.091249884375266
          ],
          [
            16.281309226205632,
            59.09098177649099
          ],
          [
            16.280944771634562,
            59.09075488062712
          ],
          [
            16.280808752163086,
            59.090503891366026
          ],
          [
            16.28025402442713,
            59.09048540365994
          ],
          [
            16.27985778994573,
            59.09010368045563
          ],
          [
            16.28041861617744,
            59.08947834261556
          ],
          [
            16.280748300387817,
            59.08911052423399
          ],
          [
            16.281209023864626,
            59.08878844486919
          ],
          [
            16.281267338582307,
            59.08851374860695
          ],
          [
            16.281973546684863,
            59.08837549415292
          ],
          [
            16.281989929507347,
            59.088197630643926
          ],
          [
            16.28092056262591,
            59.08788742934331
          ],
          [
            16.28087811439349,
            59.087635872659654
          ],
          [
            16.2809344169837,
            59.08727669918235
          ],
          [
            16.28037913757042,
            59.08708353325123
          ],
          [
            16.27966295536896,
            59.08691928379004
          ],
          [
            16.279269204228633,
            59.08662103381106
          ],
          [
            16.278994204799453,
            59.08588105943486
          ],
          [
            16.278646473923306,
            59.08557556429107
          ],
          [
            16.278032222766875,
            59.085352967547465
          ],
          [
            16.277653473443475,
            59.08548743492254
          ],
          [
            16.27684208802708,
            59.08565822184889
          ],
          [
            16.27599506451779,
            59.08588729690436
          ],
          [
            16.27553811673091,
            59.08585072470303
          ],
          [
            16.275126544862502,
            59.085749744999426
          ],
          [
            16.275107510077323,
            59.08544998121848
          ],
          [
            16.275324026901274,
            59.08513872962936
          ],
          [
            16.275852947021175,
            59.08489064954013
          ],
          [
            16.27639869712664,
            59.08459806016089
          ],
          [
            16.277081107524552,
            59.08441754461405
          ],
          [
            16.27778214412232,
            59.08427779779586
          ],
          [
            16.278516211508332,
            59.08419028118437
          ],
          [
            16.279411444245206,
            59.08405267247414
          ],
          [
            16.28003707228318,
            59.08400913898441
          ],
          [
            16.280680322064576,
            59.08393156298634
          ],
          [
            16.281808781970433,
            59.08394405725193
          ],
          [
            16.28227958301044,
            59.084110230440594
          ],
          [
            16.2829195978961,
            59.084235541385674
          ],
          [
            16.283676120949146,
            59.08422974453515
          ],
          [
            16.284405784016542,
            59.08415928501051
          ],
          [
            16.28509570698143,
            59.08401463862226
          ],
          [
            16.28619033606899,
            59.083879441452375
          ],
          [
            16.287235744715712,
            59.08363231857955
          ],
          [
            16.28839853808063,
            59.08344952782231
          ],
          [
            16.289136677706264,
            59.083114778895
          ],
          [
            16.28981764198768,
            59.08296337193897
          ],
          [
            16.290592580603597,
            59.08296388368223
          ],
          [
            16.29130857030558,
            59.08252032222556
          ],
          [
            16.29126978520413,
            59.08219979491497
          ],
          [
            16.2910931301652,
            59.081834052240026
          ],
          [
            16.290828907700767,
            59.08148384980271
          ],
          [
            16.290393218745724,
            59.08116035370455
          ],
          [
            16.290188196169833,
            59.08078542332474
          ]
        ]
      }
    }
  ]
}
