{
  "type": "FeatureCollection",
  "features": [
    {
      "type": "Feature",
      "properties": {
        "name": "Stage 11: Järna to Vattgruvan",
        "source": "Sörmlandsleden official full GPX",
        "sourceFormat": "official-network-gpx",
        "sourceUrl": "https://www.sormlandsleden.se/wp-content/themes/sormlandsleden.se/Leden-2024-12-04.gpx",
        "lengthKm": 8.51
      },
      "geometry": {
        "type": "LineString",
        "coordinates": [
          [
            17.56300352103505,
            59.09710906839603
          ],
          [
            17.561486057649063,
            59.09629618137047
          ],
          [
            17.560977596525532,
            59.09602296939703
          ],
          [
            17.560475050574958,
            59.09568266735719
          ],
          [
            17.55821656139331,
            59.094045407041094
          ],
          [
            17.55788451180272,
            59.094044914517404
          ],
          [
            17.55756318451716,
            59.09394244702369
          ],
          [
            17.557287101579565,
            59.09361428877153
          ],
          [
            17.55383038308602,
            59.094122366552696
          ],
          [
            17.553096808357875,
            59.094175271342834
          ],
          [
            17.55253168394529,
            59.09387929455796
          ],
          [
            17.552547553196376,
            59.09350863270586
          ],
          [
            17.552838125795024,
            59.09314712031783
          ],
          [
            17.55271204895858,
            59.09275870093203
          ],
          [
            17.552466861931492,
            59.09240480860811
          ],
          [
            17.551887094007274,
            59.09227670694393
          ],
          [
            17.55130105951559,
            59.09213883772253
          ],
          [
            17.550669625785197,
            59.09190934132871
          ],
          [
            17.549933837246616,
            59.09205683994442
          ],
          [
            17.549099511649395,
            59.09215059310989
          ],
          [
            17.54840444644036,
            59.09223282508615
          ],
          [
            17.547674027685495,
            59.09230022071231
          ],
          [
            17.5469345032552,
            59.092282833149405
          ],
          [
            17.546267718703415,
            59.09210734460859
          ],
          [
            17.545561650775156,
            59.09196952560419
          ],
          [
            17.544956435295216,
            59.091726747480166
          ],
          [
            17.544388986571434,
            59.091485449106315
          ],
          [
            17.543626528227435,
            59.09160475602351
          ],
          [
            17.54294871311586,
            59.09170225900765
          ],
          [
            17.54218976314136,
            59.09179562593521
          ],
          [
            17.541680918826046,
            59.09205440399958
          ],
          [
            17.541201441477114,
            59.09234912671386
          ],
          [
            17.54067003582598,
            59.09260582674043
          ],
          [
            17.540096722452194,
            59.09287733821333
          ],
          [
            17.540303806835027,
            59.093636548544254
          ],
          [
            17.540125460884692,
            59.09401394311047
          ],
          [
            17.53983550218802,
            59.0943399909345
          ],
          [
            17.539248228451417,
            59.094625574336426
          ],
          [
            17.53887628544052,
            59.0948486424196
          ],
          [
            17.537956829872027,
            59.09476398913587
          ],
          [
            17.537332174190094,
            59.09468115591894
          ],
          [
            17.536903030240023,
            59.09428745579106
          ],
          [
            17.536888321615148,
            59.093979413586176
          ],
          [
            17.536767933064336,
            59.09360029606617
          ],
          [
            17.536201968913844,
            59.093333460452946
          ],
          [
            17.53535392880898,
            59.09298140080263
          ],
          [
            17.53478667478432,
            59.09273348623401
          ],
          [
            17.534034364832777,
            59.09258690193597
          ],
          [
            17.533292260290487,
            59.092455126739395
          ],
          [
            17.53257529520529,
            59.09241743353575
          ],
          [
            17.531841451772667,
            59.09237954469599
          ],
          [
            17.53110864296735,
            59.092318912713935
          ],
          [
            17.53038988190789,
            59.09221096285358
          ],
          [
            17.529765452302087,
            59.091991282690714
          ],
          [
            17.529117606731184,
            59.09178871297373
          ],
          [
            17.528381119428765,
            59.09168785579474
          ],
          [
            17.527855657730175,
            59.09144033495734
          ],
          [
            17.527475092350045,
            59.09112160353851
          ],
          [
            17.527491897160502,
            59.09100839237797
          ],
          [
            17.52708910852933,
            59.09083193119179
          ],
          [
            17.5263060614673,
            59.09084488952904
          ],
          [
            17.525610395239323,
            59.091011217821446
          ],
          [
            17.524898098672526,
            59.09120560746252
          ],
          [
            17.52416796543091,
            59.09120456842526
          ],
          [
            17.523511851236545,
            59.09138931816012
          ],
          [
            17.52300377354917,
            59.091685022402196
          ],
          [
            17.52263421290141,
            59.0920277021248
          ],
          [
            17.522295269083816,
            59.0923704375157
          ],
          [
            17.52194428188466,
            59.092706040606714
          ],
          [
            17.521507656499253,
            59.09300532595947
          ],
          [
            17.520975380147366,
            59.09327177060178
          ],
          [
            17.520303028706397,
            59.09352738849651
          ],
          [
            17.519744036890714,
            59.09375560025197
          ],
          [
            17.519363616638636,
            59.09398805872241
          ],
          [
            17.519292020986356,
            59.094349709143046
          ],
          [
            17.51851857958439,
            59.09457943700712
          ],
          [
            17.517333544274834,
            59.094586663095555
          ],
          [
            17.51660761111134,
            59.09454765121232
          ],
          [
            17.51574281747861,
            59.09459224191944
          ],
          [
            17.514995804674708,
            59.09461204685416
          ],
          [
            17.51427311860107,
            59.09435293186252
          ],
          [
            17.51372435752648,
            59.09414489685204
          ],
          [
            17.51317417249501,
            59.09398764749922
          ],
          [
            17.512478609223578,
            59.09413014743103
          ],
          [
            17.511859369964732,
            59.09420581023273
          ],
          [
            17.510939710917786,
            59.09421298181473
          ],
          [
            17.510242164349762,
            59.09417412246968
          ],
          [
            17.50938046008733,
            59.09406750741711
          ],
          [
            17.50863418996004,
            59.09372081651236
          ],
          [
            17.508433303228927,
            59.09320191008631
          ],
          [
            17.50827520984874,
            59.09283518693699
          ],
          [
            17.508064873462786,
            59.09266685295911
          ],
          [
            17.507264448037592,
            59.09253762881746
          ],
          [
            17.506397651904745,
            59.092544460770945
          ],
          [
            17.505694141017262,
            59.09254210578724
          ],
          [
            17.50491425616978,
            59.09239428433701
          ],
          [
            17.50422738789905,
            59.092242528150216
          ],
          [
            17.50359303415244,
            59.092071056105276
          ],
          [
            17.502931177945527,
            59.09195224707437
          ],
          [
            17.50238812475084,
            59.091762354909235
          ],
          [
            17.50171119893428,
            59.091845204651996
          ],
          [
            17.501025330260777,
            59.0918236819669
          ],
          [
            17.500929042384815,
            59.09128817722405
          ],
          [
            17.500869725142774,
            59.090886642922115
          ],
          [
            17.500525293163733,
            59.09051602799759
          ],
          [
            17.500121032924902,
            59.09019603830414
          ],
          [
            17.499709287950704,
            59.08986481961997
          ],
          [
            17.499093250204577,
            59.089716372441245
          ],
          [
            17.49835348620911,
            59.089746745887936
          ],
          [
            17.497598158732036,
            59.08974896069147
          ],
          [
            17.496871110856635,
            59.08975711345113
          ],
          [
            17.49614369925385,
            59.08974202463364
          ],
          [
            17.495323847268857,
            59.08969990669709
          ],
          [
            17.4948590846323,
            59.08943640493514
          ],
          [
            17.494708878649888,
            59.08933292557165
          ],
          [
            17.49427968556552,
            59.089007761260945
          ],
          [
            17.49375888959544,
            59.08881176215565
          ],
          [
            17.492961337064866,
            59.08884555128017
          ],
          [
            17.492254130142076,
            59.088890481396774
          ],
          [
            17.491470207772498,
            59.088762378624864
          ],
          [
            17.490778724015087,
            59.08852050665491
          ],
          [
            17.49013538486588,
            59.08840021098739
          ],
          [
            17.489409895620312,
            59.08826058767243
          ],
          [
            17.488659728200766,
            59.088164290577616
          ],
          [
            17.48801476897067,
            59.088346827369264
          ],
          [
            17.487409264095803,
            59.088393826115066
          ],
          [
            17.48658861439371,
            59.08830468872342
          ],
          [
            17.485992988641062,
            59.08812283173957
          ],
          [
            17.485198723994223,
            59.087978317462586
          ],
          [
            17.484376549235076,
            59.087818105676355
          ],
          [
            17.48362499057751,
            59.08767872141509
          ],
          [
            17.483070972195094,
            59.08748394050157
          ],
          [
            17.482380892778085,
            59.087317646702175
          ],
          [
            17.481834556524774,
            59.08713952776873
          ],
          [
            17.48112629149446,
            59.086956942467864
          ],
          [
            17.48038442251668,
            59.0868339348245
          ],
          [
            17.479628579788876,
            59.08674528193168
          ],
          [
            17.478940290782283,
            59.08664156292161
          ],
          [
            17.478229688920422,
            59.0865361186731
          ],
          [
            17.47787578395952,
            59.08618718735813
          ],
          [
            17.477871753169268,
            59.08579619011438
          ],
          [
            17.478129994734633,
            59.085475202174
          ],
          [
            17.478214388562943,
            59.08510031112901
          ],
          [
            17.478244124953964,
            59.08496854118942
          ],
          [
            17.477857764483442,
            59.08464843198015
          ],
          [
            17.477101181651534,
            59.084583272818776
          ],
          [
            17.4764072931825,
            59.08459436726324
          ],
          [
            17.47569848295411,
            59.084709882892206
          ],
          [
            17.475016049513417,
            59.084529462361495
          ],
          [
            17.474293190071275,
            59.08443031018882
          ],
          [
            17.47407599409412,
            59.08438269531659
          ],
          [
            17.473523512082622,
            59.08464044814627
          ],
          [
            17.47286513087752,
            59.084780543509616
          ],
          [
            17.471737372710344,
            59.08463411543929
          ],
          [
            17.471155140758352,
            59.08462786204282
          ],
          [
            17.4703635905566,
            59.08453380315721
          ],
          [
            17.46927113918156,
            59.084601028429596
          ],
          [
            17.46839060219736,
            59.08460391689494
          ],
          [
            17.467297532565514,
            59.08444881858027
          ],
          [
            17.466535446894657,
            59.08430556408963
          ],
          [
            17.46596540659692,
            59.084295528982274
          ],
          [
            17.465335799714023,
            59.08420111199355
          ],
          [
            17.46465778078282,
            59.08421424225063
          ],
          [
            17.464054229014263,
            59.08437472570512
          ],
          [
            17.46330920825833,
            59.08436109218947
          ],
          [
            17.462569664850168,
            59.08438059904529
          ],
          [
            17.462023389236936,
            59.084634735202194
          ],
          [
            17.461410230607967,
            59.08488581282377
          ],
          [
            17.46080646194424,
            59.085140944627625
          ],
          [
            17.460252088610975,
            59.08538962829322
          ],
          [
            17.459593745862442,
            59.08550766835687
          ],
          [
            17.458110528309824,
            59.08545484842761
          ],
          [
            17.45740332508501,
            59.08524577824801
          ],
          [
            17.45696685057966,
            59.084940805847886
          ],
          [
            17.456905045237,
            59.08458986179754
          ],
          [
            17.457030208372668,
            59.0842184081431
          ],
          [
            17.457150883729152,
            59.083832146040855
          ],
          [
            17.456583084010003,
            59.08358390614374
          ],
          [
            17.456002186273732,
            59.08331097169098
          ],
          [
            17.455437816845205,
            59.08304579637904
          ],
          [
            17.454883492290175,
            59.08277537643212
          ],
          [
            17.45418628872436,
            59.08278099598306
          ],
          [
            17.453497733846454,
            59.08272414157296
          ],
          [
            17.452887221335466,
            59.08250311932601
          ],
          [
            17.452189846962114,
            59.08237454845106
          ],
          [
            17.450981807213456,
            59.08176672131613
          ],
          [
            17.450228167622996,
            59.081818831216125
          ],
          [
            17.449679289045566,
            59.08197877839114
          ]
        ]
      }
    }
  ]
}
