{
  "type": "FeatureCollection",
  "features": [
    {
      "type": "Feature",
      "properties": {
        "name": "Stage 5:3: Hemfosa to Etapp 6 (1 km från Paradiset)",
        "source": "Sörmlandsleden official full GPX",
        "sourceFormat": "official-network-gpx",
        "sourceUrl": "https://www.sormlandsleden.se/wp-content/themes/sormlandsleden.se/Leden-2024-12-04.gpx",
        "lengthKm": 14.09
      },
      "geometry": {
        "type": "LineString",
        "coordinates": [
          [
            17.956751975795644,
            59.0686956998215
          ],
          [
            17.956732500265453,
            59.06910038436836
          ],
          [
            17.95696007476521,
            59.069484901271935
          ],
          [
            17.95790404345572,
            59.06971299211362
          ],
          [
            17.957571075691384,
            59.07004441780798
          ],
          [
            17.95758149564282,
            59.0704258404407
          ],
          [
            17.95765129555101,
            59.070924931411945
          ],
          [
            17.95769693603357,
            59.07133250532484
          ],
          [
            17.957749453204205,
            59.071671547877486
          ],
          [
            17.95797096632861,
            59.072055324206396
          ],
          [
            17.95796408610725,
            59.072430541946865
          ],
          [
            17.95833010476697,
            59.07262232811392
          ],
          [
            17.958579283858008,
            59.07322721006088
          ],
          [
            17.95858424533291,
            59.07370598467073
          ],
          [
            17.95817885377308,
            59.073986586373955
          ],
          [
            17.958144836199008,
            59.07434550047922
          ],
          [
            17.95828050811872,
            59.07493057749482
          ],
          [
            17.957545422994617,
            59.0755916650096
          ],
          [
            17.957857938969717,
            59.07595114856476
          ],
          [
            17.95822671473591,
            59.0763002623965
          ],
          [
            17.958245633315244,
            59.07672907824578
          ],
          [
            17.95799980484897,
            59.07711106334497
          ],
          [
            17.958174307817192,
            59.077425274279726
          ],
          [
            17.958250334349643,
            59.077892646907216
          ],
          [
            17.958524393299207,
            59.07824794154497
          ],
          [
            17.958379233225017,
            59.078610367992326
          ],
          [
            17.957726949459637,
            59.07895458067863
          ],
          [
            17.95734423568074,
            59.07927152920357
          ],
          [
            17.95705414551188,
            59.07961231546223
          ],
          [
            17.956980419457913,
            59.079976428458345
          ],
          [
            17.957427592201135,
            59.080127770456585
          ],
          [
            17.957889123921976,
            59.080390002321444
          ],
          [
            17.95824174534038,
            59.08071941994348
          ],
          [
            17.95881535637549,
            59.08096257022142
          ],
          [
            17.959540938516948,
            59.08110802531841
          ],
          [
            17.959285995084105,
            59.081397792104895
          ],
          [
            17.95941611582603,
            59.0818717209179
          ],
          [
            17.95983957335601,
            59.08214269085135
          ],
          [
            17.960163093891303,
            59.082454624738126
          ],
          [
            17.960433603660718,
            59.08294181876773
          ],
          [
            17.9608679359902,
            59.08327580035357
          ],
          [
            17.96154564150374,
            59.08344146734073
          ],
          [
            17.962128738980127,
            59.08359413370712
          ],
          [
            17.962739234014375,
            59.08360497151777
          ],
          [
            17.962853580413356,
            59.08370591527885
          ],
          [
            17.962852986521884,
            59.084017576386174
          ],
          [
            17.963189225574933,
            59.0841917209515
          ],
          [
            17.963408287052395,
            59.084492632972015
          ],
          [
            17.963748910847368,
            59.08471517914348
          ],
          [
            17.963699726525583,
            59.08508854594518
          ],
          [
            17.963899548631524,
            59.08541880905899
          ],
          [
            17.964348251188095,
            59.085499343135496
          ],
          [
            17.964784793345654,
            59.08542599552167
          ],
          [
            17.96553387305795,
            59.08544688871868
          ],
          [
            17.965639976713444,
            59.0858772770765
          ],
          [
            17.965582095505145,
            59.08641800189375
          ],
          [
            17.9655414882723,
            59.08680978301307
          ],
          [
            17.96478830822584,
            59.08715081138459
          ],
          [
            17.964339183202245,
            59.08694936180883
          ],
          [
            17.963594298507736,
            59.08703719657071
          ],
          [
            17.96364337533455,
            59.08738712433356
          ],
          [
            17.962961456988733,
            59.08763077991949
          ],
          [
            17.962218897470443,
            59.088157088764326
          ],
          [
            17.961697532168184,
            59.088409677528674
          ],
          [
            17.96171925183097,
            59.08881421915156
          ],
          [
            17.96183241035757,
            59.08919468159705
          ],
          [
            17.961627508772995,
            59.089554871115446
          ],
          [
            17.961637767343255,
            59.089931444467375
          ],
          [
            17.961480411753513,
            59.09029451835989
          ],
          [
            17.96127338672303,
            59.0905297016827
          ],
          [
            17.96125579407313,
            59.0908234141131
          ],
          [
            17.961206423469164,
            59.091095532060265
          ],
          [
            17.960713251895402,
            59.091400583277675
          ],
          [
            17.960077745838845,
            59.09154772470485
          ],
          [
            17.959280651361148,
            59.09162793159
          ],
          [
            17.958534653602353,
            59.09157278520642
          ],
          [
            17.957929354775935,
            59.09144511771896
          ],
          [
            17.957184916844316,
            59.091250060364885
          ],
          [
            17.956649149615192,
            59.091013555412054
          ],
          [
            17.956027887631574,
            59.090720462919755
          ],
          [
            17.955116197996862,
            59.090632304389
          ],
          [
            17.954864435536933,
            59.090629682891915
          ],
          [
            17.954637433726134,
            59.09068890934429
          ],
          [
            17.954232368908055,
            59.09098173311208
          ],
          [
            17.953787173192644,
            59.09136273881193
          ],
          [
            17.953686731588082,
            59.09173284321102
          ],
          [
            17.95438879094141,
            59.09174275215811
          ],
          [
            17.95496709844575,
            59.09206367019832
          ],
          [
            17.955669248442323,
            59.09226692152771
          ],
          [
            17.956403847037294,
            59.092389565436854
          ],
          [
            17.956742164670878,
            59.09250762870891
          ],
          [
            17.95702363788137,
            59.0926331218674
          ],
          [
            17.95744090154941,
            59.09285832777254
          ],
          [
            17.957963658287515,
            59.093057315159946
          ],
          [
            17.958735195755516,
            59.09318064442047
          ],
          [
            17.95948770658179,
            59.09333343580454
          ],
          [
            17.9601657779043,
            59.09345515796954
          ],
          [
            17.960939334097596,
            59.09360587468697
          ],
          [
            17.961565758636684,
            59.09373300076892
          ],
          [
            17.962281652754697,
            59.093899426396405
          ],
          [
            17.963024965132867,
            59.094108538599556
          ],
          [
            17.96368607157265,
            59.09435487616384
          ],
          [
            17.964189416295188,
            59.0945723128369
          ],
          [
            17.964769969250828,
            59.09482270178397
          ],
          [
            17.965280879244908,
            59.09513881942761
          ],
          [
            17.96532209263252,
            59.095311131301436
          ],
          [
            17.9655069164837,
            59.09546139392869
          ],
          [
            17.965919230633883,
            59.095755611732365
          ],
          [
            17.966056049867305,
            59.09611836922322
          ],
          [
            17.966382426268197,
            59.09641106153188
          ],
          [
            17.96690157380139,
            59.09678771340016
          ],
          [
            17.967293165950736,
            59.09711364597862
          ],
          [
            17.967440874644616,
            59.097324012484854
          ],
          [
            17.96753775782401,
            59.09750017462356
          ],
          [
            17.96753401901697,
            59.0976960512494
          ],
          [
            17.96766030110428,
            59.097879292000314
          ],
          [
            17.968750409052245,
            59.097966985133034
          ],
          [
            17.969431957717067,
            59.097832755657535
          ],
          [
            17.969936849514532,
            59.097792628388305
          ],
          [
            17.97029047429922,
            59.09781593040316
          ],
          [
            17.97096666078232,
            59.09793294958286
          ],
          [
            17.971457483399284,
            59.09803619639309
          ],
          [
            17.971858963895336,
            59.098390988887104
          ],
          [
            17.972129568410033,
            59.098731844416676
          ],
          [
            17.972499133223344,
            59.0990829975418
          ],
          [
            17.973075538003727,
            59.09932076166099
          ],
          [
            17.973533057683127,
            59.09962881788067
          ],
          [
            17.973813408578454,
            59.09996591742366
          ],
          [
            17.97373848181154,
            59.100345482003966
          ],
          [
            17.974137428785358,
            59.10067847199467
          ],
          [
            17.97474221863149,
            59.100855413025315
          ],
          [
            17.97552533538043,
            59.100913140883506
          ],
          [
            17.97572864320095,
            59.101156395852094
          ],
          [
            17.974582863673213,
            59.101775598491685
          ],
          [
            17.97451172955281,
            59.10217929566309
          ],
          [
            17.974134122173478,
            59.10252240682841
          ],
          [
            17.973707622545334,
            59.10283978457839
          ],
          [
            17.973725185016026,
            59.10333090790342
          ],
          [
            17.97379182093729,
            59.103713871636316
          ],
          [
            17.97395906759171,
            59.1039829792645
          ],
          [
            17.974304123455447,
            59.10432682938282
          ],
          [
            17.973294664122424,
            59.104743182878146
          ],
          [
            17.974083314557337,
            59.10544585264516
          ],
          [
            17.97440824612367,
            59.10577156901553
          ],
          [
            17.974423144588233,
            59.10630793573159
          ],
          [
            17.974457140924507,
            59.10705021388929
          ],
          [
            17.974476050237644,
            59.10740433492634
          ],
          [
            17.974978359684844,
            59.10771660863785
          ],
          [
            17.975426348860815,
            59.10806529961588
          ],
          [
            17.975681475841363,
            59.10828391481917
          ],
          [
            17.975806744271978,
            59.10858492267066
          ],
          [
            17.975846891891436,
            59.10867144820483
          ],
          [
            17.97601614892072,
            59.108776549374824
          ],
          [
            17.976302309501897,
            59.10893948583847
          ],
          [
            17.976534798086703,
            59.109057254832805
          ],
          [
            17.97682268078424,
            59.10916989058841
          ],
          [
            17.977085391287012,
            59.10922557047589
          ],
          [
            17.977347784956393,
            59.109241412770515
          ],
          [
            17.977867846456547,
            59.109233045110734
          ],
          [
            17.97790195161142,
            59.10964158809906
          ],
          [
            17.977926383989736,
            59.11002848601033
          ],
          [
            17.977926003069204,
            59.11021710114301
          ],
          [
            17.97794649345376,
            59.11023741179448
          ],
          [
            17.977946014081805,
            59.110427685651864
          ],
          [
            17.977868318516663,
            59.11047541886275
          ],
          [
            17.977758118525514,
            59.11067090023548
          ],
          [
            17.977651184439956,
            59.11079956243069
          ],
          [
            17.97735352912168,
            59.11114029266032
          ],
          [
            17.976918011626342,
            59.111487467419735
          ],
          [
            17.97578088939747,
            59.112467490787864
          ],
          [
            17.975364418914648,
            59.11279308093042
          ],
          [
            17.975165405926546,
            59.11294517010344
          ],
          [
            17.974948398654767,
            59.11309924816884
          ],
          [
            17.97433882586544,
            59.113558553739466
          ],
          [
            17.976060263717045,
            59.11401802166062
          ],
          [
            17.978029283923135,
            59.1145606700207
          ],
          [
            17.97881942134351,
            59.11481048062074
          ],
          [
            17.98053321208031,
            59.11424582764024
          ],
          [
            17.98124296377951,
            59.11410306522052
          ],
          [
            17.981948711381374,
            59.114015013616246
          ],
          [
            17.98272884147007,
            59.113908628925536
          ],
          [
            17.9841662476295,
            59.11376179608463
          ],
          [
            17.984913587825236,
            59.11368261532369
          ],
          [
            17.98553954393246,
            59.11373426543424
          ],
          [
            17.985632521420886,
            59.1141294921877
          ],
          [
            17.985568780521,
            59.114505456908184
          ],
          [
            17.985398957965767,
            59.114887597970956
          ],
          [
            17.985196008598376,
            59.115255002957895
          ],
          [
            17.98504223231557,
            59.115634828469496
          ],
          [
            17.98496263750167,
            59.116020675625755
          ],
          [
            17.984983207998084,
            59.11642012730163
          ],
          [
            17.985171390004826,
            59.11675951288622
          ],
          [
            17.985590188002877,
            59.11711731896855
          ],
          [
            17.98604515105104,
            59.11744054223426
          ],
          [
            17.98644459921341,
            59.11777889983217
          ],
          [
            17.986889411988795,
            59.11803884487363
          ],
          [
            17.98738348735692,
            59.11832688976598
          ],
          [
            17.988523402470562,
            59.11847209955149
          ],
          [
            17.98921319944095,
            59.11881882116707
          ],
          [
            17.98970733799363,
            59.11903468611452
          ],
          [
            17.990404353510627,
            59.11905832185453
          ],
          [
            17.991905064265474,
            59.11895947517277
          ],
          [
            17.992698203060435,
            59.11900109166348
          ],
          [
            17.993402501971193,
            59.11900655904552
          ],
          [
            17.994020202054863,
            59.11921471388687
          ],
          [
            17.99465975215416,
            59.11947356522141
          ],
          [
            17.995302873652392,
            59.11964884973526
          ],
          [
            17.99590614961786,
            59.119745746690995
          ],
          [
            17.996345748581227,
            59.11978228826632
          ],
          [
            17.996646811730017,
            59.119880511981236
          ],
          [
            17.99705595311462,
            59.120018102502044
          ],
          [
            17.997311208782705,
            59.120144392417444
          ],
          [
            17.99752064244817,
            59.120315381699406
          ],
          [
            17.997636612694148,
            59.12045911995108
          ],
          [
            17.998277353609986,
            59.121290321390404
          ],
          [
            17.998426120529185,
            59.12153789055279
          ],
          [
            17.998746850989665,
            59.121862058180675
          ],
          [
            17.999112565048694,
            59.12223743997324
          ],
          [
            17.999593467462994,
            59.12253763757688
          ],
          [
            18.000074589800374,
            59.12283620159112
          ],
          [
            18.000760931476083,
            59.1229966805145
          ],
          [
            18.001449918124713,
            59.12310725228443
          ],
          [
            18.002204294009868,
            59.123173096868754
          ],
          [
            18.00296335211546,
            59.12326893509819
          ],
          [
            18.003643968988275,
            59.12342178976776
          ],
          [
            18.00410168223527,
            59.12374455731997
          ],
          [
            18.004391808864437,
            59.124055618671704
          ],
          [
            18.004833605788964,
            59.1244403757048
          ],
          [
            18.005167134266898,
            59.124716617409625
          ],
          [
            18.004619087585322,
            59.12499855971474
          ],
          [
            18.0042541321409,
            59.12519871915945
          ],
          [
            18.004024748911508,
            59.12532201728433
          ],
          [
            18.003195412025256,
            59.12587420722502
          ],
          [
            18.002835607606364,
            59.126138541688434
          ],
          [
            18.00249499531104,
            59.12658445561786
          ],
          [
            18.002364421706137,
            59.126763095990384
          ],
          [
            18.002163444041564,
            59.12693926139053
          ],
          [
            18.002895718554747,
            59.1274395573867
          ],
          [
            18.003542086089393,
            59.12765302349872
          ],
          [
            18.00421223870777,
            59.1278314765997
          ],
          [
            18.00476027102272,
            59.12816089702751
          ],
          [
            18.005197850973477,
            59.128419541253976
          ],
          [
            18.0058266380288,
            59.12866107755483
          ],
          [
            18.0062395379927,
            59.128993831278436
          ],
          [
            18.006526878555935,
            59.1293781509373
          ],
          [
            18.00725977982892,
            59.12947989261472
          ],
          [
            18.00829248108736,
            59.129553142941695
          ],
          [
            18.009045110108833,
            59.12957908225914
          ],
          [
            18.009788922133016,
            59.12946947156849
          ],
          [
            18.01053945792512,
            59.12946100505313
          ],
          [
            18.011241952621297,
            59.129562858878714
          ],
          [
            18.011695909851184,
            59.12985037497285
          ],
          [
            18.011916341989846,
            59.130232739766406
          ],
          [
            18.011983370048256,
            59.13028196487676
          ],
          [
            18.012341329931182,
            59.1306100527541
          ],
          [
            18.012603081878652,
            59.130987419432
          ],
          [
            18.012930958771456,
            59.13132106919326
          ],
          [
            18.01329562269064,
            59.13167687425562
          ],
          [
            18.013696261547395,
            59.13196128316592
          ],
          [
            18.014188747520414,
            59.1322527068154
          ],
          [
            18.01480932788294,
            59.13248460782501
          ],
          [
            18.015557391656277,
            59.1326369675615
          ],
          [
            18.016259847486833,
            59.13269503479526
          ],
          [
            18.016999677663694,
            59.13277311024801
          ],
          [
            18.017713863256002,
            59.1329026380047
          ],
          [
            18.01837375140943,
            59.13307051386528
          ],
          [
            18.01904164540483,
            59.13324525847114
          ],
          [
            18.019785246506107,
            59.13337943855307
          ],
          [
            18.02053816609978,
            59.13342604629293
          ],
          [
            18.02081202269858,
            59.13349302479804
          ],
          [
            18.021551069055306,
            59.133644594128114
          ],
          [
            18.022262736284024,
            59.13372534574192
          ],
          [
            18.02298629531752,
            59.133746685312985
          ],
          [
            18.023684980372323,
            59.13359378657268
          ],
          [
            18.02441382580166,
            59.13348695599607
          ],
          [
            18.025161069736072,
            59.13350061782498
          ],
          [
            18.025911000472092,
            59.13356900768963
          ],
          [
            18.026575015544324,
            59.13369656272182
          ],
          [
            18.026985396145704,
            59.133778585278385
          ],
          [
            18.026303147600267,
            59.13404115301737
          ],
          [
            18.025689928037487,
            59.134298815077386
          ],
          [
            18.025460540052883,
            59.13453103500313
          ],
          [
            18.025507165885596,
            59.134848882911825
          ],
          [
            18.02481756099486,
            59.13496058119784
          ],
          [
            18.024253787924312,
            59.13520535397227
          ],
          [
            18.023732520587952,
            59.13540241582059
          ],
          [
            18.023405603798423,
            59.13555923205581
          ],
          [
            18.02134564758894,
            59.13550987449976
          ],
          [
            18.02107199320907,
            59.135635317519906
          ],
          [
            18.02099654497973,
            59.13598329548072
          ],
          [
            18.020443309866796,
            59.13621318940286
          ],
          [
            18.01979605174316,
            59.13645086216584
          ],
          [
            18.01904575651063,
            59.136496283587206
          ],
          [
            18.018391606434143,
            59.13662029657934
          ],
          [
            18.01770417659053,
            59.136775984166306
          ],
          [
            18.016884338531018,
            59.13684884058212
          ],
          [
            18.01615718801034,
            59.13713346000643
          ],
          [
            18.01650909888458,
            59.13762610362536
          ],
          [
            18.01709214412592,
            59.13797376953993
          ],
          [
            18.017369191385946,
            59.13855064024785
          ],
          [
            18.017937948310973,
            59.13870880762847
          ],
          [
            18.018775654371886,
            59.138637123155405
          ],
          [
            18.019184439421537,
            59.138654352703306
          ],
          [
            18.019567057691816,
            59.13893514353422
          ],
          [
            18.018907015547335,
            59.139155503372756
          ],
          [
            18.01909006877488,
            59.13957569541506
          ],
          [
            18.0187440082421,
            59.13981258500515
          ],
          [
            18.01822306397359,
            59.140399752928445
          ],
          [
            18.0179558264034,
            59.140784713435444
          ],
          [
            18.018019016671953,
            59.14117668832422
          ],
          [
            18.01787572546738,
            59.141616041678994
          ],
          [
            18.017854460877583,
            59.1421244189913
          ],
          [
            18.018395774642546,
            59.14235395519107
          ],
          [
            18.019108630728073,
            59.14256946345532
          ],
          [
            18.019874305369935,
            59.14273478355945
          ],
          [
            18.020468888975376,
            59.1429762405026
          ],
          [
            18.020493047906434,
            59.14319265146869
          ],
          [
            18.020490353394838,
            59.14362907167041
          ],
          [
            18.02037142555505,
            59.143988466500254
          ],
          [
            18.020874017330797,
            59.14437945814006
          ],
          [
            18.020702970221983,
            59.14461304053618
          ],
          [
            18.020122275084354,
            59.14494595290132
          ],
          [
            18.01969476038039,
            59.14527511280286
          ],
          [
            18.01954009075292,
            59.14566706128891
          ],
          [
            18.01964510505002,
            59.14607618682595
          ],
          [
            18.019614454519523,
            59.14641450518246
          ],
          [
            18.019377692955388,
            59.14678072567233
          ],
          [
            18.019071755867927,
            59.14711931358136
          ],
          [
            18.01883538640844,
            59.14746560337955
          ],
          [
            18.018681171099658,
            59.14784851806682
          ],
          [
            18.018513249912314,
            59.14825383463172
          ],
          [
            18.01842580786697,
            59.14854039624819
          ]
        ]
      }
    }
  ]
}
