{
  "type": "FeatureCollection",
  "features": [
    {
      "type": "Feature",
      "properties": {
        "name": "Etapp 1, Björkhagen - Skogshyddan, Sörmlandsleden by Naturkartan"
      },
      "geometry": {
        "type": "LineString",
        "coordinates": [
          [
            18.120317,
            59.292719
          ],
          [
            18.12061800000004,
            59.292762
          ],
          [
            18.121625999999992,
            59.292912
          ],
          [
            18.123428999999987,
            59.293191
          ],
          [
            18.12566000000004,
            59.293385
          ],
          [
            18.126625999999987,
            59.293427
          ],
          [
            18.12821400000007,
            59.293299
          ],
          [
            18.129587000000015,
            59.293213
          ],
          [
            18.13059599999997,
            59.29287
          ],
          [
            18.13115400000004,
            59.292698
          ],
          [
            18.13184000000001,
            59.292612
          ],
          [
            18.13207599999998,
            59.292483
          ],
          [
            18.13239799999997,
            59.29214
          ],
          [
            18.133470999999986,
            59.291711
          ],
          [
            18.13402900000006,
            59.291754
          ],
          [
            18.134458,
            59.291668
          ],
          [
            18.13475800000003,
            59.291582
          ],
          [
            18.13568099999998,
            59.29141
          ],
          [
            18.13602400000002,
            59.291303
          ],
          [
            18.13632499999994,
            59.291131
          ],
          [
            18.13638900000001,
            59.291046
          ],
          [
            18.13600299999996,
            59.290724
          ],
          [
            18.13608899999997,
            59.289672
          ],
          [
            18.13628199999994,
            59.288814
          ],
          [
            18.13632499999994,
            59.28802
          ],
          [
            18.136303,
            59.287848
          ],
          [
            18.136346,
            59.287698
          ],
          [
            18.13653899999997,
            59.287505
          ],
          [
            18.13681799999995,
            59.287269
          ],
          [
            18.13696900000002,
            59.287183
          ],
          [
            18.13844900000004,
            59.286711
          ],
          [
            18.139136000000008,
            59.286325
          ],
          [
            18.139544,
            59.286132
          ],
          [
            18.13984400000004,
            59.286046
          ],
          [
            18.141475000000014,
            59.285939
          ],
          [
            18.14162499999998,
            59.285767
          ],
          [
            18.14246200000002,
            59.285316
          ],
          [
            18.14332000000002,
            59.285059
          ],
          [
            18.14469299999996,
            59.284501
          ],
          [
            18.14585199999999,
            59.28405
          ],
          [
            18.14600199999995,
            59.284008
          ],
          [
            18.14595899999995,
            59.283793
          ],
          [
            18.14591599999994,
            59.283772
          ],
          [
            18.14572299999998,
            59.283664
          ],
          [
            18.14542299999994,
            59.283557
          ],
          [
            18.14518699999996,
            59.283364
          ],
          [
            18.14510100000007,
            59.283257
          ],
          [
            18.14469299999996,
            59.283085
          ],
          [
            18.14353499999993,
            59.282999
          ],
          [
            18.143277000000012,
            59.282892
          ],
          [
            18.142160999999987,
            59.28257
          ],
          [
            18.141389,
            59.282355
          ],
          [
            18.14136699999995,
            59.282205
          ],
          [
            18.14211799999998,
            59.281969
          ],
          [
            18.14211799999998,
            59.281991
          ],
          [
            18.14254800000003,
            59.282055
          ],
          [
            18.14271899999994,
            59.281991
          ],
          [
            18.142698,
            59.281948
          ],
          [
            18.14265499999999,
            59.281969
          ],
          [
            18.14299800000003,
            59.282033
          ],
          [
            18.143642,
            59.281948
          ],
          [
            18.14387799999997,
            59.281819
          ],
          [
            18.14366300000006,
            59.281518
          ],
          [
            18.14389900000003,
            59.281046
          ],
          [
            18.14419999999996,
            59.280939
          ],
          [
            18.14462900000001,
            59.280725
          ],
          [
            18.14475800000002,
            59.280639
          ],
          [
            18.14486499999998,
            59.280596
          ],
          [
            18.14492900000005,
            59.280531
          ],
          [
            18.145123000000012,
            59.280381
          ],
          [
            18.14527299999997,
            59.280317
          ],
          [
            18.14531599999998,
            59.280252
          ],
          [
            18.14587400000005,
            59.280016
          ],
          [
            18.14628100000004,
            59.279673
          ],
          [
            18.14677499999993,
            59.279394
          ],
          [
            18.147246999999993,
            59.279222
          ],
          [
            18.14804100000003,
            59.279115
          ],
          [
            18.148685,
            59.279072
          ],
          [
            18.14896299999998,
            59.279029
          ],
          [
            18.149178000000006,
            59.279115
          ],
          [
            18.14935000000003,
            59.279137
          ],
          [
            18.14947800000004,
            59.279072
          ],
          [
            18.14965000000007,
            59.279029
          ],
          [
            18.14984300000003,
            59.279072
          ],
          [
            18.14986499999998,
            59.279029
          ],
          [
            18.15005799999994,
            59.279029
          ],
          [
            18.15029400000003,
            59.279008
          ],
          [
            18.15059399999996,
            59.278986
          ],
          [
            18.15080899999998,
            59.278944
          ],
          [
            18.150851999999986,
            59.278901
          ],
          [
            18.15160300000002,
            59.278793
          ],
          [
            18.15235400000006,
            59.278772
          ],
          [
            18.15310499999998,
            59.278579
          ],
          [
            18.153597999999988,
            59.278321
          ],
          [
            18.15415600000006,
            59.278235
          ],
          [
            18.15428500000007,
            59.278321
          ],
          [
            18.15432799999996,
            59.278364
          ],
          [
            18.154541999999992,
            59.278643
          ],
          [
            18.15453582750192,
            59.2789234190503
          ],
          [
            18.1546661065523,
            59.27932274220501
          ],
          [
            18.15481809877915,
            59.2797220606756
          ],
          [
            18.1552016545273,
            59.27996210628544
          ],
          [
            18.15521947214549,
            59.28046271350667
          ],
          [
            18.15561145975278,
            59.28038989836858
          ],
          [
            18.15644888782344,
            59.28028067536883
          ],
          [
            18.15815937920101,
            59.28031708307435
          ],
          [
            18.15949899999998,
            59.280317
          ],
          [
            18.16048599999999,
            59.280188
          ],
          [
            18.161967,
            59.279866
          ],
          [
            18.16224599999998,
            59.27978
          ],
          [
            18.16254600000002,
            59.279587
          ],
          [
            18.16284700000006,
            59.27948
          ],
          [
            18.162868,
            59.279394
          ],
          [
            18.16329700000006,
            59.279244
          ],
          [
            18.164088023979104,
            59.279127787205084
          ],
          [
            18.164710328205985,
            59.2789427358224
          ],
          [
            18.165250000000015,
            59.278836
          ],
          [
            18.16577992153981,
            59.27896480465924
          ],
          [
            18.165946053271227,
            59.27903270044507
          ],
          [
            18.166012505963437,
            59.27917697854102
          ],
          [
            18.1662450903857,
            59.279406124848634
          ],
          [
            18.16621186403887,
            59.27975408481103
          ],
          [
            18.16744123884365,
            59.279779545156316
          ],
          [
            18.167873181342742,
            59.279821979022984
          ],
          [
            18.168919811244848,
            59.27977105837644
          ],
          [
            18.169893571979685,
            59.2797332419517
          ],
          [
            18.17025334273515,
            59.2796872949647
          ],
          [
            18.17052317080254,
            59.279595400804936
          ],
          [
            18.17090984820379,
            59.27945666031411
          ],
          [
            18.171592140590946,
            59.27937622563266
          ],
          [
            18.172904241335345,
            59.279590717693935
          ],
          [
            18.174321310138424,
            59.2796979632177
          ],
          [
            18.175346219254152,
            59.27982151312301
          ],
          [
            18.176220114486938,
            59.279927790882994
          ],
          [
            18.17664038369128,
            59.28020382239933
          ],
          [
            18.177120691352116,
            59.28058719579252
          ],
          [
            18.177771216174307,
            59.28068970920299
          ],
          [
            18.17887743565001,
            59.28088531777851
          ],
          [
            18.180545817784633,
            59.28101929237141
          ],
          [
            18.182125248114858,
            59.281272862428494
          ],
          [
            18.18372932171303,
            59.28141746673066
          ],
          [
            18.183718090112677,
            59.280726821558886
          ],
          [
            18.18333465012722,
            59.279786615955345
          ],
          [
            18.183323182485736,
            59.27906611829437
          ],
          [
            18.183413435647537,
            59.2785819969873
          ],
          [
            18.183457231187077,
            59.278141849649785
          ],
          [
            18.18374599999993,
            59.277742
          ],
          [
            18.18449699999996,
            59.27772
          ],
          [
            18.18556999999998,
            59.277549
          ],
          [
            18.18700799999999,
            59.277034
          ],
          [
            18.187571060595985,
            59.27642087765989
          ],
          [
            18.187895401085484,
            59.27621374640975
          ],
          [
            18.18850999999995,
            59.276025
          ],
          [
            18.188939,
            59.275982
          ],
          [
            18.18939,
            59.275939
          ],
          [
            18.18968999999993,
            59.275875
          ],
          [
            18.18986199999995,
            59.275746
          ],
          [
            18.190618747125484,
            59.27552167185283
          ],
          [
            18.190969321915503,
            59.27530897539819
          ],
          [
            18.191393547699732,
            59.27503704859484
          ],
          [
            18.19157219920453,
            59.27464385662984
          ],
          [
            18.191825364916753,
            59.27444253934391
          ],
          [
            18.19232779922811,
            59.27434622746094
          ],
          [
            18.193094681582096,
            59.27434622746094
          ],
          [
            18.19364245469265,
            59.27408874374845
          ],
          [
            18.193883474858325,
            59.273596160786354
          ],
          [
            18.193927296707187,
            59.27339464752109
          ],
          [
            18.19522600000005,
            59.273
          ],
          [
            18.19715700000006,
            59.272399
          ],
          [
            18.1974614718155,
            59.27185099935062
          ],
          [
            18.19798990137059,
            59.2713109767422
          ],
          [
            18.19802098546276,
            59.270659761619925
          ],
          [
            18.19786499999998,
            59.270146
          ],
          [
            18.19750099999999,
            59.269867
          ],
          [
            18.19720000000007,
            59.269502
          ],
          [
            18.197543999999994,
            59.269223
          ],
          [
            18.19855200000006,
            59.269073
          ],
          [
            18.199475000000007,
            59.268687
          ],
          [
            18.199614737234953,
            59.267984234025846
          ],
          [
            18.200229120829505,
            59.26767026824311
          ],
          [
            18.20031199999994,
            59.267206
          ],
          [
            18.20026899999993,
            59.266992
          ],
          [
            18.200415297675704,
            59.26683301200799
          ],
          [
            18.20076903368374,
            59.26664272363007
          ],
          [
            18.201277,
            59.266455
          ],
          [
            18.201598999999987,
            59.266434
          ],
          [
            18.20194194781837,
            59.26660466582683
          ],
          [
            18.202202595403264,
            59.2667664111967
          ],
          [
            18.20247900000004,
            59.266841
          ],
          [
            18.20378800000003,
            59.266884
          ],
          [
            18.20406700000001,
            59.266992
          ],
          [
            18.204882,
            59.267013
          ],
          [
            18.205876682328466,
            59.26685174192414
          ],
          [
            18.206728,
            59.266498
          ],
          [
            18.20794324532534,
            59.265729025746
          ],
          [
            18.209078924089766,
            59.26522474287805
          ],
          [
            18.209693307684375,
            59.2651105645883
          ],
          [
            18.21032630896164,
            59.2649773561003
          ],
          [
            18.211126869402335,
            59.26446354705243
          ],
          [
            18.21136200000001,
            59.264138
          ]
        ]
      }
    }
  ]
}
