{
  "type": "FeatureCollection",
  "features": [
    {
      "type": "Feature",
      "properties": {
        "name": "Stage 27: Knorranvägen to Strångsjövägen",
        "source": "Sörmlandsleden official full GPX",
        "sourceFormat": "official-network-gpx",
        "sourceUrl": "https://www.sormlandsleden.se/wp-content/themes/sormlandsleden.se/Leden-2024-12-04.gpx",
        "lengthKm": 15.1
      },
      "geometry": {
        "type": "LineString",
        "coordinates": [
          [
            16.256490596415595,
            58.98854234634209
          ],
          [
            16.257792006897347,
            58.98900233905167
          ],
          [
            16.259894830160814,
            58.98934384351005
          ],
          [
            16.262091562509166,
            58.989008710379906
          ],
          [
            16.263847873013557,
            58.98932798470933
          ],
          [
            16.265088963456265,
            58.989111653640414
          ],
          [
            16.265976413765284,
            58.98910622968304
          ],
          [
            16.266328599277067,
            58.98917736438864
          ],
          [
            16.266640905193746,
            58.989279758122755
          ],
          [
            16.267496072406903,
            58.98925219033516
          ],
          [
            16.26831720919753,
            58.98899559731106
          ],
          [
            16.26862540431441,
            58.98898209251995
          ],
          [
            16.26870994005875,
            58.988958518846964
          ],
          [
            16.269252991022242,
            58.98895962039504
          ],
          [
            16.26936320028337,
            58.98898011372237
          ],
          [
            16.269921604483976,
            58.9889767459678
          ],
          [
            16.27016377604652,
            58.98893342286504
          ],
          [
            16.271160611403186,
            58.98866038281645
          ],
          [
            16.271644470151916,
            58.98854857951948
          ],
          [
            16.272441405610518,
            58.98835609066049
          ],
          [
            16.272953500145793,
            58.988292506809834
          ],
          [
            16.27366847429723,
            58.98821592424708
          ],
          [
            16.273779107911228,
            58.988218043483876
          ],
          [
            16.273976607553283,
            58.98828580201389
          ],
          [
            16.27422444129871,
            58.9883532632435
          ],
          [
            16.274533784728984,
            58.988379938022376
          ],
          [
            16.27500305416876,
            58.988438095561804
          ],
          [
            16.275375223935164,
            58.9885067399997
          ],
          [
            16.275750363369838,
            58.98859902840002
          ],
          [
            16.276122313898995,
            58.98868329352519
          ],
          [
            16.276731705740442,
            58.98885615514774
          ],
          [
            16.27728324609862,
            58.98902787629948
          ],
          [
            16.277831138721307,
            58.98920192870164
          ],
          [
            16.278091106372713,
            58.989284221602276
          ],
          [
            16.285900596555006,
            58.98735526299286
          ],
          [
            16.285829452887743,
            58.98696717330195
          ],
          [
            16.285462800722215,
            58.98659749720513
          ],
          [
            16.284937869247358,
            58.98633106300818
          ],
          [
            16.284321039873248,
            58.98619748873052
          ],
          [
            16.283635176388476,
            58.985999441822024
          ],
          [
            16.2833352572833,
            58.98564621562739
          ],
          [
            16.283289948737725,
            58.98536520066219
          ],
          [
            16.28339163703573,
            58.98497669292506
          ],
          [
            16.283484404629007,
            58.9849139442769
          ],
          [
            16.28397050780248,
            58.98458324830252
          ],
          [
            16.28417146124318,
            58.98426686904165
          ],
          [
            16.28405621213255,
            58.98390666425342
          ],
          [
            16.284019101036286,
            58.98352541199929
          ],
          [
            16.283704370580192,
            58.983160773642034
          ],
          [
            16.283408265814924,
            58.98283280402581
          ],
          [
            16.283054868956,
            58.982494878442076
          ],
          [
            16.282710881286334,
            58.98213335392371
          ],
          [
            16.282584618999653,
            58.98137683434382
          ],
          [
            16.282591118740832,
            58.980989707727204
          ],
          [
            16.282461771194328,
            58.98062502889499
          ],
          [
            16.282461285320828,
            58.980248127640785
          ],
          [
            16.282768785495037,
            58.97988726151048
          ],
          [
            16.282895746196594,
            58.979529168358916
          ],
          [
            16.283441699276715,
            58.97925797402571
          ],
          [
            16.283522549988046,
            58.9792165026244
          ],
          [
            16.283373618645566,
            58.97884139290389
          ],
          [
            16.284166359746962,
            58.978771775364216
          ],
          [
            16.28482922631712,
            58.97866936536178
          ],
          [
            16.28505822871075,
            58.97860312142281
          ],
          [
            16.285334561534757,
            58.97834371801931
          ],
          [
            16.285668703194325,
            58.978042994783806
          ],
          [
            16.28609848038892,
            58.977683734322085
          ],
          [
            16.28621120194767,
            58.97745001305637
          ],
          [
            16.286321153611116,
            58.977222486776505
          ],
          [
            16.286368813494065,
            58.976876805488864
          ],
          [
            16.28634486227124,
            58.976735111185484
          ],
          [
            16.28627352371185,
            58.976612363168755
          ],
          [
            16.28610889864481,
            58.976567923068295
          ],
          [
            16.285624633098134,
            58.97630261933873
          ],
          [
            16.28540145966387,
            58.97625674164431
          ],
          [
            16.284670834596227,
            58.97620962842103
          ],
          [
            16.283896752992455,
            58.97612193694655
          ],
          [
            16.283252288566928,
            58.97598168225579
          ],
          [
            16.282472263061234,
            58.97593616220107
          ],
          [
            16.28173317039615,
            58.97594271780088
          ],
          [
            16.280952055134865,
            58.97591623397488
          ],
          [
            16.28028473570192,
            58.975758870801016
          ],
          [
            16.27974427608971,
            58.97548597214358
          ],
          [
            16.279480316048648,
            58.97514912247465
          ],
          [
            16.27912604155494,
            58.97439396849509
          ],
          [
            16.279021360279536,
            58.97399675131664
          ],
          [
            16.27865602365568,
            58.97368840830639
          ],
          [
            16.27805420888822,
            58.973439453899914
          ],
          [
            16.277495160661385,
            58.97316608032174
          ],
          [
            16.276899701302558,
            58.97296007247153
          ],
          [
            16.276267293665722,
            58.97278795435355
          ],
          [
            16.275561838496255,
            58.97259594970984
          ],
          [
            16.27495722318926,
            58.97242209025632
          ],
          [
            16.274299980422168,
            58.9722194660963
          ],
          [
            16.27363737283854,
            58.97202009631791
          ],
          [
            16.272915744024722,
            58.971816186924826
          ],
          [
            16.272156197401596,
            58.97177061889658
          ],
          [
            16.271390031688924,
            58.97178763980009
          ],
          [
            16.27068977261434,
            58.971875076575586
          ],
          [
            16.26996151246005,
            58.97195101854501
          ],
          [
            16.26923212941766,
            58.971994544012944
          ],
          [
            16.268462425204902,
            58.97196855055449
          ],
          [
            16.26774199293599,
            58.971972993264195
          ],
          [
            16.266982395911675,
            58.97198911615673
          ],
          [
            16.265530123158502,
            58.97185961524854
          ],
          [
            16.265082241823038,
            58.97164538550801
          ],
          [
            16.264764516908887,
            58.97113772040485
          ],
          [
            16.262664988093395,
            58.97169814248565
          ],
          [
            16.26171038447246,
            58.97086489992388
          ],
          [
            16.264503765315872,
            58.970289894985896
          ],
          [
            16.26453951624782,
            58.97028695751188
          ],
          [
            16.26645742627021,
            58.97012935729822
          ],
          [
            16.26704833795633,
            58.97006807793758
          ],
          [
            16.26765136890611,
            58.96980937339452
          ],
          [
            16.268409238044725,
            58.96976867504988
          ],
          [
            16.269742561413725,
            58.9700334854819
          ],
          [
            16.270333277966483,
            58.96999424349202
          ],
          [
            16.27194395803888,
            58.969752752620906
          ],
          [
            16.272653944379528,
            58.96963975267336
          ],
          [
            16.273351220473213,
            58.96962071278398
          ],
          [
            16.27409135399041,
            58.969552023944885
          ],
          [
            16.274830894224326,
            58.969393446784615
          ],
          [
            16.275493810496986,
            58.969260494360846
          ],
          [
            16.27623211647691,
            58.96935600385887
          ],
          [
            16.276648672657444,
            58.969440208823436
          ],
          [
            16.277335381010833,
            58.96940030742562
          ],
          [
            16.278836215288372,
            58.96944992166849
          ],
          [
            16.27958718891295,
            58.969392195636104
          ],
          [
            16.280317004502997,
            58.96915533766835
          ],
          [
            16.280758787824773,
            58.9688965483595
          ],
          [
            16.281136027150378,
            58.96855603373342
          ],
          [
            16.281460512273593,
            58.96821287357446
          ],
          [
            16.281329333058206,
            58.9678933005128
          ],
          [
            16.28082749251438,
            58.96718195938491
          ],
          [
            16.28147813197349,
            58.96685299156461
          ],
          [
            16.281378895401115,
            58.96646622984259
          ],
          [
            16.282154938407732,
            58.96539520672417
          ],
          [
            16.282382008601772,
            58.96500799377218
          ],
          [
            16.282857791125537,
            58.96469920564941
          ],
          [
            16.283423801747105,
            58.96447106306537
          ],
          [
            16.28405046304654,
            58.96425425008507
          ],
          [
            16.28470944987857,
            58.963993393656956
          ],
          [
            16.285296473391863,
            58.963832878188214
          ],
          [
            16.2859566035483,
            58.96360461917405
          ],
          [
            16.286643387216124,
            58.96342709247298
          ],
          [
            16.287350437899473,
            58.96338220499247
          ],
          [
            16.287959876205015,
            58.96321260428772
          ],
          [
            16.288693875412864,
            58.96302327684271
          ],
          [
            16.289338685040015,
            58.96286913741311
          ],
          [
            16.290041966186244,
            58.96273447369421
          ],
          [
            16.290745844918046,
            58.96258736909712
          ],
          [
            16.291427878981366,
            58.962467378336235
          ],
          [
            16.29213420118342,
            58.96233490330009
          ],
          [
            16.292808094612745,
            58.96217897656077
          ],
          [
            16.29353389762847,
            58.96203689401838
          ],
          [
            16.29415788867457,
            58.96190872138144
          ],
          [
            16.294965033629147,
            58.96185962971093
          ],
          [
            16.29570985741354,
            58.961837822469576
          ],
          [
            16.296398120072293,
            58.96195804923183
          ],
          [
            16.297254868300833,
            58.962412971619244
          ],
          [
            16.297738943488294,
            58.96271090076719
          ],
          [
            16.29826237605757,
            58.963021219138675
          ],
          [
            16.298940908407772,
            58.96299797525795
          ],
          [
            16.299635338410692,
            58.96300077638457
          ],
          [
            16.29996718198625,
            58.9629183418962
          ],
          [
            16.300345500833593,
            58.962792677275004
          ],
          [
            16.300934862057773,
            58.96253430179191
          ],
          [
            16.30166101059297,
            58.962245942032986
          ],
          [
            16.30194963912143,
            58.96203981103984
          ],
          [
            16.302129004662426,
            58.96181601837871
          ],
          [
            16.302821764591847,
            58.961420975405396
          ],
          [
            16.30313539937764,
            58.96126390390245
          ],
          [
            16.303656396329504,
            58.96103398469485
          ],
          [
            16.30427355324346,
            58.96078247324871
          ],
          [
            16.304823793041567,
            58.960512885243986
          ],
          [
            16.305444055547863,
            58.960308772110274
          ],
          [
            16.305651591865654,
            58.960001924561716
          ],
          [
            16.305669164504483,
            58.959600158116004
          ],
          [
            16.305623086201443,
            58.95932582798344
          ],
          [
            16.305501503072545,
            58.958918703508246
          ],
          [
            16.305487906332413,
            58.95861010035249
          ],
          [
            16.30596105151457,
            58.958329879729405
          ],
          [
            16.306246465218756,
            58.957949367888645
          ],
          [
            16.306320057368293,
            58.95779058229469
          ],
          [
            16.306364474106996,
            58.957576322635155
          ],
          [
            16.306325969173077,
            58.95746219500828
          ],
          [
            16.30609202218609,
            58.957239497194394
          ],
          [
            16.305673336035937,
            58.95688325871484
          ],
          [
            16.305212996361373,
            58.956564800902065
          ],
          [
            16.30494525172384,
            58.95639248915989
          ],
          [
            16.304650216407865,
            58.95627910472759
          ],
          [
            16.30413694392791,
            58.95613891649223
          ],
          [
            16.303377365652846,
            58.955936136836556
          ],
          [
            16.302843424014515,
            58.9558002899095
          ],
          [
            16.302273233587435,
            58.95567246261628
          ],
          [
            16.301713169934256,
            58.95558076732644
          ],
          [
            16.300612717450147,
            58.95535815847086
          ],
          [
            16.300022131176107,
            58.95511109410325
          ],
          [
            16.29921153818058,
            58.954745587812404
          ],
          [
            16.29881647500862,
            58.95456804708509
          ],
          [
            16.298387653880535,
            58.95418466006344
          ],
          [
            16.297648331449377,
            58.953578120143185
          ],
          [
            16.297074867853382,
            58.95304334723494
          ],
          [
            16.29624333793371,
            58.95214383762515
          ],
          [
            16.29602250141428,
            58.951967539849704
          ],
          [
            16.2957676619225,
            58.951836875803245
          ],
          [
            16.295612347069774,
            58.9518127128556
          ],
          [
            16.295531115880646,
            58.95160750347359
          ],
          [
            16.295777288471946,
            58.950972942966054
          ],
          [
            16.295920524223,
            58.95064116021851
          ],
          [
            16.296100867508862,
            58.95041466400851
          ],
          [
            16.296511785576442,
            58.95009669660693
          ],
          [
            16.29700604666759,
            58.94984918760885
          ],
          [
            16.29753174676485,
            58.94958312073816
          ],
          [
            16.296718979986267,
            58.94907037940385
          ],
          [
            16.29659167317912,
            58.94877238637657
          ],
          [
            16.2960659956329,
            58.948323876601854
          ],
          [
            16.29593464440656,
            58.94816515010767
          ],
          [
            16.2957828993106,
            58.94794314181229
          ],
          [
            16.295772656719596,
            58.94778422963346
          ],
          [
            16.29582480984006,
            58.94762013603725
          ],
          [
            16.296045806114602,
            58.947053658548185
          ],
          [
            16.296109466089817,
            58.94688336078599
          ],
          [
            16.296158252113838,
            58.946798009945745
          ],
          [
            16.296748990699122,
            58.94613285155603
          ],
          [
            16.297423127582512,
            58.945409240656666
          ],
          [
            16.29804701636456,
            58.94468409057112
          ],
          [
            16.29835899163264,
            58.94437503165006
          ],
          [
            16.299273561870628,
            58.943754791870596
          ],
          [
            16.29955070651494,
            58.94343066771157
          ],
          [
            16.299607109552067,
            58.94334408445622
          ],
          [
            16.299221998492534,
            58.94299008416614
          ],
          [
            16.298846797190198,
            58.94271222434864
          ],
          [
            16.298711922850984,
            58.942318250722515
          ],
          [
            16.29887564301523,
            58.941933474577226
          ],
          [
            16.29940096249213,
            58.941674575566296
          ],
          [
            16.299311553260257,
            58.941318257626996
          ],
          [
            16.299140544300972,
            58.941116895594625
          ],
          [
            16.299106634065577,
            58.94096903957245
          ],
          [
            16.299202912424352,
            58.94063811214608
          ],
          [
            16.299095228754375,
            58.940222359336545
          ],
          [
            16.29841295293002,
            58.940229159775875
          ],
          [
            16.298291641017784,
            58.94024211225311
          ],
          [
            16.297467612734717,
            58.94025012560202
          ],
          [
            16.29733724032717,
            58.940260745011294
          ],
          [
            16.29665691772575,
            58.940266010733104
          ],
          [
            16.296536191712324,
            58.940280983146025
          ],
          [
            16.29572978540241,
            58.94029070601093
          ],
          [
            16.29556615462679,
            58.940305183431235
          ],
          [
            16.295162984089544,
            58.94030758234864
          ],
          [
            16.29490942284862,
            58.940348111709085
          ],
          [
            16.294624775326117,
            58.94037069088881
          ],
          [
            16.29420060660673,
            58.940372181368616
          ],
          [
            16.293351965353107,
            58.940317454813716
          ],
          [
            16.29326498041215,
            58.94030064985317
          ],
          [
            16.292367675672452,
            58.94029818946024
          ],
          [
            16.29227624898955,
            58.94031289298707
          ],
          [
            16.291528728084444,
            58.940322884227484
          ],
          [
            16.291293247001366,
            58.94036427323295
          ],
          [
            16.290634272588505,
            58.94051396685037
          ],
          [
            16.290380868768903,
            58.94062847781348
          ],
          [
            16.28914500948844,
            58.94051038796467
          ],
          [
            16.28848706243599,
            58.94060313053279
          ],
          [
            16.287734464803666,
            58.94067472114054
          ],
          [
            16.287004063365,
            58.94068664479647
          ],
          [
            16.28631804207162,
            58.94057756104631
          ],
          [
            16.28584044310857,
            58.94025319412871
          ],
          [
            16.28527081498876,
            58.94007942078025
          ],
          [
            16.284543488712437,
            58.93996566854492
          ],
          [
            16.2838091867405,
            58.93987711060724
          ],
          [
            16.283110977264148,
            58.939687734136214
          ],
          [
            16.282463232081753,
            58.93984146615362
          ],
          [
            16.282059525630842,
            58.94018953535269
          ],
          [
            16.281509657318512,
            58.940395919673065
          ],
          [
            16.280696529397613,
            58.940436859769555
          ],
          [
            16.280323164435202,
            58.94074332163171
          ],
          [
            16.280054892787952,
            58.941082819933726
          ],
          [
            16.279621715645764,
            58.94141763108328
          ],
          [
            16.279115391961593,
            58.94168555227081
          ],
          [
            16.278499445369224,
            58.94182596790845
          ],
          [
            16.277712279304556,
            58.94179644911142
          ],
          [
            16.277227980141536,
            58.94204163152539
          ],
          [
            16.276843854531904,
            58.94222523262542
          ],
          [
            16.276094465336527,
            58.94228362696023
          ],
          [
            16.275459552510394,
            58.94235916307484
          ],
          [
            16.2748614615834,
            58.94208107923761
          ],
          [
            16.274338371402063,
            58.94181804055674
          ],
          [
            16.2738945119559,
            58.94152931042382
          ],
          [
            16.27336584842781,
            58.941211981421304
          ],
          [
            16.272859444922215,
            58.94096234218277
          ],
          [
            16.2722921597547,
            58.94073038150263
          ],
          [
            16.271596031389215,
            58.940545490855186
          ],
          [
            16.2708589818209,
            58.940441950645784
          ],
          [
            16.270118566877215,
            58.940362436367515
          ],
          [
            16.269385320981325,
            58.940341040037175
          ],
          [
            16.26789335221121,
            58.94027046698718
          ],
          [
            16.267274095684808,
            58.94007230938926
          ],
          [
            16.266718994435404,
            58.9398260390841
          ],
          [
            16.266181815173045,
            58.93955596763244
          ],
          [
            16.266145990284866,
            58.93918747710248
          ],
          [
            16.266052415268625,
            58.938816465944875
          ],
          [
            16.26588034434931,
            58.93842197720363
          ],
          [
            16.266092375005716,
            58.93811424093804
          ],
          [
            16.266802261425497,
            58.938123683518775
          ],
          [
            16.26740853855288,
            58.93789327325844
          ],
          [
            16.26796808838309,
            58.93759774706948
          ],
          [
            16.26860927462422,
            58.937556525155664
          ],
          [
            16.269320006054052,
            58.93769115501031
          ],
          [
            16.270029293080594,
            58.937787162648235
          ],
          [
            16.27060214995559,
            58.93761180372046
          ],
          [
            16.270929653404675,
            58.937248900159794
          ],
          [
            16.2713190038311,
            58.93693082306974
          ],
          [
            16.27152641918688,
            58.93657916261758
          ],
          [
            16.271759333382384,
            58.93621686094114
          ],
          [
            16.272028366871453,
            58.93583223236833
          ],
          [
            16.272156223975056,
            58.935475187381
          ],
          [
            16.272460883707538,
            58.93513704531207
          ],
          [
            16.272422525232773,
            58.93476052127307
          ],
          [
            16.272251787349468,
            58.934381908436066
          ],
          [
            16.272071395897246,
            58.93400107447972
          ],
          [
            16.271723066053227,
            58.93363506117681
          ],
          [
            16.271316055721748,
            58.93330501957852
          ],
          [
            16.271014170733896,
            58.93298843102536
          ],
          [
            16.270623146844592,
            58.932671180509914
          ],
          [
            16.269689818920398,
            58.932243219367045
          ],
          [
            16.269135238388415,
            58.931993870333386
          ],
          [
            16.268531133730477,
            58.93177452923743
          ],
          [
            16.268117900860585,
            58.93147993311224
          ],
          [
            16.26740415288457,
            58.93143520737093
          ],
          [
            16.266671519929425,
            58.93152005363746
          ],
          [
            16.26594848915011,
            58.93148249114767
          ],
          [
            16.265257458173863,
            58.93145160762246
          ],
          [
            16.264489767157617,
            58.93138493654344
          ],
          [
            16.2638138603464,
            58.93115466910686
          ],
          [
            16.26320726970688,
            58.93099632895116
          ],
          [
            16.26262234316861,
            58.930751576822296
          ],
          [
            16.26240952199982,
            58.930385710850224
          ],
          [
            16.262504272972826,
            58.92998609973723
          ],
          [
            16.262598515719098,
            58.92950345556577
          ],
          [
            16.263339024939164,
            58.92950385847615
          ],
          [
            16.2640257841507,
            58.92949498221046
          ],
          [
            16.264433043533227,
            58.92944133462174
          ],
          [
            16.265571150553416,
            58.929133729844054
          ],
          [
            16.26686493147389,
            58.92874395502053
          ]
        ]
      }
    }
  ]
}
