{
  "type": "FeatureCollection",
  "features": [
    {
      "type": "Feature",
      "properties": {
        "name": "Vandringsled i Lännaskogen by Naturkartan"
      },
      "geometry": {
        "type": "LineString",
        "coordinates": [
          [
            18.096987000000013,
            59.186576
          ],
          [
            18.09698200000003,
            59.186598
          ],
          [
            18.09695899999997,
            59.186618
          ],
          [
            18.096903,
            59.186692
          ],
          [
            18.09677599999998,
            59.186797
          ],
          [
            18.096681999999987,
            59.186928
          ],
          [
            18.09659999999997,
            59.18703
          ],
          [
            18.09652099999994,
            59.187147
          ],
          [
            18.09643200000005,
            59.187267
          ],
          [
            18.09641399999998,
            59.187289
          ],
          [
            18.096314000000007,
            59.18738
          ],
          [
            18.09626400000002,
            59.187425
          ],
          [
            18.09612600000003,
            59.187554
          ],
          [
            18.09596599999998,
            59.187677
          ],
          [
            18.09588400000007,
            59.187731
          ],
          [
            18.09580499999993,
            59.187785
          ],
          [
            18.095641,
            59.18784
          ],
          [
            18.09556799999996,
            59.187836
          ],
          [
            18.095325,
            59.187784
          ],
          [
            18.09511099999997,
            59.187662
          ],
          [
            18.095011,
            59.187655
          ],
          [
            18.094700999999986,
            59.187738
          ],
          [
            18.09453200000007,
            59.18779
          ],
          [
            18.094379,
            59.187831
          ],
          [
            18.09417699999995,
            59.187827
          ],
          [
            18.09403399999997,
            59.187827
          ],
          [
            18.09382200000005,
            59.187881
          ],
          [
            18.09369900000002,
            59.187927
          ],
          [
            18.09356300000002,
            59.187982
          ],
          [
            18.09351000000004,
            59.188021
          ],
          [
            18.093477000000007,
            59.188018
          ],
          [
            18.093475000000012,
            59.188012
          ],
          [
            18.093435,
            59.188007
          ],
          [
            18.09322499999996,
            59.187981
          ],
          [
            18.09307799999999,
            59.187977
          ],
          [
            18.092889000000014,
            59.187971
          ],
          [
            18.09275200000002,
            59.187981
          ],
          [
            18.09263699999997,
            59.187978
          ],
          [
            18.09241099999997,
            59.188011
          ],
          [
            18.09227499999997,
            59.188088
          ],
          [
            18.09215399999994,
            59.188174
          ],
          [
            18.09199000000001,
            59.188199
          ],
          [
            18.09178099999997,
            59.188229
          ],
          [
            18.09165499999995,
            59.188245
          ],
          [
            18.09155699999997,
            59.188265
          ],
          [
            18.09126600000002,
            59.188299
          ],
          [
            18.091188999999986,
            59.188336
          ],
          [
            18.09115999999995,
            59.188444
          ],
          [
            18.09113100000002,
            59.188501
          ],
          [
            18.09104100000002,
            59.188557
          ],
          [
            18.090776000000005,
            59.188634
          ],
          [
            18.09051699999998,
            59.188674
          ],
          [
            18.09024999999997,
            59.188731
          ],
          [
            18.09005400000001,
            59.18876
          ],
          [
            18.089962000000014,
            59.188783
          ],
          [
            18.08986700000003,
            59.188815
          ],
          [
            18.08981199999994,
            59.188797
          ],
          [
            18.08959099999993,
            59.188744
          ],
          [
            18.08950099999993,
            59.188743
          ],
          [
            18.089335000000005,
            59.188796
          ],
          [
            18.08929599999999,
            59.188802
          ],
          [
            18.08923700000003,
            59.188794
          ],
          [
            18.08910000000003,
            59.188778
          ],
          [
            18.08908599999995,
            59.188775
          ],
          [
            18.08881199999996,
            59.188718
          ],
          [
            18.088616,
            59.188644
          ],
          [
            18.088431000000014,
            59.188576
          ],
          [
            18.088258,
            59.188499
          ],
          [
            18.08820000000003,
            59.188478
          ],
          [
            18.08809799999995,
            59.188467
          ],
          [
            18.08796000000007,
            59.188384
          ],
          [
            18.08776499999999,
            59.188269
          ],
          [
            18.08759199999997,
            59.188184
          ],
          [
            18.08741199999997,
            59.188084
          ],
          [
            18.08727499999998,
            59.188029
          ],
          [
            18.08720900000003,
            59.187989
          ],
          [
            18.08703300000002,
            59.187935
          ],
          [
            18.08689200000003,
            59.187857
          ],
          [
            18.086678000000006,
            59.187764
          ],
          [
            18.08659,
            59.187714
          ],
          [
            18.08654200000001,
            59.187675
          ],
          [
            18.08646999999996,
            59.187655
          ],
          [
            18.08636899999999,
            59.187613
          ],
          [
            18.086315000000013,
            59.187576
          ],
          [
            18.08628599999997,
            59.187589
          ],
          [
            18.086276,
            59.187593
          ],
          [
            18.08625800000004,
            59.187607
          ],
          [
            18.086234999999988,
            59.1876
          ],
          [
            18.086232,
            59.187605
          ],
          [
            18.08621300000004,
            59.187634
          ],
          [
            18.086227000000008,
            59.187726
          ],
          [
            18.08617400000003,
            59.187822
          ],
          [
            18.08613400000002,
            59.18787
          ],
          [
            18.08605999999997,
            59.187927
          ],
          [
            18.08595600000001,
            59.188003
          ],
          [
            18.08585800000003,
            59.188063
          ],
          [
            18.08570699999996,
            59.18815
          ],
          [
            18.085553,
            59.188231
          ],
          [
            18.08552800000007,
            59.18825
          ],
          [
            18.08545800000002,
            59.188311
          ],
          [
            18.08533699999998,
            59.188422
          ],
          [
            18.08522800000003,
            59.188477
          ],
          [
            18.08504500000004,
            59.188542
          ],
          [
            18.08492000000001,
            59.188542
          ],
          [
            18.084829000000013,
            59.188572
          ],
          [
            18.08479899999998,
            59.188613
          ],
          [
            18.084793999999988,
            59.188681
          ],
          [
            18.084746999999993,
            59.188768
          ],
          [
            18.084787000000006,
            59.188817
          ],
          [
            18.08470899999998,
            59.188865
          ],
          [
            18.08462099999997,
            59.188928
          ],
          [
            18.08452299999999,
            59.188985
          ],
          [
            18.08446212858533,
            59.18906360556119
          ],
          [
            18.0844801150119,
            59.18919719046386
          ],
          [
            18.084534074289706,
            59.18927549861212
          ],
          [
            18.084632999633556,
            59.18942290169866
          ],
          [
            18.0844801150119,
            59.18971309966693
          ],
          [
            18.084363203242532,
            59.19010463270246
          ],
          [
            18.084373676026644,
            59.1905994422452
          ],
          [
            18.08420232193984,
            59.1907498958318
          ],
          [
            18.083868576526612,
            59.19075410702018
          ],
          [
            18.083604577569844,
            59.190550955796795
          ],
          [
            18.083366533638326,
            59.190352267057904
          ],
          [
            18.08319521839033,
            59.19032268188377
          ],
          [
            18.08299899999997,
            59.190276
          ],
          [
            18.082853,
            59.190294
          ],
          [
            18.08270500000003,
            59.190347
          ],
          [
            18.08268999999996,
            59.190384
          ],
          [
            18.082535000000007,
            59.190459
          ],
          [
            18.08239200000003,
            59.190494
          ],
          [
            18.08232799999996,
            59.190518
          ],
          [
            18.08231899999998,
            59.190529
          ],
          [
            18.08224999999993,
            59.190569
          ],
          [
            18.08221000000003,
            59.190605
          ],
          [
            18.08218599999998,
            59.190638
          ],
          [
            18.08221100000003,
            59.190666
          ],
          [
            18.082227999999986,
            59.190688
          ],
          [
            18.08224300000006,
            59.190718
          ],
          [
            18.08223499999997,
            59.190733
          ],
          [
            18.08225900000002,
            59.190789
          ],
          [
            18.08223599999997,
            59.190819
          ],
          [
            18.08224399999995,
            59.190868
          ],
          [
            18.08224399999995,
            59.190898
          ],
          [
            18.08222899999998,
            59.190962
          ],
          [
            18.082133,
            59.191029
          ],
          [
            18.08207100000004,
            59.191056
          ],
          [
            18.08191699999998,
            59.19109
          ],
          [
            18.08185200000003,
            59.191102
          ],
          [
            18.08167300000002,
            59.191149
          ],
          [
            18.081589000000008,
            59.191187
          ],
          [
            18.08149800000001,
            59.19123
          ],
          [
            18.08138299999996,
            59.191268
          ],
          [
            18.08134199999995,
            59.191272
          ],
          [
            18.08124099999998,
            59.191258
          ],
          [
            18.08119399999998,
            59.191331
          ],
          [
            18.08112000000006,
            59.191375
          ],
          [
            18.08110399999998,
            59.191365
          ],
          [
            18.08106999999995,
            59.19136
          ],
          [
            18.081052,
            59.191356
          ],
          [
            18.08097900000007,
            59.191357
          ],
          [
            18.08090700000002,
            59.191375
          ],
          [
            18.08088799999996,
            59.191385
          ],
          [
            18.080786999999987,
            59.191425
          ],
          [
            18.080648,
            59.191474
          ],
          [
            18.08057899999994,
            59.191487
          ],
          [
            18.08054200000004,
            59.1915
          ],
          [
            18.08043299999997,
            59.191503
          ],
          [
            18.08029399999998,
            59.191524
          ],
          [
            18.08020299999998,
            59.191523
          ],
          [
            18.08014500000002,
            59.191542
          ],
          [
            18.080155999999988,
            59.191562
          ],
          [
            18.08013800000003,
            59.191567
          ],
          [
            18.08007999999995,
            59.191534
          ],
          [
            18.07995500000004,
            59.191512
          ],
          [
            18.07984799999997,
            59.191466
          ],
          [
            18.079744000000005,
            59.191402
          ],
          [
            18.07962799999996,
            59.191326
          ],
          [
            18.079560000000015,
            59.191262
          ],
          [
            18.07944900000007,
            59.191167
          ],
          [
            18.07941900000003,
            59.191111
          ],
          [
            18.079390999999987,
            59.191019
          ],
          [
            18.07937000000004,
            59.190957
          ],
          [
            18.07927500000005,
            59.190832
          ],
          [
            18.07925999999998,
            59.19071
          ],
          [
            18.07924300000002,
            59.190605
          ],
          [
            18.07921199999998,
            59.190542
          ],
          [
            18.07920899999999,
            59.190523
          ],
          [
            18.07921699999997,
            59.190458
          ],
          [
            18.07913899999994,
            59.190394
          ],
          [
            18.07912799999997,
            59.190356
          ],
          [
            18.07910900000002,
            59.190299
          ],
          [
            18.079072999999994,
            59.190233
          ],
          [
            18.07903199999998,
            59.190155
          ],
          [
            18.07895099999996,
            59.190109
          ],
          [
            18.07883700000002,
            59.190068
          ],
          [
            18.07868600000006,
            59.190063
          ],
          [
            18.07849599999997,
            59.190031
          ],
          [
            18.07845299999997,
            59.190033
          ],
          [
            18.078217,
            59.19004
          ],
          [
            18.07815800000003,
            59.190035
          ],
          [
            18.07793300000003,
            59.190041
          ],
          [
            18.07775800000002,
            59.190034
          ],
          [
            18.07766400000003,
            59.190038
          ],
          [
            18.07739600000002,
            59.190021
          ],
          [
            18.07729700000004,
            59.190015
          ],
          [
            18.07712000000004,
            59.190009
          ],
          [
            18.07709799999998,
            59.190006
          ],
          [
            18.076951000000008,
            59.189977
          ],
          [
            18.07681000000002,
            59.189914
          ],
          [
            18.07679400000006,
            59.189905
          ],
          [
            18.076771000000008,
            59.189884
          ],
          [
            18.076727000000005,
            59.189827
          ],
          [
            18.07664599999998,
            59.189753
          ],
          [
            18.07657100000006,
            59.189663
          ],
          [
            18.07651699999997,
            59.189606
          ],
          [
            18.07646699999998,
            59.189581
          ],
          [
            18.07640300000003,
            59.189511
          ],
          [
            18.07640700000002,
            59.189442
          ],
          [
            18.07638299999996,
            59.189374
          ],
          [
            18.076371999999992,
            59.189304
          ],
          [
            18.07635500000004,
            59.189247
          ],
          [
            18.07633799999996,
            59.189222
          ],
          [
            18.076238999999987,
            59.189151
          ],
          [
            18.07617900000002,
            59.18912
          ],
          [
            18.07616600000006,
            59.189098
          ],
          [
            18.07608600000003,
            59.189034
          ],
          [
            18.07604400000002,
            59.18902
          ],
          [
            18.07597399999997,
            59.18898
          ],
          [
            18.07591200000002,
            59.188956
          ],
          [
            18.07578000000001,
            59.188882
          ],
          [
            18.07572099999993,
            59.188792
          ],
          [
            18.07568500000002,
            59.188737
          ],
          [
            18.07558399999994,
            59.188659
          ],
          [
            18.07554300000004,
            59.18859
          ],
          [
            18.07550600000002,
            59.188553
          ],
          [
            18.07544099999996,
            59.18845
          ],
          [
            18.075383999999985,
            59.188377
          ],
          [
            18.07538199999999,
            59.188368
          ],
          [
            18.07537000000002,
            59.188298
          ],
          [
            18.07532000000003,
            59.188244
          ],
          [
            18.075244,
            59.18816
          ],
          [
            18.07513500000005,
            59.188089
          ],
          [
            18.07508899999993,
            59.188066
          ],
          [
            18.07504100000006,
            59.188014
          ],
          [
            18.07499200000007,
            59.187949
          ],
          [
            18.07491500000003,
            59.187934
          ],
          [
            18.07485399999996,
            59.187945
          ],
          [
            18.07479899999998,
            59.18801
          ],
          [
            18.074793,
            59.18807
          ],
          [
            18.074742000000015,
            59.18809
          ],
          [
            18.07460200000003,
            59.188153
          ],
          [
            18.07443899999998,
            59.188188
          ],
          [
            18.074382000000014,
            59.188191
          ],
          [
            18.07437600000003,
            59.18819
          ],
          [
            18.07431299999996,
            59.188193
          ],
          [
            18.07415500000002,
            59.188187
          ],
          [
            18.07408699999996,
            59.188182
          ],
          [
            18.073942999999986,
            59.188179
          ],
          [
            18.07373499999994,
            59.188138
          ],
          [
            18.073671999999988,
            59.188118
          ],
          [
            18.07361200000003,
            59.188116
          ],
          [
            18.07351800000004,
            59.188095
          ],
          [
            18.07339000000002,
            59.188059
          ],
          [
            18.073266999999987,
            59.187992
          ],
          [
            18.073127,
            59.187938
          ],
          [
            18.07298400000002,
            59.187865
          ],
          [
            18.072903,
            59.187804
          ],
          [
            18.07288600000004,
            59.187707
          ],
          [
            18.07291099999998,
            59.187636
          ],
          [
            18.07291499999997,
            59.187624
          ],
          [
            18.072857,
            59.18752
          ],
          [
            18.07284100000004,
            59.187479
          ],
          [
            18.07286899999997,
            59.187449
          ],
          [
            18.07287099999996,
            59.187376
          ],
          [
            18.07280500000002,
            59.187312
          ],
          [
            18.07278700000006,
            59.187308
          ],
          [
            18.07269599999995,
            59.187246
          ],
          [
            18.07266300000003,
            59.187178
          ],
          [
            18.072633,
            59.187159
          ],
          [
            18.07263899999998,
            59.187145
          ],
          [
            18.07265200000006,
            59.187072
          ],
          [
            18.07267999999999,
            59.186996
          ],
          [
            18.07266500000003,
            59.186959
          ],
          [
            18.07261300000005,
            59.186882
          ],
          [
            18.07259299999998,
            59.186847
          ],
          [
            18.072543999999994,
            59.18677
          ],
          [
            18.07246599999996,
            59.186684
          ],
          [
            18.07241999999997,
            59.186592
          ],
          [
            18.072365999999988,
            59.186524
          ],
          [
            18.07232599999998,
            59.186513
          ],
          [
            18.07221300000003,
            59.186465
          ],
          [
            18.07203900000002,
            59.186417
          ],
          [
            18.07191699999998,
            59.186385
          ],
          [
            18.07192199999997,
            59.186361
          ],
          [
            18.07183199999997,
            59.18637
          ],
          [
            18.07176000000004,
            59.186407
          ],
          [
            18.07169799999997,
            59.186435
          ],
          [
            18.07165699999996,
            59.186444
          ],
          [
            18.07163400000002,
            59.186451
          ],
          [
            18.07157600000005,
            59.186467
          ],
          [
            18.07140200000003,
            59.186477
          ],
          [
            18.07126399999993,
            59.186502
          ],
          [
            18.07109600000001,
            59.186515
          ],
          [
            18.07090600000004,
            59.186506
          ],
          [
            18.070700999999985,
            59.186518
          ],
          [
            18.07061399999998,
            59.186522
          ],
          [
            18.07053500000006,
            59.18653
          ],
          [
            18.070334,
            59.186548
          ],
          [
            18.07028600000001,
            59.186547
          ],
          [
            18.070064,
            59.186513
          ],
          [
            18.06992100000002,
            59.186486
          ],
          [
            18.06969000000004,
            59.186448
          ],
          [
            18.06963799999994,
            59.186438
          ],
          [
            18.069619999999986,
            59.186451
          ],
          [
            18.06963799999994,
            59.186436
          ],
          [
            18.069619999999986,
            59.186443
          ],
          [
            18.06960300000003,
            59.186564
          ],
          [
            18.06963300000007,
            59.186669
          ],
          [
            18.06968900000004,
            59.186801
          ],
          [
            18.06972700000006,
            59.186897
          ],
          [
            18.06975899999998,
            59.186996
          ],
          [
            18.06981300000007,
            59.187124
          ],
          [
            18.069885,
            59.187232
          ],
          [
            18.06989099999998,
            59.187244
          ],
          [
            18.06993,
            59.18734
          ],
          [
            18.069976999999994,
            59.187452
          ],
          [
            18.070017000000007,
            59.18753
          ],
          [
            18.07003899999995,
            59.187608
          ],
          [
            18.07001200000002,
            59.187709
          ],
          [
            18.06993399999999,
            59.18783
          ],
          [
            18.06981999999994,
            59.18793
          ],
          [
            18.06980599999997,
            59.187988
          ],
          [
            18.06978800000002,
            59.18808
          ],
          [
            18.06981999999994,
            59.188128
          ],
          [
            18.06990199999996,
            59.188188
          ],
          [
            18.070014000000015,
            59.188259
          ],
          [
            18.07012599999996,
            59.188311
          ],
          [
            18.07018700000003,
            59.188425
          ],
          [
            18.07021899999995,
            59.188464
          ],
          [
            18.07031099999995,
            59.188545
          ],
          [
            18.07032600000002,
            59.188597
          ],
          [
            18.07034299999998,
            59.188618
          ],
          [
            18.07035900000005,
            59.188627
          ],
          [
            18.07035799999994,
            59.188624
          ],
          [
            18.07038899999998,
            59.18864
          ],
          [
            18.07049699999993,
            59.188694
          ],
          [
            18.070564999999988,
            59.188769
          ],
          [
            18.07068000000004,
            59.188832
          ],
          [
            18.070695,
            59.188845
          ],
          [
            18.070741,
            59.188873
          ],
          [
            18.070789999999988,
            59.188906
          ],
          [
            18.070874,
            59.188956
          ],
          [
            18.070967999999993,
            59.188989
          ],
          [
            18.07101799999998,
            59.189003
          ],
          [
            18.07103899999993,
            59.18901
          ],
          [
            18.07106399999998,
            59.189025
          ],
          [
            18.07113500000003,
            59.189078
          ],
          [
            18.07118000000003,
            59.189129
          ],
          [
            18.07128699999998,
            59.189174
          ],
          [
            18.07136100000002,
            59.189253
          ],
          [
            18.07146699999998,
            59.189309
          ],
          [
            18.07152500000007,
            59.189346
          ],
          [
            18.07161099999996,
            59.189379
          ],
          [
            18.071735999999987,
            59.189484
          ],
          [
            18.07182499999999,
            59.189564
          ],
          [
            18.07184099999995,
            59.189573
          ],
          [
            18.07199300000002,
            59.189648
          ],
          [
            18.07210299999997,
            59.189652
          ],
          [
            18.07221700000002,
            59.189684
          ],
          [
            18.072363,
            59.189724
          ],
          [
            18.07247299999995,
            59.189743
          ],
          [
            18.07251599999995,
            59.189739
          ],
          [
            18.07251799999995,
            59.189749
          ],
          [
            18.072633,
            59.189787
          ],
          [
            18.07268499999998,
            59.189822
          ],
          [
            18.07270399999993,
            59.189821
          ],
          [
            18.07275500000003,
            59.189834
          ],
          [
            18.07291800000007,
            59.189878
          ],
          [
            18.07299,
            59.189879
          ],
          [
            18.073086999999987,
            59.189868
          ],
          [
            18.07314700000006,
            59.189867
          ],
          [
            18.07319200000006,
            59.189878
          ],
          [
            18.073259000000007,
            59.189881
          ],
          [
            18.07336799999996,
            59.189884
          ],
          [
            18.073437000000013,
            59.189871
          ],
          [
            18.07351800000004,
            59.189864
          ],
          [
            18.07356700000003,
            59.18986
          ],
          [
            18.07356700000003,
            59.189859
          ],
          [
            18.07364800000005,
            59.189886
          ],
          [
            18.07378700000004,
            59.1899
          ],
          [
            18.07390699999996,
            59.189909
          ],
          [
            18.07397300000002,
            59.189906
          ],
          [
            18.07409699999994,
            59.189914
          ],
          [
            18.07421799999997,
            59.189916
          ],
          [
            18.07437400000003,
            59.189936
          ],
          [
            18.07454800000005,
            59.189921
          ],
          [
            18.07458599999995,
            59.189914
          ],
          [
            18.07461699999999,
            59.189914
          ],
          [
            18.07465400000001,
            59.189917
          ],
          [
            18.07476399999996,
            59.189924
          ],
          [
            18.07497999999998,
            59.189944
          ],
          [
            18.075107,
            59.189971
          ],
          [
            18.07523400000002,
            59.190005
          ],
          [
            18.07538,
            59.190036
          ],
          [
            18.07544899999994,
            59.190062
          ],
          [
            18.07560699999999,
            59.190101
          ],
          [
            18.07571899999994,
            59.190156
          ],
          [
            18.07582000000002,
            59.190199
          ],
          [
            18.075923999999986,
            59.19024
          ],
          [
            18.07596000000001,
            59.190285
          ],
          [
            18.07603500000005,
            59.19033
          ],
          [
            18.07611199999997,
            59.190383
          ],
          [
            18.07615799999996,
            59.190434
          ],
          [
            18.07624399999997,
            59.190504
          ],
          [
            18.07634899999994,
            59.190571
          ],
          [
            18.07644500000004,
            59.190651
          ],
          [
            18.07648700000004,
            59.190744
          ],
          [
            18.07642299999998,
            59.190854
          ],
          [
            18.07640300000003,
            59.190922
          ],
          [
            18.07637299999999,
            59.191011
          ],
          [
            18.076370999999995,
            59.19114
          ],
          [
            18.07643299999995,
            59.191264
          ],
          [
            18.07635600000003,
            59.191336
          ],
          [
            18.07620599999996,
            59.191422
          ],
          [
            18.076188,
            59.191433
          ],
          [
            18.07607800000005,
            59.191467
          ],
          [
            18.07598299999995,
            59.191476
          ],
          [
            18.07592299999999,
            59.191472
          ],
          [
            18.07576199999994,
            59.191479
          ],
          [
            18.07574599999998,
            59.191482
          ],
          [
            18.07571699999994,
            59.19148
          ],
          [
            18.07571499999995,
            59.19148
          ],
          [
            18.07568500000002,
            59.19151
          ],
          [
            18.07558199999994,
            59.191556
          ],
          [
            18.075428999999986,
            59.191556
          ],
          [
            18.07521099999997,
            59.191561
          ],
          [
            18.07513500000005,
            59.191578
          ],
          [
            18.07496300000003,
            59.191587
          ],
          [
            18.07491000000005,
            59.191592
          ],
          [
            18.074832000000015,
            59.191605
          ],
          [
            18.07475899999997,
            59.191655
          ],
          [
            18.07470899999998,
            59.191683
          ],
          [
            18.07466599999998,
            59.191708
          ],
          [
            18.074659,
            59.191722
          ],
          [
            18.07458399999996,
            59.191759
          ],
          [
            18.07445800000005,
            59.191813
          ],
          [
            18.07441500000004,
            59.191829
          ],
          [
            18.07431700000006,
            59.191899
          ],
          [
            18.074342,
            59.191946
          ],
          [
            18.07440299999996,
            59.192009
          ],
          [
            18.07445200000006,
            59.192031
          ],
          [
            18.074611,
            59.192091
          ],
          [
            18.07463299999995,
            59.192099
          ],
          [
            18.07476299999996,
            59.192158
          ],
          [
            18.07491700000003,
            59.192233
          ],
          [
            18.07505400000002,
            59.192308
          ],
          [
            18.07512099999997,
            59.192359
          ],
          [
            18.07513700000004,
            59.192394
          ],
          [
            18.07521399999996,
            59.192458
          ],
          [
            18.07526200000007,
            59.192481
          ],
          [
            18.07536600000003,
            59.192522
          ],
          [
            18.07550000000003,
            59.192566
          ],
          [
            18.07554200000004,
            59.192572
          ],
          [
            18.07563500000003,
            59.192584
          ],
          [
            18.07581300000004,
            59.192622
          ],
          [
            18.07594700000004,
            59.192658
          ],
          [
            18.07603700000004,
            59.192659
          ],
          [
            18.076190999999994,
            59.192693
          ],
          [
            18.07634499999995,
            59.192734
          ],
          [
            18.076456000000007,
            59.192762
          ],
          [
            18.07656799999995,
            59.1928
          ],
          [
            18.07678599999997,
            59.19282
          ],
          [
            18.07690500000001,
            59.192834
          ],
          [
            18.07702799999993,
            59.192834
          ],
          [
            18.07707400000004,
            59.192797
          ],
          [
            18.07709399999999,
            59.192777
          ],
          [
            18.07717000000002,
            59.192767
          ],
          [
            18.07722799999999,
            59.192749
          ],
          [
            18.07730800000002,
            59.192749
          ],
          [
            18.07733200000007,
            59.192746
          ],
          [
            18.07746399999996,
            59.192753
          ],
          [
            18.077492000000007,
            59.192765
          ],
          [
            18.07756799999993,
            59.192776
          ],
          [
            18.07765199999994,
            59.192803
          ],
          [
            18.07774399999994,
            59.192839
          ],
          [
            18.07782799999995,
            59.192902
          ],
          [
            18.07788700000003,
            59.192938
          ],
          [
            18.07789600000001,
            59.192939
          ],
          [
            18.07795899999996,
            59.192927
          ],
          [
            18.07805800000006,
            59.192929
          ],
          [
            18.078122000000008,
            59.192976
          ],
          [
            18.07822299999998,
            59.193012
          ],
          [
            18.078304,
            59.193033
          ],
          [
            18.07845900000007,
            59.193065
          ],
          [
            18.078622,
            59.193094
          ],
          [
            18.078712,
            59.19312
          ],
          [
            18.07883200000003,
            59.193142
          ],
          [
            18.07894899999997,
            59.193167
          ],
          [
            18.07908599999996,
            59.193206
          ],
          [
            18.07918599999994,
            59.193209
          ],
          [
            18.07926199999997,
            59.193268
          ],
          [
            18.07928900000002,
            59.193291
          ],
          [
            18.07938200000001,
            59.193345
          ],
          [
            18.07945100000006,
            59.193356
          ],
          [
            18.07953099999997,
            59.193378
          ],
          [
            18.07971499999996,
            59.193441
          ],
          [
            18.079882,
            59.193495
          ],
          [
            18.08007699999996,
            59.193538
          ],
          [
            18.080196,
            59.193597
          ],
          [
            18.08021600000006,
            59.193605
          ],
          [
            18.08028999999999,
            59.19362
          ],
          [
            18.08035399999994,
            59.193627
          ],
          [
            18.08039299999996,
            59.19367
          ],
          [
            18.080426999999986,
            59.193726
          ],
          [
            18.08053199999995,
            59.193812
          ],
          [
            18.08061799999996,
            59.193856
          ],
          [
            18.08067499999993,
            59.193881
          ],
          [
            18.08071199999995,
            59.193846
          ],
          [
            18.08072800000002,
            59.193839
          ],
          [
            18.080826,
            59.19391
          ],
          [
            18.08080599999994,
            59.193974
          ],
          [
            18.08079699999996,
            59.194036
          ],
          [
            18.080824000000007,
            59.19409
          ],
          [
            18.08089900000004,
            59.194171
          ],
          [
            18.081004000000007,
            59.194258
          ],
          [
            18.08107700000005,
            59.194307
          ],
          [
            18.08112299999993,
            59.194393
          ],
          [
            18.081146999999987,
            59.19446
          ],
          [
            18.08120299999996,
            59.194567
          ],
          [
            18.08124399999997,
            59.19465
          ],
          [
            18.08131500000002,
            59.194752
          ],
          [
            18.08135500000003,
            59.194835
          ],
          [
            18.08139900000003,
            59.194913
          ],
          [
            18.08152799999993,
            59.194987
          ],
          [
            18.08163300000001,
            59.195056
          ],
          [
            18.08175099999994,
            59.195115
          ],
          [
            18.08183199999996,
            59.195125
          ],
          [
            18.08184200000005,
            59.19513
          ],
          [
            18.08188199999995,
            59.195131
          ],
          [
            18.081902000000014,
            59.195129
          ],
          [
            18.08190300000001,
            59.195132
          ],
          [
            18.08190000000002,
            59.19517
          ],
          [
            18.08187799999996,
            59.195189
          ],
          [
            18.08184600000004,
            59.195182
          ],
          [
            18.08183400000007,
            59.195184
          ],
          [
            18.08183299999996,
            59.195197
          ],
          [
            18.08184299999994,
            59.195229
          ],
          [
            18.08189600000003,
            59.195285
          ],
          [
            18.081902000000014,
            59.195338
          ],
          [
            18.081909,
            59.195392
          ],
          [
            18.08188300000006,
            59.195443
          ],
          [
            18.081815000000006,
            59.195506
          ],
          [
            18.08169799999996,
            59.195572
          ],
          [
            18.08167600000002,
            59.195616
          ],
          [
            18.08166900000003,
            59.195633
          ],
          [
            18.08162100000004,
            59.195707
          ],
          [
            18.08152399999994,
            59.195729
          ],
          [
            18.08143799999993,
            59.195767
          ],
          [
            18.08128099999999,
            59.195836
          ],
          [
            18.08119999999997,
            59.195872
          ],
          [
            18.08117500000003,
            59.195878
          ],
          [
            18.08094499999993,
            59.195897
          ],
          [
            18.08092999999997,
            59.195903
          ],
          [
            18.080872,
            59.195905
          ],
          [
            18.08072500000003,
            59.195913
          ],
          [
            18.08058400000004,
            59.195929
          ],
          [
            18.08047399999998,
            59.195966
          ],
          [
            18.08043299999997,
            59.195989
          ],
          [
            18.08039099999996,
            59.195995
          ],
          [
            18.08034699999996,
            59.195991
          ],
          [
            18.08034699999996,
            59.19599
          ],
          [
            18.08034599999996,
            59.196005
          ],
          [
            18.08034299999997,
            59.196032
          ],
          [
            18.08032700000001,
            59.196106
          ],
          [
            18.08035700000005,
            59.196167
          ],
          [
            18.08042,
            59.196215
          ],
          [
            18.08056999999997,
            59.196294
          ],
          [
            18.080734000000007,
            59.196356
          ],
          [
            18.080777000000012,
            59.196377
          ],
          [
            18.080869000000007,
            59.196466
          ],
          [
            18.08094299999993,
            59.196525
          ],
          [
            18.08096599999999,
            59.196531
          ],
          [
            18.08110599999998,
            59.196604
          ],
          [
            18.08122200000003,
            59.19667
          ],
          [
            18.08131300000002,
            59.196753
          ],
          [
            18.08135200000004,
            59.196839
          ],
          [
            18.08135500000003,
            59.19685
          ],
          [
            18.081461999999988,
            59.196932
          ],
          [
            18.08148400000005,
            59.197045
          ],
          [
            18.08148499999993,
            59.19707
          ],
          [
            18.08149300000002,
            59.197174
          ],
          [
            18.08147099999996,
            59.197313
          ],
          [
            18.08149100000003,
            59.197354
          ],
          [
            18.08151699999996,
            59.197438
          ],
          [
            18.08144300000004,
            59.197484
          ],
          [
            18.08139600000004,
            59.197521
          ],
          [
            18.08138600000007,
            59.197564
          ],
          [
            18.08132799999998,
            59.19762
          ],
          [
            18.08126400000003,
            59.197688
          ],
          [
            18.08112200000005,
            59.197747
          ],
          [
            18.08097799999996,
            59.197782
          ],
          [
            18.08089900000004,
            59.197832
          ],
          [
            18.080873999999994,
            59.197919
          ],
          [
            18.08082300000001,
            59.198038
          ],
          [
            18.08081800000002,
            59.198094
          ],
          [
            18.08079399999997,
            59.198206
          ],
          [
            18.08081600000003,
            59.198307
          ],
          [
            18.08085900000003,
            59.198409
          ],
          [
            18.08085700000004,
            59.198418
          ],
          [
            18.080873,
            59.198514
          ],
          [
            18.08089500000006,
            59.198596
          ],
          [
            18.08091000000002,
            59.198677
          ],
          [
            18.08094200000005,
            59.198749
          ],
          [
            18.080956000000015,
            59.198805
          ],
          [
            18.08095800000001,
            59.19883
          ],
          [
            18.081001000000015,
            59.198897
          ],
          [
            18.08101399999998,
            59.198919
          ],
          [
            18.08096899999998,
            59.19903
          ],
          [
            18.08083399999998,
            59.199146
          ],
          [
            18.08067200000005,
            59.199229
          ],
          [
            18.08059700000001,
            59.199267
          ],
          [
            18.08043399999997,
            59.199359
          ],
          [
            18.080288999999993,
            59.199458
          ],
          [
            18.08022200000005,
            59.199509
          ],
          [
            18.08013299999993,
            59.199555
          ],
          [
            18.08010999999999,
            59.199564
          ],
          [
            18.08007900000007,
            59.199586
          ],
          [
            18.08003600000006,
            59.199614
          ],
          [
            18.08001200000001,
            59.199632
          ],
          [
            18.07989799999996,
            59.199686
          ],
          [
            18.079838999999993,
            59.19973
          ],
          [
            18.07980399999997,
            59.199736
          ],
          [
            18.07978100000003,
            59.199753
          ],
          [
            18.079786000000013,
            59.199765
          ],
          [
            18.07985299999996,
            59.199839
          ],
          [
            18.07996200000002,
            59.200003
          ],
          [
            18.08009600000003,
            59.200123
          ],
          [
            18.08021099999996,
            59.200249
          ],
          [
            18.08030499999995,
            59.200363
          ],
          [
            18.08034499999997,
            59.200401
          ],
          [
            18.08045500000003,
            59.200521
          ],
          [
            18.08056699999997,
            59.200633
          ],
          [
            18.08066600000006,
            59.200714
          ],
          [
            18.08070199999997,
            59.20078
          ],
          [
            18.08068200000002,
            59.200836
          ],
          [
            18.08056299999998,
            59.200927
          ],
          [
            18.08045500000003,
            59.201005
          ],
          [
            18.08043699999996,
            59.201099
          ],
          [
            18.08054900000002,
            59.201209
          ],
          [
            18.08057899999994,
            59.201236
          ],
          [
            18.08070999999995,
            59.201347
          ],
          [
            18.08081900000002,
            59.201449
          ],
          [
            18.08080500000005,
            59.201499
          ],
          [
            18.08086200000002,
            59.201518
          ],
          [
            18.08097699999996,
            59.201605
          ],
          [
            18.08106799999996,
            59.201703
          ],
          [
            18.081099999999992,
            59.201747
          ],
          [
            18.081188,
            59.201853
          ],
          [
            18.08122400000002,
            59.201945
          ],
          [
            18.081279999999992,
            59.20199
          ],
          [
            18.08131600000002,
            59.202018
          ],
          [
            18.08139099999994,
            59.202086
          ],
          [
            18.08146499999998,
            59.202224
          ],
          [
            18.08147299999996,
            59.202243
          ],
          [
            18.08148000000006,
            59.202326
          ],
          [
            18.08147600000007,
            59.202447
          ],
          [
            18.08142199999998,
            59.202548
          ],
          [
            18.08137799999997,
            59.202609
          ],
          [
            18.08130099999994,
            59.20272
          ],
          [
            18.08126700000003,
            59.202781
          ],
          [
            18.08119299999998,
            59.202871
          ],
          [
            18.08115199999997,
            59.202935
          ],
          [
            18.08102800000006,
            59.203064
          ],
          [
            18.08099700000002,
            59.203107
          ],
          [
            18.08097299999997,
            59.203135
          ],
          [
            18.080914000000007,
            59.203194
          ],
          [
            18.08078,
            59.203264
          ],
          [
            18.08054900000002,
            59.20338
          ],
          [
            18.08040000000005,
            59.203459
          ],
          [
            18.08007999999995,
            59.203612
          ],
          [
            18.07990500000005,
            59.203684
          ],
          [
            18.07968700000004,
            59.203779
          ],
          [
            18.07939899999997,
            59.203894
          ],
          [
            18.07915400000002,
            59.203996
          ],
          [
            18.078982,
            59.204087
          ],
          [
            18.07893100000001,
            59.20418
          ],
          [
            18.078930000000014,
            59.204185
          ]
        ]
      }
    }
  ]
}