{
  "type": "FeatureCollection",
  "features": [
    {
      "type": "Feature",
      "properties": {
        "name": "Värmdöleden by Naturkartan"
      },
      "geometry": {
        "type": "LineString",
        "coordinates": [
          [
            18.38770973960118,
            59.34165601207661
          ],
          [
            18.38767984602782,
            59.34165332872946
          ]
        ]
      }
    },
    {
      "type": "Feature",
      "properties": {
        "name": "Värmdöleden by Naturkartan"
      },
      "geometry": {
        "type": "LineString",
        "coordinates": [
          [
            18.47812510789072,
            59.31471060637588
          ],
          [
            18.47785744325824,
            59.31471836269611
          ],
          [
            18.47657456804893,
            59.31509629799312
          ],
          [
            18.47578258247222,
            59.31524652874073
          ],
          [
            18.47531032338054,
            59.31522320242227
          ],
          [
            18.47459965094345,
            59.31511778081384
          ],
          [
            18.47402563660148,
            59.3151621589035
          ],
          [
            18.47338748118693,
            59.31523998747741
          ],
          [
            18.47290185725569,
            59.31529723766192
          ],
          [
            18.47239742683155,
            59.31525193054814
          ],
          [
            18.47176711282123,
            59.3152479283778
          ],
          [
            18.47127704623813,
            59.31526693983
          ],
          [
            18.4705097711153,
            59.31535186576765
          ],
          [
            18.47002488525072,
            59.31545255913073
          ],
          [
            18.46926269485334,
            59.31548655075296
          ],
          [
            18.46874045209483,
            59.31542037327405
          ],
          [
            18.46775920202458,
            59.31525106217049
          ],
          [
            18.46622435698967,
            59.31507441138166
          ],
          [
            18.46501376607137,
            59.31383815093653
          ],
          [
            18.46478732662922,
            59.31359088221692
          ],
          [
            18.4640600796306,
            59.31381614065472
          ],
          [
            18.46356333161793,
            59.31405610975466
          ],
          [
            18.46303652121992,
            59.31426942621474
          ],
          [
            18.46271011559486,
            59.31440364767372
          ]
        ]
      }
    },
    {
      "type": "Feature",
      "properties": {
        "name": "Värmdöleden by Naturkartan"
      },
      "geometry": {
        "type": "LineString",
        "coordinates": [
          [
            18.47812581269682,
            59.31470516774846
          ],
          [
            18.47812510789072,
            59.31471060637588
          ]
        ]
      }
    },
    {
      "type": "Feature",
      "properties": {
        "name": "Värmdöleden by Naturkartan"
      },
      "geometry": {
        "type": "LineString",
        "coordinates": [
          [
            18.47812704697719,
            59.31471055014087
          ],
          [
            18.47812510789072,
            59.31471060637588
          ]
        ]
      }
    },
    {
      "type": "Feature",
      "properties": {
        "name": "Värmdöleden by Naturkartan"
      },
      "geometry": {
        "type": "LineString",
        "coordinates": [
          [
            18.3788414439756,
            59.3427597496885
          ],
          [
            18.37846504301751,
            59.34264889338497
          ],
          [
            18.37839441272934,
            59.34224210563372
          ],
          [
            18.37806461737546,
            59.34202553983059
          ],
          [
            18.37763926605294,
            59.34177113190415
          ],
          [
            18.37712525190182,
            59.3412641707944
          ],
          [
            18.3768724886944,
            59.34086320666287
          ],
          [
            18.3762890740386,
            59.3406717647659
          ],
          [
            18.37569350222145,
            59.34069143976186
          ],
          [
            18.37555279551134,
            59.34086674424859
          ],
          [
            18.37329088625722,
            59.34137567305449
          ],
          [
            18.37260045606899,
            59.34193467037936
          ],
          [
            18.37250452452145,
            59.34266623767866
          ],
          [
            18.37119045199267,
            59.34313821020436
          ]
        ]
      }
    },
    {
      "type": "Feature",
      "properties": {
        "name": "Värmdöleden by Naturkartan"
      },
      "geometry": {
        "type": "LineString",
        "coordinates": [
          [
            18.38770973960118,
            59.34165601207661
          ],
          [
            18.38767984602782,
            59.34165332872946
          ]
        ]
      }
    },
    {
      "type": "Feature",
      "properties": {
        "name": "Värmdöleden by Naturkartan"
      },
      "geometry": {
        "type": "LineString",
        "coordinates": [
          [
            18.47812704697719,
            59.31471055014087
          ],
          [
            18.47812510789072,
            59.31471060637588
          ]
        ]
      }
    },
    {
      "type": "Feature",
      "properties": {
        "name": "Värmdöleden by Naturkartan"
      },
      "geometry": {
        "type": "LineString",
        "coordinates": [
          [
            18.39739759899044,
            59.34077236656578
          ],
          [
            18.39736696640284,
            59.34074363954861
          ],
          [
            18.39730495564982,
            59.3406843907762
          ],
          [
            18.39727144424512,
            59.34065737841942
          ],
          [
            18.3972320910575,
            59.3406266118134
          ],
          [
            18.397196837293,
            59.34059933560671
          ],
          [
            18.39718474592814,
            59.34059425470731
          ],
          [
            18.39709328381014,
            59.34055772163361
          ],
          [
            18.39708425515255,
            59.34055424725422
          ],
          [
            18.39708047718045,
            59.34055345134298
          ],
          [
            18.3969906880543,
            59.34053594726094
          ],
          [
            18.39688287947513,
            59.34051472695283
          ],
          [
            18.39679224328461,
            59.34051168103957
          ],
          [
            18.39664577375379,
            59.3405065597119
          ],
          [
            18.39647740479643,
            59.34050060734201
          ],
          [
            18.39619495005229,
            59.3404944631888
          ],
          [
            18.39582447062821,
            59.3404853529392
          ],
          [
            18.39550295171512,
            59.34047312953683
          ],
          [
            18.39541911473452,
            59.3404688053816
          ],
          [
            18.39540675361764,
            59.34046543104661
          ],
          [
            18.39540108391816,
            59.34046410152245
          ],
          [
            18.39539279916414,
            59.34046215057292
          ],
          [
            18.39538785751688,
            59.34046099894856
          ],
          [
            18.39537855377364,
            59.34045878194925
          ],
          [
            18.39536590799685,
            59.34045585772061
          ],
          [
            18.39534861045331,
            59.34045177996263
          ],
          [
            18.39533436508907,
            59.34044841133402
          ],
          [
            18.39530238632062,
            59.34044087723052
          ],
          [
            18.39529860734444,
            59.34043999019339
          ],
          [
            18.39528985628135,
            59.34043543829298
          ],
          [
            18.39526374948423,
            59.34042169004365
          ],
          [
            18.39523837037177,
            59.34040829979961
          ],
          [
            18.39512751953737,
            59.34034964728286
          ],
          [
            18.39511789801645,
            59.34034491790062
          ],
          [
            18.3950995473748,
            59.34033752153358
          ],
          [
            18.3950578918093,
            59.34032058864504
          ],
          [
            18.39501361373505,
            59.34030249605536
          ],
          [
            18.39492360332679,
            59.34026577798132
          ],
          [
            18.3949051055431,
            59.34025829197857
          ],
          [
            18.39488528578431,
            59.34024919412028
          ],
          [
            18.39481267105384,
            59.3402125123153
          ],
          [
            18.39475682070974,
            59.34018404013005
          ],
          [
            18.39474977805185,
            59.3401766995315
          ],
          [
            18.3946512335973,
            59.34004160256168
          ],
          [
            18.39462803389449,
            59.33999112378944
          ],
          [
            18.39456958165817,
            59.33988822867998
          ],
          [
            18.39454241749252,
            59.33985823281841
          ],
          [
            18.39437931259681,
            59.33964324322781
          ],
          [
            18.39433709324521,
            59.33957755980985
          ],
          [
            18.39434622070814,
            59.3394395325092
          ],
          [
            18.39434887813991,
            59.33933115461452
          ],
          [
            18.39434970185266,
            59.33928967198338
          ],
          [
            18.39435562799997,
            59.33927573763318
          ],
          [
            18.39440266465272,
            59.33915672089398
          ],
          [
            18.39447187333383,
            59.33898735719667
          ]
        ]
      }
    },
    {
      "type": "Feature",
      "properties": {
        "name": "Värmdöleden by Naturkartan"
      },
      "geometry": {
        "type": "LineString",
        "coordinates": [
          [
            18.38770973960118,
            59.34165601207661
          ],
          [
            18.38824531958142,
            59.3415104046712
          ],
          [
            18.38841840384373,
            59.34153547680755
          ],
          [
            18.38865415251644,
            59.34155129514217
          ],
          [
            18.38889722222757,
            59.34159887414673
          ],
          [
            18.38921488233598,
            59.34169121307723
          ],
          [
            18.38948649369877,
            59.34181313646183
          ],
          [
            18.38992516728376,
            59.3419781960925
          ],
          [
            18.39023808945421,
            59.34207395750171
          ],
          [
            18.39051358405663,
            59.34211685802609
          ],
          [
            18.39103091369248,
            59.34211171672462
          ],
          [
            18.392239955322,
            59.34192508461337
          ],
          [
            18.39266881914295,
            59.34190388126952
          ],
          [
            18.39286776598146,
            59.34192096942563
          ],
          [
            18.39347448116916,
            59.34204896823221
          ],
          [
            18.39376721496751,
            59.34215313257718
          ],
          [
            18.39387784901214,
            59.34219275274592
          ],
          [
            18.393958364642,
            59.34222285669382
          ],
          [
            18.39406843698441,
            59.34226400420045
          ],
          [
            18.39417414233833,
            59.34230354895983
          ],
          [
            18.39428596190692,
            59.34234531933306
          ],
          [
            18.39431836151107,
            59.34235150672011
          ],
          [
            18.39445580423967,
            59.34237757712857
          ],
          [
            18.39450344052159,
            59.34238515514682
          ],
          [
            18.39465115034363,
            59.34240894907499
          ],
          [
            18.39475519175778,
            59.34240504323098
          ],
          [
            18.3948958951521,
            59.34239976859045
          ],
          [
            18.39505311697417,
            59.34239381542087
          ],
          [
            18.39507710956821,
            59.34238754844164
          ],
          [
            18.3952476584592,
            59.3423433963005
          ],
          [
            18.39538019710403,
            59.34230914541181
          ],
          [
            18.39542426813216,
            59.34229671120536
          ],
          [
            18.39553090544155,
            59.34226675896846
          ],
          [
            18.39565098375954,
            59.34223317393138
          ],
          [
            18.39605460914231,
            59.34206189683967
          ],
          [
            18.39608948605996,
            59.34204419351716
          ],
          [
            18.39613718616306,
            59.34201980667129
          ],
          [
            18.39620246786217,
            59.34198647764103
          ],
          [
            18.39626544489613,
            59.34195441326852
          ],
          [
            18.39631717929444,
            59.34192794899212
          ],
          [
            18.39638837239795,
            59.34189181841086
          ],
          [
            18.39640206001184,
            59.34188468401906
          ],
          [
            18.39642011800515,
            59.34186676259846
          ],
          [
            18.39645623876652,
            59.34183154704339
          ],
          [
            18.39648576397178,
            59.34180254684378
          ],
          [
            18.39650554326738,
            59.34178318238191
          ],
          [
            18.39653729496058,
            59.34175866479938
          ],
          [
            18.39660797779879,
            59.34170368160161
          ],
          [
            18.39667793861884,
            59.34164905873072
          ],
          [
            18.39673770418528,
            59.34160272828021
          ],
          [
            18.39676701339033,
            59.34158010306751
          ],
          [
            18.39680231779334,
            59.34156194900351
          ],
          [
            18.39693936526669,
            59.34149212781178
          ],
          [
            18.3969915207299,
            59.34146458542621
          ],
          [
            18.39704266669469,
            59.34143749431716
          ],
          [
            18.39709467597095,
            59.3414098612575
          ],
          [
            18.39715590751427,
            59.34137744257117
          ],
          [
            18.39720489159185,
            59.34135143556135
          ],
          [
            18.39725142720226,
            59.3413267827103
          ],
          [
            18.39727462259339,
            59.34131441147205
          ],
          [
            18.39734521924447,
            59.34125233432426
          ],
          [
            18.39745585155788,
            59.3411552094738
          ],
          [
            18.39748120165939,
            59.34110395589907
          ],
          [
            18.39751574029708,
            59.34103274063122
          ],
          [
            18.39750614533853,
            59.34090626334557
          ],
          [
            18.39744465952526,
            59.34082995495482
          ],
          [
            18.39739759899044,
            59.34077236656578
          ]
        ]
      }
    },
    {
      "type": "Feature",
      "properties": {
        "name": "Värmdöleden by Naturkartan"
      },
      "geometry": {
        "type": "LineString",
        "coordinates": [
          [
            18.44657553136449,
            59.31812307673983
          ],
          [
            18.44468660459938,
            59.31781052908034
          ],
          [
            18.4429293657696,
            59.31824227392697
          ],
          [
            18.4403855047367,
            59.31873411729948
          ],
          [
            18.43983548207757,
            59.31895047041056
          ],
          [
            18.43808260274955,
            59.31905468915718
          ],
          [
            18.43791991543526,
            59.31908854585956
          ],
          [
            18.43754775514617,
            59.31914573197675
          ],
          [
            18.43729585807182,
            59.31918195247282
          ],
          [
            18.4369930606116,
            59.31922570614045
          ],
          [
            18.43659064379051,
            59.31929600896536
          ],
          [
            18.43624724651568,
            59.31938227576149
          ],
          [
            18.43589343990527,
            59.31945896825125
          ],
          [
            18.43559380865395,
            59.31952398653339
          ],
          [
            18.43530303542786,
            59.31959068045927
          ],
          [
            18.43487527254081,
            59.31966214122582
          ],
          [
            18.43440615979594,
            59.31964191755873
          ],
          [
            18.43405935306032,
            59.31977583491654
          ],
          [
            18.43380678456833,
            59.31980558639815
          ],
          [
            18.43356987350364,
            59.31982487069828
          ],
          [
            18.43334057219204,
            59.3198387423658
          ],
          [
            18.43316633411087,
            59.31984219409586
          ],
          [
            18.43303105416635,
            59.3198333066054
          ],
          [
            18.43283555753442,
            59.31982829892198
          ],
          [
            18.43267168402542,
            59.31982659883362
          ],
          [
            18.43245008817291,
            59.31984268755432
          ],
          [
            18.43218884364899,
            59.31986240824916
          ],
          [
            18.43192725733809,
            59.31990098574887
          ],
          [
            18.43169082100133,
            59.31993489892162
          ],
          [
            18.43145288727226,
            59.31997662885374
          ],
          [
            18.43120577823868,
            59.32001443858599
          ],
          [
            18.43048844588589,
            59.32002085003073
          ],
          [
            18.4299708890245,
            59.3212430942042
          ],
          [
            18.42904878144645,
            59.3218561324987
          ],
          [
            18.42739817443868,
            59.32256497062448
          ],
          [
            18.42645039367551,
            59.32365380308857
          ],
          [
            18.4264350542901,
            59.32401389003326
          ],
          [
            18.42679815951658,
            59.3240839909729
          ],
          [
            18.42699600984633,
            59.32432100390258
          ],
          [
            18.42804471947704,
            59.32488428625657
          ],
          [
            18.42788340764378,
            59.3254226262524
          ],
          [
            18.42730525331615,
            59.32635631006603
          ],
          [
            18.42726127330525,
            59.32643115541276
          ],
          [
            18.42713322206509,
            59.32651525508997
          ],
          [
            18.42706088284956,
            59.32654727518612
          ],
          [
            18.42687137343546,
            59.32659521236589
          ],
          [
            18.42680995972898,
            59.32662019481019
          ],
          [
            18.42658068606966,
            59.32668648754807
          ],
          [
            18.42643896171251,
            59.32668940280905
          ],
          [
            18.42606787487421,
            59.32684825182656
          ],
          [
            18.42529389772631,
            59.32709921390473
          ],
          [
            18.42494691883985,
            59.32735991303742
          ],
          [
            18.42488824139446,
            59.3273953892669
          ],
          [
            18.4248367853728,
            59.32744071926628
          ],
          [
            18.42478664375312,
            59.32747518010117
          ],
          [
            18.42473029984433,
            59.32751190634557
          ],
          [
            18.4246677400713,
            59.32754990948371
          ],
          [
            18.42462529892077,
            59.32757446988366
          ],
          [
            18.42456003684345,
            59.32760493971501
          ],
          [
            18.42397477243082,
            59.32779189104041
          ],
          [
            18.42343973740185,
            59.3278818885538
          ],
          [
            18.42328035806077,
            59.32786004914879
          ],
          [
            18.42311601122628,
            59.32782323263909
          ],
          [
            18.42293768705269,
            59.32778116341372
          ],
          [
            18.42272155600244,
            59.32772835271754
          ],
          [
            18.42247615659051,
            59.32767581663408
          ],
          [
            18.42231825140141,
            59.32763242269309
          ],
          [
            18.42218758208844,
            59.32761201679286
          ],
          [
            18.42205154955479,
            59.32761470149565
          ],
          [
            18.42191656537852,
            59.32763192849475
          ],
          [
            18.42177317278515,
            59.32766049462008
          ],
          [
            18.42167875359917,
            59.3277003953662
          ],
          [
            18.42155677650089,
            59.32776166358619
          ],
          [
            18.42137983863677,
            59.32785471436308
          ],
          [
            18.42132415066862,
            59.32790966278378
          ],
          [
            18.42154129598862,
            59.32821997586885
          ],
          [
            18.42153635740112,
            59.32851152243678
          ],
          [
            18.42163519435803,
            59.32885148758724
          ],
          [
            18.42146718523907,
            59.32891712485917
          ],
          [
            18.42027348584247,
            59.32914063275544
          ],
          [
            18.41948525448151,
            59.32953028246928
          ],
          [
            18.41927058643591,
            59.32993796757719
          ],
          [
            18.41751402944169,
            59.33058502748563
          ],
          [
            18.41516372543219,
            59.33121321563462
          ],
          [
            18.41505784874437,
            59.33145588174737
          ],
          [
            18.41343060736142,
            59.33203585364798
          ],
          [
            18.41238099055636,
            59.33229290909156
          ],
          [
            18.41145828965773,
            59.33258403404243
          ],
          [
            18.41105457478784,
            59.33287620948592
          ],
          [
            18.40972649982666,
            59.33315692736092
          ],
          [
            18.40908411378462,
            59.33362223284865
          ],
          [
            18.40711949225181,
            59.33406392801506
          ],
          [
            18.40727596118154,
            59.33442239850935
          ],
          [
            18.4070118133767,
            59.33457343284248
          ],
          [
            18.40627533648637,
            59.33477478254365
          ],
          [
            18.40584324278882,
            59.33503883795706
          ],
          [
            18.40506628469007,
            59.3350552607582
          ],
          [
            18.40349916471109,
            59.33479372979671
          ],
          [
            18.402461892063,
            59.33473543307539
          ],
          [
            18.40251820112508,
            59.3350235574913
          ],
          [
            18.40228929875786,
            59.33555911115177
          ],
          [
            18.40109915694325,
            59.33619477105994
          ],
          [
            18.40041215378983,
            59.33661554866888
          ],
          [
            18.40000230439978,
            59.33769278390293
          ],
          [
            18.39991384315499,
            59.33862645609925
          ],
          [
            18.39962599355817,
            59.33907293874839
          ],
          [
            18.3995050493711,
            59.33989573571027
          ],
          [
            18.39941019721778,
            59.34006437221711
          ],
          [
            18.39879491417219,
            59.34011940794159
          ],
          [
            18.39826576105111,
            59.34042449635491
          ],
          [
            18.39800072462143,
            59.34051374502664
          ],
          [
            18.39743675521231,
            59.34075760831404
          ],
          [
            18.39739759899044,
            59.34077236656578
          ]
        ]
      }
    },
    {
      "type": "Feature",
      "properties": {
        "name": "Värmdöleden by Naturkartan"
      },
      "geometry": {
        "type": "LineString",
        "coordinates": [
          [
            18.46260083489392,
            59.31442028643399
          ],
          [
            18.46229082312993,
            59.3143004459698
          ],
          [
            18.4620287833078,
            59.31421455319785
          ],
          [
            18.46160966322111,
            59.31410236982415
          ],
          [
            18.46134775176586,
            59.31403640702359
          ],
          [
            18.46095485397495,
            59.31392421979653
          ],
          [
            18.45920492971399,
            59.3134843291659
          ],
          [
            18.45907493162179,
            59.31348432916249
          ],
          [
            18.45906048739931,
            59.31355804385529
          ],
          [
            18.45908937585395,
            59.31356541531179
          ],
          [
            18.45917604124233,
            59.31374232987551
          ],
          [
            18.45930603933451,
            59.31388238658909
          ],
          [
            18.45925676674653,
            59.31396340311966
          ],
          [
            18.45920492971644,
            59.31404455679527
          ],
          [
            18.4592121518331,
            59.31419198358455
          ],
          [
            18.45890160085247,
            59.31436152360266
          ],
          [
            18.45886549027739,
            59.31454580527122
          ],
          [
            18.45882215758206,
            59.31468954427959
          ],
          [
            18.45880049123551,
            59.3148074835249
          ],
          [
            18.458701608903,
            59.31522413322716
          ],
          [
            18.45869395171712,
            59.31585153484345
          ],
          [
            18.45870215964374,
            59.31654707157148
          ],
          [
            18.45822207615879,
            59.31685771064652
          ],
          [
            18.45758834360038,
            59.31696785867518
          ],
          [
            18.4572250046723,
            59.31692262571502
          ],
          [
            18.45707597534363,
            59.31710855481293
          ],
          [
            18.45659674800618,
            59.31702017989969
          ],
          [
            18.45468798994557,
            59.317177692789
          ],
          [
            18.45369567534692,
            59.31764435153605
          ],
          [
            18.45248551347822,
            59.31774471868007
          ],
          [
            18.45023049353313,
            59.31917508323793
          ],
          [
            18.44707190707527,
            59.31967295023968
          ],
          [
            18.44677148000505,
            59.31916786202203
          ],
          [
            18.44678270942825,
            59.31891956842524
          ],
          [
            18.44690392874691,
            59.31868499331348
          ],
          [
            18.44701725255391,
            59.31832366865414
          ],
          [
            18.44678449006597,
            59.31818296532371
          ]
        ]
      }
    },
    {
      "type": "Feature",
      "properties": {
        "name": "Värmdöleden by Naturkartan"
      },
      "geometry": {
        "type": "LineString",
        "coordinates": [
          [
            18.56760771347064,
            59.30403134274252
          ],
          [
            18.5671826165495,
            59.30372835397273
          ],
          [
            18.56674949893193,
            59.30349906337989
          ],
          [
            18.56565070211232,
            59.30341064045703
          ],
          [
            18.5648807152385,
            59.30327961622655
          ],
          [
            18.56401448000338,
            59.3035170972727
          ],
          [
            18.56281137550968,
            59.30319772582627
          ],
          [
            18.56148017796704,
            59.30308597419754
          ],
          [
            18.5596512210393,
            59.30296843165647
          ],
          [
            18.55977955218617,
            59.302329675462
          ],
          [
            18.55975975035619,
            59.30171821406665
          ],
          [
            18.559366802049,
            59.3011026234878
          ],
          [
            18.55749732883987,
            59.3007732204368
          ],
          [
            18.55677903397122,
            59.30041131192493
          ]
        ]
      }
    },
    {
      "type": "Feature",
      "properties": {
        "name": "Värmdöleden by Naturkartan"
      },
      "geometry": {
        "type": "LineString",
        "coordinates": [
          [
            18.38770973960118,
            59.34165601207661
          ],
          [
            18.38716533314164,
            59.34176519104623
          ],
          [
            18.38681217794283,
            59.34184013259498
          ],
          [
            18.38623351652188,
            59.34198433487931
          ],
          [
            18.38565482800652,
            59.34211390088775
          ],
          [
            18.38551600111759,
            59.34215686909759
          ],
          [
            18.38520285877894,
            59.34232210012686
          ],
          [
            18.3849204660271,
            59.34245069714637
          ],
          [
            18.38471016819153,
            59.34250662525903
          ],
          [
            18.38446901952398,
            59.34253929954951
          ],
          [
            18.38415405876651,
            59.34255719688549
          ],
          [
            18.38387017454954,
            59.34261836808668
          ],
          [
            18.38339663534487,
            59.34284377365748
          ],
          [
            18.38336942768831,
            59.34285290305542
          ],
          [
            18.38325053230801,
            59.34289894370396
          ],
          [
            18.38291753605949,
            59.34275407141368
          ],
          [
            18.38277955142712,
            59.34261387977686
          ],
          [
            18.38277691559801,
            59.34261074688197
          ],
          [
            18.38282804952041,
            59.34243961699934
          ],
          [
            18.3829324394477,
            59.34228591988131
          ],
          [
            18.38287092056396,
            59.34213616985684
          ],
          [
            18.38287056760885,
            59.34213497153785
          ],
          [
            18.38272350680768,
            59.34206526861306
          ],
          [
            18.38248911229368,
            59.34205006596096
          ],
          [
            18.38230838560833,
            59.34207229387316
          ],
          [
            18.38217037745039,
            59.34208935331222
          ],
          [
            18.38198221483344,
            59.34208868178001
          ],
          [
            18.38189007737208,
            59.34208834073063
          ],
          [
            18.38188439281748,
            59.34208820387835
          ],
          [
            18.38160005818281,
            59.3420742152726
          ],
          [
            18.38156591127688,
            59.34207018909203
          ],
          [
            18.38147485804041,
            59.34205991305505
          ],
          [
            18.38135390664104,
            59.34204619387554
          ],
          [
            18.38117528341309,
            59.34204402273865
          ],
          [
            18.38093366236319,
            59.34208629899594
          ],
          [
            18.38088615995184,
            59.342090477913
          ],
          [
            18.38053799140039,
            59.34213315468195
          ],
          [
            18.38042087015833,
            59.34216025168028
          ],
          [
            18.38012981418422,
            59.34222852945596
          ],
          [
            18.38006262635599,
            59.34224838777716
          ],
          [
            18.37983809779064,
            59.34231566150619
          ],
          [
            18.37973306074866,
            59.34234748223821
          ],
          [
            18.37965890314922,
            59.34239241100089
          ],
          [
            18.37944751492523,
            59.34252016103316
          ],
          [
            18.37927390501557,
            59.3426168243201
          ],
          [
            18.3792035869036,
            59.34265518715596
          ],
          [
            18.37915978661238,
            59.34266635841757
          ],
          [
            18.37891128463957,
            59.34272930090555
          ],
          [
            18.3788414439756,
            59.3427597496885
          ]
        ]
      }
    },
    {
      "type": "Feature",
      "properties": {
        "name": "Värmdöleden by Naturkartan"
      },
      "geometry": {
        "type": "LineString",
        "coordinates": [
          [
            18.58634853769308,
            59.30718551863858
          ],
          [
            18.58611926012827,
            59.30715027714341
          ],
          [
            18.58557030262534,
            59.30669016670443
          ],
          [
            18.5850026552514,
            59.30640584998359
          ],
          [
            18.58453139845801,
            59.30622731510696
          ],
          [
            18.58397461820755,
            59.30607753454655
          ],
          [
            18.58333898377941,
            59.30582161782354
          ],
          [
            18.58316507313634,
            59.3056277397456
          ],
          [
            18.58296420141789,
            59.3051021327046
          ],
          [
            18.58288227146136,
            59.30496018861575
          ],
          [
            18.58150020108042,
            59.30450243868467
          ],
          [
            18.58146974480144,
            59.30442329380756
          ],
          [
            18.58146330247541,
            59.30430040462154
          ],
          [
            18.58096044589593,
            59.30438902248152
          ],
          [
            18.58025853717049,
            59.30472786074191
          ],
          [
            18.57933304708308,
            59.30539163735295
          ],
          [
            18.57838498099807,
            59.30617788701763
          ],
          [
            18.57769345378392,
            59.30634696842147
          ],
          [
            18.57646285279725,
            59.30686600728387
          ],
          [
            18.57469296765069,
            59.30667795031371
          ],
          [
            18.57358911282495,
            59.30690965409471
          ],
          [
            18.57057400791223,
            59.30717105959382
          ],
          [
            18.56828719499526,
            59.30675699452069
          ],
          [
            18.56717873162677,
            59.30637296093071
          ],
          [
            18.56660440971405,
            59.30629590877601
          ],
          [
            18.56642114128385,
            59.30613455223937
          ],
          [
            18.56717837933729,
            59.30552538233368
          ],
          [
            18.56741774735559,
            59.30494995438153
          ],
          [
            18.56754743163492,
            59.30424279811334
          ],
          [
            18.56798468621236,
            59.30365465359341
          ],
          [
            18.56866153412773,
            59.30329410882372
          ],
          [
            18.56956835388451,
            59.30322828571381
          ],
          [
            18.57034092177105,
            59.30314418759231
          ],
          [
            18.57072306719681,
            59.30289407611317
          ],
          [
            18.57097416299825,
            59.30245383260191
          ],
          [
            18.57166130323446,
            59.30214689372496
          ],
          [
            18.57196456481415,
            59.30180491367083
          ],
          [
            18.57193654122068,
            59.30129990077281
          ],
          [
            18.57205419009347,
            59.30102840960789
          ],
          [
            18.57288105208033,
            59.30040480295671
          ],
          [
            18.57307835624931,
            59.29973044910999
          ],
          [
            18.57257412696026,
            59.29945019902373
          ],
          [
            18.57332772747463,
            59.29866592421561
          ],
          [
            18.57395829186908,
            59.29763599384646
          ],
          [
            18.57389991152502,
            59.29742758866732
          ],
          [
            18.5734016351239,
            59.29712100798626
          ],
          [
            18.57219100825205,
            59.2968452994389
          ],
          [
            18.57092394531071,
            59.29645759498939
          ],
          [
            18.56921953714902,
            59.29615574036405
          ],
          [
            18.56841403901262,
            59.29716826197432
          ],
          [
            18.56712128711251,
            59.2975885411567
          ],
          [
            18.56683277757179,
            59.29790413738381
          ],
          [
            18.5669503658587,
            59.2984365960717
          ],
          [
            18.56678841307439,
            59.29860556069144
          ],
          [
            18.5662940886325,
            59.29855141423791
          ],
          [
            18.56562808704669,
            59.29845522986969
          ],
          [
            18.5647586938469,
            59.29848364605389
          ],
          [
            18.56429386703383,
            59.29848808457221
          ],
          [
            18.56388873935384,
            59.29858285705424
          ],
          [
            18.56304435173126,
            59.29856487112939
          ],
          [
            18.56126344008214,
            59.29869232976705
          ],
          [
            18.55956964239181,
            59.29880897515092
          ],
          [
            18.55836866352661,
            59.29894216356927
          ],
          [
            18.55749432589619,
            59.29898765794528
          ],
          [
            18.55700101244975,
            59.29940224539744
          ],
          [
            18.55669060652235,
            59.30034282383853
          ],
          [
            18.55398406328874,
            59.30079745448504
          ],
          [
            18.55216815279903,
            59.30062594954375
          ],
          [
            18.55165487579495,
            59.30061770914732
          ],
          [
            18.5509908235847,
            59.30067825198382
          ],
          [
            18.54992065851548,
            59.30076780022036
          ],
          [
            18.54889392955909,
            59.30098339615524
          ],
          [
            18.54832346891999,
            59.30136298882018
          ],
          [
            18.54815262822024,
            59.30156213489806
          ],
          [
            18.54779595084244,
            59.30126213414287
          ],
          [
            18.54713047957875,
            59.30104612203775
          ],
          [
            18.54704373230743,
            59.30099099877056
          ],
          [
            18.54691633645859,
            59.30092024338299
          ],
          [
            18.54687100097317,
            59.30068474497815
          ],
          [
            18.54697705254398,
            59.30061651148392
          ],
          [
            18.54702570222037,
            59.30041806013443
          ],
          [
            18.54682911979603,
            59.30015913441571
          ],
          [
            18.54629126606949,
            59.29988179792317
          ],
          [
            18.54587957332626,
            59.29974264899901
          ],
          [
            18.54508873564498,
            59.29942560386301
          ],
          [
            18.54452727047283,
            59.29930907535018
          ],
          [
            18.54413479091022,
            59.29926600155451
          ],
          [
            18.54350543464739,
            59.29924070523133
          ],
          [
            18.54300704268258,
            59.2991292940041
          ],
          [
            18.54237677213166,
            59.29893717325202
          ],
          [
            18.54205941558473,
            59.29889243473621
          ],
          [
            18.54193905805153,
            59.29879874962258
          ],
          [
            18.54167876608062,
            59.29868230245759
          ],
          [
            18.54142301187801,
            59.29862347863422
          ],
          [
            18.54101756062721,
            59.29857425396982
          ],
          [
            18.54079490542745,
            59.29845702040537
          ],
          [
            18.54068017541522,
            59.29827971978079
          ],
          [
            18.54030423730057,
            59.29797313390159
          ],
          [
            18.53994586058434,
            59.29785152399365
          ],
          [
            18.53891072091767,
            59.29796391150885
          ],
          [
            18.53862492388384,
            59.29791813559515
          ],
          [
            18.5384780871816,
            59.29820955955953
          ],
          [
            18.53781277867392,
            59.29824400217586
          ],
          [
            18.53742977064371,
            59.29815759233017
          ],
          [
            18.53659361952032,
            59.29843111545283
          ],
          [
            18.53603906883154,
            59.29864996138289
          ],
          [
            18.5354481527454,
            59.29871111164658
          ],
          [
            18.53517741879136,
            59.29883172874786
          ],
          [
            18.53459021057154,
            59.29900949197963
          ],
          [
            18.53404782072266,
            59.29908183898998
          ],
          [
            18.53293090877332,
            59.29942212206076
          ],
          [
            18.53243126720906,
            59.29943260455298
          ],
          [
            18.53140850950626,
            59.29975875211372
          ],
          [
            18.53030283723888,
            59.29994040457339
          ],
          [
            18.52918829453608,
            59.29976617325657
          ],
          [
            18.52798834531814,
            59.29961095382605
          ],
          [
            18.52704517206757,
            59.29974038266907
          ],
          [
            18.52587551068927,
            59.29994281762981
          ],
          [
            18.52534049544579,
            59.29996975664366
          ],
          [
            18.52439260189726,
            59.29987831309742
          ],
          [
            18.52355919017702,
            59.29985903848838
          ],
          [
            18.52273532769425,
            59.3000374297113
          ],
          [
            18.52169676221217,
            59.30046367502726
          ],
          [
            18.52124792853567,
            59.30062582841615
          ],
          [
            18.52081105683078,
            59.30066151514152
          ],
          [
            18.52044229164267,
            59.30080502960412
          ],
          [
            18.51980893801056,
            59.30076508978923
          ],
          [
            18.51952785456092,
            59.30087637730765
          ],
          [
            18.51887074582419,
            59.3011306658662
          ],
          [
            18.51746093689064,
            59.30142008532495
          ],
          [
            18.51623980933209,
            59.3015971388616
          ],
          [
            18.51487720500802,
            59.30155395614666
          ],
          [
            18.51296508098847,
            59.30168235068609
          ],
          [
            18.51130090711831,
            59.30172866691275
          ],
          [
            18.5095085615236,
            59.30189936798173
          ],
          [
            18.50763839389333,
            59.30209602561204
          ],
          [
            18.50696618744348,
            59.30228710303338
          ],
          [
            18.50684829115107,
            59.3024018592463
          ],
          [
            18.50583995858699,
            59.30244429596292
          ],
          [
            18.50491534365688,
            59.30262529840399
          ],
          [
            18.50405531620208,
            59.30281708844897
          ],
          [
            18.50447457587723,
            59.30332975795216
          ],
          [
            18.50499929787691,
            59.30372727167089
          ],
          [
            18.50634150806388,
            59.30438099876186
          ],
          [
            18.50503675009554,
            59.30517940817946
          ],
          [
            18.50445619314462,
            59.30615690891754
          ],
          [
            18.50317638519164,
            59.30597528250406
          ],
          [
            18.50159175119575,
            59.30608832661638
          ],
          [
            18.5008089996046,
            59.30651800044976
          ],
          [
            18.50089199939987,
            59.30659900122944
          ],
          [
            18.5009840005149,
            59.30666700042784
          ],
          [
            18.50105599986637,
            59.30675400034163
          ],
          [
            18.50109099949191,
            59.3068330007022
          ],
          [
            18.50111599972058,
            59.30691500109578
          ],
          [
            18.50113099955172,
            59.30699800087441
          ],
          [
            18.50112255730915,
            59.30708601007022
          ],
          [
            18.50113168041844,
            59.30712254147193
          ],
          [
            18.50114361112776,
            59.30715995136953
          ],
          [
            18.50115997536125,
            59.30725433070857
          ],
          [
            18.50117399962573,
            59.30732400095077
          ],
          [
            18.50119221599311,
            59.30740991002219
          ],
          [
            18.50119852275316,
            59.30749922354771
          ],
          [
            18.50119491949681,
            59.30759367967951
          ],
          [
            18.50120088835899,
            59.3076600222516
          ],
          [
            18.50120121862062,
            59.30771696449104
          ],
          [
            18.50118526295751,
            59.30775966902264
          ],
          [
            18.50113445869601,
            59.30789510781056
          ],
          [
            18.50107084344029,
            59.30798213798302
          ],
          [
            18.50099716750117,
            59.30806410129152
          ],
          [
            18.50084906655854,
            59.30817698064823
          ],
          [
            18.50070580727106,
            59.30827963224979
          ],
          [
            18.50057230497725,
            59.30836692967176
          ],
          [
            18.5004241263357,
            59.30847470434312
          ],
          [
            18.50030556072807,
            59.3085593908544
          ],
          [
            18.50015696820321,
            59.30863908904639
          ],
          [
            18.50003333497932,
            59.30871869231399
          ],
          [
            18.49987989818294,
            59.30880861877397
          ],
          [
            18.49961712867412,
            59.30893214653813
          ],
          [
            18.49930845568065,
            59.30898948313474
          ],
          [
            18.4986649918842,
            59.30902513042336
          ],
          [
            18.49817094473178,
            59.30903722910227
          ],
          [
            18.4975919253593,
            59.30904199572591
          ],
          [
            18.49711762275763,
            59.30903869950333
          ],
          [
            18.49684388797596,
            59.30909589900211
          ],
          [
            18.49659425683103,
            59.30909429832833
          ],
          [
            18.49642885482137,
            59.309048984086
          ],
          [
            18.4961937166031,
            59.30901414417379
          ],
          [
            18.49601428376536,
            59.30907478660733
          ],
          [
            18.49575618812332,
            59.30922570336271
          ],
          [
            18.49558294440055,
            59.30932070222732
          ],
          [
            18.49539302883943,
            59.30940228770076
          ],
          [
            18.49536977021864,
            59.30941506263184
          ],
          [
            18.49516664476914,
            59.30948910573071
          ],
          [
            18.49488028704343,
            59.30955681488316
          ],
          [
            18.49455482555868,
            59.30962467079406
          ],
          [
            18.49326537347611,
            59.30984253027044
          ],
          [
            18.49303172452528,
            59.30995007961351
          ],
          [
            18.49243166807787,
            59.30997874493774
          ],
          [
            18.49209383895732,
            59.31009333086649
          ],
          [
            18.49165052862804,
            59.31013486891285
          ],
          [
            18.49133861814528,
            59.31024935405578
          ],
          [
            18.49074718957513,
            59.31056574178572
          ],
          [
            18.4902751719959,
            59.3107868649778
          ],
          [
            18.49004236935048,
            59.31098445973311
          ],
          [
            18.48970215922657,
            59.31112616310426
          ],
          [
            18.48948204494764,
            59.31122952489891
          ],
          [
            18.48900409008058,
            59.31143172039843
          ],
          [
            18.48888868745485,
            59.31160561880844
          ],
          [
            18.48839589104216,
            59.31185419693295
          ],
          [
            18.48812353782148,
            59.31200192722325
          ],
          [
            18.48792958529339,
            59.31214271878212
          ],
          [
            18.48755595157763,
            59.3125310917336
          ],
          [
            18.48714086570419,
            59.31274597511334
          ],
          [
            18.48663259217096,
            59.3129676686593
          ],
          [
            18.48636177689104,
            59.31308225741315
          ],
          [
            18.48579001096596,
            59.31329107646683
          ],
          [
            18.48523013718545,
            59.31339964720651
          ],
          [
            18.48447528657834,
            59.31358903008886
          ],
          [
            18.48432826866781,
            59.31382337765708
          ],
          [
            18.48410064824088,
            59.31391059633938
          ],
          [
            18.48381361729525,
            59.31392486145357
          ],
          [
            18.48347425394468,
            59.31392594079369
          ],
          [
            18.48318632683265,
            59.31386685297694
          ],
          [
            18.48304085193365,
            59.31372050344039
          ],
          [
            18.48275292729272,
            59.31366141363767
          ],
          [
            18.48258501475004,
            59.31380210066514
          ],
          [
            18.4824171008222,
            59.31394278747502
          ],
          [
            18.48259043320738,
            59.31446609855615
          ],
          [
            18.48198972975501,
            59.31422449903125
          ],
          [
            18.48146705597946,
            59.31417947358319
          ],
          [
            18.48099525728207,
            59.31403414789332
          ],
          [
            18.48060271526549,
            59.31396206115941
          ],
          [
            18.48012144782115,
            59.31411045478074
          ],
          [
            18.47921250438048,
            59.31450041631231
          ],
          [
            18.47841731924927,
            59.31459644445886
          ],
          [
            18.47830759265997,
            59.3146685245857
          ],
          [
            18.47812510789072,
            59.31471060637588
          ]
        ]
      }
    },
    {
      "type": "Feature",
      "properties": {
        "name": "Värmdöleden by Naturkartan"
      },
      "geometry": {
        "type": "LineString",
        "coordinates": [
          [
            18.37072903268313,
            59.3435794659336
          ],
          [
            18.37018588836895,
            59.34410561802982
          ],
          [
            18.36957202813824,
            59.34447619342499
          ],
          [
            18.36943955489926,
            59.34540062909772
          ],
          [
            18.36946363691197,
            59.34550875036582
          ],
          [
            18.3694975868334,
            59.34559107597904
          ],
          [
            18.36956555653774,
            59.34569539293111
          ],
          [
            18.36962167440788,
            59.34577639799866
          ],
          [
            18.3697263623153,
            59.34591068877499
          ],
          [
            18.36989936724819,
            59.34612765469682
          ],
          [
            18.37002634759119,
            59.34635184580457
          ],
          [
            18.37005319958439,
            59.34647459386884
          ],
          [
            18.3694481907396,
            59.34706340830623
          ],
          [
            18.36897861260229,
            59.34796258079693
          ],
          [
            18.3686584728764,
            59.34833734778889
          ],
          [
            18.36822241038612,
            59.34871962414962
          ],
          [
            18.36801211820045,
            59.34890265862158
          ],
          [
            18.36792740683279,
            59.34902024596265
          ],
          [
            18.36928481999939,
            59.34929653591564
          ],
          [
            18.36892229398461,
            59.34998881097803
          ],
          [
            18.36810106190114,
            59.35073041394126
          ],
          [
            18.36732509977742,
            59.35065897877941
          ],
          [
            18.36673690369298,
            59.35085492728177
          ],
          [
            18.36642474065945,
            59.35097898911367
          ],
          [
            18.36619030010888,
            59.35106269766766
          ],
          [
            18.36578864225487,
            59.35131953052465
          ],
          [
            18.36564582650226,
            59.35141537164654
          ],
          [
            18.36535142454068,
            59.35151971763825
          ],
          [
            18.3652453228342,
            59.35155081015364
          ],
          [
            18.3651482081016,
            59.3516280668243
          ],
          [
            18.36491407038216,
            59.35170778323402
          ],
          [
            18.36460242592261,
            59.35180041351683
          ],
          [
            18.36439693866191,
            59.3518400445608
          ],
          [
            18.3639620678664,
            59.35185445690816
          ],
          [
            18.36360406049516,
            59.35184270576692
          ],
          [
            18.36331938854801,
            59.35182724852229
          ],
          [
            18.36314098486878,
            59.35182316699219
          ],
          [
            18.36299226858262,
            59.35182896785793
          ],
          [
            18.36283160090989,
            59.35184270299832
          ],
          [
            18.36268393308478,
            59.35183817511366
          ],
          [
            18.36253373130921,
            59.35181345341153
          ],
          [
            18.36202666513054,
            59.35176161975005
          ],
          [
            18.36180191828748,
            59.35179034635178
          ],
          [
            18.36147272314599,
            59.35192431872606
          ],
          [
            18.36087202165061,
            59.35219057656982
          ],
          [
            18.36068554483552,
            59.35224586045445
          ],
          [
            18.36046867501454,
            59.35230679503808
          ],
          [
            18.35971287107532,
            59.35248405070381
          ],
          [
            18.35886789959272,
            59.35264987517052
          ],
          [
            18.35813897128696,
            59.35280576946039
          ],
          [
            18.35767772809299,
            59.35290624682082
          ],
          [
            18.35747273936704,
            59.35295331647587
          ],
          [
            18.3572843115337,
            59.35301704130994
          ],
          [
            18.35684171852949,
            59.35318174965154
          ],
          [
            18.35659769621998,
            59.35326816050426
          ],
          [
            18.35633942951858,
            59.35335155822457
          ],
          [
            18.35600878400487,
            59.3534491009662
          ],
          [
            18.35565295640197,
            59.35350678325184
          ],
          [
            18.35461313511507,
            59.35372347991657
          ],
          [
            18.35399354090544,
            59.35385472172025
          ],
          [
            18.35366601184001,
            59.35393067004607
          ],
          [
            18.35305058199162,
            59.35410059253479
          ],
          [
            18.35243970392412,
            59.35431853422796
          ],
          [
            18.35168167156172,
            59.35452196886141
          ],
          [
            18.35092625969185,
            59.35437217646611
          ],
          [
            18.34965729541591,
            59.35455102251283
          ]
        ]
      }
    },
    {
      "type": "Feature",
      "properties": {
        "name": "Värmdöleden by Naturkartan"
      },
      "geometry": {
        "type": "LineString",
        "coordinates": [
          [
            18.59972382670389,
            59.30330702103075
          ],
          [
            18.59861712552777,
            59.30381195142122
          ],
          [
            18.59800887926326,
            59.30394062426048
          ],
          [
            18.59703563544213,
            59.30406477284919
          ],
          [
            18.59557583035917,
            59.30441427730614
          ],
          [
            18.59448050777667,
            59.30482006571842
          ],
          [
            18.59336524906655,
            59.30471614905203
          ],
          [
            18.59278725903869,
            59.30494620882563
          ],
          [
            18.59244753829864,
            59.30508817967517
          ],
          [
            18.59209471093425,
            59.30528435014294
          ],
          [
            18.59130575118706,
            59.30551679756309
          ],
          [
            18.59070313367374,
            59.30566435604113
          ],
          [
            18.59028683570227,
            59.30594269457232
          ],
          [
            18.58979811890242,
            59.30619568035719
          ],
          [
            18.58892327192439,
            59.30645481052257
          ],
          [
            18.58821077907737,
            59.30611980387807
          ],
          [
            18.58696867480171,
            59.30660639008709
          ],
          [
            18.58648244539768,
            59.30704790330464
          ]
        ]
      }
    },
    {
      "type": "Feature",
      "properties": {
        "name": "Värmdöleden by Naturkartan"
      },
      "geometry": {
        "type": "LineString",
        "coordinates": [
          [
            18.3788414439756,
            59.3427597496885
          ],
          [
            18.378824001064,
            59.34276735466481
          ],
          [
            18.37875893972068,
            59.34279609486617
          ],
          [
            18.37861984630604,
            59.34285521707339
          ],
          [
            18.37833010394081,
            59.34295122975003
          ],
          [
            18.37821361884744,
            59.34299672973121
          ],
          [
            18.37816811898836,
            59.34301167557328
          ],
          [
            18.37815965047855,
            59.34305847804463
          ],
          [
            18.37813548332315,
            59.34317966762375
          ],
          [
            18.37810972401712,
            59.34326207414456
          ],
          [
            18.37809282794296,
            59.34330710508475
          ],
          [
            18.37808211735546,
            59.34333478986607
          ],
          [
            18.37806125179497,
            59.34336178570486
          ],
          [
            18.37788531857791,
            59.34352408680281
          ],
          [
            18.37784140564423,
            59.34359457099376
          ],
          [
            18.37766802858664,
            59.34378751521898
          ],
          [
            18.37759081959553,
            59.34387150740097
          ],
          [
            18.37756635626329,
            59.34403166343596
          ],
          [
            18.37755243856157,
            59.3441231043843
          ],
          [
            18.37760539039937,
            59.34419154656934
          ],
          [
            18.37766617515808,
            59.34428663122035
          ],
          [
            18.37774907538426,
            59.3443626186745
          ],
          [
            18.37784680634456,
            59.34444233308712
          ],
          [
            18.37795923272779,
            59.34448770758819
          ],
          [
            18.37810883315672,
            59.34452543218882
          ],
          [
            18.37825826320773,
            59.34454780394057
          ],
          [
            18.37855712612964,
            59.34459263697695
          ],
          [
            18.37872166124248,
            59.34463031751828
          ],
          [
            18.37890945387346,
            59.34475169884998
          ],
          [
            18.37900188600599,
            59.34486303263284
          ],
          [
            18.37906117966281,
            59.34497984852435
          ],
          [
            18.37906478514788,
            59.34516030509172
          ],
          [
            18.37903604337362,
            59.34539131351038
          ],
          [
            18.3790070693492,
            59.34547139528706
          ],
          [
            18.37897089704722,
            59.34558202523178
          ],
          [
            18.3789793684989,
            59.34566576917724
          ],
          [
            18.37898026071889,
            59.34574585419483
          ],
          [
            18.37904061028485,
            59.34581418423615
          ],
          [
            18.37942264852268,
            59.34595789524125
          ],
          [
            18.37958697655404,
            59.34597645112214
          ],
          [
            18.37975130477525,
            59.34599500781901
          ],
          [
            18.38004308792893,
            59.3460666133088
          ],
          [
            18.38017767836141,
            59.34609665818844
          ],
          [
            18.3803766300623,
            59.34612552665907
          ],
          [
            18.38055126012546,
            59.34623536185715
          ],
          [
            18.38075195257431,
            59.3463549980039
          ],
          [
            18.38091087337841,
            59.34648597781205
          ],
          [
            18.38094044830882,
            59.34651165911944
          ],
          [
            18.38101081950083,
            59.34655526885128
          ],
          [
            18.38115336185717,
            59.34662183091628
          ],
          [
            18.38137328094035,
            59.34671007421626
          ],
          [
            18.38151194763066,
            59.34675411225555
          ],
          [
            18.38156434027042,
            59.34677173642488
          ],
          [
            18.38189990296155,
            59.34676552383207
          ],
          [
            18.3821320731829,
            59.34688539109214
          ],
          [
            18.38211401828539,
            59.34702582782223
          ]
        ]
      }
    },
    {
      "type": "Feature",
      "properties": {
        "name": "Värmdöleden by Naturkartan"
      },
      "geometry": {
        "type": "LineString",
        "coordinates": [
          [
            18.59992756329257,
            59.30327394028196
          ],
          [
            18.60044003218093,
            59.30362767200183
          ],
          [
            18.60139720050392,
            59.30422671098205
          ],
          [
            18.60242297083823,
            59.30464971442012
          ],
          [
            18.60284273054708,
            59.30531829766493
          ],
          [
            18.60368461380574,
            59.30564193934185
          ],
          [
            18.60374615249464,
            59.30608277471637
          ],
          [
            18.60310019495398,
            59.30669200313353
          ],
          [
            18.60269108078069,
            59.30750233196365
          ],
          [
            18.60292556844297,
            59.30777356901277
          ],
          [
            18.60319399000355,
            59.30804707290432
          ],
          [
            18.60442192218682,
            59.30802881286613
          ],
          [
            18.6048475114236,
            59.30805862163238
          ],
          [
            18.60516558002428,
            59.30820726800469
          ],
          [
            18.60526241572438,
            59.3083999482292
          ],
          [
            18.60428679157008,
            59.30886104025252
          ],
          [
            18.60389337265349,
            59.30945374733945
          ],
          [
            18.60286986607252,
            59.30985534134817
          ],
          [
            18.60259484117,
            59.31033086498283
          ],
          [
            18.60204985043629,
            59.31113508469927
          ],
          [
            18.60135635166807,
            59.31155256108618
          ],
          [
            18.60086101201807,
            59.31199659332603
          ],
          [
            18.60022720622749,
            59.31256480881184
          ],
          [
            18.60010147638047,
            59.31360035303081
          ],
          [
            18.59969305142431,
            59.31408842486452
          ],
          [
            18.59844476554781,
            59.31503826478492
          ],
          [
            18.59816291051436,
            59.31550195718023
          ],
          [
            18.59853482204892,
            59.31634639391422
          ],
          [
            18.59881859411553,
            59.31680730957646
          ],
          [
            18.59926607298689,
            59.31716134435137
          ],
          [
            18.59915946921308,
            59.31798562229041
          ],
          [
            18.59840221979437,
            59.31858563962055
          ],
          [
            18.59706142478012,
            59.31916228966077
          ],
          [
            18.59454652780005,
            59.32063523414951
          ],
          [
            18.59241111557139,
            59.32138147253207
          ],
          [
            18.59151255204131,
            59.32264013356175
          ],
          [
            18.5924386671802,
            59.32300656343914
          ],
          [
            18.59380438208268,
            59.32341363329769
          ],
          [
            18.59428748261473,
            59.32365654751713
          ],
          [
            18.59488277290779,
            59.32485516852321
          ],
          [
            18.5956471736971,
            59.32544740764962
          ],
          [
            18.59666630918639,
            59.32590586250801
          ],
          [
            18.59715042269727,
            59.32620326155681
          ],
          [
            18.59796047782402,
            59.32690759987463
          ],
          [
            18.59934737108503,
            59.32703802746306
          ],
          [
            18.60057971353103,
            59.32749550867231
          ],
          [
            18.59865622035443,
            59.33047025581898
          ],
          [
            18.59851412480111,
            59.33158685803536
          ],
          [
            18.59804860190752,
            59.33245973820497
          ],
          [
            18.59801041630806,
            59.33341254094871
          ],
          [
            18.598178005401,
            59.33390173435068
          ],
          [
            18.59828179560384,
            59.33424073759602
          ],
          [
            18.59751644240828,
            59.33452446961945
          ],
          [
            18.59740141929478,
            59.33532031958843
          ],
          [
            18.59972657455927,
            59.3360091730604
          ],
          [
            18.600946912111,
            59.33715639751458
          ],
          [
            18.6008481646719,
            59.33764681371288
          ],
          [
            18.60016259785164,
            59.33808516331624
          ],
          [
            18.60011492064893,
            59.33843922904379
          ],
          [
            18.60093359188102,
            59.33966058578666
          ],
          [
            18.60083142583176,
            59.33993319800146
          ],
          [
            18.60085386009928,
            59.34029241679125
          ],
          [
            18.60103005682925,
            59.34207699521171
          ]
        ]
      }
    },
    {
      "type": "Feature",
      "properties": {
        "name": "Värmdöleden by Naturkartan"
      },
      "geometry": {
        "type": "LineString",
        "coordinates": [
          [
            18.47812581269682,
            59.31470516774846
          ],
          [
            18.47812510789072,
            59.31471060637588
          ]
        ]
      }
    }
  ]
}