{
  "type": "FeatureCollection",
  "features": [
    {
      "type": "Feature",
      "properties": {
        "name": "Veda naturstig by Naturkartan"
      },
      "geometry": {
        "type": "LineString",
        "coordinates": [
          [
            18.1072289437864,
            59.5673219370763
          ],
          [
            18.1078745086475,
            59.5668255072879
          ],
          [
            18.108573114521,
            59.5664027463472
          ],
          [
            18.1089428305396,
            59.5663693071641
          ],
          [
            18.1096956553348,
            59.5663415732678
          ],
          [
            18.1099054866141,
            59.5659392433311
          ],
          [
            18.1100823206214,
            59.5650917652124
          ],
          [
            18.1111161422426,
            59.5646180605979
          ],
          [
            18.1118023474166,
            59.5644633466862
          ],
          [
            18.1122638432414,
            59.5642485089504
          ],
          [
            18.1130099356188,
            59.5640098033916
          ],
          [
            18.1143365341792,
            59.5640590787989
          ],
          [
            18.1153266507912,
            59.5639643915955
          ],
          [
            18.1182575460192,
            59.5637579619075
          ],
          [
            18.1194471614627,
            59.5640478160247
          ],
          [
            18.120491074588,
            59.5642277956326
          ],
          [
            18.1213635773855,
            59.5644816408894
          ],
          [
            18.1222490364139,
            59.5646617532371
          ],
          [
            18.1240299168486,
            59.5649588530414
          ],
          [
            18.1247802685282,
            59.5655901535613
          ],
          [
            18.1249527291357,
            59.5657041124495
          ],
          [
            18.1250101921855,
            59.5656944095464
          ],
          [
            18.1252113145491,
            59.5656895576402
          ],
          [
            18.125335817687,
            59.5656701531879
          ],
          [
            18.1261019948974,
            59.5654955037062
          ],
          [
            18.126370157593,
            59.5653451115636
          ],
          [
            18.1263893115203,
            59.5653063004738
          ],
          [
            18.1262648078648,
            59.5649764033591
          ],
          [
            18.1263797346149,
            59.5649084835299
          ],
          [
            18.1263126942768,
            59.5647386821698
          ],
          [
            18.1263605800799,
            59.5646416522958
          ],
          [
            18.1266670511003,
            59.5643602643659
          ],
          [
            18.1268585952522,
            59.5640788739845
          ],
          [
            18.1269926767583,
            59.5639381787005
          ],
          [
            18.127184221685,
            59.5638023339142
          ],
          [
            18.1276247736473,
            59.5636179716027
          ],
          [
            18.1278929358696,
            59.5635160869845
          ],
          [
            18.1281132108776,
            59.5635597516873
          ],
          [
            18.1283909502067,
            59.5636810429477
          ],
          [
            18.1287069980223,
            59.5638411467552
          ],
          [
            18.1288027708603,
            59.5639333269687
          ],
          [
            18.1290422021617,
            59.5641564994034
          ],
          [
            18.1292337453047,
            59.5642195696024
          ],
          [
            18.1292816317092,
            59.5642874918137
          ],
          [
            18.1292145915992,
            59.5644767007831
          ],
          [
            18.1289655834141,
            59.5647386816555
          ],
          [
            18.129042201038,
            59.56482600858
          ],
          [
            18.1292050140934,
            59.5648551175415
          ],
          [
            18.1294157133858,
            59.5648696718819
          ],
          [
            18.1295689481493,
            59.5649618485832
          ],
          [
            18.1297604924675,
            59.5651170954252
          ],
          [
            18.1301052721416,
            59.5651850147207
          ],
          [
            18.1304596292746,
            59.5652480828398
          ],
          [
            18.1307373693614,
            59.5653984759496
          ],
          [
            18.1311108808012,
            59.5654615447263
          ],
          [
            18.1313886199345,
            59.5655682740351
          ],
          [
            18.1316472049548,
            59.5657041116187
          ],
          [
            18.1319057888031,
            59.5656944090931
          ],
          [
            18.1322409919956,
            59.5656895577645
          ],
          [
            18.1324804223989,
            59.5656847066315
          ],
          [
            18.1326432359243,
            59.5656167877894
          ],
          [
            18.1329113978386,
            59.5656070854245
          ],
          [
            18.1329975919204,
            59.5656507475863
          ],
          [
            18.1330837876834,
            59.5656992611892
          ],
          [
            18.1331699824694,
            59.5657962875778
          ],
          [
            18.1331412501604,
            59.5658593550485
          ],
          [
            18.1329784379799,
            59.5660097446102
          ],
          [
            18.1329880158653,
            59.5661601345952
          ],
          [
            18.1328635105507,
            59.5662717140386
          ],
          [
            18.1326432348737,
            59.5663396310383
          ],
          [
            18.1323750734656,
            59.5664609130178
          ],
          [
            18.1323559188869,
            59.5666210027596
          ],
          [
            18.1323942267704,
            59.5667519846669
          ],
          [
            18.132422958847,
            59.5669072229654
          ],
          [
            18.1324038043881,
            59.5670236502931
          ],
          [
            18.1322505686468,
            59.5671376526907
          ],
          [
            18.1322218374644,
            59.5672152701304
          ],
          [
            18.1323559192754,
            59.5673268462583
          ],
          [
            18.1327294294659,
            59.5674723783485
          ],
          [
            18.1329209751882,
            59.5675888042314
          ],
          [
            18.132882665255,
            59.5678216546973
          ],
          [
            18.1326432343561,
            59.5679574840735
          ],
          [
            18.1322122609817,
            59.5680448019574
          ],
          [
            18.1317525547447,
            59.5680496524791
          ],
          [
            18.13155143305,
            59.5679768872244
          ],
          [
            18.1310151081251,
            59.5679089739248
          ],
          [
            18.1306607507856,
            59.5679332288899
          ],
          [
            18.1305458251771,
            59.5682339898575
          ],
          [
            18.1306320198692,
            59.5686608733779
          ],
          [
            18.1305075164883,
            59.5688888659888
          ],
          [
            18.1304308974727,
            59.5693011881359
          ],
          [
            18.1302872393921,
            59.569466115052
          ],
          [
            18.1302297768932,
            59.5696407431357
          ],
          [
            18.1304021665176,
            59.5699123857363
          ],
          [
            18.1306128655275,
            59.5700336538425
          ],
          [
            18.1306128652048,
            59.5701258171892
          ],
          [
            18.1303638570672,
            59.5701985781276
          ],
          [
            18.1297604926455,
            59.5702131296662
          ],
          [
            18.1297988017676,
            59.5703974550121
          ],
          [
            18.1297604933874,
            59.5706205852977
          ],
          [
            18.12926247742,
            59.5709649781289
          ],
          [
            18.1288315023355,
            59.5710086332097
          ],
          [
            18.1283622188717,
            59.5709358745331
          ],
          [
            18.1276247725052,
            59.5708437134153
          ],
          [
            18.1272704156887,
            59.5708000576295
          ],
          [
            18.1269352133932,
            59.5708291612143
          ],
          [
            18.1268319324343,
            59.5708411551898
          ],
          [
            18.1261937799653,
            59.571159991557
          ],
          [
            18.1258435656916,
            59.5718112732929
          ],
          [
            18.1253050418601,
            59.5722522716766
          ]
        ]
      }
    },
    {
      "type": "Feature",
      "properties": {
        "name": "Veda naturstig by Naturkartan"
      },
      "geometry": {
        "type": "LineString",
        "coordinates": [
          [
            18.1072513727765,
            59.5673371905825
          ],
          [
            18.1075183566096,
            59.5678175013602
          ],
          [
            18.1081996248053,
            59.5683211199131
          ],
          [
            18.10857665188959,
            59.5685143614551
          ],
          [
            18.1090558139963,
            59.5685729266533
          ],
          [
            18.1093412101914,
            59.5685542747689
          ],
          [
            18.10971043726886,
            59.56867515694637
          ],
          [
            18.1099672410505,
            59.5687361340947
          ],
          [
            18.1103262896598,
            59.5687268077406
          ],
          [
            18.1109799376615,
            59.5690299047964
          ],
          [
            18.1113666040417,
            59.5693842915244
          ],
          [
            18.1117900964135,
            59.5704800690628
          ],
          [
            18.1117348582899,
            59.5707878123011
          ],
          [
            18.1118085082629,
            59.57088106746
          ],
          [
            18.1118545400879,
            59.5711608313818
          ],
          [
            18.1113942236244,
            59.5714685696885
          ],
          [
            18.1107405730768,
            59.5717856289914
          ],
          [
            18.1102710501962,
            59.572139987004
          ],
          [
            18.1097002581102,
            59.5729559274534
          ],
          [
            18.10947930694,
            59.5735900172642
          ],
          [
            18.1094977179639,
            59.5740422645058
          ],
          [
            18.1094148625526,
            59.5741914578592
          ],
          [
            18.1096542267143,
            59.5742707170139
          ],
          [
            18.1097462896009,
            59.5743965987944
          ],
          [
            18.1101053361188,
            59.5744618701507
          ],
          [
            18.1102894640968,
            59.574573763787
          ],
          [
            18.1105472407909,
            59.5748208615718
          ],
          [
            18.1108234316922,
            59.5749094436385
          ],
          [
            18.1112100965592,
            59.5749747144465
          ],
          [
            18.111642794939,
            59.5750819441025
          ],
          [
            18.1118269204597,
            59.5751612011125
          ],
          [
            18.112222793351,
            59.5750819439499
          ],
          [
            18.1125910471406,
            59.5748534969034
          ],
          [
            18.112765967118,
            59.5748068748739
          ],
          [
            18.1127843805265,
            59.5746996436523
          ],
          [
            18.1127843799587,
            59.5746064000177
          ],
          [
            18.112876444225,
            59.5745038297279
          ],
          [
            18.1129869197984,
            59.5744711948006
          ],
          [
            18.1132170780148,
            59.574289365658
          ],
          [
            18.1132078711724,
            59.5741121993857
          ],
          [
            18.1133643796163,
            59.5738884074528
          ],
          [
            18.11362215674,
            59.573841784699
          ],
          [
            18.1141192987774,
            59.5738464463474
          ],
          [
            18.1144046956967,
            59.5737671872129
          ],
          [
            18.1151043770949,
            59.5737951607389
          ],
          [
            18.1158040583899,
            59.5735806927204
          ],
          [
            18.1162919934735,
            59.5735107561036
          ],
          [
            18.116512945876,
            59.5734128459025
          ],
          [
            18.1171389753399,
            59.573277635982
          ],
          [
            18.1173231029693,
            59.5731237766699
          ],
          [
            18.1173691349011,
            59.5725363040876
          ],
          [
            18.1172310398034,
            59.5723125018381
          ],
          [
            18.1177189749047,
            59.5719441585615
          ],
          [
            18.1188789732818,
            59.5716550760077
          ],
          [
            18.1199929404029,
            59.5716271001327
          ],
          [
            18.1212357941259,
            59.5717110269247
          ],
          [
            18.1215580161332,
            59.5718182679218
          ],
          [
            18.1221748401357,
            59.5720747111504
          ],
          [
            18.1223681735827,
            59.572116674248
          ],
          [
            18.1232151566565,
            59.5722612138828
          ],
          [
            18.1233164257116,
            59.572275201264
          ],
          [
            18.1234545216752,
            59.5723824395546
          ],
          [
            18.1237583305323,
            59.57243839096
          ],
          [
            18.1238964252612,
            59.5724104149399
          ],
          [
            18.1242094410274,
            59.5722891887384
          ],
          [
            18.1245868994878,
            59.5722658761212
          ],
          [
            18.1249648079912,
            59.5722414428252
          ],
          [
            18.1253014383065,
            59.5722514715685
          ]
        ]
      }
    },
    {
      "type": "Feature",
      "properties": {
        "name": "Veda naturstig by Naturkartan"
      },
      "geometry": {
        "type": "LineString",
        "coordinates": [
          [
            18.12677255495316,
            59.57084198067011
          ],
          [
            18.12651806594528,
            59.57066907670193
          ],
          [
            18.12625471390572,
            59.57048898510874
          ],
          [
            18.12575434955582,
            59.57022725161457
          ],
          [
            18.12562310645478,
            59.57005658576111
          ],
          [
            18.12563573653574,
            59.56978151622528
          ],
          [
            18.12567362677976,
            59.56939129744597
          ],
          [
            18.12584029353852,
            59.56893241291203
          ],
          [
            18.12611997841154,
            59.56843659655837
          ],
          [
            18.12600011346595,
            59.56803184309967
          ],
          [
            18.12601911064186,
            59.56767325615047
          ],
          [
            18.12609287935709,
            59.56726846239243
          ],
          [
            18.12606828978491,
            59.56698821770843
          ],
          [
            18.1257528248573,
            59.56665263058503
          ],
          [
            18.12556337363839,
            59.56628156850616
          ],
          [
            18.12541181266349,
            59.566083240545
          ],
          [
            18.12515921103866,
            59.56582733177194
          ],
          [
            18.1249192394948,
            59.56570577442335
          ]
        ]
      }
    }
  ]
}