{
  "type": "Feature",
  "properties": {
    "trailId": "hallandsleden",
    "sectionId": "hallandsleden-steninge-haverdal",
    "sectionNumber": "K5",
    "name": "Steninge - Haverdal",
    "from": "Steninge",
    "to": "Haverdal",
    "sourceType": "official-gpx",
    "sourceUrl": "https://cdn.hoodin.com/hallandsleden/assets/geomanager/geofiles/Kust_Steninge_Haverdal.gpx",
    "sourceLastModified": "Mon, 23 Jun 2025 11:15:43 GMT",
    "sourceEtag": "\"64f0c606ba03d6017a97dae7bb4e60eb\"",
    "sourceSha256": "bd2744a2ebdd1a2789b07ec02ad5d46a8e01dac49a427eaf49d0dfa339f4d472",
    "accessed": "2026-04-30",
    "geometryVariant": "draw-ready",
    "geometryProvenance": "Official GPX coordinates converted to GeoJSON with linear densification only for long intra-segment jumps; official segment breaks are preserved.",
    "coordinateOrder": "lon,lat[,ele]",
    "segmentCount": 1,
    "pointCount": 271,
    "computedDistanceKm": 7.029,
    "maxInternalGapMeters": 162.48,
    "repairSummary": {
      "insertedPointCount": 0,
      "longInternalGapCountBefore": 0,
      "maxInternalGapMetersBefore": 162.48,
      "maxInternalGapMetersAfter": 162.48,
      "officialSegmentBreakCountPreserved": 0,
      "note": "No densification was needed; draw-ready geometry equals canonical geometry."
    },
    "runtimeImport": false
  },
  "geometry": {
    "type": "LineString",
    "coordinates": [
      [
        12.630316,
        56.765755,
        3.1
      ],
      [
        12.630292,
        56.765722,
        3.1
      ],
      [
        12.630234,
        56.765666,
        3.1
      ],
      [
        12.630213,
        56.765604,
        3.1
      ],
      [
        12.630266,
        56.765497,
        2.7
      ],
      [
        12.630415,
        56.765345,
        2.7
      ],
      [
        12.630796,
        56.764981,
        0.8
      ],
      [
        12.630908,
        56.764871,
        0.8
      ],
      [
        12.631078,
        56.764652,
        2.2
      ],
      [
        12.63121,
        56.764416,
        2.2
      ],
      [
        12.631254,
        56.76431,
        2.2
      ],
      [
        12.631311,
        56.764121,
        1.8
      ],
      [
        12.631326,
        56.763949,
        1.8
      ],
      [
        12.631272,
        56.76386,
        1.8
      ],
      [
        12.631195,
        56.763793,
        3.6
      ],
      [
        12.631105,
        56.763721,
        3.6
      ],
      [
        12.631063,
        56.763671,
        1.1
      ],
      [
        12.631026,
        56.763637,
        1.1
      ],
      [
        12.631021,
        56.76362,
        1.1
      ],
      [
        12.631049,
        56.763584,
        1.1
      ],
      [
        12.631085,
        56.763516,
        1.1
      ],
      [
        12.631081,
        56.763477,
        1.1
      ],
      [
        12.631054,
        56.763436,
        1.1
      ],
      [
        12.631026,
        56.76341,
        1.1
      ],
      [
        12.630979,
        56.763379,
        1.1
      ],
      [
        12.630925,
        56.763345,
        3.2
      ],
      [
        12.630892,
        56.763316,
        3.2
      ],
      [
        12.630843,
        56.763279,
        3.2
      ],
      [
        12.63081,
        56.763247,
        3.2
      ],
      [
        12.630822,
        56.763216,
        3.2
      ],
      [
        12.630803,
        56.763187,
        3.2
      ],
      [
        12.630791,
        56.763161,
        3.2
      ],
      [
        12.630799,
        56.763151,
        3.2
      ],
      [
        12.630799,
        56.76311,
        3.2
      ],
      [
        12.630768,
        56.763057,
        3.2
      ],
      [
        12.630741,
        56.763037,
        3.2
      ],
      [
        12.630729,
        56.763017,
        3.2
      ],
      [
        12.630718,
        56.762997,
        3.2
      ],
      [
        12.630699,
        56.762961,
        3.2
      ],
      [
        12.630683,
        56.762931,
        3.2
      ],
      [
        12.630666,
        56.762915,
        3.2
      ],
      [
        12.63064,
        56.762892,
        6.2
      ],
      [
        12.630633,
        56.762879,
        6.2
      ],
      [
        12.630617,
        56.762867,
        6.2
      ],
      [
        12.630523,
        56.762836,
        6.2
      ],
      [
        12.630412,
        56.762753,
        6.2
      ],
      [
        12.630624,
        56.76254,
        6.2
      ],
      [
        12.630862,
        56.76251,
        6.2
      ],
      [
        12.631137,
        56.762486,
        6.2
      ],
      [
        12.631272,
        56.762514,
        13.1
      ],
      [
        12.631412,
        56.762492,
        13.1
      ],
      [
        12.631478,
        56.762456,
        15.9
      ],
      [
        12.631572,
        56.762414,
        15.9
      ],
      [
        12.631574,
        56.762383,
        15.9
      ],
      [
        12.631565,
        56.762356,
        15.9
      ],
      [
        12.631583,
        56.762312,
        15.9
      ],
      [
        12.63162,
        56.762313,
        15.9
      ],
      [
        12.631677,
        56.762298,
        15.9
      ],
      [
        12.631664,
        56.762252,
        15.9
      ],
      [
        12.63168,
        56.762212,
        15.9
      ],
      [
        12.631742,
        56.762186,
        15.9
      ],
      [
        12.632046,
        56.762068,
        11.4
      ],
      [
        12.632287,
        56.762072,
        11.4
      ],
      [
        12.63263,
        56.762073,
        11.4
      ],
      [
        12.633333,
        56.762114,
        12.4
      ],
      [
        12.634428,
        56.762273,
        13
      ],
      [
        12.634342,
        56.7624,
        13
      ],
      [
        12.634336,
        56.762415,
        13
      ],
      [
        12.634499,
        56.762457,
        13.1
      ],
      [
        12.634649,
        56.762298,
        13.1
      ],
      [
        12.634878,
        56.762146,
        13.1
      ],
      [
        12.635306,
        56.761858,
        12.9
      ],
      [
        12.635564,
        56.76166,
        13.9
      ],
      [
        12.635714,
        56.761525,
        13.4
      ],
      [
        12.63594,
        56.76125,
        13.4
      ],
      [
        12.636245,
        56.760608,
        13.9
      ],
      [
        12.636458,
        56.760182,
        13.9
      ],
      [
        12.636546,
        56.760106,
        13.9
      ],
      [
        12.636734,
        56.759772,
        13.1
      ],
      [
        12.636878,
        56.75944,
        13.1
      ],
      [
        12.6371,
        56.758923,
        13.3
      ],
      [
        12.637182,
        56.758729,
        15.4
      ],
      [
        12.637434,
        56.758215,
        15.5
      ],
      [
        12.637514,
        56.758006,
        15.9
      ],
      [
        12.637591,
        56.75792,
        15.9
      ],
      [
        12.637754,
        56.757335,
        16
      ],
      [
        12.637799,
        56.757092,
        16.3
      ],
      [
        12.637948,
        56.756412,
        17.8
      ],
      [
        12.638066,
        56.756014,
        19.6
      ],
      [
        12.63829,
        56.755566,
        24.1
      ],
      [
        12.638545,
        56.755154,
        22.3
      ],
      [
        12.638675,
        56.754997,
        22.3
      ],
      [
        12.638845,
        56.754705,
        20.8
      ],
      [
        12.639059,
        56.754447,
        21.8
      ],
      [
        12.639129,
        56.75425,
        21.8
      ],
      [
        12.639182,
        56.754032,
        22.1
      ],
      [
        12.639117,
        56.753346,
        22.1
      ],
      [
        12.639055,
        56.752959,
        20.5
      ],
      [
        12.639012,
        56.752744,
        20.5
      ],
      [
        12.639046,
        56.752549,
        21.3
      ],
      [
        12.639157,
        56.752277,
        22.1
      ],
      [
        12.639211,
        56.752157,
        24.8
      ],
      [
        12.63926,
        56.752051,
        24.8
      ],
      [
        12.639319,
        56.751953,
        24.8
      ],
      [
        12.639526,
        56.7516,
        24.8
      ],
      [
        12.639752,
        56.751298,
        23.8
      ],
      [
        12.639867,
        56.751202,
        23.8
      ],
      [
        12.640174,
        56.750986,
        25.6
      ],
      [
        12.64038,
        56.750859,
        24.3
      ],
      [
        12.640545,
        56.750775,
        24.3
      ],
      [
        12.640353,
        56.750657,
        24.3
      ],
      [
        12.640344,
        56.750626,
        24.3
      ],
      [
        12.640802,
        56.750453,
        23
      ],
      [
        12.641302,
        56.750271,
        24.1
      ],
      [
        12.641378,
        56.750242,
        24.1
      ],
      [
        12.641608,
        56.750155,
        24.1
      ],
      [
        12.64196,
        56.750012,
        23.6
      ],
      [
        12.642309,
        56.749831,
        23.6
      ],
      [
        12.64253,
        56.749673,
        23.6
      ],
      [
        12.642674,
        56.749554,
        23.3
      ],
      [
        12.642878,
        56.749375,
        23.3
      ],
      [
        12.642975,
        56.749294,
        23.3
      ],
      [
        12.643179,
        56.749153,
        21.3
      ],
      [
        12.643395,
        56.749032,
        21.3
      ],
      [
        12.643811,
        56.748843,
        23.1
      ],
      [
        12.644163,
        56.748733,
        21.1
      ],
      [
        12.645039,
        56.748471,
        22.3
      ],
      [
        12.64599,
        56.74821,
        21.6
      ],
      [
        12.646318,
        56.748088,
        21.6
      ],
      [
        12.64657,
        56.747972,
        21.6
      ],
      [
        12.646812,
        56.747841,
        20.3
      ],
      [
        12.6469,
        56.747751,
        20.8
      ],
      [
        12.647596,
        56.747329,
        19.6
      ],
      [
        12.648292,
        56.746861,
        19.6
      ],
      [
        12.649573,
        56.74593,
        20.5
      ],
      [
        12.650009,
        56.745629,
        19.8
      ],
      [
        12.650255,
        56.74545,
        20.8
      ],
      [
        12.650522,
        56.745189,
        20.3
      ],
      [
        12.650822,
        56.744859,
        19.6
      ],
      [
        12.651165,
        56.744383,
        20.1
      ],
      [
        12.65162,
        56.743894,
        19.3
      ],
      [
        12.652056,
        56.743483,
        19.6
      ],
      [
        12.652364,
        56.743197,
        19.6
      ],
      [
        12.652795,
        56.742878,
        19
      ],
      [
        12.653185,
        56.742522,
        19.1
      ],
      [
        12.653504,
        56.74223,
        19.1
      ],
      [
        12.653649,
        56.742113,
        18.5
      ],
      [
        12.654033,
        56.741833,
        19.3
      ],
      [
        12.654358,
        56.741614,
        18.6
      ],
      [
        12.654677,
        56.741424,
        19.1
      ],
      [
        12.655331,
        56.741101,
        18.6
      ],
      [
        12.656178,
        56.740674,
        18.6
      ],
      [
        12.656531,
        56.740457,
        18.6
      ],
      [
        12.656919,
        56.740243,
        18.6
      ],
      [
        12.657341,
        56.739956,
        18.8
      ],
      [
        12.658978,
        56.738858,
        20
      ],
      [
        12.659867,
        56.738286,
        20.3
      ],
      [
        12.660183,
        56.738066,
        20.3
      ],
      [
        12.660612,
        56.737795,
        21
      ],
      [
        12.661105,
        56.737451,
        21
      ],
      [
        12.6595,
        56.737111,
        19.5
      ],
      [
        12.658175,
        56.73685,
        19.3
      ],
      [
        12.657889,
        56.736748,
        18.6
      ],
      [
        12.657746,
        56.73669,
        18.6
      ],
      [
        12.656084,
        56.735548,
        17.1
      ],
      [
        12.655099,
        56.734893,
        16.8
      ],
      [
        12.654054,
        56.73428,
        16.3
      ],
      [
        12.653617,
        56.734007,
        17.3
      ],
      [
        12.653133,
        56.733672,
        18.1
      ],
      [
        12.652596,
        56.733369,
        17.3
      ],
      [
        12.651723,
        56.732957,
        16.8
      ],
      [
        12.650008,
        56.732119,
        18.6
      ],
      [
        12.649902,
        56.73202,
        18.6
      ],
      [
        12.649742,
        56.731624,
        21.5
      ],
      [
        12.649472,
        56.731169,
        18.8
      ],
      [
        12.649324,
        56.731041,
        18.8
      ],
      [
        12.648584,
        56.730589,
        14.4
      ],
      [
        12.648244,
        56.730306,
        14.8
      ],
      [
        12.648177,
        56.730241,
        14.8
      ],
      [
        12.648166,
        56.730223,
        14.8
      ],
      [
        12.647893,
        56.729958,
        12.5
      ],
      [
        12.647751,
        56.729776,
        12.5
      ],
      [
        12.647119,
        56.729333,
        8.9
      ],
      [
        12.646444,
        56.72887,
        10
      ],
      [
        12.646153,
        56.728645,
        5.7
      ],
      [
        12.645915,
        56.728448,
        6.5
      ],
      [
        12.645739,
        56.728291,
        6.5
      ],
      [
        12.645495,
        56.728108,
        4.5
      ],
      [
        12.645265,
        56.727973,
        4.5
      ],
      [
        12.644999,
        56.727778,
        4.5
      ],
      [
        12.64481,
        56.727635,
        4.4
      ],
      [
        12.644392,
        56.727411,
        4.4
      ],
      [
        12.643398,
        56.726964,
        4.2
      ],
      [
        12.643237,
        56.726891,
        4.2
      ],
      [
        12.643108,
        56.726802,
        1.8
      ],
      [
        12.643107,
        56.726763,
        1.8
      ],
      [
        12.643333,
        56.726683,
        7.5
      ],
      [
        12.643403,
        56.726662,
        7.5
      ],
      [
        12.643451,
        56.726621,
        7.5
      ],
      [
        12.643498,
        56.72657,
        7.5
      ],
      [
        12.64356,
        56.72656,
        7.5
      ],
      [
        12.64366,
        56.726521,
        7.5
      ],
      [
        12.643777,
        56.726492,
        7.5
      ],
      [
        12.643915,
        56.726455,
        7.5
      ],
      [
        12.644247,
        56.726355,
        11.5
      ],
      [
        12.64454,
        56.726281,
        13.1
      ],
      [
        12.644661,
        56.726241,
        13.1
      ],
      [
        12.644865,
        56.726181,
        13.1
      ],
      [
        12.644961,
        56.726055,
        17.1
      ],
      [
        12.645106,
        56.725856,
        19.3
      ],
      [
        12.645102,
        56.725806,
        19.3
      ],
      [
        12.645102,
        56.725806,
        19.3
      ],
      [
        12.644997,
        56.725736,
        19.3
      ],
      [
        12.644901,
        56.725575,
        14.6
      ],
      [
        12.644817,
        56.725192,
        15.6
      ],
      [
        12.644777,
        56.725125,
        15.6
      ],
      [
        12.644808,
        56.724941,
        16.6
      ],
      [
        12.644818,
        56.724748,
        16.6
      ],
      [
        12.644811,
        56.724563,
        16.6
      ],
      [
        12.644867,
        56.72447,
        14.9
      ],
      [
        12.644958,
        56.724424,
        14.9
      ],
      [
        12.645018,
        56.724357,
        14.9
      ],
      [
        12.646332,
        56.723375,
        15.1
      ],
      [
        12.646572,
        56.723211,
        11.8
      ],
      [
        12.646836,
        56.723069,
        15.8
      ],
      [
        12.647095,
        56.722925,
        15.8
      ],
      [
        12.647359,
        56.722807,
        15.8
      ],
      [
        12.647681,
        56.722706,
        13.3
      ],
      [
        12.64814,
        56.722625,
        13.3
      ],
      [
        12.648669,
        56.722549,
        13.3
      ],
      [
        12.649239,
        56.722497,
        11
      ],
      [
        12.649367,
        56.722501,
        11
      ],
      [
        12.64951,
        56.722489,
        11
      ],
      [
        12.649631,
        56.722471,
        11
      ],
      [
        12.650185,
        56.722449,
        9.4
      ],
      [
        12.650676,
        56.722512,
        9.4
      ],
      [
        12.650937,
        56.722439,
        7.5
      ],
      [
        12.650969,
        56.722369,
        5.2
      ],
      [
        12.651061,
        56.722353,
        5.2
      ],
      [
        12.651291,
        56.722315,
        5.2
      ],
      [
        12.651551,
        56.722255,
        5.2
      ],
      [
        12.651732,
        56.722227,
        3.8
      ],
      [
        12.652063,
        56.722164,
        3.8
      ],
      [
        12.652203,
        56.722151,
        3.8
      ],
      [
        12.652353,
        56.722158,
        3.8
      ],
      [
        12.652551,
        56.722199,
        2.2
      ],
      [
        12.652714,
        56.722225,
        2.2
      ],
      [
        12.652833,
        56.722258,
        2.2
      ],
      [
        12.65302,
        56.72228,
        2.2
      ],
      [
        12.653145,
        56.722307,
        2.2
      ],
      [
        12.653289,
        56.722353,
        2.2
      ],
      [
        12.653554,
        56.722415,
        0.8
      ],
      [
        12.653722,
        56.722453,
        0.8
      ],
      [
        12.654062,
        56.722514,
        4.5
      ],
      [
        12.65445,
        56.722608,
        3.7
      ],
      [
        12.654711,
        56.722697,
        3.7
      ],
      [
        12.654877,
        56.722751,
        3.7
      ],
      [
        12.655001,
        56.722786,
        1.5
      ],
      [
        12.655302,
        56.722872,
        1.5
      ],
      [
        12.655608,
        56.722946,
        5.2
      ],
      [
        12.656032,
        56.722993,
        4.2
      ],
      [
        12.656468,
        56.723046,
        4.2
      ],
      [
        12.656655,
        56.72312,
        1.8
      ],
      [
        12.65681,
        56.723209,
        1.8
      ],
      [
        12.657005,
        56.723367,
        1.8
      ],
      [
        12.657205,
        56.723456,
        5
      ],
      [
        12.657472,
        56.723541,
        3
      ],
      [
        12.657662,
        56.723553,
        3
      ],
      [
        12.657991,
        56.723574,
        3
      ],
      [
        12.658306,
        56.7236,
        2.6
      ],
      [
        12.65864,
        56.723638,
        2.6
      ]
    ]
  }
}
