{
  "type": "Feature",
  "properties": {
    "trailId": "hallandsleden",
    "sectionId": "hallandsleden-rydobruk-kvarnforsen",
    "sectionNumber": "M6",
    "name": "Rydöbruk - Kvarnforsen",
    "from": "Rydöbruk",
    "to": "Kvarnforsen",
    "sourceType": "official-gpx",
    "sourceUrl": "https://cdn.hoodin.com/hallandsleden/assets/geomanager/geofiles/Mellersta_Rydobruk_Kvarnforsen.gpx",
    "sourceLastModified": "Fri, 27 Jun 2025 12:31:23 GMT",
    "sourceEtag": "\"e6c92cfef037195841478d0b1746c46e\"",
    "sourceSha256": "bc8c06983ca2042a08b1507849bd4a1e7b8f54a70b886783aa9261b86f55d4f1",
    "accessed": "2026-04-30",
    "geometryVariant": "draw-ready",
    "geometryProvenance": "Official GPX coordinates converted to GeoJSON with linear densification only for long intra-segment jumps; official segment breaks are preserved.",
    "coordinateOrder": "lon,lat[,ele]",
    "segmentCount": 1,
    "pointCount": 167,
    "computedDistanceKm": 10.248,
    "maxInternalGapMeters": 182.23,
    "repairSummary": {
      "insertedPointCount": 6,
      "longInternalGapCountBefore": 2,
      "maxInternalGapMetersBefore": 272.12,
      "maxInternalGapMetersAfter": 182.23,
      "officialSegmentBreakCountPreserved": 0,
      "note": "Long intra-segment jumps were linearly densified for drawing; official segment breaks were preserved."
    },
    "runtimeImport": false
  },
  "geometry": {
    "type": "LineString",
    "coordinates": [
      [
        13.142808,
        56.95739,
        81.5
      ],
      [
        13.142728,
        56.957358,
        81.5
      ],
      [
        13.14269,
        56.957308,
        81.5
      ],
      [
        13.142588,
        56.957057,
        79.7
      ],
      [
        13.142352,
        56.956817,
        79.7
      ],
      [
        13.142465,
        56.95672,
        79.7
      ],
      [
        13.142594,
        56.956659,
        78.7
      ],
      [
        13.143119,
        56.956524,
        79.7
      ],
      [
        13.143511,
        56.95634,
        79.7
      ],
      [
        13.143822,
        56.95615,
        82.7
      ],
      [
        13.144063,
        56.956103,
        82.7
      ],
      [
        13.144305,
        56.956112,
        82.7
      ],
      [
        13.145013,
        56.956173,
        89.7
      ],
      [
        13.145576,
        56.956176,
        94.9
      ],
      [
        13.146408,
        56.955998,
        99.5
      ],
      [
        13.147073,
        56.955843,
        105.7
      ],
      [
        13.147636,
        56.955723,
        105.7
      ],
      [
        13.148264,
        56.955439,
        108
      ],
      [
        13.148961,
        56.955307,
        115
      ],
      [
        13.150399,
        56.956267,
        111.4
      ],
      [
        13.151579,
        56.956735,
        109.2
      ],
      [
        13.153188,
        56.957203,
        110.3
      ],
      [
        13.15439,
        56.957507,
        109.4
      ],
      [
        13.155699,
        56.9578,
        102.4
      ],
      [
        13.157051,
        56.957987,
        101.7
      ],
      [
        13.157609,
        56.958069,
        106.8
      ],
      [
        13.158166,
        56.957776,
        103.7
      ],
      [
        13.159347,
        56.957636,
        108.5
      ],
      [
        13.160516,
        56.957689,
        110.9
      ],
      [
        13.162128,
        56.957837,
        113.8
      ],
      [
        13.163159,
        56.957854,
        114.9
      ],
      [
        13.164191,
        56.95787,
        116
      ],
      [
        13.165223,
        56.957887,
        117.1
      ],
      [
        13.166254,
        56.957904,
        118.2
      ],
      [
        13.166478,
        56.957635,
        118.2
      ],
      [
        13.1667,
        56.957008,
        118.5
      ],
      [
        13.167245,
        56.956813,
        118.5
      ],
      [
        13.168214,
        56.956825,
        119.7
      ],
      [
        13.168619,
        56.956757,
        119.7
      ],
      [
        13.168885,
        56.956357,
        120.2
      ],
      [
        13.16887,
        56.955559,
        116.9
      ],
      [
        13.169425,
        56.955026,
        114.7
      ],
      [
        13.169109,
        56.954636,
        113.2
      ],
      [
        13.169047,
        56.954386,
        113.2
      ],
      [
        13.169508,
        56.953449,
        115.7
      ],
      [
        13.169565,
        56.952838,
        115.7
      ],
      [
        13.169622,
        56.952227,
        115.7
      ],
      [
        13.16968,
        56.951616,
        115.7
      ],
      [
        13.169737,
        56.951005,
        115.7
      ],
      [
        13.168967,
        56.949698,
        124.8
      ],
      [
        13.168965,
        56.949269,
        126.2
      ],
      [
        13.168826,
        56.948775,
        125
      ],
      [
        13.168536,
        56.948152,
        127
      ],
      [
        13.168488,
        56.94785,
        123.4
      ],
      [
        13.168289,
        56.947526,
        118
      ],
      [
        13.168214,
        56.947224,
        118
      ],
      [
        13.168477,
        56.946955,
        114.9
      ],
      [
        13.168627,
        56.946736,
        113.5
      ],
      [
        13.16853,
        56.946496,
        113.5
      ],
      [
        13.168246,
        56.946247,
        112.9
      ],
      [
        13.167868,
        56.945532,
        114.2
      ],
      [
        13.168457,
        56.943925,
        113.5
      ],
      [
        13.168666,
        56.943648,
        113.5
      ],
      [
        13.16896,
        56.943154,
        112.9
      ],
      [
        13.169732,
        56.94251,
        112.8
      ],
      [
        13.170354,
        56.942054,
        114.5
      ],
      [
        13.171556,
        56.941498,
        112.8
      ],
      [
        13.172822,
        56.941106,
        113.5
      ],
      [
        13.173702,
        56.940872,
        113.9
      ],
      [
        13.174968,
        56.940579,
        113.7
      ],
      [
        13.176169,
        56.940474,
        113.8
      ],
      [
        13.177135,
        56.94038,
        113.8
      ],
      [
        13.178058,
        56.940216,
        113.9
      ],
      [
        13.179023,
        56.940134,
        118.3
      ],
      [
        13.179131,
        56.939848,
        118.3
      ],
      [
        13.17956,
        56.939824,
        118.3
      ],
      [
        13.180053,
        56.939654,
        116.5
      ],
      [
        13.180933,
        56.93969,
        119.8
      ],
      [
        13.181856,
        56.938882,
        119.8
      ],
      [
        13.18265,
        56.93832,
        120.3
      ],
      [
        13.183487,
        56.937618,
        122
      ],
      [
        13.184366,
        56.93743,
        124
      ],
      [
        13.18531,
        56.937161,
        125
      ],
      [
        13.186534,
        56.937196,
        124.2
      ],
      [
        13.187563,
        56.937032,
        123.9
      ],
      [
        13.188486,
        56.936693,
        123.9
      ],
      [
        13.188765,
        56.936418,
        123.9
      ],
      [
        13.188765,
        56.936143,
        125.7
      ],
      [
        13.188336,
        56.935569,
        127.2
      ],
      [
        13.187649,
        56.934831,
        126.3
      ],
      [
        13.186812,
        56.934012,
        126.3
      ],
      [
        13.186104,
        56.933356,
        125.9
      ],
      [
        13.185525,
        56.932771,
        126.5
      ],
      [
        13.184881,
        56.932244,
        126.3
      ],
      [
        13.184538,
        56.931729,
        126
      ],
      [
        13.183937,
        56.931132,
        123.9
      ],
      [
        13.183165,
        56.930488,
        124
      ],
      [
        13.182178,
        56.92968,
        124.5
      ],
      [
        13.182714,
        56.928989,
        124.3
      ],
      [
        13.183487,
        56.928017,
        124.3
      ],
      [
        13.184066,
        56.927443,
        124.3
      ],
      [
        13.184774,
        56.926998,
        125.5
      ],
      [
        13.185246,
        56.926513,
        125.4
      ],
      [
        13.185439,
        56.926214,
        124.8
      ],
      [
        13.185933,
        56.92564,
        124.8
      ],
      [
        13.18589,
        56.925031,
        125.4
      ],
      [
        13.185911,
        56.924258,
        124.9
      ],
      [
        13.185782,
        56.923696,
        124.5
      ],
      [
        13.185804,
        56.923321,
        124.7
      ],
      [
        13.185997,
        56.922794,
        124.9
      ],
      [
        13.186362,
        56.922338,
        125
      ],
      [
        13.186147,
        56.921822,
        123.4
      ],
      [
        13.185782,
        56.921307,
        123.5
      ],
      [
        13.185117,
        56.920979,
        123
      ],
      [
        13.184474,
        56.920347,
        123.7
      ],
      [
        13.183916,
        56.920019,
        123.5
      ],
      [
        13.183379,
        56.919878,
        128
      ],
      [
        13.18295,
        56.91941,
        128.6
      ],
      [
        13.182478,
        56.919,
        130
      ],
      [
        13.182392,
        56.918403,
        129.6
      ],
      [
        13.182221,
        56.91784,
        132.3
      ],
      [
        13.18162,
        56.917524,
        129.6
      ],
      [
        13.18059,
        56.917325,
        136.5
      ],
      [
        13.180568,
        56.916962,
        139.1
      ],
      [
        13.180718,
        56.916517,
        142.4
      ],
      [
        13.180676,
        56.916025,
        143
      ],
      [
        13.181148,
        56.915416,
        150.5
      ],
      [
        13.181512,
        56.914807,
        152
      ],
      [
        13.182027,
        56.913999,
        155.5
      ],
      [
        13.182306,
        56.913389,
        156.8
      ],
      [
        13.182349,
        56.912991,
        159.8
      ],
      [
        13.182092,
        56.912534,
        162.9
      ],
      [
        13.181963,
        56.912077,
        164.9
      ],
      [
        13.181899,
        56.911626,
        166
      ],
      [
        13.182178,
        56.91114,
        166
      ],
      [
        13.182027,
        56.910754,
        165
      ],
      [
        13.181641,
        56.910379,
        160.8
      ],
      [
        13.181319,
        56.909981,
        156.8
      ],
      [
        13.18207,
        56.909465,
        150.5
      ],
      [
        13.182886,
        56.908973,
        148.6
      ],
      [
        13.18325,
        56.908493,
        151.5
      ],
      [
        13.183487,
        56.908059,
        153.1
      ],
      [
        13.183873,
        56.907772,
        145.1
      ],
      [
        13.183937,
        56.906759,
        141
      ],
      [
        13.184667,
        56.906132,
        135.1
      ],
      [
        13.185461,
        56.905681,
        137.1
      ],
      [
        13.185654,
        56.905013,
        132
      ],
      [
        13.185546,
        56.904263,
        128.3
      ],
      [
        13.185675,
        56.903478,
        127
      ],
      [
        13.185911,
        56.903009,
        127.5
      ],
      [
        13.186748,
        56.902517,
        129.5
      ],
      [
        13.187156,
        56.901967,
        131.5
      ],
      [
        13.187006,
        56.901416,
        126.3
      ],
      [
        13.186898,
        56.900877,
        124.8
      ],
      [
        13.187134,
        56.900314,
        124.2
      ],
      [
        13.187306,
        56.899787,
        123.4
      ],
      [
        13.187435,
        56.899272,
        122.5
      ],
      [
        13.187478,
        56.898826,
        122.5
      ],
      [
        13.187542,
        56.898469,
        123
      ],
      [
        13.187993,
        56.89824,
        123
      ],
      [
        13.189409,
        56.897561,
        125
      ],
      [
        13.19016,
        56.897121,
        128.5
      ],
      [
        13.191104,
        56.896752,
        129.8
      ],
      [
        13.190138,
        56.895949,
        128
      ],
      [
        13.189559,
        56.895486,
        128
      ],
      [
        13.189173,
        56.895088,
        130.9
      ],
      [
        13.188851,
        56.894596,
        135.6
      ]
    ]
  }
}
