{
  "type": "Feature",
  "properties": {
    "trailId": "hallandsleden",
    "sectionId": "hallandsleden-mellbystrand-bastad-station",
    "sectionNumber": "K10",
    "name": "Mellbystrand - Båstad station",
    "from": "Mellbystrand",
    "to": "Båstad station",
    "sourceType": "official-gpx",
    "sourceUrl": "https://cdn.hoodin.com/hallandsleden/assets/geomanager/geofiles/Kust_Mellbystrand_Bastad.gpx",
    "sourceLastModified": "Mon, 23 Jun 2025 11:18:58 GMT",
    "sourceEtag": "\"63025547eef0c21c6b5310f15f186461\"",
    "sourceSha256": "583b9ac88c8a2d7b4f9c831936384d3d871f26f7b6bae1f720983ff97fcff6c4",
    "accessed": "2026-04-30",
    "geometryVariant": "draw-ready",
    "geometryProvenance": "Official GPX coordinates converted to GeoJSON with linear densification only for long intra-segment jumps; official segment breaks are preserved.",
    "coordinateOrder": "lon,lat[,ele]",
    "segmentCount": 1,
    "pointCount": 209,
    "computedDistanceKm": 12.144,
    "maxInternalGapMeters": 244.77,
    "repairSummary": {
      "insertedPointCount": 27,
      "longInternalGapCountBefore": 5,
      "maxInternalGapMetersBefore": 762.82,
      "maxInternalGapMetersAfter": 244.77,
      "officialSegmentBreakCountPreserved": 0,
      "note": "Long intra-segment jumps were linearly densified for drawing; official segment breaks were preserved."
    },
    "runtimeImport": false
  },
  "geometry": {
    "type": "LineString",
    "coordinates": [
      [
        12.949898,
        56.514711,
        6.2
      ],
      [
        12.949104,
        56.51464,
        5.4
      ],
      [
        12.948375,
        56.514546,
        5
      ],
      [
        12.947559,
        56.514451,
        5.5
      ],
      [
        12.946551,
        56.514344,
        4.4
      ],
      [
        12.945113,
        56.514143,
        4
      ],
      [
        12.944158,
        56.514025,
        7
      ],
      [
        12.94345,
        56.514185,
        6.4
      ],
      [
        12.942731,
        56.514226,
        2.7
      ],
      [
        12.94248,
        56.512951,
        1.3
      ],
      [
        12.94228,
        56.51213,
        2.6
      ],
      [
        12.942273,
        56.511765,
        3.2
      ],
      [
        12.942128,
        56.511182,
        3.15
      ],
      [
        12.941983,
        56.510599,
        3.1
      ],
      [
        12.941839,
        56.510016,
        3.05
      ],
      [
        12.941694,
        56.509433,
        3
      ],
      [
        12.941494,
        56.508819,
        2.94
      ],
      [
        12.941294,
        56.508205,
        2.87
      ],
      [
        12.941094,
        56.507592,
        2.81
      ],
      [
        12.940894,
        56.506978,
        2.75
      ],
      [
        12.940694,
        56.506364,
        2.68
      ],
      [
        12.940495,
        56.50575,
        2.62
      ],
      [
        12.940295,
        56.505136,
        2.55
      ],
      [
        12.940095,
        56.504522,
        2.49
      ],
      [
        12.939895,
        56.503909,
        2.43
      ],
      [
        12.939695,
        56.503295,
        2.36
      ],
      [
        12.939495,
        56.502681,
        2.3
      ],
      [
        12.939164,
        56.501931,
        3.2
      ],
      [
        12.938734,
        56.500582,
        2.5
      ],
      [
        12.938458,
        56.499964,
        2.08
      ],
      [
        12.938181,
        56.499347,
        1.65
      ],
      [
        12.937905,
        56.498729,
        1.23
      ],
      [
        12.937629,
        56.498111,
        0.8
      ],
      [
        12.937784,
        56.497602,
        3.3
      ],
      [
        12.937449,
        56.497055,
        1.6
      ],
      [
        12.936509,
        56.495469,
        1.8
      ],
      [
        12.936129,
        56.494474,
        1
      ],
      [
        12.935858,
        56.493705,
        1.8
      ],
      [
        12.935384,
        56.492763,
        1.3
      ],
      [
        12.935006,
        56.492213,
        1.7
      ],
      [
        12.934846,
        56.491869,
        2
      ],
      [
        12.934853,
        56.491629,
        2
      ],
      [
        12.934397,
        56.49049,
        2
      ],
      [
        12.933833,
        56.489587,
        1.3
      ],
      [
        12.933507,
        56.489251,
        1.8
      ],
      [
        12.932974,
        56.488314,
        1.3
      ],
      [
        12.932628,
        56.487367,
        2.3
      ],
      [
        12.93207,
        56.48646,
        1.7
      ],
      [
        12.931993,
        56.486269,
        1.7
      ],
      [
        12.932015,
        56.485978,
        2.2
      ],
      [
        12.930854,
        56.484122,
        1.5
      ],
      [
        12.930028,
        56.482899,
        1.7
      ],
      [
        12.92917,
        56.481738,
        1.3
      ],
      [
        12.928848,
        56.481051,
        1
      ],
      [
        12.928261,
        56.480326,
        1.5
      ],
      [
        12.927904,
        56.479736,
        1.2
      ],
      [
        12.927132,
        56.478657,
        1.1
      ],
      [
        12.926874,
        56.478254,
        1.7
      ],
      [
        12.926357,
        56.477521,
        1.1
      ],
      [
        12.926305,
        56.477338,
        1.6
      ],
      [
        12.92608,
        56.477158,
        1.6
      ],
      [
        12.925844,
        56.476856,
        0.9
      ],
      [
        12.925694,
        56.476536,
        1.3
      ],
      [
        12.92606,
        56.476331,
        2.5
      ],
      [
        12.92563,
        56.47637,
        1.3
      ],
      [
        12.925383,
        56.476086,
        1.7
      ],
      [
        12.925232,
        56.47573,
        1.7
      ],
      [
        12.924213,
        56.474165,
        1.2
      ],
      [
        12.923897,
        56.473828,
        1.8
      ],
      [
        12.923816,
        56.473634,
        1.8
      ],
      [
        12.92335,
        56.473095,
        1.2
      ],
      [
        12.92293,
        56.472555,
        1.14
      ],
      [
        12.922511,
        56.472016,
        1.08
      ],
      [
        12.922091,
        56.471476,
        1.02
      ],
      [
        12.921672,
        56.470937,
        0.96
      ],
      [
        12.921252,
        56.470397,
        0.9
      ],
      [
        12.920008,
        56.46888,
        1.3
      ],
      [
        12.919418,
        56.468429,
        0.8
      ],
      [
        12.9193,
        56.468038,
        1.3
      ],
      [
        12.918838,
        56.467428,
        1.3
      ],
      [
        12.918634,
        56.467167,
        1.3
      ],
      [
        12.91842,
        56.466918,
        1.8
      ],
      [
        12.918227,
        56.46674,
        0.6
      ],
      [
        12.918077,
        56.466539,
        1.3
      ],
      [
        12.917701,
        56.466094,
        1.3
      ],
      [
        12.917197,
        56.465383,
        1.3
      ],
      [
        12.916274,
        56.464547,
        1.5
      ],
      [
        12.914869,
        56.46284,
        1.3
      ],
      [
        12.914473,
        56.462296,
        1
      ],
      [
        12.912787,
        56.460599,
        1.3
      ],
      [
        12.911754,
        56.45942,
        1.6
      ],
      [
        12.909612,
        56.457564,
        1.1
      ],
      [
        12.908948,
        56.456941,
        1.5
      ],
      [
        12.908883,
        56.4568,
        1.5
      ],
      [
        12.908828,
        56.456693,
        1.5
      ],
      [
        12.908689,
        56.456569,
        1.5
      ],
      [
        12.908294,
        56.456164,
        0.9
      ],
      [
        12.908254,
        56.456088,
        0.9
      ],
      [
        12.908569,
        56.456025,
        2.7
      ],
      [
        12.908926,
        56.455779,
        2.7
      ],
      [
        12.908893,
        56.455695,
        2.7
      ],
      [
        12.908689,
        56.455614,
        2.7
      ],
      [
        12.908499,
        56.455522,
        3.1
      ],
      [
        12.908272,
        56.455369,
        3
      ],
      [
        12.90787,
        56.455024,
        3
      ],
      [
        12.907627,
        56.454784,
        3
      ],
      [
        12.907316,
        56.454582,
        2.8
      ],
      [
        12.90712,
        56.454215,
        2.6
      ],
      [
        12.90718,
        56.454041,
        2.6
      ],
      [
        12.907336,
        56.453936,
        2.6
      ],
      [
        12.907136,
        56.453959,
        2.6
      ],
      [
        12.907333,
        56.4538,
        2.6
      ],
      [
        12.906888,
        56.453352,
        3.2
      ],
      [
        12.906902,
        56.453229,
        3.6
      ],
      [
        12.907605,
        56.453065,
        3.6
      ],
      [
        12.908415,
        56.452932,
        4
      ],
      [
        12.909343,
        56.452696,
        6.2
      ],
      [
        12.910051,
        56.452507,
        6.5
      ],
      [
        12.910865,
        56.452263,
        7.7
      ],
      [
        12.911725,
        56.452021,
        8.5
      ],
      [
        12.911607,
        56.451796,
        8.5
      ],
      [
        12.911489,
        56.451594,
        9.1
      ],
      [
        12.911274,
        56.451505,
        9.1
      ],
      [
        12.910566,
        56.450705,
        8.5
      ],
      [
        12.91032,
        56.450296,
        9.6
      ],
      [
        12.910148,
        56.449875,
        9.3
      ],
      [
        12.909966,
        56.449495,
        10.8
      ],
      [
        12.909912,
        56.449282,
        11
      ],
      [
        12.909665,
        56.449139,
        11
      ],
      [
        12.909397,
        56.448968,
        8.8
      ],
      [
        12.909161,
        56.448689,
        9.4
      ],
      [
        12.909118,
        56.448309,
        9.4
      ],
      [
        12.909837,
        56.447965,
        8.1
      ],
      [
        12.910545,
        56.448179,
        7.9
      ],
      [
        12.911146,
        56.447989,
        7.9
      ],
      [
        12.911854,
        56.447728,
        7.5
      ],
      [
        12.912347,
        56.447681,
        8
      ],
      [
        12.912923,
        56.447529,
        7.9
      ],
      [
        12.913485,
        56.447349,
        7.9
      ],
      [
        12.91415,
        56.447147,
        7.9
      ],
      [
        12.914708,
        56.447011,
        7.9
      ],
      [
        12.91503,
        56.447076,
        7.9
      ],
      [
        12.91533,
        56.447052,
        7.9
      ],
      [
        12.91592,
        56.446969,
        7.9
      ],
      [
        12.916355,
        56.44735,
        8
      ],
      [
        12.917036,
        56.447295,
        8.3
      ],
      [
        12.918044,
        56.447058,
        8.3
      ],
      [
        12.917959,
        56.446857,
        8.3
      ],
      [
        12.917626,
        56.446637,
        8.1
      ],
      [
        12.9171,
        56.446352,
        8.1
      ],
      [
        12.916821,
        56.446204,
        8
      ],
      [
        12.91592,
        56.446465,
        8
      ],
      [
        12.915598,
        56.446584,
        8
      ],
      [
        12.915191,
        56.446619,
        7.9
      ],
      [
        12.914933,
        56.446465,
        7.9
      ],
      [
        12.914525,
        56.446014,
        7.9
      ],
      [
        12.913785,
        56.445676,
        8
      ],
      [
        12.913173,
        56.445665,
        8
      ],
      [
        12.912535,
        56.445754,
        7.9
      ],
      [
        12.911789,
        56.445842,
        7.7
      ],
      [
        12.911671,
        56.445721,
        7.7
      ],
      [
        12.911006,
        56.445866,
        7.7
      ],
      [
        12.910051,
        56.446092,
        7.7
      ],
      [
        12.909676,
        56.446246,
        7.7
      ],
      [
        12.909193,
        56.446347,
        7.7
      ],
      [
        12.909268,
        56.446127,
        7.9
      ],
      [
        12.909129,
        56.445943,
        7.9
      ],
      [
        12.908936,
        56.445736,
        7.9
      ],
      [
        12.908818,
        56.445665,
        8
      ],
      [
        12.908785,
        56.44554,
        8
      ],
      [
        12.908871,
        56.445332,
        8
      ],
      [
        12.909011,
        56.445113,
        8
      ],
      [
        12.909193,
        56.444953,
        8
      ],
      [
        12.909257,
        56.444573,
        7.7
      ],
      [
        12.909751,
        56.444259,
        7.7
      ],
      [
        12.910126,
        56.443921,
        8
      ],
      [
        12.910717,
        56.443518,
        8.1
      ],
      [
        12.910942,
        56.443648,
        8.1
      ],
      [
        12.911167,
        56.443672,
        8.1
      ],
      [
        12.911511,
        56.443423,
        8.5
      ],
      [
        12.909923,
        56.442112,
        8.5
      ],
      [
        12.909,
        56.441335,
        8.5
      ],
      [
        12.908313,
        56.440719,
        8.1
      ],
      [
        12.905417,
        56.441276,
        7.9
      ],
      [
        12.904941,
        56.440667,
        7.98
      ],
      [
        12.904465,
        56.440059,
        8.05
      ],
      [
        12.903989,
        56.43945,
        8.13
      ],
      [
        12.903512,
        56.438842,
        8.2
      ],
      [
        12.903036,
        56.438233,
        8.28
      ],
      [
        12.90256,
        56.437624,
        8.35
      ],
      [
        12.902084,
        56.437016,
        8.43
      ],
      [
        12.901608,
        56.436407,
        8.5
      ],
      [
        12.901189,
        56.435974,
        8.8
      ],
      [
        12.901468,
        56.435801,
        8.6
      ],
      [
        12.901726,
        56.435078,
        8.6
      ],
      [
        12.902123,
        56.433891,
        8.5
      ],
      [
        12.902198,
        56.433761,
        8.5
      ],
      [
        12.902155,
        56.433636,
        8.5
      ],
      [
        12.902691,
        56.433488,
        8.6
      ],
      [
        12.903013,
        56.433298,
        8.6
      ],
      [
        12.903206,
        56.433031,
        8.6
      ],
      [
        12.903292,
        56.432966,
        8.6
      ],
      [
        12.903539,
        56.43312,
        9
      ],
      [
        12.903764,
        56.433206,
        9
      ],
      [
        12.903941,
        56.433319,
        9
      ],
      [
        12.904118,
        56.43347,
        9
      ],
      [
        12.904687,
        56.433316,
        9
      ],
      [
        12.905846,
        56.432533,
        8.5
      ],
      [
        12.906457,
        56.432153,
        8.4
      ]
    ]
  }
}
