{
  "type": "Feature",
  "properties": {
    "trailId": "hallandsleden",
    "sectionId": "hallandsleden-sandsjobacka-kungsbacka-c",
    "sectionNumber": "K1",
    "name": "Sandsjöbacka - Kungsbacka C",
    "from": "Sandsjöbacka",
    "to": "Kungsbacka C",
    "sourceType": "official-gpx",
    "sourceUrl": "https://cdn.hoodin.com/hallandsleden/assets/geomanager/geofiles/Kust_Sandsjobacka_Kungsbacka.gpx",
    "sourceLastModified": "Mon, 23 Jun 2025 11:07:26 GMT",
    "sourceEtag": "\"0c68105bf2f9c2f56e70773f9c37004c\"",
    "sourceSha256": "872a94506980e9e94727a5c804eb80ca3dffce73a1c25ce5f15a9208acf9bf22",
    "accessed": "2026-04-30",
    "geometryVariant": "draw-ready",
    "geometryProvenance": "Official GPX coordinates converted to GeoJSON with linear densification only for long intra-segment jumps; official segment breaks are preserved.",
    "coordinateOrder": "lon,lat[,ele]",
    "segmentCount": 1,
    "pointCount": 100,
    "computedDistanceKm": 8.663,
    "maxInternalGapMeters": 236.31,
    "repairSummary": {
      "insertedPointCount": 0,
      "longInternalGapCountBefore": 0,
      "maxInternalGapMetersBefore": 236.31,
      "maxInternalGapMetersAfter": 236.31,
      "officialSegmentBreakCountPreserved": 0,
      "note": "No densification was needed; draw-ready geometry equals canonical geometry."
    },
    "runtimeImport": false
  },
  "geometry": {
    "type": "LineString",
    "coordinates": [
      [
        12.041022,
        57.529644,
        36.3
      ],
      [
        12.042258,
        57.529022,
        36.7
      ],
      [
        12.04255,
        57.528785,
        36.7
      ],
      [
        12.042786,
        57.528451,
        35.7
      ],
      [
        12.043106,
        57.52822,
        34.1
      ],
      [
        12.043526,
        57.527962,
        34.1
      ],
      [
        12.044331,
        57.527616,
        33.8
      ],
      [
        12.046589,
        57.527634,
        33.6
      ],
      [
        12.049504,
        57.527878,
        36.2
      ],
      [
        12.04982,
        57.528946,
        39.6
      ],
      [
        12.050386,
        57.52934,
        42.2
      ],
      [
        12.050971,
        57.531315,
        39.2
      ],
      [
        12.053848,
        57.532215,
        37.5
      ],
      [
        12.054362,
        57.533572,
        37.7
      ],
      [
        12.05507,
        57.53409,
        38.7
      ],
      [
        12.055714,
        57.534389,
        38.7
      ],
      [
        12.056422,
        57.534654,
        37.2
      ],
      [
        12.057607,
        57.534782,
        48.2
      ],
      [
        12.058522,
        57.534504,
        55.2
      ],
      [
        12.059424,
        57.53449,
        68.2
      ],
      [
        12.061707,
        57.534065,
        84.4
      ],
      [
        12.062583,
        57.53362,
        75.7
      ],
      [
        12.063284,
        57.533592,
        75.7
      ],
      [
        12.064648,
        57.5339,
        74
      ],
      [
        12.065565,
        57.533516,
        72.9
      ],
      [
        12.066973,
        57.533493,
        77.7
      ],
      [
        12.068162,
        57.532913,
        80
      ],
      [
        12.06965,
        57.532604,
        84.9
      ],
      [
        12.070372,
        57.53208,
        80.5
      ],
      [
        12.070012,
        57.531116,
        77.7
      ],
      [
        12.071415,
        57.53061,
        69.7
      ],
      [
        12.071776,
        57.530178,
        75.5
      ],
      [
        12.073107,
        57.529568,
        66.2
      ],
      [
        12.073234,
        57.529003,
        68.9
      ],
      [
        12.072716,
        57.52862,
        77.7
      ],
      [
        12.074681,
        57.528137,
        66.4
      ],
      [
        12.075466,
        57.526054,
        78.4
      ],
      [
        12.075254,
        57.525692,
        73.5
      ],
      [
        12.075812,
        57.525066,
        59.6
      ],
      [
        12.075644,
        57.52468,
        64.7
      ],
      [
        12.074887,
        57.524246,
        59.8
      ],
      [
        12.073215,
        57.523796,
        60.7
      ],
      [
        12.0728,
        57.523277,
        58.5
      ],
      [
        12.071652,
        57.522636,
        50.2
      ],
      [
        12.07155,
        57.522339,
        50.2
      ],
      [
        12.072,
        57.522218,
        46.2
      ],
      [
        12.074069,
        57.52209,
        29.3
      ],
      [
        12.076029,
        57.520683,
        14.6
      ],
      [
        12.075804,
        57.520005,
        9.4
      ],
      [
        12.077414,
        57.51937,
        8.1
      ],
      [
        12.076173,
        57.518185,
        8
      ],
      [
        12.076945,
        57.517931,
        7.7
      ],
      [
        12.076039,
        57.516853,
        6.7
      ],
      [
        12.076501,
        57.51652,
        6.5
      ],
      [
        12.077558,
        57.516382,
        4.5
      ],
      [
        12.078073,
        57.516142,
        4.5
      ],
      [
        12.077497,
        57.515297,
        3.6
      ],
      [
        12.077811,
        57.514137,
        4.2
      ],
      [
        12.079207,
        57.514144,
        4.5
      ],
      [
        12.080569,
        57.513718,
        4.4
      ],
      [
        12.083482,
        57.513221,
        8.1
      ],
      [
        12.083427,
        57.512612,
        5.9
      ],
      [
        12.081628,
        57.51262,
        5.5
      ],
      [
        12.081493,
        57.512338,
        5.7
      ],
      [
        12.081034,
        57.512204,
        5.7
      ],
      [
        12.080544,
        57.512183,
        5.4
      ],
      [
        12.080594,
        57.511032,
        5.7
      ],
      [
        12.080337,
        57.510686,
        5.9
      ],
      [
        12.080004,
        57.510694,
        4.5
      ],
      [
        12.079667,
        57.510544,
        4.5
      ],
      [
        12.078331,
        57.50935,
        2.7
      ],
      [
        12.077633,
        57.509167,
        4
      ],
      [
        12.076617,
        57.50902,
        3.2
      ],
      [
        12.075952,
        57.508343,
        3.8
      ],
      [
        12.074357,
        57.507896,
        1.8
      ],
      [
        12.072651,
        57.506645,
        2.8
      ],
      [
        12.072698,
        57.50651,
        2.8
      ],
      [
        12.072902,
        57.506401,
        2.2
      ],
      [
        12.073728,
        57.506089,
        3.5
      ],
      [
        12.074246,
        57.505714,
        3.2
      ],
      [
        12.074876,
        57.50402,
        2
      ],
      [
        12.075161,
        57.503387,
        2.8
      ],
      [
        12.075316,
        57.501605,
        2.7
      ],
      [
        12.075485,
        57.500732,
        2.8
      ],
      [
        12.075284,
        57.500095,
        3.1
      ],
      [
        12.075176,
        57.499455,
        1.6
      ],
      [
        12.075348,
        57.498509,
        1.6
      ],
      [
        12.075241,
        57.498043,
        1.5
      ],
      [
        12.075784,
        57.497314,
        3.1
      ],
      [
        12.075444,
        57.496959,
        1.8
      ],
      [
        12.075142,
        57.496185,
        1.8
      ],
      [
        12.075187,
        57.495193,
        2
      ],
      [
        12.075359,
        57.494526,
        1.8
      ],
      [
        12.076271,
        57.492784,
        1.8
      ],
      [
        12.076649,
        57.49175,
        1.8
      ],
      [
        12.07665,
        57.490364,
        1.5
      ],
      [
        12.07782,
        57.490288,
        2.7
      ],
      [
        12.078481,
        57.489994,
        2.6
      ],
      [
        12.078723,
        57.489796,
        3.1
      ],
      [
        12.07876,
        57.489648,
        3.1
      ]
    ]
  }
}
