{
  "type": "FeatureCollection",
  "name": "sat-rowboats-to-finnhamn connection route",
  "features": [
    {
      "type": "Feature",
      "properties": {
        "id": "sat-rowboats-to-finnhamn",
        "activity": "hiking",
        "itemType": "trail-connection",
        "mode": "walk",
        "fromSectionId": "sat-rowboats-finnhamn-ingmarso",
        "toSectionId": "sat-finnhamn",
        "name": "Finnhamn / Idholmen rowboat landing to Finnhamn ferry jetty",
        "operator": "Stockholm Archipelago Trail",
        "lineName": "Local Finnhamn/Idholmen trail connection",
        "geometryStatus": "approximate-waypoint-corridor",
        "mapConfidence": "high",
        "navigationUse": "planning-reference",
        "warning": "Approximate planning connection line only. Use current SL/Waxholmsbolaget/Trafikverket planning for exact ferry routes, stops, dates, request stops, and disruptions."
      },
      "geometry": {
        "type": "LineString",
        "coordinates": [
          [
            18.804459,
            59.48211
          ],
          [
            18.826574,
            59.482801
          ]
        ]
      }
    }
  ]
}
