{
  "type": "FeatureCollection",
  "name": "sat-nattaro-to-landsort connection route",
  "features": [
    {
      "type": "Feature",
      "properties": {
        "id": "sat-nattaro-to-landsort",
        "activity": "hiking",
        "itemType": "trail-connection",
        "mode": "ferry",
        "fromSectionId": "sat-nattaro",
        "toSectionId": "sat-landsort",
        "name": "Nåttarö ferry quay / Ångbåtsbryggan to Landsort Österhamn ferry quay",
        "operator": "Waxholmsbolaget / SL",
        "lineName": "Line 22 to Nynäshamn, SL 852 to Ankarudden, line 29 to Landsort",
        "geometryStatus": "approximate-waypoint-corridor",
        "mapConfidence": "medium",
        "navigationUse": "planning-reference",
        "warning": "Approximate planning connection line only. Use current SL/Waxholmsbolaget/Trafikverket planning for exact ferry routes, stops, dates, request stops, and disruptions."
      },
      "geometry": {
        "type": "LineString",
        "coordinates": [
          [
            18.109816,
            58.881763
          ],
          [
            17.9505,
            58.9035
          ],
          [
            17.836025,
            58.801328
          ],
          [
            17.867775,
            58.743661
          ]
        ]
      }
    }
  ]
}
