{
  "type": "FeatureCollection",
  "name": "sat-fjardlang-to-uto connection route",
  "features": [
    {
      "type": "Feature",
      "properties": {
        "id": "sat-fjardlang-to-uto",
        "activity": "hiking",
        "itemType": "trail-connection",
        "mode": "ferry",
        "fromSectionId": "sat-fjardlang",
        "toSectionId": "sat-uto",
        "name": "Fjärdlång brygga to Gruvbryggan ferry trailhead",
        "operator": "Waxholmsbolaget",
        "lineName": "Dalarö/Utö or summer North-South Line planning transfer",
        "geometryStatus": "approximate-waypoint-corridor",
        "mapConfidence": "medium",
        "navigationUse": "planning-reference",
        "warning": "Approximate planning connection line only. Use current SL/Waxholmsbolaget/Trafikverket planning for exact ferry routes, stops, dates, request stops, and disruptions."
      },
      "geometry": {
        "type": "LineString",
        "coordinates": [
          [
            18.5105136,
            59.0355543
          ],
          [
            18.3251962,
            58.9704915
          ]
        ]
      }
    }
  ]
}
