{
  "type": "FeatureCollection",
  "name": "sat-uto-to-uto-alo-connector connection route",
  "features": [
    {
      "type": "Feature",
      "properties": {
        "id": "sat-uto-to-uto-alo-connector",
        "activity": "hiking",
        "itemType": "trail-connection",
        "mode": "walk",
        "fromSectionId": "sat-uto",
        "toSectionId": "sat-uto-alo-connector",
        "name": "Spränga Brygga alternate trailhead to Utö - Ålö walked connector continuity",
        "operator": "Stockholm Archipelago Trail",
        "lineName": "Utö-Ålö walked connector continuity",
        "geometryStatus": "approximate-waypoint-corridor",
        "mapConfidence": "high",
        "navigationUse": "planning-reference",
        "warning": "Approximate planning connection line only. Use current SL/Waxholmsbolaget/Trafikverket planning for exact ferry routes, stops, dates, request stops, and disruptions."
      },
      "geometry": {
        "type": "LineString",
        "coordinates": [
          [
            18.2944979,
            58.957656
          ],
          [
            18.253,
            58.9444
          ]
        ]
      }
    }
  ]
}
