{
  "type": "FeatureCollection",
  "name": "sat-namdo-to-orno connection route",
  "features": [
    {
      "type": "Feature",
      "properties": {
        "id": "sat-namdo-to-orno",
        "activity": "hiking",
        "itemType": "trail-connection",
        "mode": "ferry",
        "fromSectionId": "sat-namdo",
        "toSectionId": "sat-orno",
        "name": "Solvik (Nämdö) brygga to Hässelmara brygga",
        "operator": "Waxholmsbolaget / SL",
        "lineName": "Stavsnäs or Dalarö transfer; North-South Line may help in summer",
        "geometryStatus": "approximate-waypoint-corridor",
        "mapConfidence": "medium",
        "navigationUse": "planning-reference",
        "warning": "Approximate planning connection line only. Use current SL/Waxholmsbolaget/Trafikverket planning for exact ferry routes, stops, dates, request stops, and disruptions."
      },
      "geometry": {
        "type": "LineString",
        "coordinates": [
          [
            18.7004008,
            59.1846235
          ],
          [
            18.7043247,
            59.2865665
          ],
          [
            18.4049313,
            59.1295341
          ],
          [
            18.4152556,
            59.0892223
          ]
        ]
      }
    }
  ]
}
