{
  "type": "FeatureCollection",
  "features": [
    {
      "type": "Feature",
      "properties": {
        "trailId": "sjuharadsleden",
        "sectionId": "sjuharadsleden-etapp-7-blackered-prangens-camping",
        "candidateGeometry": true,
        "runtimeImportApproved": false,
        "sourceUrl": "https://www.naturkartan.se/sv/vastra-gotalands-lan/sjuharadsleden-etapp-7.gpx",
        "source": "candidate-normalized-geojson",
        "classification": "B- / normalize-required",
        "sourceComputedDistanceKm": 12.01,
        "lineCount": 1,
        "pointCount": 250,
        "componentSelectionApplied": false,
        "selectedComponentIndexes": null,
        "reverseApplied": false,
        "densifyApplied": true,
        "buildPolicyNotes": "Section 6 selects GPX components 0, 2, 5 and 7 as the Rölle mainline, dropping short duplicate/parallel fragments and the spur; section 7 is densified where official GPX sampling leaves simplified chords.",
        "lastUpdated": "2026-04-30",
        "id": "sjuharadsleden-etapp-7-blackered-prangens-camping",
        "trailSystemId": "sjuharadsleden",
        "name": "Sjuhäradsleden, etapp 7: Blackered - Prångens Camping",
        "part": 1
      },
      "geometry": {
        "type": "LineString",
        "coordinates": [
          [
            13.282276,
            57.766228
          ],
          [
            13.282534,
            57.766047
          ],
          [
            13.283082,
            57.765773
          ],
          [
            13.283275,
            57.765589
          ],
          [
            13.283528,
            57.765306
          ],
          [
            13.283789,
            57.76479
          ],
          [
            13.284042,
            57.764246
          ],
          [
            13.28416,
            57.76399
          ],
          [
            13.284413,
            57.763712
          ],
          [
            13.284941,
            57.763393
          ],
          [
            13.285708,
            57.763087
          ],
          [
            13.286323,
            57.76289
          ],
          [
            13.286828,
            57.7628
          ],
          [
            13.2883785,
            57.7626315
          ],
          [
            13.289929,
            57.762463
          ],
          [
            13.291251,
            57.762445
          ],
          [
            13.291673,
            57.762494
          ],
          [
            13.291892,
            57.762566
          ],
          [
            13.292136,
            57.762571
          ],
          [
            13.2927,
            57.762557
          ],
          [
            13.293551,
            57.762512
          ],
          [
            13.295035,
            57.762153
          ],
          [
            13.2963325,
            57.762054
          ],
          [
            13.29763,
            57.761955
          ],
          [
            13.297908,
            57.761942
          ],
          [
            13.298733,
            57.762108
          ],
          [
            13.299626,
            57.762108
          ],
          [
            13.300225,
            57.761969
          ],
          [
            13.300553,
            57.761982
          ],
          [
            13.30116,
            57.761946
          ],
          [
            13.301514,
            57.761996
          ],
          [
            13.301808,
            57.761991
          ],
          [
            13.302255,
            57.761924
          ],
          [
            13.303544,
            57.761919
          ],
          [
            13.3044115,
            57.761990999999995
          ],
          [
            13.305279,
            57.762063
          ],
          [
            13.305614,
            57.762086
          ],
          [
            13.3068145,
            57.7624
          ],
          [
            13.308015,
            57.762714
          ],
          [
            13.308377,
            57.762705
          ],
          [
            13.308563,
            57.762741
          ],
          [
            13.308512,
            57.762935
          ],
          [
            13.308647,
            57.763105
          ],
          [
            13.308799,
            57.763177
          ],
          [
            13.309074,
            57.763278
          ],
          [
            13.309548,
            57.763541
          ],
          [
            13.310079,
            57.763649
          ],
          [
            13.310172,
            57.763694
          ],
          [
            13.310138,
            57.763941
          ],
          [
            13.310298,
            57.764817
          ],
          [
            13.310513,
            57.765599
          ],
          [
            13.310728,
            57.766380999999996
          ],
          [
            13.310943,
            57.767163
          ],
          [
            13.310952,
            57.767568
          ],
          [
            13.31075,
            57.768062
          ],
          [
            13.310842,
            57.768753
          ],
          [
            13.310792,
            57.769368
          ],
          [
            13.310842,
            57.769633
          ],
          [
            13.311204,
            57.770275
          ],
          [
            13.311432,
            57.770563
          ],
          [
            13.311794,
            57.770724
          ],
          [
            13.312005,
            57.770765
          ],
          [
            13.313681,
            57.770756
          ],
          [
            13.31406,
            57.77081
          ],
          [
            13.314907,
            57.771159999999995
          ],
          [
            13.315754,
            57.77151
          ],
          [
            13.316239,
            57.771649
          ],
          [
            13.316358,
            57.771669
          ],
          [
            13.3164239504533,
            57.77156814567104
          ],
          [
            13.31723287805912,
            57.77110955586286
          ],
          [
            13.31812337819434,
            57.77073434169006
          ],
          [
            13.31916342797214,
            57.77050232250106
          ],
          [
            13.32020347774994,
            57.77027030331206
          ],
          [
            13.32043459992343,
            57.77037906284187
          ],
          [
            13.32063853125177,
            57.77074159224239
          ],
          [
            13.32048898161077,
            57.77114762085139
          ],
          [
            13.32021707317202,
            57.77155364489647
          ],
          [
            13.32001314184362,
            57.77194516376022
          ],
          [
            13.32007746715178,
            57.77235959060116
          ],
          [
            13.32007505627737,
            57.77282500278679
          ],
          [
            13.31968931771698,
            57.77363238870618
          ],
          [
            13.319238,
            57.774323
          ],
          [
            13.319499,
            57.774458
          ],
          [
            13.319844,
            57.774992
          ],
          [
            13.319971,
            57.775783
          ],
          [
            13.320097,
            57.776079
          ],
          [
            13.320569,
            57.776514
          ],
          [
            13.321563,
            57.77708
          ],
          [
            13.322334,
            57.777475499999994
          ],
          [
            13.323105,
            57.777871
          ],
          [
            13.324183,
            57.778432
          ],
          [
            13.325084,
            57.778684
          ],
          [
            13.32581,
            57.779003
          ],
          [
            13.326358,
            57.779223
          ],
          [
            13.326813,
            57.780027
          ],
          [
            13.327188,
            57.7804625
          ],
          [
            13.327563,
            57.780898
          ],
          [
            13.327832,
            57.781127
          ],
          [
            13.32795,
            57.781311
          ],
          [
            13.328169,
            57.781464
          ],
          [
            13.328405,
            57.781674
          ],
          [
            13.328725,
            57.781988
          ],
          [
            13.329586,
            57.782613
          ],
          [
            13.329947,
            57.782795
          ],
          [
            13.330343,
            57.783039
          ],
          [
            13.330958,
            57.783358
          ],
          [
            13.331614,
            57.783723
          ],
          [
            13.331994,
            57.783988
          ],
          [
            13.332642,
            57.784352
          ],
          [
            13.3334635,
            57.7848505
          ],
          [
            13.334285,
            57.785349
          ],
          [
            13.334639,
            57.785519
          ],
          [
            13.335869,
            57.785924
          ],
          [
            13.336602,
            57.786193
          ],
          [
            13.337251,
            57.786521
          ],
          [
            13.337706,
            57.786737
          ],
          [
            13.338606,
            57.787142
          ],
          [
            13.33944,
            57.787501
          ],
          [
            13.33982,
            57.787717
          ],
          [
            13.34035,
            57.788058
          ],
          [
            13.341108,
            57.788615
          ],
          [
            13.341336,
            57.788723
          ],
          [
            13.341968,
            57.788926
          ],
          [
            13.342229,
            57.789137
          ],
          [
            13.342532,
            57.789644
          ],
          [
            13.342786,
            57.79023
          ],
          [
            13.34289,
            57.790189
          ],
          [
            13.34297,
            57.789828
          ],
          [
            13.343644,
            57.789159
          ],
          [
            13.344074,
            57.788652
          ],
          [
            13.34463,
            57.788252
          ],
          [
            13.345186,
            57.787852
          ],
          [
            13.345439,
            57.787619
          ],
          [
            13.345776,
            57.787385
          ],
          [
            13.346079,
            57.78739
          ],
          [
            13.346391,
            57.787493
          ],
          [
            13.346787,
            57.787533
          ],
          [
            13.347157,
            57.787578
          ],
          [
            13.347503,
            57.787488
          ],
          [
            13.348008,
            57.787313
          ],
          [
            13.348093,
            57.787237
          ],
          [
            13.348059,
            57.787008
          ],
          [
            13.348084,
            57.786949
          ],
          [
            13.348202,
            57.786976
          ],
          [
            13.348914,
            57.78739
          ],
          [
            13.349454,
            57.78778
          ],
          [
            13.350119,
            57.788086
          ],
          [
            13.350658,
            57.788409
          ],
          [
            13.350835,
            57.788679
          ],
          [
            13.350903,
            57.788966
          ],
          [
            13.351021,
            57.789141
          ],
          [
            13.351172,
            57.789204
          ],
          [
            13.352343,
            57.789451
          ],
          [
            13.352672,
            57.789559
          ],
          [
            13.353152,
            57.790399
          ],
          [
            13.353274,
            57.790558
          ],
          [
            13.353502,
            57.790653
          ],
          [
            13.354109,
            57.791394
          ],
          [
            13.354513,
            57.791533
          ],
          [
            13.355136,
            57.791627
          ],
          [
            13.356124,
            57.791798
          ],
          [
            13.356569,
            57.791814
          ],
          [
            13.357873,
            57.791501
          ],
          [
            13.358626,
            57.791353
          ],
          [
            13.359217,
            57.791256
          ],
          [
            13.359786,
            57.791214
          ],
          [
            13.360225,
            57.791461
          ],
          [
            13.360688,
            57.791758
          ],
          [
            13.360857,
            57.792045
          ],
          [
            13.361211,
            57.792247
          ],
          [
            13.362491,
            57.792539
          ],
          [
            13.362584,
            57.792629
          ],
          [
            13.362668,
            57.79284
          ],
          [
            13.362971,
            57.79306
          ],
          [
            13.363286,
            57.793175
          ],
          [
            13.363454,
            57.793238
          ],
          [
            13.363547,
            57.793346
          ],
          [
            13.363665,
            57.793409
          ],
          [
            13.363749,
            57.793512
          ],
          [
            13.364145,
            57.793674
          ],
          [
            13.36449,
            57.793755
          ],
          [
            13.365198,
            57.794123
          ],
          [
            13.365813,
            57.794271
          ],
          [
            13.366453,
            57.794509
          ],
          [
            13.366496,
            57.794752
          ],
          [
            13.366647,
            57.795062
          ],
          [
            13.3669925,
            57.795508999999996
          ],
          [
            13.367338,
            57.795956
          ],
          [
            13.367389,
            57.79618
          ],
          [
            13.367136,
            57.796517
          ],
          [
            13.366959,
            57.796782
          ],
          [
            13.366849,
            57.797072
          ],
          [
            13.366925,
            57.797597
          ],
          [
            13.366976,
            57.797907
          ],
          [
            13.366969,
            57.798088
          ],
          [
            13.367282,
            57.798124
          ],
          [
            13.367776,
            57.798186
          ],
          [
            13.369001,
            57.798297
          ],
          [
            13.36979,
            57.798329
          ],
          [
            13.370363,
            57.798329
          ],
          [
            13.371218,
            57.798314
          ],
          [
            13.371222000000001,
            57.79906166666667
          ],
          [
            13.371226,
            57.79980933333333
          ],
          [
            13.37123,
            57.800557
          ],
          [
            13.371239,
            57.800947
          ],
          [
            13.371163,
            57.801068
          ],
          [
            13.370986,
            57.801284
          ],
          [
            13.370986,
            57.801405
          ],
          [
            13.372512666666667,
            57.80120388888889
          ],
          [
            13.374039333333334,
            57.80100277777778
          ],
          [
            13.375566000000001,
            57.800801666666665
          ],
          [
            13.377092666666668,
            57.800600555555555
          ],
          [
            13.378619333333333,
            57.800399444444444
          ],
          [
            13.380146,
            57.800198333333334
          ],
          [
            13.381672666666667,
            57.79999722222222
          ],
          [
            13.383199333333334,
            57.79979611111111
          ],
          [
            13.384726,
            57.799595
          ],
          [
            13.386220000000002,
            57.7994125
          ],
          [
            13.387714,
            57.79923
          ],
          [
            13.388537,
            57.799168
          ],
          [
            13.389958,
            57.798934
          ],
          [
            13.3908245,
            57.7989135
          ],
          [
            13.391691,
            57.798893
          ],
          [
            13.392246,
            57.798934
          ],
          [
            13.393026,
            57.799024
          ],
          [
            13.393823,
            57.799167
          ],
          [
            13.394552,
            57.799356
          ],
          [
            13.395167,
            57.799552
          ],
          [
            13.395644,
            57.799747
          ],
          [
            13.3962105,
            57.800114
          ],
          [
            13.396777,
            57.800481
          ],
          [
            13.3976845,
            57.801107
          ],
          [
            13.398592,
            57.801733
          ],
          [
            13.39946,
            57.802231
          ],
          [
            13.400484,
            57.802601
          ],
          [
            13.401434,
            57.802856
          ],
          [
            13.402611,
            57.803106
          ],
          [
            13.403738,
            57.803259
          ],
          [
            13.404614,
            57.803289
          ],
          [
            13.405424,
            57.803289
          ],
          [
            13.406756999999999,
            57.8032175
          ],
          [
            13.40809,
            57.803146
          ],
          [
            13.40866,
            57.803054
          ],
          [
            13.409239,
            57.802931
          ],
          [
            13.410365,
            57.802647
          ],
          [
            13.410998,
            57.802305
          ],
          [
            13.411368,
            57.802034
          ],
          [
            13.411743,
            57.801735
          ],
          [
            13.411872,
            57.801607
          ],
          [
            13.412034,
            57.801619
          ]
        ]
      }
    }
  ]
}
