{
  "type": "FeatureCollection",
  "features": [
    {
      "type": "Feature",
      "properties": {
        "trailId": "sjuharadsleden",
        "sectionId": "sjuharadsleden-etapp-4-sok-stugan-rya-asar",
        "candidateGeometry": true,
        "runtimeImportApproved": false,
        "sourceUrl": "https://www.naturkartan.se/sv/vastra-gotalands-lan/sjuharadsleden-etapp-4.gpx",
        "source": "candidate-normalized-geojson",
        "classification": "planning-grade plus GPS-following-grade with endpoint semantics caveat",
        "sourceComputedDistanceKm": 12.977,
        "lineCount": 1,
        "pointCount": 417,
        "componentSelectionApplied": false,
        "selectedComponentIndexes": null,
        "reverseApplied": false,
        "densifyApplied": false,
        "buildPolicyNotes": "Section 6 selects GPX components 0, 2, 5 and 7 as the Rölle mainline, dropping short duplicate/parallel fragments and the spur; section 7 is densified where official GPX sampling leaves simplified chords.",
        "lastUpdated": "2026-04-30",
        "id": "sjuharadsleden-etapp-4-sok-stugan-rya-asar",
        "trailSystemId": "sjuharadsleden",
        "name": "Sjuhäradsleden, etapp 4: SOK-stugan - Rya åsar",
        "part": 1
      },
      "geometry": {
        "type": "LineString",
        "coordinates": [
          [
            12.798726,
            57.732249
          ],
          [
            12.799394,
            57.732313
          ],
          [
            12.799686,
            57.73231
          ],
          [
            12.800274,
            57.732235
          ],
          [
            12.800899,
            57.732075
          ],
          [
            12.801823,
            57.731749
          ],
          [
            12.802661,
            57.731419
          ],
          [
            12.803199,
            57.731112
          ],
          [
            12.803998,
            57.730769
          ],
          [
            12.804604,
            57.730558
          ],
          [
            12.804787,
            57.73052
          ],
          [
            12.805839,
            57.730491
          ],
          [
            12.807262,
            57.730491
          ],
          [
            12.807524,
            57.729987
          ],
          [
            12.807524,
            57.729679
          ],
          [
            12.808509,
            57.729609
          ],
          [
            12.809972,
            57.729489
          ],
          [
            12.810705,
            57.729402
          ],
          [
            12.811123,
            57.729286
          ],
          [
            12.811721,
            57.729505
          ],
          [
            12.811928,
            57.729551
          ],
          [
            12.812373,
            57.729599
          ],
          [
            12.813583,
            57.730341
          ],
          [
            12.813974,
            57.730405
          ],
          [
            12.814266,
            57.73044
          ],
          [
            12.814363,
            57.730464
          ],
          [
            12.814544,
            57.730479
          ],
          [
            12.815075,
            57.730714
          ],
          [
            12.815388,
            57.73099
          ],
          [
            12.815574,
            57.731112
          ],
          [
            12.816,
            57.731412
          ],
          [
            12.816467,
            57.731428
          ],
          [
            12.817036,
            57.731407
          ],
          [
            12.817604,
            57.73154
          ],
          [
            12.817922,
            57.731613
          ],
          [
            12.818262,
            57.731773
          ],
          [
            12.818433,
            57.731922
          ],
          [
            12.818766,
            57.732113
          ],
          [
            12.819195,
            57.731762
          ],
          [
            12.819475,
            57.731531
          ],
          [
            12.820593,
            57.731106
          ],
          [
            12.821404,
            57.730551
          ],
          [
            12.821668,
            57.730209
          ],
          [
            12.821818,
            57.72999
          ],
          [
            12.82201,
            57.729787
          ],
          [
            12.822103,
            57.729632
          ],
          [
            12.822472,
            57.729791
          ],
          [
            12.823229,
            57.729987
          ],
          [
            12.823365,
            57.730032
          ],
          [
            12.823598,
            57.730294
          ],
          [
            12.823745,
            57.730449
          ],
          [
            12.823996,
            57.730647
          ],
          [
            12.824072,
            57.730776
          ],
          [
            12.824138,
            57.730819
          ],
          [
            12.824353,
            57.730817
          ],
          [
            12.824608,
            57.730768
          ],
          [
            12.825064,
            57.730887
          ],
          [
            12.82542,
            57.730866
          ],
          [
            12.825817,
            57.730806
          ],
          [
            12.826279,
            57.730694
          ],
          [
            12.826577,
            57.730537
          ],
          [
            12.826914,
            57.730425
          ],
          [
            12.827364,
            57.730336
          ],
          [
            12.827632,
            57.730308
          ],
          [
            12.827915,
            57.730276
          ],
          [
            12.828413,
            57.730246
          ],
          [
            12.828852,
            57.730263
          ],
          [
            12.829076,
            57.730244
          ],
          [
            12.829452,
            57.73005
          ],
          [
            12.829634,
            57.729869
          ],
          [
            12.830278,
            57.729531
          ],
          [
            12.830588,
            57.72951
          ],
          [
            12.83134,
            57.729413
          ],
          [
            12.831682,
            57.729426
          ],
          [
            12.831855,
            57.729392
          ],
          [
            12.832276,
            57.729404
          ],
          [
            12.832584,
            57.729272
          ],
          [
            12.833277,
            57.729135
          ],
          [
            12.833473,
            57.729139
          ],
          [
            12.834056,
            57.729209
          ],
          [
            12.834076,
            57.728976
          ],
          [
            12.8342,
            57.72886
          ],
          [
            12.834513,
            57.728832
          ],
          [
            12.834878,
            57.728849
          ],
          [
            12.83501,
            57.728834
          ],
          [
            12.835308,
            57.728723
          ],
          [
            12.836033,
            57.728507
          ],
          [
            12.836289,
            57.728449
          ],
          [
            12.836415,
            57.728382
          ],
          [
            12.837127,
            57.728242
          ],
          [
            12.837672,
            57.728564
          ],
          [
            12.837874,
            57.728838
          ],
          [
            12.83827,
            57.729168
          ],
          [
            12.83866,
            57.729438
          ],
          [
            12.83902,
            57.729889
          ],
          [
            12.839324,
            57.73023
          ],
          [
            12.839661,
            57.730336
          ],
          [
            12.840011,
            57.73033
          ],
          [
            12.84066,
            57.730213
          ],
          [
            12.84143,
            57.730425
          ],
          [
            12.841878,
            57.730492
          ],
          [
            12.84218,
            57.730602
          ],
          [
            12.842405,
            57.730742
          ],
          [
            12.842618,
            57.730908
          ],
          [
            12.842804,
            57.731084
          ],
          [
            12.843909,
            57.731284
          ],
          [
            12.844763,
            57.73129
          ],
          [
            12.845044,
            57.731236
          ],
          [
            12.84571,
            57.731305
          ],
          [
            12.846727,
            57.731386
          ],
          [
            12.847356,
            57.73145
          ],
          [
            12.847768,
            57.73148
          ],
          [
            12.848012,
            57.731497
          ],
          [
            12.848168,
            57.731494
          ],
          [
            12.848307,
            57.731481
          ],
          [
            12.848481,
            57.731464
          ],
          [
            12.848666,
            57.731524
          ],
          [
            12.848694,
            57.731601
          ],
          [
            12.848746,
            57.731845
          ],
          [
            12.848724,
            57.731975
          ],
          [
            12.848822,
            57.73207
          ],
          [
            12.848874,
            57.732202
          ],
          [
            12.848947,
            57.73223
          ],
          [
            12.848919,
            57.732718
          ],
          [
            12.849101,
            57.732918
          ],
          [
            12.849591,
            57.733256
          ],
          [
            12.849806,
            57.7336
          ],
          [
            12.849996,
            57.733778
          ],
          [
            12.849979,
            57.733899
          ],
          [
            12.849731,
            57.734103
          ],
          [
            12.849562,
            57.734261
          ],
          [
            12.849486,
            57.734414
          ],
          [
            12.849519,
            57.734462
          ],
          [
            12.849643,
            57.734555
          ],
          [
            12.850076,
            57.73476
          ],
          [
            12.850578,
            57.735059
          ],
          [
            12.851364,
            57.735146
          ],
          [
            12.851499,
            57.735153
          ],
          [
            12.852122,
            57.735137
          ],
          [
            12.85228,
            57.735173
          ],
          [
            12.852713,
            57.735375
          ],
          [
            12.853154,
            57.735467
          ],
          [
            12.853793,
            57.735372
          ],
          [
            12.854219,
            57.735316
          ],
          [
            12.854659,
            57.735391
          ],
          [
            12.855252,
            57.735631
          ],
          [
            12.85564,
            57.735838
          ],
          [
            12.856192,
            57.735983
          ],
          [
            12.857424,
            57.736304
          ],
          [
            12.857729,
            57.736461
          ],
          [
            12.85831,
            57.736868
          ],
          [
            12.858759,
            57.737196
          ],
          [
            12.858796,
            57.737227
          ],
          [
            12.858736,
            57.737321
          ],
          [
            12.858557,
            57.737391
          ],
          [
            12.8583,
            57.737486
          ],
          [
            12.857986,
            57.737676
          ],
          [
            12.857644,
            57.737795
          ],
          [
            12.85763,
            57.737896
          ],
          [
            12.857613,
            57.738064
          ],
          [
            12.857438,
            57.738203
          ],
          [
            12.85723,
            57.738267
          ],
          [
            12.857044,
            57.738374
          ],
          [
            12.856854,
            57.738489
          ],
          [
            12.856835,
            57.738629
          ],
          [
            12.856908,
            57.738818
          ],
          [
            12.856796,
            57.73911
          ],
          [
            12.856787,
            57.73936
          ],
          [
            12.856816,
            57.739643
          ],
          [
            12.857369,
            57.739895
          ],
          [
            12.857818,
            57.740109
          ],
          [
            12.858209,
            57.740231
          ],
          [
            12.858399,
            57.740238
          ],
          [
            12.858509,
            57.740268
          ],
          [
            12.858548,
            57.740373
          ],
          [
            12.858916,
            57.740568
          ],
          [
            12.859297,
            57.740711
          ],
          [
            12.859487,
            57.740653
          ],
          [
            12.859615,
            57.740566
          ],
          [
            12.859754,
            57.740507
          ],
          [
            12.860125,
            57.740507
          ],
          [
            12.860556,
            57.74051
          ],
          [
            12.860941,
            57.740445
          ],
          [
            12.861184,
            57.740386
          ],
          [
            12.861484,
            57.740349
          ],
          [
            12.862094,
            57.74034
          ],
          [
            12.862314,
            57.740281
          ],
          [
            12.862555,
            57.740185
          ],
          [
            12.862706,
            57.740082
          ],
          [
            12.863255,
            57.740072
          ],
          [
            12.863615,
            57.73999
          ],
          [
            12.863938,
            57.740007
          ],
          [
            12.864336,
            57.740051
          ],
          [
            12.864702,
            57.740054
          ],
          [
            12.865075,
            57.740144
          ],
          [
            12.865473,
            57.740132
          ],
          [
            12.865811,
            57.740113
          ],
          [
            12.866109,
            57.740108
          ],
          [
            12.866361,
            57.740251
          ],
          [
            12.866522,
            57.740563
          ],
          [
            12.866723,
            57.740794
          ],
          [
            12.866821,
            57.741242
          ],
          [
            12.86678,
            57.741823
          ],
          [
            12.86669,
            57.742515
          ],
          [
            12.866856,
            57.74306
          ],
          [
            12.867252,
            57.743622
          ],
          [
            12.867498,
            57.743902
          ],
          [
            12.867981,
            57.744053
          ],
          [
            12.868454,
            57.744188
          ],
          [
            12.868788,
            57.744302
          ],
          [
            12.869309,
            57.744616
          ],
          [
            12.869396,
            57.745003
          ],
          [
            12.869778,
            57.74547
          ],
          [
            12.869994,
            57.745784
          ],
          [
            12.87006,
            57.746305
          ],
          [
            12.870051,
            57.746991
          ],
          [
            12.870094,
            57.747234
          ],
          [
            12.870407,
            57.747653
          ],
          [
            12.870484,
            57.747645
          ],
          [
            12.870704,
            57.747521
          ],
          [
            12.871011,
            57.747431
          ],
          [
            12.871479,
            57.747521
          ],
          [
            12.87161,
            57.747744
          ],
          [
            12.871703,
            57.747961
          ],
          [
            12.872265,
            57.748171
          ],
          [
            12.872607,
            57.748201
          ],
          [
            12.872915,
            57.748145
          ],
          [
            12.873422,
            57.748048
          ],
          [
            12.873779,
            57.748011
          ],
          [
            12.874888,
            57.747675
          ],
          [
            12.875318,
            57.747481
          ],
          [
            12.87536,
            57.747389
          ],
          [
            12.876059,
            57.747065
          ],
          [
            12.87643,
            57.74698
          ],
          [
            12.877005,
            57.747002
          ],
          [
            12.877243,
            57.746987
          ],
          [
            12.877495,
            57.746954
          ],
          [
            12.878029,
            57.746897
          ],
          [
            12.878418,
            57.746781
          ],
          [
            12.878639,
            57.746696
          ],
          [
            12.879097,
            57.746709
          ],
          [
            12.87923,
            57.746729
          ],
          [
            12.879399,
            57.746797
          ],
          [
            12.879614,
            57.746795
          ],
          [
            12.879945,
            57.746704
          ],
          [
            12.880591,
            57.746501
          ],
          [
            12.881203,
            57.746373
          ],
          [
            12.882033,
            57.746156
          ],
          [
            12.8825,
            57.746106
          ],
          [
            12.882621,
            57.746122
          ],
          [
            12.883785,
            57.745627
          ],
          [
            12.884407,
            57.745977
          ],
          [
            12.884821,
            57.746152
          ],
          [
            12.885139,
            57.746036
          ],
          [
            12.88547,
            57.745967
          ],
          [
            12.886112,
            57.745844
          ],
          [
            12.886428,
            57.745814
          ],
          [
            12.886805,
            57.745904
          ],
          [
            12.887198,
            57.746
          ],
          [
            12.887476,
            57.746062
          ],
          [
            12.887776,
            57.745744
          ],
          [
            12.888702,
            57.745967
          ],
          [
            12.88896,
            57.746041
          ],
          [
            12.889159,
            57.746072
          ],
          [
            12.889874,
            57.745969
          ],
          [
            12.8902,
            57.745929
          ],
          [
            12.890328,
            57.745918
          ],
          [
            12.890393,
            57.745914
          ],
          [
            12.890404,
            57.745943
          ],
          [
            12.890362,
            57.745983
          ],
          [
            12.890003,
            57.746206
          ],
          [
            12.889499,
            57.746515
          ],
          [
            12.888928,
            57.746878
          ],
          [
            12.888678,
            57.747051
          ],
          [
            12.889019,
            57.747192
          ],
          [
            12.889231,
            57.747269
          ],
          [
            12.889884,
            57.747385
          ],
          [
            12.890175,
            57.747443
          ],
          [
            12.890215,
            57.747469
          ],
          [
            12.890233,
            57.747549
          ],
          [
            12.890114,
            57.747687
          ],
          [
            12.8899,
            57.74788
          ],
          [
            12.889474,
            57.748191
          ],
          [
            12.88914,
            57.748417
          ],
          [
            12.888987,
            57.748547
          ],
          [
            12.888815,
            57.748658
          ],
          [
            12.888655,
            57.74879
          ],
          [
            12.888544,
            57.748906
          ],
          [
            12.88848,
            57.749026
          ],
          [
            12.888417,
            57.749152
          ],
          [
            12.888177,
            57.749388
          ],
          [
            12.887541,
            57.749963
          ],
          [
            12.88709,
            57.7503
          ],
          [
            12.887178,
            57.750829
          ],
          [
            12.887375,
            57.751122
          ],
          [
            12.887431,
            57.751341
          ],
          [
            12.887674,
            57.7513
          ],
          [
            12.88784,
            57.751032
          ],
          [
            12.887957,
            57.750841
          ],
          [
            12.888194,
            57.750688
          ],
          [
            12.888305,
            57.750661
          ],
          [
            12.888526,
            57.750292
          ],
          [
            12.888951,
            57.749971
          ],
          [
            12.888967,
            57.749762
          ],
          [
            12.889249,
            57.749555
          ],
          [
            12.889637,
            57.749112
          ],
          [
            12.890242,
            57.748529
          ],
          [
            12.890561,
            57.748343
          ],
          [
            12.890723,
            57.748097
          ],
          [
            12.89145,
            57.747646
          ],
          [
            12.891859,
            57.747522
          ],
          [
            12.892193,
            57.747366
          ],
          [
            12.892523,
            57.747291
          ],
          [
            12.892965,
            57.747337
          ],
          [
            12.893468,
            57.747517
          ],
          [
            12.894126,
            57.747854
          ],
          [
            12.894834,
            57.748073
          ],
          [
            12.894991,
            57.748169
          ],
          [
            12.895373,
            57.748635
          ],
          [
            12.895819,
            57.74884
          ],
          [
            12.896116,
            57.749057
          ],
          [
            12.896509,
            57.749257
          ],
          [
            12.897002,
            57.749265
          ],
          [
            12.897385,
            57.74939
          ],
          [
            12.898302,
            57.749818
          ],
          [
            12.898697,
            57.749951
          ],
          [
            12.898893,
            57.750167
          ],
          [
            12.899205,
            57.750723
          ],
          [
            12.899669,
            57.751033
          ],
          [
            12.900014,
            57.751139
          ],
          [
            12.900352,
            57.751336
          ],
          [
            12.900251,
            57.7515
          ],
          [
            12.900292,
            57.751753
          ],
          [
            12.900021,
            57.752038
          ],
          [
            12.900494,
            57.752283
          ],
          [
            12.901552,
            57.752644
          ],
          [
            12.901773,
            57.752902
          ],
          [
            12.902172,
            57.752727
          ],
          [
            12.902472,
            57.752417
          ],
          [
            12.902997,
            57.751908
          ],
          [
            12.903074,
            57.751161
          ],
          [
            12.903417,
            57.750751
          ],
          [
            12.903446,
            57.75022
          ],
          [
            12.903432,
            57.750117
          ],
          [
            12.903783,
            57.749985
          ],
          [
            12.904035,
            57.749961
          ],
          [
            12.904262,
            57.750356
          ],
          [
            12.904415,
            57.750501
          ],
          [
            12.904704,
            57.750494
          ],
          [
            12.904926,
            57.750516
          ],
          [
            12.905764,
            57.750416
          ],
          [
            12.905926,
            57.750364
          ],
          [
            12.905994,
            57.750302
          ],
          [
            12.906768,
            57.750403
          ],
          [
            12.907351,
            57.750059
          ],
          [
            12.907524,
            57.74963
          ],
          [
            12.907764,
            57.749417
          ],
          [
            12.907959,
            57.749063
          ],
          [
            12.908064,
            57.748945
          ],
          [
            12.907991,
            57.748557
          ],
          [
            12.907932,
            57.74845
          ],
          [
            12.908237,
            57.748087
          ],
          [
            12.908479,
            57.747774
          ],
          [
            12.908487,
            57.747482
          ],
          [
            12.908433,
            57.747334
          ],
          [
            12.908582,
            57.74697
          ],
          [
            12.908432,
            57.746935
          ],
          [
            12.908221,
            57.746753
          ],
          [
            12.907861,
            57.746702
          ],
          [
            12.90781,
            57.74649
          ],
          [
            12.907844,
            57.746399
          ],
          [
            12.908295,
            57.746289
          ],
          [
            12.908956,
            57.74592
          ],
          [
            12.909232,
            57.745768
          ],
          [
            12.90936,
            57.74554
          ],
          [
            12.909056,
            57.745195
          ],
          [
            12.909152,
            57.744975
          ],
          [
            12.909591,
            57.744601
          ],
          [
            12.909781,
            57.744448
          ],
          [
            12.909957,
            57.744275
          ],
          [
            12.910047,
            57.743929
          ],
          [
            12.911105,
            57.743321
          ],
          [
            12.91129,
            57.743086
          ],
          [
            12.91119,
            57.742948
          ],
          [
            12.910214,
            57.742539
          ],
          [
            12.909516,
            57.742275
          ],
          [
            12.910037,
            57.741874
          ],
          [
            12.910457,
            57.742075
          ],
          [
            12.910618,
            57.742151
          ],
          [
            12.911159,
            57.742169
          ],
          [
            12.911412,
            57.742235
          ],
          [
            12.912239,
            57.742566
          ],
          [
            12.913325,
            57.743063
          ],
          [
            12.913721,
            57.743242
          ],
          [
            12.914217,
            57.743711
          ],
          [
            12.915165,
            57.744258
          ],
          [
            12.916548,
            57.744259
          ],
          [
            12.917162,
            57.744222
          ],
          [
            12.91802,
            57.744215
          ],
          [
            12.918357,
            57.744217
          ],
          [
            12.918497,
            57.744355
          ],
          [
            12.918717,
            57.744437
          ],
          [
            12.91889,
            57.744589
          ],
          [
            12.919167,
            57.744811
          ],
          [
            12.919333,
            57.745043
          ],
          [
            12.919462,
            57.745237
          ],
          [
            12.919673,
            57.745424
          ],
          [
            12.919843,
            57.745565
          ],
          [
            12.919868,
            57.745703
          ],
          [
            12.919829,
            57.745882
          ],
          [
            12.91979,
            57.746235
          ],
          [
            12.919666,
            57.746663
          ],
          [
            12.919696,
            57.746724
          ],
          [
            12.919824,
            57.746743
          ],
          [
            12.920016,
            57.746777
          ],
          [
            12.920199,
            57.746804
          ],
          [
            12.920277,
            57.746806
          ]
        ]
      }
    }
  ]
}
