{
  "type": "FeatureCollection",
  "features": [
    {
      "type": "Feature",
      "properties": {
        "trailId": "nordkalottleden",
        "sectionId": "nordkalottleden-full-20-vuomahytta-gaskashytta",
        "source": "E1 Hiking Europe GPX",
        "e1Stage": "03.07 Vuomahytta - Gaskashytta",
        "sourceUrl": "https://e1.hiking-europe.eu/gpx/no-sf-s/no-sf-s-03-07-vuomahytta-gaskashytta.gpx",
        "sourceFormat": "gpx",
        "segment": 1
      },
      "geometry": {
        "type": "LineString",
        "coordinates": [
          [
            19.486888,
            68.672336
          ],
          [
            19.48638,
            68.672241
          ],
          [
            19.485806,
            68.672264
          ],
          [
            19.485579,
            68.672273
          ],
          [
            19.485117,
            68.672227
          ],
          [
            19.484781,
            68.672223
          ],
          [
            19.484497,
            68.672233
          ],
          [
            19.483647,
            68.67219
          ],
          [
            19.48183,
            68.67224
          ],
          [
            19.478351,
            68.672271
          ],
          [
            19.475779,
            68.672505
          ],
          [
            19.472431,
            68.67274
          ],
          [
            19.469728,
            68.672833
          ],
          [
            19.466595,
            68.672942
          ],
          [
            19.465951,
            68.673067
          ],
          [
            19.464749,
            68.673114
          ],
          [
            19.460715,
            68.67263
          ],
          [
            19.458484,
            68.672318
          ],
          [
            19.457282,
            68.672209
          ],
          [
            19.45578,
            68.672178
          ],
          [
            19.452475,
            68.672068
          ],
          [
            19.451531,
            68.672178
          ],
          [
            19.450416,
            68.672037
          ],
          [
            19.447669,
            68.672131
          ],
          [
            19.446081,
            68.672224
          ],
          [
            19.443249,
            68.672115
          ],
          [
            19.440159,
            68.671694
          ],
          [
            19.434837,
            68.671023
          ],
          [
            19.429473,
            68.670383
          ],
          [
            19.427799,
            68.670367
          ],
          [
            19.424795,
            68.670445
          ],
          [
            19.423422,
            68.670289
          ],
          [
            19.422306,
            68.670055
          ],
          [
            19.420761,
            68.669821
          ],
          [
            19.415997,
            68.669056
          ],
          [
            19.414882,
            68.668853
          ],
          [
            19.412822,
            68.668837
          ],
          [
            19.410333,
            68.669009
          ],
          [
            19.405648,
            68.669417
          ],
          [
            19.40102,
            68.669836
          ],
          [
            19.399132,
            68.670086
          ],
          [
            19.397587,
            68.67032
          ],
          [
            19.393724,
            68.670601
          ],
          [
            19.390978,
            68.67071
          ],
          [
            19.385871,
            68.670898
          ],
          [
            19.383811,
            68.670976
          ],
          [
            19.381665,
            68.671241
          ],
          [
            19.37909,
            68.671553
          ],
          [
            19.376515,
            68.671662
          ],
          [
            19.374627,
            68.671834
          ],
          [
            19.371666,
            68.672037
          ],
          [
            19.369263,
            68.672443
          ],
          [
            19.367117,
            68.672615
          ],
          [
            19.365443,
            68.672599
          ],
          [
            19.3648,
            68.672817
          ],
          [
            19.360723,
            68.673348
          ],
          [
            19.359478,
            68.67352
          ],
          [
            19.357976,
            68.673926
          ],
          [
            19.356774,
            68.674129
          ],
          [
            19.355973,
            68.674271
          ],
          [
            19.354757,
            68.674347
          ],
          [
            19.352397,
            68.67469
          ],
          [
            19.349393,
            68.675065
          ],
          [
            19.347118,
            68.675315
          ],
          [
            19.343428,
            68.675549
          ],
          [
            19.34214,
            68.675596
          ],
          [
            19.341153,
            68.675564
          ],
          [
            19.339053,
            68.675617
          ],
          [
            19.335789,
            68.675767
          ],
          [
            19.335274,
            68.675752
          ],
          [
            19.334072,
            68.675658
          ],
          [
            19.332656,
            68.675674
          ],
          [
            19.331411,
            68.675783
          ],
          [
            19.330424,
            68.67597
          ],
          [
            19.324931,
            68.676173
          ],
          [
            19.323749,
            68.676294
          ],
          [
            19.322632,
            68.676377
          ],
          [
            19.321734,
            68.676477
          ],
          [
            19.320142,
            68.676654
          ],
          [
            19.318425,
            68.676709
          ],
          [
            19.316691,
            68.676828
          ],
          [
            19.313816,
            68.676797
          ],
          [
            19.312829,
            68.676875
          ],
          [
            19.308347,
            68.67677
          ],
          [
            19.306309,
            68.676776
          ],
          [
            19.304461,
            68.676813
          ],
          [
            19.301113,
            68.676985
          ],
          [
            19.297036,
            68.677406
          ],
          [
            19.293217,
            68.677921
          ],
          [
            19.28635,
            68.678732
          ],
          [
            19.284934,
            68.678935
          ],
          [
            19.281372,
            68.679434
          ],
          [
            19.274591,
            68.679996
          ],
          [
            19.267897,
            68.680402
          ],
          [
            19.262919,
            68.680729
          ],
          [
            19.258713,
            68.681042
          ],
          [
            19.245971,
            68.681781
          ],
          [
            19.233311,
            68.682466
          ],
          [
            19.23129,
            68.682602
          ],
          [
            19.229874,
            68.682804
          ],
          [
            19.226355,
            68.683116
          ],
          [
            19.224979,
            68.683319
          ],
          [
            19.22305,
            68.683335
          ],
          [
            19.218887,
            68.683678
          ],
          [
            19.213092,
            68.684177
          ],
          [
            19.208759,
            68.684521
          ],
          [
            19.205755,
            68.684599
          ],
          [
            19.201206,
            68.684895
          ],
          [
            19.197129,
            68.684848
          ],
          [
            19.193009,
            68.684817
          ],
          [
            19.189233,
            68.684396
          ],
          [
            19.180778,
            68.683397
          ],
          [
            19.178161,
            68.68296
          ],
          [
            19.174985,
            68.682851
          ],
          [
            19.172067,
            68.682477
          ],
          [
            19.16932,
            68.682258
          ],
          [
            19.167217,
            68.682165
          ],
          [
            19.1652,
            68.682243
          ],
          [
            19.163784,
            68.682305
          ],
          [
            19.161853,
            68.682071
          ],
          [
            19.160909,
            68.681962
          ],
          [
            19.159407,
            68.681868
          ],
          [
            19.158291,
            68.681541
          ],
          [
            19.157218,
            68.680776
          ],
          [
            19.156102,
            68.68009
          ],
          [
            19.155458,
            68.6792
          ],
          [
            19.155242,
            68.678498
          ],
          [
            19.155115,
            68.67817
          ],
          [
            19.154429,
            68.677952
          ],
          [
            19.152969,
            68.676766
          ],
          [
            19.150652,
            68.675174
          ],
          [
            19.14988,
            68.674784
          ],
          [
            19.149622,
            68.674144
          ],
          [
            19.148807,
            68.673645
          ],
          [
            19.147903,
            68.67263
          ],
          [
            19.146146,
            68.671772
          ],
          [
            19.144515,
            68.670835
          ],
          [
            19.144,
            68.670164
          ],
          [
            19.143571,
            68.669321
          ],
          [
            19.142369,
            68.668822
          ],
          [
            19.141382,
            68.668166
          ],
          [
            19.140309,
            68.667635
          ],
          [
            19.139451,
            68.667245
          ],
          [
            19.138721,
            68.666808
          ],
          [
            19.138249,
            68.66673
          ],
          [
            19.137048,
            68.666745
          ],
          [
            19.136513,
            68.666887
          ],
          [
            19.136018,
            68.66662
          ],
          [
            19.135117,
            68.666277
          ],
          [
            19.134586,
            68.666005
          ],
          [
            19.133786,
            68.665824
          ],
          [
            19.132284,
            68.665605
          ],
          [
            19.130997,
            68.665449
          ],
          [
            19.129795,
            68.664918
          ],
          [
            19.128851,
            68.664559
          ],
          [
            19.12855,
            68.664403
          ],
          [
            19.127177,
            68.664169
          ],
          [
            19.126963,
            68.66395
          ],
          [
            19.126834,
            68.663779
          ],
          [
            19.126448,
            68.66356
          ],
          [
            19.125847,
            68.663248
          ],
          [
            19.124901,
            68.662982
          ],
          [
            19.124516,
            68.662842
          ],
          [
            19.12383,
            68.662764
          ],
          [
            19.122156,
            68.66203
          ],
          [
            19.121105,
            68.661679
          ],
          [
            19.120611,
            68.661343
          ],
          [
            19.119674,
            68.661101
          ],
          [
            19.119367,
            68.660796
          ],
          [
            19.119667,
            68.660078
          ],
          [
            19.120182,
            68.659953
          ],
          [
            19.120783,
            68.659719
          ],
          [
            19.120568,
            68.659125
          ],
          [
            19.12037,
            68.658959
          ]
        ]
      }
    }
  ]
}
