{
  "type": "FeatureCollection",
  "features": [
    {
      "type": "Feature",
      "properties": {
        "trailId": "nordkalottleden",
        "sectionId": "nordkalottleden-full-35-roysvatn-njallajavrre",
        "sectionOrder": 35,
        "source": "E1 GPX split at 50%",
        "splitPolicy": "Røysvatn-Vaisaluokta E1 stage split into two runtime planning sections pending official section geometry.",
        "segment": 1
      },
      "geometry": {
        "type": "LineString",
        "coordinates": [
          [
            16.835708,
            67.959948
          ],
          [
            16.836548,
            67.959484
          ],
          [
            16.837914,
            67.95891
          ],
          [
            16.838891,
            67.958335
          ],
          [
            16.840045,
            67.957372
          ],
          [
            16.840898,
            67.956853
          ],
          [
            16.841363,
            67.956771
          ],
          [
            16.84092,
            67.956464
          ],
          [
            16.841583,
            67.95599
          ],
          [
            16.84166,
            67.955515
          ],
          [
            16.842384,
            67.955427
          ],
          [
            16.842745,
            67.955166
          ],
          [
            16.843249,
            67.954938
          ],
          [
            16.842939,
            67.95469
          ],
          [
            16.84321,
            67.953739
          ],
          [
            16.843857,
            67.953483
          ],
          [
            16.844967,
            67.953245
          ],
          [
            16.847045,
            67.951256
          ],
          [
            16.848258,
            67.950184
          ],
          [
            16.847496,
            67.948791
          ],
          [
            16.852469,
            67.946001
          ],
          [
            16.852989,
            67.944457
          ],
          [
            16.853714,
            67.941731
          ],
          [
            16.860409,
            67.937572
          ],
          [
            16.861181,
            67.935863
          ],
          [
            16.858285,
            67.933827
          ],
          [
            16.81423,
            67.92024
          ],
          [
            16.806265,
            67.921372
          ],
          [
            16.804176,
            67.921512
          ],
          [
            16.80273,
            67.9212
          ],
          [
            16.802689,
            67.920569
          ],
          [
            16.804129,
            67.919976
          ],
          [
            16.811002,
            67.917915
          ],
          [
            16.769113,
            67.888658
          ],
          [
            16.769733,
            67.880769
          ],
          [
            16.76239,
            67.87645
          ],
          [
            16.751542,
            67.874286
          ],
          [
            16.747179,
            67.87214
          ],
          [
            16.745272,
            67.866536
          ],
          [
            16.74934,
            67.86131
          ],
          [
            16.74093,
            67.84248
          ],
          [
            16.76994,
            67.80698
          ],
          [
            16.752057,
            67.810972
          ],
          [
            16.747093,
            67.810697
          ],
          [
            16.737471,
            67.808506
          ],
          [
            16.723108,
            67.806167
          ],
          [
            16.717491,
            67.807773
          ],
          [
            16.70643,
            67.80808
          ],
          [
            16.710782,
            67.80598
          ],
          [
            16.717934,
            67.805243
          ],
          [
            16.72737,
            67.80198
          ],
          [
            16.758627,
            67.79962
          ]
        ]
      }
    }
  ]
}
