{
  "type": "FeatureCollection",
  "features": [
    {
      "type": "Feature",
      "properties": {
        "trailId": "nordkalottleden",
        "sectionId": "nordkalottleden-full-44-sorjushytta-ny-sulitjelma",
        "source": "E1 Hiking Europe GPX",
        "e1Stage": "04.18 Sorjushytta - Ny-Sulitjelma fjellstue",
        "sourceUrl": "https://e1.hiking-europe.eu/gpx/no-sf-s/no-sf-s-04-18-sorjushytta-ny-sulitjelma-fjellstue.gpx",
        "sourceFormat": "gpx",
        "segment": 1
      },
      "geometry": {
        "type": "LineString",
        "coordinates": [
          [
            16.256163,
            67.20669
          ],
          [
            16.256313,
            67.206507
          ],
          [
            16.256678,
            67.206241
          ],
          [
            16.256957,
            67.20605
          ],
          [
            16.256893,
            67.20556
          ],
          [
            16.256592,
            67.205244
          ],
          [
            16.256142,
            67.205069
          ],
          [
            16.255562,
            67.204994
          ],
          [
            16.255133,
            67.205011
          ],
          [
            16.254232,
            67.205119
          ],
          [
            16.253374,
            67.205294
          ],
          [
            16.252902,
            67.205393
          ],
          [
            16.252644,
            67.205202
          ],
          [
            16.251786,
            67.205144
          ],
          [
            16.251249,
            67.205061
          ],
          [
            16.251013,
            67.204986
          ],
          [
            16.25052,
            67.204795
          ],
          [
            16.24964,
            67.204521
          ],
          [
            16.248932,
            67.204279
          ],
          [
            16.248953,
            67.204188
          ],
          [
            16.249104,
            67.204047
          ],
          [
            16.249447,
            67.203939
          ],
          [
            16.249576,
            67.203739
          ],
          [
            16.249683,
            67.203564
          ],
          [
            16.24994,
            67.203515
          ],
          [
            16.249919,
            67.203415
          ],
          [
            16.249833,
            67.203199
          ],
          [
            16.249082,
            67.202841
          ],
          [
            16.248267,
            67.202417
          ],
          [
            16.24728,
            67.201952
          ],
          [
            16.244833,
            67.200929
          ],
          [
            16.243739,
            67.200555
          ],
          [
            16.240284,
            67.199299
          ],
          [
            16.239834,
            67.199183
          ],
          [
            16.239405,
            67.199199
          ],
          [
            16.238074,
            67.198975
          ],
          [
            16.236529,
            67.198542
          ],
          [
            16.234727,
            67.197969
          ],
          [
            16.233139,
            67.197636
          ],
          [
            16.232603,
            67.197536
          ],
          [
            16.231787,
            67.19732
          ],
          [
            16.231144,
            67.197079
          ],
          [
            16.230285,
            67.196771
          ],
          [
            16.22962,
            67.196413
          ],
          [
            16.229641,
            67.196172
          ],
          [
            16.229363,
            67.195815
          ],
          [
            16.228354,
            67.195291
          ],
          [
            16.227753,
            67.194883
          ],
          [
            16.226401,
            67.193985
          ],
          [
            16.22535,
            67.193328
          ],
          [
            16.224492,
            67.193095
          ],
          [
            16.224298,
            67.192862
          ],
          [
            16.223741,
            67.192638
          ],
          [
            16.223526,
            67.192413
          ],
          [
            16.223054,
            67.192238
          ],
          [
            16.22226,
            67.191955
          ],
          [
            16.221895,
            67.191706
          ],
          [
            16.221638,
            67.191307
          ],
          [
            16.22108,
            67.190516
          ],
          [
            16.220629,
            67.189726
          ],
          [
            16.22005,
            67.188986
          ],
          [
            16.219707,
            67.188337
          ],
          [
            16.218891,
            67.187771
          ],
          [
            16.218119,
            67.187438
          ],
          [
            16.21711,
            67.186931
          ],
          [
            16.216466,
            67.186324
          ],
          [
            16.215823,
            67.185933
          ],
          [
            16.213634,
            67.185042
          ],
          [
            16.212883,
            67.184793
          ],
          [
            16.211724,
            67.184285
          ],
          [
            16.210887,
            67.183836
          ],
          [
            16.210265,
            67.183361
          ],
          [
            16.210158,
            67.18302
          ],
          [
            16.210126,
            67.182879
          ],
          [
            16.209471,
            67.182479
          ],
          [
            16.208742,
            67.182205
          ],
          [
            16.207883,
            67.181722
          ],
          [
            16.206982,
            67.181264
          ],
          [
            16.205974,
            67.180857
          ],
          [
            16.204729,
            67.180099
          ],
          [
            16.204514,
            67.179717
          ],
          [
            16.204321,
            67.179067
          ],
          [
            16.204085,
            67.178759
          ],
          [
            16.203721,
            67.178368
          ],
          [
            16.203828,
            67.177794
          ],
          [
            16.203377,
            67.177403
          ],
          [
            16.202841,
            67.177161
          ],
          [
            16.20209,
            67.176978
          ],
          [
            16.20136,
            67.176912
          ],
          [
            16.201403,
            67.176762
          ],
          [
            16.201596,
            67.176637
          ],
          [
            16.201618,
            67.176304
          ],
          [
            16.201661,
            67.17578
          ],
          [
            16.202261,
            67.174748
          ],
          [
            16.202455,
            67.17439
          ],
          [
            16.202798,
            67.174157
          ],
          [
            16.204085,
            67.173449
          ],
          [
            16.204514,
            67.173083
          ],
          [
            16.204772,
            67.172891
          ],
          [
            16.204557,
            67.1728
          ],
          [
            16.204536,
            67.172625
          ],
          [
            16.205051,
            67.172425
          ],
          [
            16.205866,
            67.171967
          ],
          [
            16.206338,
            67.171809
          ],
          [
            16.206982,
            67.17141
          ],
          [
            16.207669,
            67.171027
          ],
          [
            16.208012,
            67.170602
          ],
          [
            16.207862,
            67.170294
          ],
          [
            16.208055,
            67.169861
          ],
          [
            16.207926,
            67.169611
          ],
          [
            16.208162,
            67.169453
          ],
          [
            16.208077,
            67.169153
          ],
          [
            16.20857,
            67.168945
          ],
          [
            16.208548,
            67.168712
          ],
          [
            16.209063,
            67.168387
          ],
          [
            16.209536,
            67.167796
          ],
          [
            16.209514,
            67.167496
          ],
          [
            16.209621,
            67.167005
          ],
          [
            16.210115,
            67.166789
          ],
          [
            16.210523,
            67.166123
          ],
          [
            16.21048,
            67.165731
          ],
          [
            16.210394,
            67.164765
          ],
          [
            16.209557,
            67.164149
          ],
          [
            16.208677,
            67.163
          ],
          [
            16.208033,
            67.162725
          ],
          [
            16.206982,
            67.161975
          ],
          [
            16.205459,
            67.161168
          ],
          [
            16.204858,
            67.160718
          ],
          [
            16.203206,
            67.15976
          ],
          [
            16.201704,
            67.158086
          ],
          [
            16.201575,
            67.157644
          ],
          [
            16.202369,
            67.157086
          ],
          [
            16.20357,
            67.156686
          ],
          [
            16.203914,
            67.156403
          ],
          [
            16.203356,
            67.156178
          ],
          [
            16.202583,
            67.156103
          ],
          [
            16.201725,
            67.156045
          ],
          [
            16.200352,
            67.155553
          ],
          [
            16.199944,
            67.155187
          ],
          [
            16.199408,
            67.154954
          ],
          [
            16.198335,
            67.154279
          ],
          [
            16.197991,
            67.153946
          ],
          [
            16.194387,
            67.153013
          ],
          [
            16.193035,
            67.152738
          ],
          [
            16.192412,
            67.152471
          ],
          [
            16.191919,
            67.15188
          ],
          [
            16.191146,
            67.151238
          ],
          [
            16.190589,
            67.150963
          ],
          [
            16.189966,
            67.150621
          ],
          [
            16.189408,
            67.150205
          ],
          [
            16.188872,
            67.149888
          ],
          [
            16.188443,
            67.149472
          ],
          [
            16.187134,
            67.14883
          ],
          [
            16.186619,
            67.148696
          ],
          [
            16.186235,
            67.148533
          ],
          [
            16.185398,
            67.148374
          ],
          [
            16.185047,
            67.14824
          ],
          [
            16.184562,
            67.148113
          ],
          [
            16.183652,
            67.14799
          ],
          [
            16.181695,
            67.14767
          ],
          [
            16.181424,
            67.1476
          ],
          [
            16.180487,
            67.147439
          ],
          [
            16.17898,
            67.147213
          ],
          [
            16.17809,
            67.147051
          ],
          [
            16.177666,
            67.146991
          ],
          [
            16.17677,
            67.146813
          ],
          [
            16.175922,
            67.146661
          ],
          [
            16.174388,
            67.146378
          ],
          [
            16.17383,
            67.146319
          ],
          [
            16.173565,
            67.146314
          ],
          [
            16.17265,
            67.146188
          ],
          [
            16.171934,
            67.146123
          ],
          [
            16.171229,
            67.146087
          ],
          [
            16.169861,
            67.145985
          ],
          [
            16.169726,
            67.145997
          ],
          [
            16.169238,
            67.145938
          ],
          [
            16.167972,
            67.14583
          ],
          [
            16.166551,
            67.145866
          ],
          [
            16.165204,
            67.14583
          ],
          [
            16.164716,
            67.145679
          ],
          [
            16.163702,
            67.145447
          ],
          [
            16.162071,
            67.145296
          ],
          [
            16.159046,
            67.145463
          ],
          [
            16.1572,
            67.145655
          ],
          [
            16.156299,
            67.145705
          ],
          [
            16.155269,
            67.145813
          ],
          [
            16.153982,
            67.145847
          ],
          [
            16.153402,
            67.145721
          ],
          [
            16.152651,
            67.145596
          ],
          [
            16.151986,
            67.145363
          ],
          [
            16.150978,
            67.145055
          ],
          [
            16.15042,
            67.144971
          ],
          [
            16.150377,
            67.144813
          ],
          [
            16.149862,
            67.144705
          ],
          [
            16.148617,
            67.144305
          ],
          [
            16.14821,
            67.144055
          ],
          [
            16.146922,
            67.14353
          ],
          [
            16.146514,
            67.143154
          ],
          [
            16.146214,
            67.143105
          ],
          [
            16.145012,
            67.142546
          ],
          [
            16.14439,
            67.142413
          ],
          [
            16.144068,
            67.142238
          ],
          [
            16.143639,
            67.142163
          ],
          [
            16.142652,
            67.141896
          ],
          [
            16.141922,
            67.141771
          ],
          [
            16.141193,
            67.141496
          ],
          [
            16.140742,
            67.141387
          ],
          [
            16.140249,
            67.140987
          ],
          [
            16.139455,
            67.140729
          ],
          [
            16.138081,
            67.140529
          ],
          [
            16.137416,
            67.140337
          ]
        ]
      }
    }
  ]
}
