{
  "type": "FeatureCollection",
  "features": [
    {
      "type": "Feature",
      "properties": {
        "trailId": "nordkalottleden",
        "sectionId": "nordkalottleden-full-29-duolbanjunni-hukejaure",
        "sectionOrder": 29,
        "sourceUrl": "https://www.naturkartan.se/sv/norrbottens-lan/vandringsled-bd39-fran-touolpanjunnje-till-hukejaure.gpx",
        "sourceFormat": "gpx",
        "segment": 1
      },
      "geometry": {
        "type": "LineString",
        "coordinates": [
          [
            17.970674,
            67.931617
          ],
          [
            17.970722,
            67.931695
          ],
          [
            17.977591,
            67.933816
          ],
          [
            17.980911,
            67.934663
          ],
          [
            17.982268,
            67.934929
          ],
          [
            17.98408,
            67.935287
          ],
          [
            17.985734,
            67.935663
          ],
          [
            17.98654,
            67.935967
          ],
          [
            17.987424,
            67.936348
          ],
          [
            17.988487,
            67.936859
          ],
          [
            17.989972,
            67.937564
          ],
          [
            17.9905,
            67.938088
          ],
          [
            17.99123,
            67.938222
          ],
          [
            17.99195,
            67.938243
          ],
          [
            17.99233,
            67.938178
          ],
          [
            17.992449,
            67.938219
          ],
          [
            17.992393,
            67.938343
          ],
          [
            17.992408,
            67.938499
          ],
          [
            17.992569,
            67.938645
          ],
          [
            17.992858,
            67.9387
          ],
          [
            17.993005,
            67.938845
          ],
          [
            17.993089,
            67.939015
          ],
          [
            17.993496,
            67.939048
          ],
          [
            17.993793,
            67.939112
          ],
          [
            17.994265,
            67.93908
          ],
          [
            17.994703,
            67.93915
          ],
          [
            17.994956,
            67.939233
          ],
          [
            17.995221,
            67.939356
          ],
          [
            17.99546,
            67.939493
          ],
          [
            17.995724,
            67.93963
          ],
          [
            17.996181,
            67.939684
          ],
          [
            17.996743,
            67.939722
          ],
          [
            17.997379,
            67.939853
          ],
          [
            17.99798,
            67.940036
          ],
          [
            17.998322,
            67.940511
          ],
          [
            17.998036,
            67.940807
          ],
          [
            17.99808,
            67.941073
          ],
          [
            17.998346,
            67.941444
          ],
          [
            17.998862,
            67.941568
          ],
          [
            17.999613,
            67.94171
          ],
          [
            18.000436,
            67.941777
          ],
          [
            18.001539,
            67.941923
          ],
          [
            18.002761,
            67.94206
          ],
          [
            18.003408,
            67.942161
          ],
          [
            18.003659,
            67.942286
          ],
          [
            18.005263,
            67.942535
          ],
          [
            18.005719,
            67.942724
          ],
          [
            18.005751,
            67.943088
          ],
          [
            18.006136,
            67.943378
          ],
          [
            18.006555,
            67.943592
          ],
          [
            18.007158,
            67.943794
          ],
          [
            18.007269,
            67.943703
          ],
          [
            18.007475,
            67.943698
          ],
          [
            18.007741,
            67.943704
          ],
          [
            18.007963,
            67.943659
          ],
          [
            18.008224,
            67.943681
          ],
          [
            18.008526,
            67.943712
          ],
          [
            18.008804,
            67.943696
          ],
          [
            18.009037,
            67.94377
          ],
          [
            18.009287,
            67.943892
          ],
          [
            18.009815,
            67.944075
          ],
          [
            18.010188,
            67.94423
          ],
          [
            18.01053,
            67.94434
          ],
          [
            18.011235,
            67.944491
          ],
          [
            18.011838,
            67.944686
          ],
          [
            18.012381,
            67.944811
          ],
          [
            18.01273,
            67.944774
          ],
          [
            18.013138,
            67.944659
          ],
          [
            18.013594,
            67.944548
          ],
          [
            18.013832,
            67.944468
          ],
          [
            18.014163,
            67.944446
          ],
          [
            18.01465,
            67.944467
          ],
          [
            18.015078,
            67.944649
          ],
          [
            18.015359,
            67.944738
          ],
          [
            18.015719,
            67.944756
          ],
          [
            18.016349,
            67.94473
          ],
          [
            18.016763,
            67.94476
          ],
          [
            18.017309,
            67.944763
          ],
          [
            18.017917,
            67.944733
          ],
          [
            18.018358,
            67.944757
          ],
          [
            18.018924,
            67.94469
          ],
          [
            18.019454,
            67.944598
          ],
          [
            18.019812,
            67.944586
          ],
          [
            18.020257,
            67.944585
          ],
          [
            18.020961,
            67.944434
          ],
          [
            18.021364,
            67.944404
          ],
          [
            18.02187,
            67.944487
          ],
          [
            18.02252,
            67.944476
          ],
          [
            18.023112,
            67.944476
          ],
          [
            18.023857,
            67.944554
          ],
          [
            18.025007,
            67.944699
          ],
          [
            18.025523,
            67.944747
          ],
          [
            18.025885,
            67.944713
          ],
          [
            18.026596,
            67.944706
          ],
          [
            18.02746,
            67.944702
          ],
          [
            18.028637,
            67.94471
          ],
          [
            18.029387,
            67.94463
          ],
          [
            18.030222,
            67.944457
          ],
          [
            18.031104,
            67.944363
          ],
          [
            18.0322,
            67.944211
          ],
          [
            18.033148,
            67.944177
          ],
          [
            18.033944,
            67.944021
          ],
          [
            18.034759,
            67.943841
          ],
          [
            18.03547,
            67.943839
          ],
          [
            18.035878,
            67.943867
          ],
          [
            18.036158,
            67.943948
          ],
          [
            18.036442,
            67.943999
          ],
          [
            18.03676,
            67.944065
          ],
          [
            18.037226,
            67.944141
          ],
          [
            18.037651,
            67.944138
          ],
          [
            18.038547,
            67.944094
          ],
          [
            18.038958,
            67.944074
          ],
          [
            18.039368,
            67.944054
          ],
          [
            18.040323,
            67.943944
          ],
          [
            18.041076,
            67.943896
          ],
          [
            18.041815,
            67.943837
          ],
          [
            18.042183,
            67.943784
          ],
          [
            18.042947,
            67.943637
          ],
          [
            18.043617,
            67.943404
          ],
          [
            18.04406,
            67.943166
          ],
          [
            18.044369,
            67.942982
          ],
          [
            18.044714,
            67.942688
          ],
          [
            18.045238,
            67.941951
          ],
          [
            18.045911,
            67.941465
          ],
          [
            18.046453,
            67.940861
          ],
          [
            18.046626,
            67.940649
          ],
          [
            18.04692,
            67.940516
          ],
          [
            18.047361,
            67.940403
          ],
          [
            18.047938,
            67.94031
          ],
          [
            18.048985,
            67.940064
          ],
          [
            18.04999,
            67.939791
          ],
          [
            18.050392,
            67.939754
          ],
          [
            18.050847,
            67.939793
          ],
          [
            18.051489,
            67.940019
          ],
          [
            18.051835,
            67.940093
          ],
          [
            18.052077,
            67.940113
          ],
          [
            18.052324,
            67.940022
          ],
          [
            18.05262,
            67.939951
          ],
          [
            18.052879,
            67.939946
          ],
          [
            18.053087,
            67.939935
          ],
          [
            18.05337,
            67.939795
          ],
          [
            18.054696,
            67.939087
          ],
          [
            18.055417,
            67.938781
          ],
          [
            18.055476,
            67.938674
          ],
          [
            18.055683,
            67.93855
          ],
          [
            18.055785,
            67.938418
          ],
          [
            18.055868,
            67.938298
          ],
          [
            18.055825,
            67.938131
          ],
          [
            18.055956,
            67.937993
          ],
          [
            18.055942,
            67.937873
          ],
          [
            18.056117,
            67.93776
          ],
          [
            18.056272,
            67.937693
          ],
          [
            18.056464,
            67.937532
          ],
          [
            18.056811,
            67.937331
          ],
          [
            18.057217,
            67.937123
          ],
          [
            18.057693,
            67.936955
          ],
          [
            18.058028,
            67.936767
          ],
          [
            18.058301,
            67.936609
          ],
          [
            18.058566,
            67.936494
          ],
          [
            18.058812,
            67.936223
          ],
          [
            18.059064,
            67.935968
          ],
          [
            18.059371,
            67.935812
          ],
          [
            18.059836,
            67.935666
          ],
          [
            18.060466,
            67.935428
          ],
          [
            18.060734,
            67.935333
          ],
          [
            18.061485,
            67.935125
          ],
          [
            18.062466,
            67.935024
          ],
          [
            18.062989,
            67.93493
          ],
          [
            18.063602,
            67.934808
          ],
          [
            18.064548,
            67.934532
          ],
          [
            18.064816,
            67.934462
          ],
          [
            18.0665,
            67.934237
          ],
          [
            18.068513,
            67.933778
          ],
          [
            18.069962,
            67.933124
          ],
          [
            18.070976,
            67.93262
          ],
          [
            18.071929,
            67.932444
          ],
          [
            18.072894,
            67.932349
          ],
          [
            18.073221,
            67.932106
          ],
          [
            18.07389,
            67.931719
          ],
          [
            18.074665,
            67.931512
          ],
          [
            18.075708,
            67.931214
          ],
          [
            18.076871,
            67.931191
          ],
          [
            18.077912,
            67.930968
          ],
          [
            18.078478,
            67.930614
          ],
          [
            18.079371,
            67.930203
          ],
          [
            18.08039,
            67.930043
          ],
          [
            18.081994,
            67.929963
          ],
          [
            18.085197,
            67.929751
          ],
          [
            18.085516,
            67.929619
          ],
          [
            18.085727,
            67.92943
          ],
          [
            18.086124,
            67.929156
          ],
          [
            18.08636,
            67.929136
          ],
          [
            18.086982,
            67.929086
          ],
          [
            18.08774,
            67.929002
          ],
          [
            18.088155,
            67.928858
          ],
          [
            18.088865,
            67.928667
          ],
          [
            18.089391,
            67.9285
          ],
          [
            18.089944,
            67.928314
          ],
          [
            18.090287,
            67.92814
          ],
          [
            18.090459,
            67.927938
          ],
          [
            18.090464,
            67.927827
          ],
          [
            18.090659,
            67.927603
          ],
          [
            18.09103,
            67.9271
          ],
          [
            18.09257,
            67.926721
          ],
          [
            18.093593,
            67.926377
          ],
          [
            18.095069,
            67.925732
          ],
          [
            18.09624,
            67.9253
          ],
          [
            18.097561,
            67.924699
          ],
          [
            18.098737,
            67.92402
          ],
          [
            18.09941,
            67.923543
          ],
          [
            18.099854,
            67.92299
          ],
          [
            18.100423,
            67.922575
          ],
          [
            18.100673,
            67.922546
          ],
          [
            18.100755,
            67.92252
          ],
          [
            18.101052,
            67.922425
          ],
          [
            18.101544,
            67.9223
          ],
          [
            18.101904,
            67.922271
          ],
          [
            18.102311,
            67.9222
          ],
          [
            18.1027,
            67.92206
          ],
          [
            18.102973,
            67.921896
          ],
          [
            18.103213,
            67.92161
          ],
          [
            18.103407,
            67.921446
          ],
          [
            18.103339,
            67.920754
          ],
          [
            18.103098,
            67.920012
          ],
          [
            18.103023,
            67.919869
          ],
          [
            18.102983,
            67.919546
          ],
          [
            18.102865,
            67.919402
          ],
          [
            18.102931,
            67.918956
          ],
          [
            18.103015,
            67.91866
          ],
          [
            18.103063,
            67.91818
          ],
          [
            18.102987,
            67.918011
          ],
          [
            18.103441,
            67.917753
          ],
          [
            18.104242,
            67.917344
          ],
          [
            18.105877,
            67.916589
          ],
          [
            18.106333,
            67.916474
          ],
          [
            18.110298,
            67.915474
          ],
          [
            18.11298,
            67.914653
          ],
          [
            18.113741,
            67.914432
          ],
          [
            18.114462,
            67.914215
          ],
          [
            18.11515,
            67.914143
          ],
          [
            18.120093,
            67.91376
          ],
          [
            18.129469,
            67.912819
          ],
          [
            18.133976,
            67.912676
          ],
          [
            18.135513,
            67.912271
          ],
          [
            18.137646,
            67.911781
          ],
          [
            18.138116,
            67.911772
          ],
          [
            18.138533,
            67.911716
          ],
          [
            18.141788,
            67.911288
          ],
          [
            18.142781,
            67.910961
          ],
          [
            18.145009,
            67.910594
          ],
          [
            18.145439,
            67.910445
          ],
          [
            18.145755,
            67.910261
          ],
          [
            18.146025,
            67.910171
          ],
          [
            18.146897,
            67.910068
          ],
          [
            18.147986,
            67.909776
          ],
          [
            18.148782,
            67.90969
          ],
          [
            18.149223,
            67.909643
          ],
          [
            18.151466,
            67.909228
          ],
          [
            18.152489,
            67.908851
          ],
          [
            18.153488,
            67.908646
          ],
          [
            18.154686,
            67.908525
          ],
          [
            18.156461,
            67.908494
          ],
          [
            18.158398,
            67.908339
          ],
          [
            18.166102,
            67.907642
          ],
          [
            18.17272,
            67.906677
          ],
          [
            18.177391,
            67.905903
          ],
          [
            18.183109,
            67.906376
          ],
          [
            18.186429,
            67.906948
          ],
          [
            18.191977,
            67.907094
          ],
          [
            18.201341,
            67.906905
          ],
          [
            18.211912,
            67.906798
          ],
          [
            18.215919,
            67.906897
          ],
          [
            18.224347,
            67.90748
          ],
          [
            18.22493,
            67.907536
          ],
          [
            18.225386,
            67.907627
          ],
          [
            18.22612,
            67.907664
          ],
          [
            18.226795,
            67.907705
          ],
          [
            18.227112,
            67.907661
          ],
          [
            18.228452,
            67.907686
          ],
          [
            18.22941,
            67.907874
          ],
          [
            18.2301,
            67.907998
          ],
          [
            18.230899,
            67.908206
          ],
          [
            18.231409,
            67.908257
          ],
          [
            18.231555,
            67.908258
          ],
          [
            18.232405,
            67.908291
          ],
          [
            18.23303,
            67.908356
          ],
          [
            18.233565,
            67.908234
          ],
          [
            18.234649,
            67.908084
          ],
          [
            18.23514,
            67.908014
          ],
          [
            18.235642,
            67.907976
          ],
          [
            18.238678,
            67.907641
          ],
          [
            18.239408,
            67.907638
          ],
          [
            18.239985,
            67.907664
          ],
          [
            18.240924,
            67.907666
          ],
          [
            18.241626,
            67.907803
          ],
          [
            18.24208,
            67.907845
          ],
          [
            18.242514,
            67.907818
          ],
          [
            18.242771,
            67.907802
          ],
          [
            18.243844,
            67.90786
          ],
          [
            18.244488,
            67.907857
          ],
          [
            18.245001,
            67.907901
          ],
          [
            18.245262,
            67.907869
          ],
          [
            18.245841,
            67.907903
          ],
          [
            18.246485,
            67.90794
          ],
          [
            18.246925,
            67.907956
          ],
          [
            18.247128,
            67.907946
          ],
          [
            18.247653,
            67.907986
          ],
          [
            18.247862,
            67.908021
          ],
          [
            18.248002,
            67.908082
          ],
          [
            18.249041,
            67.908178
          ],
          [
            18.249891,
            67.908251
          ],
          [
            18.250481,
            67.908294
          ],
          [
            18.251144,
            67.908334
          ],
          [
            18.251666,
            67.908314
          ],
          [
            18.252163,
            67.908323
          ],
          [
            18.253663,
            67.908367
          ],
          [
            18.254364,
            67.908423
          ],
          [
            18.255183,
            67.90856
          ],
          [
            18.255853,
            67.908687
          ],
          [
            18.256268,
            67.908775
          ],
          [
            18.25656,
            67.908738
          ],
          [
            18.2568,
            67.908751
          ],
          [
            18.257097,
            67.90881
          ],
          [
            18.25783,
            67.908891
          ],
          [
            18.257946,
            67.908904
          ],
          [
            18.257995,
            67.908903
          ],
          [
            18.258665,
            67.908894
          ],
          [
            18.259542,
            67.908944
          ],
          [
            18.259997,
            67.908942
          ],
          [
            18.260648,
            67.90903
          ],
          [
            18.261611,
            67.909059
          ],
          [
            18.261984,
            67.909046
          ],
          [
            18.262308,
            67.909034
          ],
          [
            18.262396,
            67.909051
          ],
          [
            18.262572,
            67.909083
          ],
          [
            18.263251,
            67.909045
          ],
          [
            18.263404,
            67.909033
          ],
          [
            18.263867,
            67.908999
          ],
          [
            18.26428,
            67.90901
          ],
          [
            18.265026,
            67.909025
          ],
          [
            18.265588,
            67.909042
          ],
          [
            18.266606,
            67.909017
          ],
          [
            18.267054,
            67.909037
          ],
          [
            18.267575,
            67.90907
          ],
          [
            18.267946,
            67.909075
          ],
          [
            18.26825,
            67.909033
          ],
          [
            18.26843,
            67.909004
          ],
          [
            18.268759,
            67.908951
          ],
          [
            18.270144,
            67.909002
          ],
          [
            18.270867,
            67.909086
          ],
          [
            18.27177,
            67.90913
          ],
          [
            18.273013,
            67.909359
          ],
          [
            18.273529,
            67.909401
          ],
          [
            18.274327,
            67.909385
          ],
          [
            18.275293,
            67.909404
          ],
          [
            18.276305,
            67.909474
          ],
          [
            18.277508,
            67.909523
          ],
          [
            18.278077,
            67.90967
          ],
          [
            18.279052,
            67.909899
          ],
          [
            18.280315,
            67.910355
          ],
          [
            18.28038,
            67.910474
          ],
          [
            18.28075,
            67.910608
          ],
          [
            18.281335,
            67.910584
          ],
          [
            18.281415,
            67.91056
          ],
          [
            18.28156,
            67.910543
          ],
          [
            18.28173,
            67.910542
          ],
          [
            18.28192,
            67.910617
          ],
          [
            18.282397,
            67.910785
          ],
          [
            18.282907,
            67.910904
          ],
          [
            18.28342,
            67.910997
          ],
          [
            18.284023,
            67.911109
          ],
          [
            18.284887,
            67.911225
          ],
          [
            18.28561,
            67.911344
          ],
          [
            18.286559,
            67.911447
          ],
          [
            18.286898,
            67.911457
          ],
          [
            18.287211,
            67.911451
          ],
          [
            18.287592,
            67.911477
          ],
          [
            18.288046,
            67.911552
          ],
          [
            18.289247,
            67.911744
          ],
          [
            18.290194,
            67.911907
          ],
          [
            18.290553,
            67.911972
          ],
          [
            18.29093,
            67.912017
          ],
          [
            18.291435,
            67.912099
          ],
          [
            18.292031,
            67.912208
          ],
          [
            18.292788,
            67.912402
          ],
          [
            18.293703,
            67.912651
          ],
          [
            18.294188,
            67.912884
          ],
          [
            18.294323,
            67.913145
          ],
          [
            18.294508,
            67.913333
          ],
          [
            18.294793,
            67.91352
          ],
          [
            18.295397,
            67.913766
          ],
          [
            18.29589,
            67.913904
          ],
          [
            18.296279,
            67.913968
          ],
          [
            18.297086,
            67.914005
          ],
          [
            18.297856,
            67.914097
          ],
          [
            18.298248,
            67.914163
          ],
          [
            18.298958,
            67.914228
          ],
          [
            18.299498,
            67.914293
          ],
          [
            18.300278,
            67.914427
          ],
          [
            18.301334,
            67.914561
          ],
          [
            18.302266,
            67.914657
          ],
          [
            18.302928,
            67.914741
          ],
          [
            18.303321,
            67.914833
          ]
        ]
      }
    }
  ]
}
