{
  "type": "FeatureCollection",
  "features": [
    {
      "type": "Feature",
      "properties": {
        "trailId": "nordkalottleden",
        "sectionId": "nordkalottleden-full-26-abiskojaure-alesjaure",
        "sectionOrder": 26,
        "source": "shared Kungsleden runtime geometry",
        "segment": 1
      },
      "geometry": {
        "type": "LineString",
        "coordinates": [
          [
            18.590492,
            68.286
          ],
          [
            18.590242,
            68.285641
          ],
          [
            18.589821,
            68.285435
          ],
          [
            18.589723,
            68.285155
          ],
          [
            18.589812,
            68.284687
          ],
          [
            18.590576,
            68.284375
          ],
          [
            18.590749,
            68.28419
          ],
          [
            18.590419,
            68.283943
          ],
          [
            18.590394,
            68.283695
          ],
          [
            18.590873,
            68.283307
          ],
          [
            18.58973,
            68.282395
          ],
          [
            18.589766,
            68.281968
          ],
          [
            18.591402,
            68.281362
          ],
          [
            18.591386,
            68.281232
          ],
          [
            18.590644,
            68.280705
          ],
          [
            18.591178,
            68.280364
          ],
          [
            18.591119,
            68.280216
          ],
          [
            18.590251,
            68.279653
          ],
          [
            18.590224,
            68.27951
          ],
          [
            18.589142,
            68.279059
          ],
          [
            18.588173,
            68.278335
          ],
          [
            18.587158,
            68.278136
          ],
          [
            18.586247,
            68.277702
          ],
          [
            18.585794,
            68.277304
          ],
          [
            18.585823,
            68.276998
          ],
          [
            18.58541,
            68.27675
          ],
          [
            18.582724,
            68.275853
          ],
          [
            18.582238,
            68.27553
          ],
          [
            18.581883,
            68.274836
          ],
          [
            18.582182,
            68.274613
          ],
          [
            18.581656,
            68.274162
          ],
          [
            18.580896,
            68.272773
          ],
          [
            18.58023,
            68.272318
          ],
          [
            18.579258,
            68.270493
          ],
          [
            18.579567,
            68.27015
          ],
          [
            18.579955,
            68.269166
          ],
          [
            18.580165,
            68.266559
          ],
          [
            18.580237,
            68.26634
          ],
          [
            18.580623,
            68.26609
          ],
          [
            18.580786,
            68.26546
          ],
          [
            18.582408,
            68.263989
          ],
          [
            18.582854,
            68.263806
          ],
          [
            18.584455,
            68.263438
          ],
          [
            18.584779,
            68.263087
          ],
          [
            18.584479,
            68.262826
          ],
          [
            18.583622,
            68.262487
          ],
          [
            18.582227,
            68.262077
          ],
          [
            18.58447,
            68.261357
          ],
          [
            18.586236,
            68.261038
          ],
          [
            18.588381,
            68.259773
          ],
          [
            18.588771,
            68.259298
          ],
          [
            18.588369,
            68.258467
          ],
          [
            18.589518,
            68.256864
          ],
          [
            18.590394,
            68.256288
          ],
          [
            18.592165,
            68.255755
          ],
          [
            18.594767,
            68.254674
          ],
          [
            18.596369,
            68.253634
          ],
          [
            18.598713,
            68.250558
          ],
          [
            18.59949,
            68.248455
          ],
          [
            18.60004,
            68.246043
          ],
          [
            18.601163,
            68.243757
          ],
          [
            18.601215,
            68.242219
          ],
          [
            18.600671,
            68.240315
          ],
          [
            18.600065,
            68.239525
          ],
          [
            18.599533,
            68.237344
          ],
          [
            18.599055,
            68.236649
          ],
          [
            18.598419,
            68.236121
          ],
          [
            18.597324,
            68.234502
          ],
          [
            18.595014,
            68.233127
          ],
          [
            18.5938,
            68.232627
          ],
          [
            18.591744,
            68.23154
          ],
          [
            18.587924,
            68.229864
          ],
          [
            18.585389,
            68.229011
          ],
          [
            18.583717,
            68.228081
          ],
          [
            18.582445,
            68.227105
          ],
          [
            18.577842,
            68.224952
          ],
          [
            18.573842,
            68.222822
          ],
          [
            18.572324,
            68.222309
          ],
          [
            18.571827,
            68.221952
          ],
          [
            18.569043,
            68.22081
          ],
          [
            18.56171,
            68.216364
          ],
          [
            18.561889,
            68.215931
          ],
          [
            18.561631,
            68.215738
          ],
          [
            18.56079,
            68.21532
          ],
          [
            18.559314,
            68.214956
          ],
          [
            18.558308,
            68.214352
          ],
          [
            18.557883,
            68.214209
          ],
          [
            18.557578,
            68.213869
          ],
          [
            18.555182,
            68.212564
          ],
          [
            18.551486,
            68.210299
          ],
          [
            18.551074,
            68.210156
          ],
          [
            18.548343,
            68.209782
          ],
          [
            18.543955,
            68.209451
          ],
          [
            18.542156,
            68.208818
          ],
          [
            18.541403,
            68.207936
          ],
          [
            18.539605,
            68.207108
          ],
          [
            18.537987,
            68.206476
          ],
          [
            18.533484,
            68.20523
          ],
          [
            18.53178,
            68.20459
          ],
          [
            18.52927,
            68.204333
          ],
          [
            18.525503,
            68.203536
          ],
          [
            18.521958,
            68.202633
          ],
          [
            18.520374,
            68.201899
          ],
          [
            18.518863,
            68.201415
          ],
          [
            18.516128,
            68.200783
          ],
          [
            18.514991,
            68.200419
          ],
          [
            18.513974,
            68.200197
          ],
          [
            18.511366,
            68.199916
          ],
          [
            18.506734,
            68.198894
          ],
          [
            18.504321,
            68.198534
          ],
          [
            18.503346,
            68.198252
          ],
          [
            18.502236,
            68.197697
          ],
          [
            18.498053,
            68.196857
          ],
          [
            18.496878,
            68.196301
          ],
          [
            18.496185,
            68.195483
          ],
          [
            18.495165,
            68.194677
          ],
          [
            18.494872,
            68.194037
          ],
          [
            18.495134,
            68.193845
          ],
          [
            18.495031,
            68.193739
          ],
          [
            18.493951,
            68.192968
          ],
          [
            18.492801,
            68.192387
          ],
          [
            18.490915,
            68.191854
          ],
          [
            18.490383,
            68.191596
          ],
          [
            18.488034,
            68.189519
          ],
          [
            18.488002,
            68.189324
          ],
          [
            18.487594,
            68.188973
          ],
          [
            18.48712,
            68.188768
          ],
          [
            18.485744,
            68.187428
          ],
          [
            18.485375,
            68.187227
          ],
          [
            18.48505,
            68.186783
          ],
          [
            18.48423,
            68.186525
          ],
          [
            18.481514,
            68.186133
          ],
          [
            18.476227,
            68.183806
          ],
          [
            18.475604,
            68.183616
          ],
          [
            18.471524,
            68.183053
          ],
          [
            18.470135,
            68.182715
          ],
          [
            18.46954,
            68.182347
          ],
          [
            18.465548,
            68.181014
          ],
          [
            18.464036,
            68.18068
          ],
          [
            18.463058,
            68.180233
          ],
          [
            18.462049,
            68.179507
          ],
          [
            18.460799,
            68.178908
          ],
          [
            18.460128,
            68.178173
          ],
          [
            18.459459,
            68.177838
          ],
          [
            18.458225,
            68.176588
          ],
          [
            18.456311,
            68.175218
          ],
          [
            18.455967,
            68.174784
          ],
          [
            18.45478,
            68.173824
          ],
          [
            18.453959,
            68.173367
          ],
          [
            18.452634,
            68.172091
          ],
          [
            18.449579,
            68.170189
          ],
          [
            18.446868,
            68.168242
          ],
          [
            18.443852,
            68.16678
          ],
          [
            18.442113,
            68.166255
          ],
          [
            18.439119,
            68.165126
          ],
          [
            18.437359,
            68.164128
          ],
          [
            18.435707,
            68.162959
          ],
          [
            18.43389,
            68.162209
          ],
          [
            18.431437,
            68.16084
          ],
          [
            18.429584,
            68.16004
          ],
          [
            18.428931,
            68.159975
          ],
          [
            18.427789,
            68.159509
          ],
          [
            18.42688,
            68.159281
          ],
          [
            18.424616,
            68.157838
          ],
          [
            18.423049,
            68.157198
          ],
          [
            18.422918,
            68.156585
          ],
          [
            18.423174,
            68.155872
          ],
          [
            18.422861,
            68.154735
          ],
          [
            18.421651,
            68.15379
          ],
          [
            18.42128,
            68.1532
          ],
          [
            18.419758,
            68.152211
          ],
          [
            18.418719,
            68.151224
          ],
          [
            18.41677,
            68.149857
          ],
          [
            18.416729,
            68.149546
          ],
          [
            18.416116,
            68.149227
          ],
          [
            18.416357,
            68.148665
          ],
          [
            18.416299,
            68.147944
          ],
          [
            18.415923,
            68.14753
          ],
          [
            18.414852,
            68.146804
          ],
          [
            18.414743,
            68.146336
          ],
          [
            18.414371,
            68.145876
          ],
          [
            18.414329,
            68.144181
          ],
          [
            18.414567,
            68.143222
          ],
          [
            18.415041,
            68.142709
          ],
          [
            18.414705,
            68.141972
          ],
          [
            18.414933,
            68.141205
          ],
          [
            18.414245,
            68.140742
          ],
          [
            18.413148,
            68.140303
          ],
          [
            18.411433,
            68.138191
          ],
          [
            18.411908,
            68.1371
          ],
          [
            18.413068,
            68.136824
          ],
          [
            18.413779,
            68.136794
          ]
        ]
      }
    }
  ]
}
