{
  "type": "FeatureCollection",
  "features": [
    {
      "type": "Feature",
      "properties": {
        "trailId": "nordkalottleden",
        "sectionId": "nordkalottleden-full-11-kuonjarjohka-saarijarvi",
        "sectionOrder": 11,
        "segment": 1,
        "reversedForRuntime": true
      },
      "geometry": {
        "type": "LineString",
        "coordinates": [
          [
            21.219157,
            69.101723
          ],
          [
            21.218759,
            69.101718
          ],
          [
            21.218405,
            69.101749
          ],
          [
            21.218102,
            69.101777
          ],
          [
            21.217771,
            69.101862
          ],
          [
            21.217207,
            69.102016
          ],
          [
            21.21682,
            69.102096
          ],
          [
            21.21637,
            69.102108
          ],
          [
            21.215945,
            69.102218
          ],
          [
            21.215488,
            69.102303
          ],
          [
            21.215069,
            69.10233
          ],
          [
            21.214771,
            69.102367
          ],
          [
            21.214268,
            69.102469
          ],
          [
            21.213687,
            69.102557
          ],
          [
            21.212797,
            69.102697
          ],
          [
            21.212018,
            69.102792
          ],
          [
            21.211375,
            69.102873
          ],
          [
            21.210786,
            69.102961
          ],
          [
            21.210578,
            69.103028
          ],
          [
            21.210339,
            69.103093
          ],
          [
            21.210053,
            69.103175
          ],
          [
            21.209629,
            69.103312
          ],
          [
            21.209274,
            69.103391
          ],
          [
            21.20884,
            69.103465
          ],
          [
            21.20822,
            69.103548
          ],
          [
            21.208048,
            69.103578
          ],
          [
            21.207886,
            69.103604
          ],
          [
            21.207553,
            69.103633
          ],
          [
            21.207103,
            69.103682
          ],
          [
            21.206459,
            69.103751
          ],
          [
            21.205816,
            69.103837
          ],
          [
            21.205235,
            69.103939
          ],
          [
            21.204965,
            69.104026
          ],
          [
            21.204391,
            69.104217
          ],
          [
            21.203903,
            69.104308
          ],
          [
            21.203199,
            69.104455
          ],
          [
            21.20243,
            69.104757
          ],
          [
            21.202008,
            69.104964
          ],
          [
            21.201691,
            69.105027
          ],
          [
            21.20104,
            69.10514
          ],
          [
            21.200376,
            69.105315
          ],
          [
            21.199835,
            69.105442
          ],
          [
            21.199129,
            69.105525
          ],
          [
            21.198784,
            69.105684
          ],
          [
            21.198227,
            69.105825
          ],
          [
            21.197731,
            69.105885
          ],
          [
            21.197314,
            69.105981
          ],
          [
            21.196708,
            69.106028
          ],
          [
            21.196098,
            69.106169
          ],
          [
            21.19572,
            69.106281
          ],
          [
            21.194366,
            69.106555
          ],
          [
            21.193685,
            69.106682
          ],
          [
            21.193245,
            69.106796
          ],
          [
            21.192432,
            69.106955
          ],
          [
            21.191417,
            69.107116
          ],
          [
            21.190479,
            69.107225
          ],
          [
            21.189679,
            69.107292
          ],
          [
            21.189174,
            69.107308
          ],
          [
            21.188717,
            69.107387
          ],
          [
            21.188633,
            69.107385
          ],
          [
            21.188005,
            69.10739
          ],
          [
            21.18738,
            69.1074
          ],
          [
            21.186832,
            69.107459
          ],
          [
            21.186456,
            69.107437
          ],
          [
            21.18625,
            69.107445
          ],
          [
            21.18542,
            69.107483
          ],
          [
            21.18509,
            69.107483
          ],
          [
            21.184784,
            69.107418
          ],
          [
            21.184629,
            69.107322
          ],
          [
            21.184212,
            69.107181
          ],
          [
            21.183887,
            69.10711
          ],
          [
            21.183778,
            69.107031
          ],
          [
            21.183372,
            69.106932
          ],
          [
            21.183263,
            69.106809
          ],
          [
            21.182654,
            69.106656
          ],
          [
            21.181883,
            69.106615
          ],
          [
            21.181444,
            69.106577
          ],
          [
            21.1806,
            69.10655
          ],
          [
            21.180044,
            69.106542
          ],
          [
            21.180014,
            69.106538
          ],
          [
            21.179537,
            69.106531
          ],
          [
            21.178794,
            69.106569
          ],
          [
            21.178032,
            69.106629
          ],
          [
            21.177314,
            69.106706
          ],
          [
            21.176588,
            69.106738
          ],
          [
            21.176089,
            69.106809
          ],
          [
            21.175643,
            69.106832
          ],
          [
            21.174965,
            69.106915
          ],
          [
            21.174231,
            69.107006
          ],
          [
            21.173551,
            69.107005
          ],
          [
            21.173013,
            69.106991
          ],
          [
            21.172489,
            69.106992
          ],
          [
            21.172264,
            69.106961
          ],
          [
            21.172114,
            69.106917
          ],
          [
            21.171511,
            69.106849
          ],
          [
            21.171053,
            69.106815
          ],
          [
            21.170747,
            69.106743
          ],
          [
            21.170397,
            69.106706
          ],
          [
            21.170114,
            69.106612
          ],
          [
            21.169689,
            69.106554
          ],
          [
            21.169408,
            69.10653
          ],
          [
            21.16883,
            69.106417
          ],
          [
            21.168297,
            69.106318
          ],
          [
            21.167936,
            69.106271
          ],
          [
            21.167537,
            69.106238
          ],
          [
            21.167239,
            69.106178
          ],
          [
            21.16696,
            69.106114
          ],
          [
            21.16667,
            69.106059
          ],
          [
            21.165934,
            69.10601
          ],
          [
            21.165622,
            69.105951
          ],
          [
            21.165433,
            69.10589
          ],
          [
            21.165058,
            69.10591
          ],
          [
            21.164254,
            69.105837
          ],
          [
            21.163863,
            69.105824
          ],
          [
            21.163533,
            69.105853
          ],
          [
            21.163016,
            69.10589
          ],
          [
            21.162853,
            69.105902
          ],
          [
            21.162666,
            69.105933
          ],
          [
            21.16237,
            69.105976
          ],
          [
            21.162073,
            69.106007
          ],
          [
            21.16176,
            69.105985
          ],
          [
            21.161449,
            69.105923
          ],
          [
            21.161026,
            69.105882
          ],
          [
            21.160634,
            69.105839
          ],
          [
            21.160165,
            69.105806
          ],
          [
            21.15964,
            69.105766
          ],
          [
            21.158983,
            69.105734
          ],
          [
            21.158616,
            69.105765
          ],
          [
            21.158475,
            69.105774
          ],
          [
            21.158189,
            69.105751
          ],
          [
            21.157806,
            69.105733
          ],
          [
            21.157344,
            69.105695
          ],
          [
            21.157125,
            69.105704
          ],
          [
            21.156754,
            69.105715
          ],
          [
            21.1563,
            69.105677
          ],
          [
            21.155751,
            69.105605
          ],
          [
            21.155132,
            69.105515
          ],
          [
            21.154645,
            69.105371
          ],
          [
            21.153994,
            69.105274
          ],
          [
            21.153461,
            69.105158
          ],
          [
            21.152772,
            69.104913
          ],
          [
            21.152372,
            69.104821
          ],
          [
            21.151854,
            69.10473
          ],
          [
            21.151396,
            69.104673
          ],
          [
            21.150925,
            69.10459
          ],
          [
            21.150297,
            69.104416
          ],
          [
            21.149669,
            69.104249
          ],
          [
            21.149088,
            69.104161
          ],
          [
            21.148103,
            69.103987
          ],
          [
            21.147759,
            69.103935
          ],
          [
            21.147304,
            69.103891
          ],
          [
            21.146848,
            69.103874
          ],
          [
            21.146229,
            69.103822
          ],
          [
            21.145907,
            69.103748
          ],
          [
            21.145631,
            69.103572
          ],
          [
            21.145229,
            69.103406
          ],
          [
            21.145004,
            69.103166
          ],
          [
            21.144767,
            69.103001
          ],
          [
            21.144574,
            69.102797
          ],
          [
            21.144399,
            69.102624
          ],
          [
            21.144233,
            69.10254
          ],
          [
            21.144089,
            69.102453
          ],
          [
            21.143821,
            69.102336
          ],
          [
            21.143522,
            69.10218
          ],
          [
            21.143333,
            69.10208
          ],
          [
            21.143096,
            69.101963
          ],
          [
            21.142723,
            69.101828
          ],
          [
            21.142478,
            69.10166
          ],
          [
            21.142171,
            69.101519
          ],
          [
            21.141828,
            69.101365
          ],
          [
            21.14173,
            69.101321
          ],
          [
            21.141482,
            69.101165
          ],
          [
            21.141441,
            69.101039
          ],
          [
            21.141307,
            69.100892
          ],
          [
            21.141101,
            69.100703
          ],
          [
            21.140936,
            69.100648
          ],
          [
            21.140737,
            69.100483
          ],
          [
            21.140265,
            69.100286
          ],
          [
            21.139744,
            69.099978
          ],
          [
            21.139318,
            69.099747
          ],
          [
            21.139105,
            69.099608
          ],
          [
            21.138939,
            69.099483
          ],
          [
            21.138724,
            69.099419
          ],
          [
            21.138511,
            69.099313
          ],
          [
            21.138211,
            69.099127
          ],
          [
            21.13806,
            69.098971
          ],
          [
            21.137737,
            69.098821
          ],
          [
            21.137547,
            69.098676
          ],
          [
            21.13735,
            69.098573
          ],
          [
            21.137246,
            69.098414
          ],
          [
            21.136822,
            69.098278
          ],
          [
            21.136585,
            69.098159
          ],
          [
            21.136325,
            69.098036
          ],
          [
            21.13615,
            69.097948
          ],
          [
            21.135992,
            69.097853
          ],
          [
            21.135763,
            69.097691
          ],
          [
            21.135533,
            69.097488
          ],
          [
            21.135398,
            69.097335
          ],
          [
            21.135247,
            69.097193
          ],
          [
            21.135057,
            69.097054
          ],
          [
            21.134861,
            69.097004
          ],
          [
            21.134687,
            69.096912
          ],
          [
            21.134537,
            69.096789
          ],
          [
            21.134349,
            69.09669
          ],
          [
            21.134097,
            69.096559
          ],
          [
            21.133686,
            69.096328
          ],
          [
            21.133254,
            69.096159
          ],
          [
            21.132918,
            69.096068
          ],
          [
            21.13244,
            69.095985
          ],
          [
            21.132062,
            69.095849
          ],
          [
            21.131663,
            69.095777
          ],
          [
            21.131396,
            69.095702
          ],
          [
            21.130949,
            69.095659
          ],
          [
            21.130369,
            69.095529
          ],
          [
            21.129867,
            69.095407
          ],
          [
            21.129333,
            69.095274
          ],
          [
            21.128825,
            69.095095
          ],
          [
            21.128347,
            69.094999
          ],
          [
            21.12775,
            69.094807
          ],
          [
            21.127152,
            69.094754
          ],
          [
            21.126925,
            69.094732
          ],
          [
            21.12658,
            69.094649
          ],
          [
            21.126158,
            69.094627
          ],
          [
            21.12575,
            69.094575
          ],
          [
            21.125548,
            69.094586
          ],
          [
            21.125273,
            69.094511
          ],
          [
            21.124939,
            69.094456
          ],
          [
            21.124547,
            69.094505
          ],
          [
            21.12414,
            69.09445
          ],
          [
            21.12392,
            69.094383
          ],
          [
            21.123529,
            69.094218
          ],
          [
            21.123143,
            69.093998
          ],
          [
            21.122931,
            69.0939
          ],
          [
            21.122206,
            69.09353
          ],
          [
            21.1219,
            69.093334
          ],
          [
            21.121977,
            69.093275
          ],
          [
            21.122007,
            69.093199
          ],
          [
            21.121823,
            69.09314
          ],
          [
            21.121463,
            69.093085
          ],
          [
            21.121139,
            69.09302
          ],
          [
            21.120669,
            69.092929
          ],
          [
            21.120409,
            69.092826
          ],
          [
            21.120119,
            69.092706
          ],
          [
            21.120016,
            69.092595
          ],
          [
            21.119811,
            69.092484
          ],
          [
            21.119571,
            69.092395
          ],
          [
            21.119311,
            69.092295
          ],
          [
            21.119052,
            69.092209
          ],
          [
            21.118956,
            69.092028
          ],
          [
            21.118718,
            69.091823
          ],
          [
            21.118583,
            69.09165
          ],
          [
            21.118495,
            69.091519
          ],
          [
            21.118408,
            69.091457
          ],
          [
            21.118383,
            69.091315
          ],
          [
            21.11806,
            69.091184
          ],
          [
            21.117784,
            69.091015
          ],
          [
            21.117514,
            69.090845
          ],
          [
            21.117333,
            69.090641
          ],
          [
            21.117182,
            69.090516
          ],
          [
            21.117025,
            69.090348
          ],
          [
            21.11686,
            69.090256
          ],
          [
            21.116819,
            69.09015
          ],
          [
            21.1167,
            69.09005
          ],
          [
            21.116683,
            69.089921
          ],
          [
            21.116501,
            69.089754
          ],
          [
            21.11635,
            69.089637
          ],
          [
            21.116183,
            69.089545
          ],
          [
            21.116096,
            69.089481
          ],
          [
            21.115891,
            69.089386
          ],
          [
            21.115692,
            69.089259
          ],
          [
            21.115517,
            69.089103
          ],
          [
            21.115383,
            69.088969
          ],
          [
            21.115192,
            69.088806
          ],
          [
            21.11508,
            69.088599
          ],
          [
            21.114931,
            69.088405
          ],
          [
            21.11485,
            69.088227
          ],
          [
            21.114796,
            69.088127
          ],
          [
            21.114709,
            69.08808
          ],
          [
            21.114512,
            69.087921
          ],
          [
            21.114432,
            69.087807
          ],
          [
            21.114336,
            69.087637
          ],
          [
            21.114282,
            69.087493
          ],
          [
            21.114083,
            69.087254
          ],
          [
            21.113948,
            69.087111
          ],
          [
            21.113811,
            69.086849
          ],
          [
            21.113543,
            69.086613
          ],
          [
            21.113378,
            69.086505
          ],
          [
            21.112975,
            69.086229
          ],
          [
            21.112706,
            69.086034
          ],
          [
            21.1125,
            69.085806
          ],
          [
            21.112329,
            69.085679
          ],
          [
            21.112029,
            69.085496
          ],
          [
            21.111743,
            69.085233
          ],
          [
            21.111522,
            69.084993
          ],
          [
            21.111233,
            69.084807
          ],
          [
            21.110823,
            69.084536
          ],
          [
            21.11042,
            69.084363
          ],
          [
            21.109733,
            69.084137
          ],
          [
            21.109322,
            69.083985
          ],
          [
            21.108949,
            69.083787
          ],
          [
            21.108608,
            69.083648
          ],
          [
            21.107849,
            69.083437
          ],
          [
            21.10739,
            69.083348
          ],
          [
            21.106978,
            69.083211
          ],
          [
            21.106304,
            69.082945
          ],
          [
            21.105696,
            69.082733
          ],
          [
            21.105431,
            69.082601
          ],
          [
            21.105347,
            69.082468
          ],
          [
            21.105205,
            69.082261
          ],
          [
            21.105433,
            69.082094
          ],
          [
            21.105435,
            69.081889
          ],
          [
            21.105115,
            69.081755
          ],
          [
            21.104382,
            69.081559
          ],
          [
            21.103907,
            69.081414
          ],
          [
            21.103391,
            69.081189
          ],
          [
            21.102916,
            69.080903
          ],
          [
            21.102603,
            69.080612
          ],
          [
            21.102183,
            69.080113
          ],
          [
            21.101856,
            69.079897
          ],
          [
            21.101638,
            69.079642
          ],
          [
            21.101384,
            69.079438
          ],
          [
            21.101247,
            69.079218
          ],
          [
            21.101117,
            69.079004
          ],
          [
            21.101112,
            69.078773
          ],
          [
            21.10092,
            69.078626
          ],
          [
            21.100859,
            69.078464
          ],
          [
            21.100576,
            69.078154
          ],
          [
            21.100557,
            69.078133
          ],
          [
            21.100103,
            69.077725
          ],
          [
            21.099471,
            69.077356
          ],
          [
            21.099258,
            69.077166
          ],
          [
            21.098684,
            69.076826
          ],
          [
            21.098053,
            69.076497
          ],
          [
            21.097498,
            69.07616
          ],
          [
            21.096757,
            69.075823
          ],
          [
            21.096318,
            69.075683
          ],
          [
            21.09598,
            69.07537
          ],
          [
            21.096023,
            69.075126
          ],
          [
            21.0958,
            69.074746
          ],
          [
            21.095716,
            69.074102
          ],
          [
            21.095517,
            69.073696
          ],
          [
            21.095269,
            69.073486
          ],
          [
            21.094986,
            69.07313
          ],
          [
            21.093743,
            69.072395
          ],
          [
            21.09211,
            69.071827
          ],
          [
            21.091227,
            69.071535
          ],
          [
            21.091164,
            69.071392
          ],
          [
            21.090964,
            69.071246
          ],
          [
            21.090866,
            69.070866
          ],
          [
            21.090611,
            69.070688
          ],
          [
            21.090826,
            69.070569
          ],
          [
            21.090988,
            69.070278
          ],
          [
            21.091283,
            69.070052
          ],
          [
            21.091382,
            69.069811
          ],
          [
            21.09137,
            69.069648
          ],
          [
            21.091723,
            69.069215
          ],
          [
            21.092663,
            69.068859
          ],
          [
            21.093056,
            69.068584
          ],
          [
            21.093137,
            69.068304
          ],
          [
            21.09314,
            69.068106
          ],
          [
            21.093027,
            69.067866
          ],
          [
            21.093008,
            69.067472
          ],
          [
            21.093266,
            69.067298
          ],
          [
            21.093263,
            69.067126
          ],
          [
            21.093662,
            69.066642
          ],
          [
            21.093828,
            69.066264
          ],
          [
            21.093768,
            69.065863
          ],
          [
            21.092825,
            69.065467
          ],
          [
            21.092176,
            69.06472
          ],
          [
            21.092113,
            69.064648
          ],
          [
            21.091862,
            69.064453
          ]
        ]
      }
    }
  ]
}
