{
  "type": "FeatureCollection",
  "features": [
    {
      "type": "Feature",
      "properties": {
        "trailId": "nordkalottleden",
        "sectionId": "nordkalottleden-full-41-staloluokta-staddajahka",
        "source": "E1 Hiking Europe GPX",
        "e1Stage": "04.15 Staloluoktastugorna - Staddajåhkå",
        "sourceUrl": "https://e1.hiking-europe.eu/gpx/no-sf-s/no-sf-s-04-15-staloluoktastugorna-staddajahka.gpx",
        "sourceFormat": "gpx",
        "segment": 1
      },
      "geometry": {
        "type": "LineString",
        "coordinates": [
          [
            16.694982,
            67.318885
          ],
          [
            16.694886,
            67.318858
          ],
          [
            16.694325,
            67.318746
          ],
          [
            16.694253,
            67.318716
          ],
          [
            16.694264,
            67.318454
          ],
          [
            16.69424,
            67.318282
          ],
          [
            16.694296,
            67.318226
          ],
          [
            16.694257,
            67.318151
          ],
          [
            16.693894,
            67.317912
          ],
          [
            16.693616,
            67.317843
          ],
          [
            16.693489,
            67.317768
          ],
          [
            16.693028,
            67.317657
          ],
          [
            16.692762,
            67.317559
          ],
          [
            16.69224,
            67.31744
          ],
          [
            16.691703,
            67.317291
          ],
          [
            16.69137,
            67.317053
          ],
          [
            16.691039,
            67.316989
          ],
          [
            16.690583,
            67.3168
          ],
          [
            16.690211,
            67.316542
          ],
          [
            16.689746,
            67.316289
          ],
          [
            16.689402,
            67.316194
          ],
          [
            16.689177,
            67.316087
          ],
          [
            16.689048,
            67.315801
          ],
          [
            16.688592,
            67.315123
          ],
          [
            16.68863,
            67.314717
          ],
          [
            16.689102,
            67.314245
          ],
          [
            16.689521,
            67.313811
          ],
          [
            16.690089,
            67.313439
          ],
          [
            16.690268,
            67.313076
          ],
          [
            16.690583,
            67.312988
          ],
          [
            16.691269,
            67.31295
          ],
          [
            16.691677,
            67.312855
          ],
          [
            16.692085,
            67.312673
          ],
          [
            16.692868,
            67.312561
          ],
          [
            16.693715,
            67.312085
          ],
          [
            16.69398,
            67.311705
          ],
          [
            16.694465,
            67.311305
          ],
          [
            16.694563,
            67.311249
          ],
          [
            16.694772,
            67.311067
          ],
          [
            16.694917,
            67.310912
          ],
          [
            16.695052,
            67.310813
          ],
          [
            16.695346,
            67.310684
          ],
          [
            16.69577,
            67.310536
          ],
          [
            16.695999,
            67.310487
          ],
          [
            16.696317,
            67.310306
          ],
          [
            16.696575,
            67.310024
          ],
          [
            16.696569,
            67.309859
          ],
          [
            16.696795,
            67.30966
          ],
          [
            16.697132,
            67.309577
          ],
          [
            16.697964,
            67.309375
          ],
          [
            16.698162,
            67.309147
          ],
          [
            16.699493,
            67.308452
          ],
          [
            16.700351,
            67.308038
          ],
          [
            16.701038,
            67.30774
          ],
          [
            16.701553,
            67.307309
          ],
          [
            16.701939,
            67.306862
          ],
          [
            16.702282,
            67.306349
          ],
          [
            16.702642,
            67.30596
          ],
          [
            16.702803,
            67.305637
          ],
          [
            16.702711,
            67.305538
          ],
          [
            16.703055,
            67.305025
          ],
          [
            16.703715,
            67.30471
          ],
          [
            16.704123,
            67.304395
          ],
          [
            16.705243,
            67.304081
          ],
          [
            16.70623,
            67.303849
          ],
          [
            16.707046,
            67.303601
          ],
          [
            16.707475,
            67.303286
          ],
          [
            16.707904,
            67.302971
          ],
          [
            16.708634,
            67.30264
          ],
          [
            16.709492,
            67.302226
          ],
          [
            16.710265,
            67.301696
          ],
          [
            16.710978,
            67.300885
          ],
          [
            16.710903,
            67.300628
          ],
          [
            16.711075,
            67.30052
          ],
          [
            16.71115,
            67.300106
          ],
          [
            16.711294,
            67.299659
          ],
          [
            16.71108,
            67.298467
          ],
          [
            16.710608,
            67.297622
          ],
          [
            16.710141,
            67.296603
          ],
          [
            16.709621,
            67.296164
          ],
          [
            16.709449,
            67.295866
          ],
          [
            16.709637,
            67.295667
          ],
          [
            16.709363,
            67.295287
          ],
          [
            16.709277,
            67.294972
          ],
          [
            16.709192,
            67.294723
          ],
          [
            16.70902,
            67.294491
          ],
          [
            16.709063,
            67.294127
          ],
          [
            16.709154,
            67.293626
          ],
          [
            16.708972,
            67.293526
          ],
          [
            16.708714,
            67.293456
          ],
          [
            16.708505,
            67.293299
          ],
          [
            16.708419,
            67.293017
          ],
          [
            16.708548,
            67.292686
          ],
          [
            16.708532,
            67.29257
          ],
          [
            16.707684,
            67.292466
          ],
          [
            16.70726,
            67.29252
          ],
          [
            16.706488,
            67.292653
          ],
          [
            16.705871,
            67.292736
          ],
          [
            16.705217,
            67.292698
          ],
          [
            16.704831,
            67.292591
          ],
          [
            16.704557,
            67.292421
          ],
          [
            16.704198,
            67.292189
          ],
          [
            16.703736,
            67.292023
          ],
          [
            16.703398,
            67.291841
          ],
          [
            16.702738,
            67.291302
          ],
          [
            16.702497,
            67.291211
          ],
          [
            16.70217,
            67.290872
          ],
          [
            16.701644,
            67.29052
          ],
          [
            16.701161,
            67.290333
          ],
          [
            16.700694,
            67.290052
          ],
          [
            16.700518,
            67.28972
          ],
          [
            16.700035,
            67.289472
          ],
          [
            16.699922,
            67.289223
          ],
          [
            16.699707,
            67.288875
          ],
          [
            16.69894,
            67.288063
          ],
          [
            16.698361,
            67.287657
          ],
          [
            16.697889,
            67.287044
          ],
          [
            16.697052,
            67.286257
          ],
          [
            16.696403,
            67.285826
          ],
          [
            16.69606,
            67.285661
          ],
          [
            16.695716,
            67.285528
          ],
          [
            16.695416,
            67.28523
          ],
          [
            16.694831,
            67.284675
          ],
          [
            16.694585,
            67.284289
          ],
          [
            16.694338,
            67.284119
          ],
          [
            16.694042,
            67.283937
          ],
          [
            16.693828,
            67.283473
          ],
          [
            16.693613,
            67.283158
          ],
          [
            16.693254,
            67.28281
          ],
          [
            16.692954,
            67.282686
          ],
          [
            16.691639,
            67.281733
          ],
          [
            16.690867,
            67.28112
          ],
          [
            16.690352,
            67.280523
          ],
          [
            16.690051,
            67.279727
          ],
          [
            16.689708,
            67.279247
          ],
          [
            16.689464,
            67.278743
          ],
          [
            16.689193,
            67.278517
          ],
          [
            16.688893,
            67.278285
          ],
          [
            16.688734,
            67.277888
          ],
          [
            16.688592,
            67.277738
          ],
          [
            16.688292,
            67.277456
          ],
          [
            16.688061,
            67.277013
          ],
          [
            16.687734,
            67.276561
          ],
          [
            16.687519,
            67.276246
          ],
          [
            16.687434,
            67.275981
          ],
          [
            16.68716,
            67.275513
          ],
          [
            16.686318,
            67.27497
          ],
          [
            16.685416,
            67.274472
          ],
          [
            16.68465,
            67.274116
          ],
          [
            16.684414,
            67.273963
          ],
          [
            16.684317,
            67.273822
          ],
          [
            16.684338,
            67.273585
          ],
          [
            16.684403,
            67.273424
          ],
          [
            16.684258,
            67.273328
          ],
          [
            16.684172,
            67.273096
          ],
          [
            16.683705,
            67.272744
          ],
          [
            16.683056,
            67.272383
          ],
          [
            16.682713,
            67.271936
          ],
          [
            16.68267,
            67.271521
          ],
          [
            16.682412,
            67.27104
          ],
          [
            16.682069,
            67.270792
          ],
          [
            16.68194,
            67.270576
          ],
          [
            16.681925,
            67.270344
          ],
          [
            16.68157,
            67.27017
          ],
          [
            16.680895,
            67.269896
          ],
          [
            16.680444,
            67.269652
          ],
          [
            16.680084,
            67.269166
          ],
          [
            16.679602,
            67.268698
          ],
          [
            16.679242,
            67.268362
          ],
          [
            16.678464,
            67.267425
          ],
          [
            16.678287,
            67.267106
          ],
          [
            16.677906,
            67.266845
          ],
          [
            16.677391,
            67.266414
          ],
          [
            16.676962,
            67.266082
          ],
          [
            16.676018,
            67.265667
          ],
          [
            16.675294,
            67.265352
          ],
          [
            16.674645,
            67.265186
          ],
          [
            16.674211,
            67.264979
          ],
          [
            16.673781,
            67.264689
          ],
          [
            16.673459,
            67.264498
          ],
          [
            16.672842,
            67.264274
          ],
          [
            16.671684,
            67.263843
          ],
          [
            16.670796,
            67.263518
          ],
          [
            16.671031,
            67.263327
          ],
          [
            16.670906,
            67.262835
          ],
          [
            16.670868,
            67.262582
          ],
          [
            16.670002,
            67.26239
          ],
          [
            16.66952,
            67.262229
          ],
          [
            16.668894,
            67.262103
          ],
          [
            16.668385,
            67.261824
          ],
          [
            16.667422,
            67.26163
          ],
          [
            16.666302,
            67.261297
          ],
          [
            16.66589,
            67.26104
          ],
          [
            16.665675,
            67.260691
          ],
          [
            16.665332,
            67.260343
          ],
          [
            16.664465,
            67.260013
          ],
          [
            16.663293,
            67.259611
          ],
          [
            16.66255,
            67.259369
          ],
          [
            16.661899,
            67.259049
          ],
          [
            16.66147,
            67.258684
          ],
          [
            16.660955,
            67.258419
          ],
          [
            16.66022,
            67.258108
          ],
          [
            16.659581,
            67.257954
          ],
          [
            16.659067,
            67.257689
          ],
          [
            16.658723,
            67.257539
          ],
          [
            16.658208,
            67.257473
          ],
          [
            16.65765,
            67.25729
          ],
          [
            16.657135,
            67.257008
          ],
          [
            16.656749,
            67.256693
          ],
          [
            16.656406,
            67.256561
          ],
          [
            16.655977,
            67.256461
          ],
          [
            16.65575,
            67.256252
          ],
          [
            16.655676,
            67.256046
          ],
          [
            16.655385,
            67.255929
          ],
          [
            16.654877,
            67.255854
          ],
          [
            16.654291,
            67.255778
          ],
          [
            16.653874,
            67.255565
          ],
          [
            16.653273,
            67.2552
          ],
          [
            16.652372,
            67.254486
          ],
          [
            16.65222,
            67.254247
          ],
          [
            16.652109,
            67.254018
          ],
          [
            16.651884,
            67.253682
          ],
          [
            16.651556,
            67.253391
          ],
          [
            16.651342,
            67.252927
          ],
          [
            16.651176,
            67.252421
          ],
          [
            16.65035,
            67.251993
          ],
          [
            16.649539,
            67.251466
          ],
          [
            16.648466,
            67.251052
          ],
          [
            16.647925,
            67.250852
          ],
          [
            16.647077,
            67.250711
          ],
          [
            16.645977,
            67.250603
          ],
          [
            16.643402,
            67.250653
          ],
          [
            16.642458,
            67.250686
          ],
          [
            16.641541,
            67.250529
          ],
          [
            16.640715,
            67.250251
          ],
          [
            16.639782,
            67.249989
          ],
          [
            16.638548,
            67.249562
          ],
          [
            16.637614,
            67.249147
          ],
          [
            16.637378,
            67.248782
          ],
          [
            16.637089,
            67.248666
          ],
          [
            16.636391,
            67.248214
          ],
          [
            16.635748,
            67.247994
          ],
          [
            16.635501,
            67.247811
          ],
          [
            16.634943,
            67.247687
          ],
          [
            16.633881,
            67.247512
          ],
          [
            16.631515,
            67.246936
          ],
          [
            16.628897,
            67.246122
          ],
          [
            16.627495,
            67.245794
          ],
          [
            16.626537,
            67.245591
          ],
          [
            16.62452,
            67.245093
          ],
          [
            16.623447,
            67.244728
          ],
          [
            16.621865,
            67.244143
          ],
          [
            16.620443,
            67.243881
          ],
          [
            16.618726,
            67.243699
          ],
          [
            16.617519,
            67.243408
          ],
          [
            16.617267,
            67.2433
          ],
          [
            16.616436,
            67.242898
          ],
          [
            16.615245,
            67.242591
          ],
          [
            16.61422,
            67.24247
          ],
          [
            16.612975,
            67.242354
          ],
          [
            16.612289,
            67.242321
          ],
          [
            16.612026,
            67.242288
          ],
          [
            16.611039,
            67.242122
          ],
          [
            16.610213,
            67.241777
          ],
          [
            16.60907,
            67.241474
          ],
          [
            16.608426,
            67.241225
          ],
          [
            16.607863,
            67.240951
          ],
          [
            16.605664,
            67.240777
          ],
          [
            16.603647,
            67.240499
          ],
          [
            16.601909,
            67.240242
          ],
          [
            16.600471,
            67.239818
          ],
          [
            16.599516,
            67.239669
          ],
          [
            16.598851,
            67.239586
          ],
          [
            16.597821,
            67.239386
          ],
          [
            16.596882,
            67.239432
          ],
          [
            16.595954,
            67.239274
          ],
          [
            16.594495,
            67.239154
          ],
          [
            16.593578,
            67.239166
          ],
          [
            16.592891,
            67.239216
          ]
        ]
      }
    }
  ]
}
