{
  "type": "FeatureCollection",
  "features": [
    {
      "type": "Feature",
      "properties": {
        "trailId": "nordkalottleden",
        "sectionId": "nordkalottleden-full-37-vaisaluokta-kutjaure",
        "sectionOrder": 37,
        "sourceUrl": "https://www.naturkartan.se/sv/norrbottens-lan/vandringsled-bd55-mellan-vaisaluokta-och-kutjaurestugan.gpx",
        "sourceFormat": "gpx",
        "segment": 1
      },
      "geometry": {
        "type": "LineString",
        "coordinates": [
          [
            17.267913,
            67.674999
          ],
          [
            17.267879,
            67.674861
          ],
          [
            17.267054,
            67.674521
          ],
          [
            17.266726,
            67.674492
          ],
          [
            17.26645,
            67.674396
          ],
          [
            17.266033,
            67.674316
          ],
          [
            17.265419,
            67.674328
          ],
          [
            17.264444,
            67.674229
          ],
          [
            17.263776,
            67.674164
          ],
          [
            17.263626,
            67.674105
          ],
          [
            17.263434,
            67.674029
          ],
          [
            17.262801,
            67.673858
          ],
          [
            17.262571,
            67.673772
          ],
          [
            17.26226,
            67.673675
          ],
          [
            17.261737,
            67.673599
          ],
          [
            17.261537,
            67.673414
          ],
          [
            17.261145,
            67.673379
          ],
          [
            17.260753,
            67.673146
          ],
          [
            17.260485,
            67.673073
          ],
          [
            17.260109,
            67.673069
          ],
          [
            17.25972,
            67.672866
          ],
          [
            17.259282,
            67.672636
          ],
          [
            17.258759,
            67.67243
          ],
          [
            17.258414,
            67.672336
          ],
          [
            17.257833,
            67.672217
          ],
          [
            17.257512,
            67.672082
          ],
          [
            17.257286,
            67.671971
          ],
          [
            17.257002,
            67.671874
          ],
          [
            17.256787,
            67.671671
          ],
          [
            17.256375,
            67.671504
          ],
          [
            17.255944,
            67.671286
          ],
          [
            17.255437,
            67.67104
          ],
          [
            17.254809,
            67.670853
          ],
          [
            17.254291,
            67.670632
          ],
          [
            17.253961,
            67.670476
          ],
          [
            17.253906,
            67.670398
          ],
          [
            17.253588,
            67.670304
          ],
          [
            17.253176,
            67.670132
          ],
          [
            17.253184,
            67.670078
          ],
          [
            17.25266,
            67.669936
          ],
          [
            17.252101,
            67.669832
          ],
          [
            17.251245,
            67.669771
          ],
          [
            17.250869,
            67.669759
          ],
          [
            17.250499,
            67.669798
          ],
          [
            17.249968,
            67.669783
          ],
          [
            17.249751,
            67.669817
          ],
          [
            17.24931,
            67.669823
          ],
          [
            17.248942,
            67.669818
          ],
          [
            17.24873,
            67.669773
          ],
          [
            17.248288,
            67.669708
          ],
          [
            17.248049,
            67.669659
          ],
          [
            17.24748,
            67.669593
          ],
          [
            17.247036,
            67.669572
          ],
          [
            17.24653,
            67.669457
          ],
          [
            17.245903,
            67.669283
          ],
          [
            17.245676,
            67.66916
          ],
          [
            17.245156,
            67.668915
          ],
          [
            17.244931,
            67.668741
          ],
          [
            17.244748,
            67.668458
          ],
          [
            17.244554,
            67.668265
          ],
          [
            17.244501,
            67.668144
          ],
          [
            17.244123,
            67.66804
          ],
          [
            17.243595,
            67.667855
          ],
          [
            17.243267,
            67.667722
          ],
          [
            17.243014,
            67.667604
          ],
          [
            17.242955,
            67.667478
          ],
          [
            17.242735,
            67.667356
          ],
          [
            17.242565,
            67.667328
          ],
          [
            17.2423,
            67.667225
          ],
          [
            17.24167,
            67.667151
          ],
          [
            17.241258,
            67.666979
          ],
          [
            17.241087,
            67.66694
          ],
          [
            17.240796,
            67.666909
          ],
          [
            17.240167,
            67.666712
          ],
          [
            17.239679,
            67.666582
          ],
          [
            17.239308,
            67.666552
          ],
          [
            17.238714,
            67.666436
          ],
          [
            17.238512,
            67.66636
          ],
          [
            17.238182,
            67.666139
          ],
          [
            17.237728,
            67.666016
          ],
          [
            17.237535,
            67.665925
          ],
          [
            17.237053,
            67.66584
          ],
          [
            17.236474,
            67.665641
          ],
          [
            17.23575,
            67.665402
          ],
          [
            17.235251,
            67.665251
          ],
          [
            17.235041,
            67.665187
          ],
          [
            17.234639,
            67.665135
          ],
          [
            17.234362,
            67.665033
          ],
          [
            17.234095,
            67.664987
          ],
          [
            17.233947,
            67.664898
          ],
          [
            17.233804,
            67.664866
          ],
          [
            17.233242,
            67.664647
          ],
          [
            17.232791,
            67.664537
          ],
          [
            17.23237,
            67.664397
          ],
          [
            17.231885,
            67.664261
          ],
          [
            17.231339,
            67.664091
          ],
          [
            17.23094,
            67.663897
          ],
          [
            17.230794,
            67.66384
          ],
          [
            17.230317,
            67.663635
          ],
          [
            17.229727,
            67.663461
          ],
          [
            17.229346,
            67.663345
          ],
          [
            17.22904,
            67.663213
          ],
          [
            17.228674,
            67.663062
          ],
          [
            17.228269,
            67.662961
          ],
          [
            17.227795,
            67.66268
          ],
          [
            17.227433,
            67.662556
          ],
          [
            17.227166,
            67.66237
          ],
          [
            17.226784,
            67.662178
          ],
          [
            17.226264,
            67.661937
          ],
          [
            17.226129,
            67.661723
          ],
          [
            17.226007,
            67.661651
          ],
          [
            17.225879,
            67.661515
          ],
          [
            17.225585,
            67.661305
          ],
          [
            17.225327,
            67.661133
          ],
          [
            17.22529,
            67.660876
          ],
          [
            17.225226,
            67.660602
          ],
          [
            17.225087,
            67.660407
          ],
          [
            17.224924,
            67.660234
          ],
          [
            17.224945,
            67.659974
          ],
          [
            17.224797,
            67.659757
          ],
          [
            17.22467,
            67.659493
          ],
          [
            17.224512,
            67.659303
          ],
          [
            17.224427,
            67.65921
          ],
          [
            17.224325,
            67.659002
          ],
          [
            17.224224,
            67.658816
          ],
          [
            17.224154,
            67.658681
          ],
          [
            17.22413,
            67.658489
          ],
          [
            17.224186,
            67.658403
          ],
          [
            17.224197,
            67.658306
          ],
          [
            17.224313,
            67.65811
          ],
          [
            17.224029,
            67.657875
          ],
          [
            17.223986,
            67.657752
          ],
          [
            17.22408,
            67.6576
          ],
          [
            17.224163,
            67.657463
          ],
          [
            17.223858,
            67.65727
          ],
          [
            17.223696,
            67.657041
          ],
          [
            17.223638,
            67.656757
          ],
          [
            17.223536,
            67.656552
          ],
          [
            17.22338,
            67.656379
          ],
          [
            17.223099,
            67.656108
          ],
          [
            17.222777,
            67.655797
          ],
          [
            17.222682,
            67.655669
          ],
          [
            17.222606,
            67.655539
          ],
          [
            17.222478,
            67.655395
          ],
          [
            17.222559,
            67.655235
          ],
          [
            17.222296,
            67.65495
          ],
          [
            17.222291,
            67.654685
          ],
          [
            17.222296,
            67.654534
          ],
          [
            17.221962,
            67.654098
          ],
          [
            17.221626,
            67.65392
          ],
          [
            17.221339,
            67.653781
          ],
          [
            17.221268,
            67.653638
          ],
          [
            17.220845,
            67.653415
          ],
          [
            17.220643,
            67.653301
          ],
          [
            17.220608,
            67.653202
          ],
          [
            17.220302,
            67.65307
          ],
          [
            17.219783,
            67.652698
          ],
          [
            17.219248,
            67.652029
          ],
          [
            17.219355,
            67.651727
          ],
          [
            17.219482,
            67.651446
          ],
          [
            17.219407,
            67.651396
          ],
          [
            17.219401,
            67.651191
          ],
          [
            17.219217,
            67.651133
          ],
          [
            17.218949,
            67.651003
          ],
          [
            17.218862,
            67.650819
          ],
          [
            17.218658,
            67.650752
          ],
          [
            17.218476,
            67.650647
          ],
          [
            17.218252,
            67.650502
          ],
          [
            17.217471,
            67.650065
          ],
          [
            17.217067,
            67.649706
          ],
          [
            17.216431,
            67.649174
          ],
          [
            17.216409,
            67.648796
          ],
          [
            17.215636,
            67.64831
          ],
          [
            17.215045,
            67.647856
          ],
          [
            17.214715,
            67.647598
          ],
          [
            17.214497,
            67.64745
          ],
          [
            17.213995,
            67.646922
          ],
          [
            17.213377,
            67.646518
          ],
          [
            17.212813,
            67.646137
          ],
          [
            17.212213,
            67.645781
          ],
          [
            17.211415,
            67.645234
          ],
          [
            17.211071,
            67.645
          ],
          [
            17.21066,
            67.644617
          ],
          [
            17.210266,
            67.644394
          ],
          [
            17.210238,
            67.644006
          ],
          [
            17.208821,
            67.643652
          ],
          [
            17.207392,
            67.64343
          ],
          [
            17.206607,
            67.643257
          ],
          [
            17.206278,
            67.643175
          ],
          [
            17.205287,
            67.642859
          ],
          [
            17.204986,
            67.642547
          ],
          [
            17.2043,
            67.642216
          ],
          [
            17.203132,
            67.641806
          ],
          [
            17.202716,
            67.641739
          ],
          [
            17.201813,
            67.641787
          ],
          [
            17.201197,
            67.641757
          ],
          [
            17.200347,
            67.641453
          ],
          [
            17.199348,
            67.641186
          ],
          [
            17.198635,
            67.640973
          ],
          [
            17.197743,
            67.640748
          ],
          [
            17.196981,
            67.640424
          ],
          [
            17.196049,
            67.640068
          ],
          [
            17.195326,
            67.639879
          ],
          [
            17.194499,
            67.639668
          ],
          [
            17.193818,
            67.639503
          ],
          [
            17.193164,
            67.639113
          ],
          [
            17.192812,
            67.638802
          ],
          [
            17.192595,
            67.638679
          ],
          [
            17.192402,
            67.638297
          ],
          [
            17.192356,
            67.638103
          ],
          [
            17.192045,
            67.637938
          ],
          [
            17.191331,
            67.6377
          ],
          [
            17.191049,
            67.637573
          ],
          [
            17.190213,
            67.63747
          ],
          [
            17.189554,
            67.637173
          ],
          [
            17.189136,
            67.636808
          ],
          [
            17.188795,
            67.636601
          ],
          [
            17.188637,
            67.636411
          ],
          [
            17.188539,
            67.636161
          ],
          [
            17.188032,
            67.635975
          ],
          [
            17.187671,
            67.635836
          ],
          [
            17.186996,
            67.635647
          ],
          [
            17.186191,
            67.635303
          ],
          [
            17.185114,
            67.634789
          ],
          [
            17.183998,
            67.63427
          ],
          [
            17.183304,
            67.634013
          ],
          [
            17.182977,
            67.63381
          ],
          [
            17.182569,
            67.633726
          ],
          [
            17.181688,
            67.633397
          ],
          [
            17.18067,
            67.633124
          ],
          [
            17.179413,
            67.632927
          ],
          [
            17.178838,
            67.632703
          ],
          [
            17.178226,
            67.632489
          ],
          [
            17.177516,
            67.632354
          ],
          [
            17.176888,
            67.632263
          ],
          [
            17.176243,
            67.632128
          ],
          [
            17.174883,
            67.63178
          ],
          [
            17.173815,
            67.631379
          ],
          [
            17.172711,
            67.631151
          ],
          [
            17.171641,
            67.630879
          ],
          [
            17.170732,
            67.630678
          ],
          [
            17.169993,
            67.630495
          ],
          [
            17.168864,
            67.630287
          ],
          [
            17.167818,
            67.629979
          ],
          [
            17.166984,
            67.629748
          ],
          [
            17.165845,
            67.629569
          ],
          [
            17.165137,
            67.62945
          ],
          [
            17.163724,
            67.629408
          ],
          [
            17.161753,
            67.629165
          ],
          [
            17.160804,
            67.629108
          ],
          [
            17.159872,
            67.629089
          ],
          [
            17.158491,
            67.628953
          ],
          [
            17.157439,
            67.628739
          ],
          [
            17.156017,
            67.628426
          ],
          [
            17.15483,
            67.62814
          ],
          [
            17.15337,
            67.627675
          ],
          [
            17.15254,
            67.62732
          ],
          [
            17.150934,
            67.626655
          ],
          [
            17.149585,
            67.626114
          ],
          [
            17.148192,
            67.625683
          ],
          [
            17.147504,
            67.625479
          ],
          [
            17.146291,
            67.625188
          ],
          [
            17.145,
            67.624893
          ],
          [
            17.144353,
            67.624729
          ],
          [
            17.143579,
            67.624428
          ],
          [
            17.142819,
            67.624141
          ],
          [
            17.142184,
            67.623962
          ],
          [
            17.140866,
            67.62348
          ],
          [
            17.140278,
            67.62325
          ],
          [
            17.138821,
            67.622917
          ],
          [
            17.138002,
            67.622663
          ],
          [
            17.137407,
            67.622422
          ],
          [
            17.136216,
            67.622127
          ],
          [
            17.134317,
            67.621677
          ],
          [
            17.133511,
            67.621428
          ],
          [
            17.132716,
            67.621129
          ],
          [
            17.132122,
            67.620903
          ],
          [
            17.131698,
            67.620653
          ],
          [
            17.131028,
            67.620361
          ],
          [
            17.130524,
            67.620086
          ],
          [
            17.129902,
            67.619841
          ],
          [
            17.129083,
            67.619697
          ],
          [
            17.12869,
            67.619621
          ],
          [
            17.127926,
            67.619409
          ],
          [
            17.127758,
            67.619363
          ],
          [
            17.127567,
            67.619251
          ],
          [
            17.127244,
            67.619023
          ],
          [
            17.127045,
            67.618904
          ],
          [
            17.126856,
            67.618715
          ],
          [
            17.126836,
            67.618181
          ],
          [
            17.126767,
            67.617903
          ],
          [
            17.126435,
            67.617652
          ],
          [
            17.125571,
            67.617306
          ],
          [
            17.125192,
            67.617141
          ],
          [
            17.12427,
            67.616812
          ],
          [
            17.123677,
            67.616594
          ],
          [
            17.123441,
            67.616516
          ],
          [
            17.123028,
            67.616439
          ],
          [
            17.122772,
            67.616446
          ],
          [
            17.122391,
            67.616259
          ],
          [
            17.122073,
            67.616109
          ],
          [
            17.121445,
            67.615856
          ],
          [
            17.120991,
            67.615659
          ],
          [
            17.120192,
            67.615407
          ],
          [
            17.119391,
            67.615231
          ],
          [
            17.118866,
            67.615155
          ],
          [
            17.118186,
            67.615016
          ],
          [
            17.118064,
            67.614966
          ],
          [
            17.117559,
            67.614882
          ],
          [
            17.117151,
            67.614839
          ],
          [
            17.116635,
            67.614639
          ],
          [
            17.115958,
            67.614272
          ],
          [
            17.115337,
            67.614064
          ],
          [
            17.114602,
            67.613653
          ],
          [
            17.114041,
            67.613433
          ],
          [
            17.113602,
            67.613246
          ],
          [
            17.113143,
            67.613141
          ],
          [
            17.112919,
            67.612992
          ],
          [
            17.112688,
            67.612757
          ],
          [
            17.112638,
            67.612632
          ],
          [
            17.112538,
            67.612547
          ],
          [
            17.11252,
            67.612482
          ],
          [
            17.111991,
            67.612336
          ],
          [
            17.111611,
            67.612215
          ],
          [
            17.111389,
            67.612096
          ],
          [
            17.110878,
            67.611845
          ],
          [
            17.110016,
            67.611497
          ],
          [
            17.10976,
            67.611283
          ],
          [
            17.109048,
            67.610998
          ],
          [
            17.107556,
            67.6104
          ],
          [
            17.106719,
            67.610047
          ],
          [
            17.105573,
            67.609469
          ],
          [
            17.104301,
            67.609131
          ],
          [
            17.10362,
            67.608808
          ],
          [
            17.103596,
            67.608797
          ],
          [
            17.103502,
            67.608752
          ],
          [
            17.103108,
            67.60863
          ],
          [
            17.102006,
            67.608108
          ],
          [
            17.101696,
            67.60788
          ],
          [
            17.101151,
            67.607361
          ],
          [
            17.100541,
            67.606869
          ],
          [
            17.099169,
            67.60644
          ],
          [
            17.096944,
            67.605676
          ],
          [
            17.095522,
            67.605383
          ],
          [
            17.094928,
            67.605265
          ],
          [
            17.094202,
            67.605139
          ],
          [
            17.092606,
            67.604842
          ],
          [
            17.09175,
            67.604741
          ],
          [
            17.090917,
            67.6047
          ],
          [
            17.090506,
            67.604799
          ],
          [
            17.090361,
            67.604919
          ],
          [
            17.090238,
            67.605198
          ],
          [
            17.090045,
            67.605263
          ],
          [
            17.089462,
            67.605288
          ],
          [
            17.088698,
            67.605226
          ],
          [
            17.088075,
            67.605049
          ],
          [
            17.086741,
            67.604926
          ],
          [
            17.086126,
            67.604769
          ],
          [
            17.085246,
            67.604525
          ],
          [
            17.084504,
            67.604276
          ],
          [
            17.084187,
            67.604193
          ],
          [
            17.08383,
            67.604163
          ],
          [
            17.083585,
            67.604157
          ],
          [
            17.083434,
            67.604176
          ],
          [
            17.08335,
            67.604177
          ],
          [
            17.082836,
            67.604149
          ],
          [
            17.082529,
            67.604136
          ],
          [
            17.082155,
            67.604149
          ],
          [
            17.082009,
            67.604139
          ],
          [
            17.081714,
            67.604088
          ],
          [
            17.081531,
            67.60409
          ],
          [
            17.081346,
            67.604069
          ],
          [
            17.081168,
            67.604045
          ],
          [
            17.080891,
            67.60402
          ],
          [
            17.080563,
            67.60403
          ],
          [
            17.08031,
            67.604024
          ],
          [
            17.080058,
            67.604019
          ],
          [
            17.07974,
            67.603976
          ],
          [
            17.079472,
            67.603965
          ],
          [
            17.078987,
            67.603927
          ],
          [
            17.078494,
            67.603862
          ],
          [
            17.077885,
            67.603854
          ],
          [
            17.077012,
            67.603799
          ],
          [
            17.076333,
            67.603726
          ],
          [
            17.075595,
            67.603694
          ],
          [
            17.074999,
            67.603671
          ],
          [
            17.073639,
            67.603537
          ],
          [
            17.072554,
            67.603449
          ],
          [
            17.071459,
            67.603293
          ],
          [
            17.070642,
            67.603166
          ],
          [
            17.069697,
            67.603109
          ],
          [
            17.069059,
            67.603068
          ],
          [
            17.068245,
            67.603065
          ],
          [
            17.068163,
            67.603062
          ],
          [
            17.067561,
            67.603078
          ],
          [
            17.066849,
            67.603103
          ],
          [
            17.066394,
            67.603141
          ],
          [
            17.066088,
            67.603171
          ],
          [
            17.065753,
            67.603193
          ],
          [
            17.06556,
            67.603266
          ],
          [
            17.065232,
            67.603287
          ],
          [
            17.065065,
            67.603298
          ],
          [
            17.064837,
            67.603328
          ],
          [
            17.064632,
            67.603351
          ],
          [
            17.064221,
            67.603382
          ],
          [
            17.063917,
            67.603412
          ],
          [
            17.063659,
            67.603436
          ],
          [
            17.063292,
            67.603452
          ],
          [
            17.062782,
            67.603316
          ],
          [
            17.062661,
            67.603127
          ],
          [
            17.062383,
            67.60312
          ],
          [
            17.062123,
            67.603189
          ],
          [
            17.062044,
            67.603111
          ],
          [
            17.062013,
            67.602968
          ],
          [
            17.061754,
            67.602787
          ],
          [
            17.061588,
            67.602614
          ],
          [
            17.061607,
            67.602448
          ],
          [
            17.061552,
            67.602331
          ],
          [
            17.061492,
            67.602242
          ],
          [
            17.061479,
            67.602157
          ],
          [
            17.061466,
            67.60206
          ],
          [
            17.061396,
            67.60202
          ],
          [
            17.061277,
            67.601962
          ],
          [
            17.061209,
            67.601853
          ],
          [
            17.061131,
            67.601795
          ],
          [
            17.061119,
            67.601723
          ],
          [
            17.061141,
            67.601643
          ],
          [
            17.061148,
            67.601556
          ],
          [
            17.06107,
            67.601506
          ],
          [
            17.060983,
            67.601404
          ],
          [
            17.060991,
            67.601335
          ],
          [
            17.06097,
            67.601222
          ],
          [
            17.060909,
            67.601118
          ],
          [
            17.060988,
            67.601002
          ],
          [
            17.060982,
            67.600738
          ],
          [
            17.061031,
            67.600379
          ],
          [
            17.061058,
            67.600197
          ],
          [
            17.06111,
            67.600076
          ],
          [
            17.061115,
            67.599958
          ],
          [
            17.061117,
            67.599891
          ],
          [
            17.06095,
            67.599811
          ],
          [
            17.060866,
            67.599669
          ],
          [
            17.060676,
            67.599545
          ],
          [
            17.06062,
            67.59942
          ],
          [
            17.060553,
            67.599226
          ],
          [
            17.060362,
            67.598995
          ],
          [
            17.060181,
            67.598902
          ],
          [
            17.060026,
            67.598806
          ],
          [
            17.059911,
            67.598702
          ],
          [
            17.059832,
            67.598624
          ],
          [
            17.059498,
            67.59855
          ],
          [
            17.059129,
            67.598467
          ],
          [
            17.058737,
            67.59833
          ],
          [
            17.058205,
            67.598126
          ],
          [
            17.057969,
            67.598013
          ],
          [
            17.057818,
            67.597874
          ],
          [
            17.057704,
            67.59778
          ],
          [
            17.057492,
            67.597718
          ],
          [
            17.057104,
            67.59765
          ],
          [
            17.056794,
            67.597541
          ],
          [
            17.056507,
            67.597462
          ],
          [
            17.056223,
            67.597349
          ],
          [
            17.055701,
            67.597186
          ],
          [
            17.055311,
            67.597072
          ],
          [
            17.055085,
            67.597018
          ],
          [
            17.05499,
            67.597006
          ],
          [
            17.054649,
            67.596925
          ],
          [
            17.054299,
            67.596816
          ],
          [
            17.05396,
            67.596768
          ],
          [
            17.053786,
            67.59668
          ],
          [
            17.0536,
            67.596616
          ],
          [
            17.053291,
            67.596524
          ],
          [
            17.052955,
            67.596425
          ],
          [
            17.052612,
            67.596313
          ],
          [
            17.052295,
            67.596199
          ],
          [
            17.052013,
            67.59602
          ],
          [
            17.051715,
            67.595882
          ],
          [
            17.051318,
            67.595773
          ],
          [
            17.051136,
            67.595662
          ],
          [
            17.050894,
            67.595475
          ],
          [
            17.050781,
            67.5953
          ],
          [
            17.050675,
            67.595124
          ],
          [
            17.050607,
            67.595017
          ],
          [
            17.050605,
            67.594894
          ],
          [
            17.050417,
            67.594804
          ],
          [
            17.050264,
            67.594723
          ],
          [
            17.050226,
            67.594665
          ],
          [
            17.050112,
            67.594576
          ],
          [
            17.049864,
            67.594479
          ],
          [
            17.049717,
            67.594388
          ],
          [
            17.049482,
            67.594301
          ],
          [
            17.049374,
            67.594102
          ],
          [
            17.049182,
            67.593858
          ],
          [
            17.049027,
            67.593752
          ],
          [
            17.048795,
            67.593604
          ],
          [
            17.048601,
            67.593513
          ],
          [
            17.048525,
            67.593391
          ],
          [
            17.048401,
            67.593341
          ],
          [
            17.048171,
            67.593315
          ],
          [
            17.047755,
            67.593222
          ],
          [
            17.047577,
            67.593173
          ],
          [
            17.047341,
            67.593063
          ],
          [
            17.047001,
            67.593002
          ],
          [
            17.046809,
            67.592948
          ],
          [
            17.046477,
            67.592805
          ],
          [
            17.046265,
            67.592664
          ],
          [
            17.045964,
            67.592575
          ],
          [
            17.045585,
            67.592443
          ],
          [
            17.045214,
            67.592313
          ],
          [
            17.044824,
            67.59221
          ],
          [
            17.044453,
            67.592096
          ],
          [
            17.043969,
            67.591985
          ],
          [
            17.043472,
            67.591896
          ],
          [
            17.043039,
            67.591751
          ],
          [
            17.042537,
            67.591582
          ],
          [
            17.042329,
            67.591382
          ],
          [
            17.041794,
            67.591037
          ],
          [
            17.041646,
            67.590928
          ],
          [
            17.041172,
            67.590777
          ],
          [
            17.039974,
            67.590246
          ],
          [
            17.03966,
            67.590082
          ],
          [
            17.03948,
            67.590007
          ],
          [
            17.039146,
            67.589924
          ],
          [
            17.038871,
            67.589837
          ],
          [
            17.038658,
            67.58976
          ],
          [
            17.038469,
            67.589659
          ],
          [
            17.037857,
            67.58944
          ],
          [
            17.03743,
            67.589296
          ],
          [
            17.037221,
            67.589182
          ],
          [
            17.037121,
            67.589096
          ],
          [
            17.036813,
            67.58901
          ],
          [
            17.036015,
            67.588772
          ],
          [
            17.035555,
            67.58866
          ],
          [
            17.035159,
            67.588505
          ],
          [
            17.034745,
            67.588278
          ],
          [
            17.034352,
            67.588153
          ],
          [
            17.034242,
            67.587979
          ],
          [
            17.034135,
            67.587845
          ],
          [
            17.034019,
            67.58768
          ],
          [
            17.033869,
            67.587517
          ],
          [
            17.033721,
            67.587451
          ],
          [
            17.033621,
            67.587241
          ],
          [
            17.033494,
            67.587102
          ],
          [
            17.03335,
            67.586926
          ],
          [
            17.033157,
            67.586741
          ],
          [
            17.032938,
            67.586571
          ],
          [
            17.032889,
            67.586468
          ],
          [
            17.032693,
            67.586329
          ],
          [
            17.032517,
            67.586266
          ],
          [
            17.032355,
            67.586208
          ],
          [
            17.032366,
            67.586085
          ],
          [
            17.032294,
            67.585964
          ],
          [
            17.032396,
            67.585852
          ],
          [
            17.032463,
            67.585798
          ],
          [
            17.032514,
            67.585674
          ],
          [
            17.032501,
            67.585568
          ],
          [
            17.032732,
            67.585388
          ],
          [
            17.032948,
            67.585312
          ]
        ]
      }
    },
    {
      "type": "Feature",
      "properties": {
        "trailId": "nordkalottleden",
        "sectionId": "nordkalottleden-full-37-vaisaluokta-kutjaure",
        "sectionOrder": 37,
        "sourceUrl": "https://www.naturkartan.se/sv/norrbottens-lan/vandringsled-bd55-mellan-vaisaluokta-och-kutjaurestugan.gpx",
        "sourceFormat": "gpx",
        "segment": 2
      },
      "geometry": {
        "type": "LineString",
        "coordinates": [
          [
            17.267874,
            67.674987
          ],
          [
            17.268067,
            67.675403
          ],
          [
            17.267896,
            67.675664
          ],
          [
            17.267574,
            67.675851
          ],
          [
            17.267123,
            67.675908
          ],
          [
            17.266823,
            67.67603
          ],
          [
            17.266608,
            67.67621
          ],
          [
            17.266394,
            67.676471
          ],
          [
            17.266093,
            67.676642
          ],
          [
            17.265814,
            67.676829
          ],
          [
            17.2656,
            67.677008
          ],
          [
            17.265364,
            67.677155
          ],
          [
            17.264892,
            67.677253
          ],
          [
            17.264419,
            67.677334
          ],
          [
            17.264012,
            67.677563
          ],
          [
            17.26384,
            67.67775
          ],
          [
            17.263647,
            67.677856
          ],
          [
            17.263325,
            67.67797
          ],
          [
            17.263454,
            67.67828
          ],
          [
            17.263347,
            67.678516
          ],
          [
            17.263175,
            67.678736
          ],
          [
            17.26296,
            67.678875
          ],
          [
            17.262638,
            67.679152
          ],
          [
            17.26281,
            67.679404
          ],
          [
            17.262574,
            67.67973
          ],
          [
            17.262553,
            67.679877
          ],
          [
            17.262295,
            67.680138
          ],
          [
            17.262231,
            67.680554
          ],
          [
            17.262252,
            67.680912
          ],
          [
            17.262381,
            67.681124
          ],
          [
            17.262317,
            67.681254
          ],
          [
            17.262038,
            67.681401
          ],
          [
            17.26178,
            67.681434
          ],
          [
            17.26148,
            67.681694
          ],
          [
            17.261072,
            67.681996
          ],
          [
            17.261136,
            67.682151
          ],
          [
            17.260943,
            67.682501
          ],
          [
            17.260664,
            67.682713
          ],
          [
            17.260514,
            67.682876
          ],
          [
            17.260364,
            67.683096
          ],
          [
            17.259785,
            67.683234
          ],
          [
            17.259119,
            67.683373
          ],
          [
            17.258669,
            67.683634
          ],
          [
            17.258433,
            67.683829
          ],
          [
            17.257896,
            67.683919
          ],
          [
            17.257403,
            67.684139
          ],
          [
            17.256652,
            67.684432
          ],
          [
            17.256029,
            67.684538
          ],
          [
            17.255042,
            67.684921
          ],
          [
            17.254806,
            67.685312
          ],
          [
            17.254399,
            67.685467
          ],
          [
            17.253841,
            67.685882
          ],
          [
            17.253261,
            67.686159
          ],
          [
            17.252854,
            67.68633
          ],
          [
            17.252553,
            67.686648
          ],
          [
            17.252103,
            67.686795
          ],
          [
            17.251781,
            67.687023
          ],
          [
            17.251309,
            67.687243
          ],
          [
            17.250944,
            67.687479
          ],
          [
            17.250944,
            67.687748
          ],
          [
            17.250901,
            67.688033
          ],
          [
            17.250815,
            67.688106
          ]
        ]
      }
    }
  ]
}
