{
  "type": "FeatureCollection",
  "features": [
    {
      "type": "Feature",
      "properties": {
        "trailId": "nordkalottleden",
        "sectionId": "nordkalottleden-full-17-rostahytta-daertahytta",
        "source": "E1 Hiking Europe GPX",
        "e1Stage": "03.04 Rostahytta - Dærtahytta",
        "sourceUrl": "https://e1.hiking-europe.eu/gpx/no-sf-s/no-sf-s-03-04-rostahytta-daertahytta.gpx",
        "sourceFormat": "gpx",
        "segment": 1
      },
      "geometry": {
        "type": "LineString",
        "coordinates": [
          [
            20.024734,
            68.939212
          ],
          [
            20.024561,
            68.93901
          ],
          [
            20.024364,
            68.938752
          ],
          [
            20.024773,
            68.93856
          ],
          [
            20.025009,
            68.93839
          ],
          [
            20.025351,
            68.938112
          ],
          [
            20.025589,
            68.938028
          ],
          [
            20.02563,
            68.937973
          ],
          [
            20.025739,
            68.937827
          ],
          [
            20.026511,
            68.937357
          ],
          [
            20.026683,
            68.937002
          ],
          [
            20.027327,
            68.93657
          ],
          [
            20.027884,
            68.936231
          ],
          [
            20.028185,
            68.935814
          ],
          [
            20.028314,
            68.935382
          ],
          [
            20.028397,
            68.935151
          ],
          [
            20.029429,
            68.93475
          ],
          [
            20.030159,
            68.934465
          ],
          [
            20.030457,
            68.934329
          ],
          [
            20.032797,
            68.933824
          ],
          [
            20.034771,
            68.933291
          ],
          [
            20.036144,
            68.932736
          ],
          [
            20.038376,
            68.932119
          ],
          [
            20.040865,
            68.931656
          ],
          [
            20.041809,
            68.931224
          ],
          [
            20.041981,
            68.930761
          ],
          [
            20.044813,
            68.927892
          ],
          [
            20.045328,
            68.927029
          ],
          [
            20.044727,
            68.92604
          ],
          [
            20.044212,
            68.925392
          ],
          [
            20.04241,
            68.924404
          ],
          [
            20.041723,
            68.923663
          ],
          [
            20.039663,
            68.922058
          ],
          [
            20.039148,
            68.921441
          ],
          [
            20.040436,
            68.920638
          ],
          [
            20.043558,
            68.919079
          ],
          [
            20.044985,
            68.918601
          ],
          [
            20.046616,
            68.917304
          ],
          [
            20.048418,
            68.915359
          ],
          [
            20.049877,
            68.913877
          ],
          [
            20.052538,
            68.912456
          ],
          [
            20.054426,
            68.911005
          ],
          [
            20.054512,
            68.908966
          ],
          [
            20.053568,
            68.908071
          ],
          [
            20.052795,
            68.907021
          ],
          [
            20.052023,
            68.903715
          ],
          [
            20.052452,
            68.90279
          ],
          [
            20.051937,
            68.902356
          ],
          [
            20.051765,
            68.902048
          ],
          [
            20.050392,
            68.90177
          ],
          [
            20.04973,
            68.901568
          ],
          [
            20.046959,
            68.90072
          ],
          [
            20.046101,
            68.900131
          ],
          [
            20.04344,
            68.899421
          ],
          [
            20.040865,
            68.898504
          ],
          [
            20.03953,
            68.89771
          ],
          [
            20.037947,
            68.897197
          ],
          [
            20.036402,
            68.896608
          ],
          [
            20.034325,
            68.895793
          ],
          [
            20.034518,
            68.895607
          ],
          [
            20.034772,
            68.895381
          ],
          [
            20.035192,
            68.895207
          ],
          [
            20.035395,
            68.895126
          ],
          [
            20.036124,
            68.895026
          ],
          [
            20.037562,
            68.895087
          ],
          [
            20.039064,
            68.894817
          ],
          [
            20.039429,
            68.894794
          ],
          [
            20.040759,
            68.894547
          ],
          [
            20.042926,
            68.894338
          ],
          [
            20.043935,
            68.894222
          ],
          [
            20.045029,
            68.894006
          ],
          [
            20.045313,
            68.893876
          ],
          [
            20.045929,
            68.893596
          ],
          [
            20.047347,
            68.892847
          ],
          [
            20.048462,
            68.892159
          ],
          [
            20.048763,
            68.892051
          ],
          [
            20.04902,
            68.891919
          ],
          [
            20.048935,
            68.891579
          ],
          [
            20.0496,
            68.891092
          ],
          [
            20.050608,
            68.890451
          ],
          [
            20.051252,
            68.890103
          ],
          [
            20.051387,
            68.890054
          ],
          [
            20.053376,
            68.889338
          ],
          [
            20.055393,
            68.88865
          ],
          [
            20.056981,
            68.888001
          ],
          [
            20.05947,
            68.887027
          ],
          [
            20.060457,
            68.886649
          ],
          [
            20.061637,
            68.8861
          ],
          [
            20.063032,
            68.885628
          ],
          [
            20.065586,
            68.884662
          ],
          [
            20.06756,
            68.884051
          ],
          [
            20.06801,
            68.883935
          ],
          [
            20.068654,
            68.883634
          ],
          [
            20.069105,
            68.883479
          ],
          [
            20.070864,
            68.882907
          ],
          [
            20.072431,
            68.882451
          ],
          [
            20.073504,
            68.882064
          ],
          [
            20.075456,
            68.881253
          ],
          [
            20.076572,
            68.880735
          ],
          [
            20.078052,
            68.880139
          ],
          [
            20.078889,
            68.879923
          ],
          [
            20.080155,
            68.87932
          ],
          [
            20.081271,
            68.878964
          ],
          [
            20.081936,
            68.87867
          ],
          [
            20.082795,
            68.878554
          ],
          [
            20.08363,
            68.878346
          ],
          [
            20.084018,
            68.878005
          ],
          [
            20.084254,
            68.877742
          ],
          [
            20.084554,
            68.877611
          ],
          [
            20.085262,
            68.877317
          ],
          [
            20.08552,
            68.877209
          ],
          [
            20.086121,
            68.876838
          ],
          [
            20.086829,
            68.876575
          ],
          [
            20.087489,
            68.876374
          ],
          [
            20.089275,
            68.875879
          ],
          [
            20.090069,
            68.875616
          ],
          [
            20.09067,
            68.875392
          ],
          [
            20.093094,
            68.874912
          ],
          [
            20.093695,
            68.874734
          ],
          [
            20.094553,
            68.874587
          ],
          [
            20.09524,
            68.874409
          ],
          [
            20.097279,
            68.873845
          ],
          [
            20.09848,
            68.873528
          ],
          [
            20.099823,
            68.873243
          ],
          [
            20.100154,
            68.873172
          ],
          [
            20.101077,
            68.872927
          ],
          [
            20.102021,
            68.872677
          ],
          [
            20.103566,
            68.872113
          ],
          [
            20.105003,
            68.871617
          ],
          [
            20.10599,
            68.871146
          ],
          [
            20.106462,
            68.870829
          ],
          [
            20.107214,
            68.870635
          ],
          [
            20.10791,
            68.870458
          ],
          [
            20.11026,
            68.869707
          ],
          [
            20.111441,
            68.869359
          ],
          [
            20.112921,
            68.868841
          ],
          [
            20.114252,
            68.868369
          ],
          [
            20.114895,
            68.868191
          ],
          [
            20.115711,
            68.867835
          ],
          [
            20.116038,
            68.867657
          ],
          [
            20.116183,
            68.867592
          ],
          [
            20.116291,
            68.867519
          ],
          [
            20.116784,
            68.867193
          ],
          [
            20.117621,
            68.86686
          ],
          [
            20.118886,
            68.866419
          ],
          [
            20.119702,
            68.86621
          ],
          [
            20.120238,
            68.865947
          ],
          [
            20.120753,
            68.865692
          ],
          [
            20.121547,
            68.865437
          ],
          [
            20.122384,
            68.86515
          ],
          [
            20.123199,
            68.864756
          ],
          [
            20.123543,
            68.864539
          ],
          [
            20.123843,
            68.864114
          ],
          [
            20.124101,
            68.863781
          ],
          [
            20.124272,
            68.863549
          ],
          [
            20.124294,
            68.863417
          ],
          [
            20.124144,
            68.86327
          ],
          [
            20.124079,
            68.863015
          ],
          [
            20.123908,
            68.862837
          ],
          [
            20.124122,
            68.862636
          ],
          [
            20.124616,
            68.862357
          ],
          [
            20.12556,
            68.861955
          ],
          [
            20.125989,
            68.861692
          ],
          [
            20.126611,
            68.861537
          ],
          [
            20.127105,
            68.861243
          ],
          [
            20.12762,
            68.860895
          ],
          [
            20.127942,
            68.860763
          ],
          [
            20.128392,
            68.860508
          ],
          [
            20.128627,
            68.86002
          ],
          [
            20.128607,
            68.859494
          ],
          [
            20.1288,
            68.859138
          ],
          [
            20.128392,
            68.858294
          ],
          [
            20.12807,
            68.857598
          ],
          [
            20.128027,
            68.857397
          ],
          [
            20.127298,
            68.856963
          ],
          [
            20.126976,
            68.856553
          ],
          [
            20.126889,
            68.856344
          ],
          [
            20.126842,
            68.855686
          ],
          [
            20.126955,
            68.855501
          ],
          [
            20.127303,
            68.854872
          ],
          [
            20.127706,
            68.854185
          ],
          [
            20.128049,
            68.853995
          ],
          [
            20.12836,
            68.85355
          ],
          [
            20.128505,
            68.853267
          ],
          [
            20.128843,
            68.852675
          ],
          [
            20.128864,
            68.852443
          ],
          [
            20.1288,
            68.852249
          ],
          [
            20.128478,
            68.852017
          ],
          [
            20.128285,
            68.851204
          ],
          [
            20.128065,
            68.850927
          ],
          [
            20.127813,
            68.850717
          ],
          [
            20.127942,
            68.850128
          ],
          [
            20.127986,
            68.849741
          ],
          [
            20.128103,
            68.849598
          ],
          [
            20.127384,
            68.848936
          ],
          [
            20.126783,
            68.848696
          ],
          [
            20.125959,
            68.847819
          ],
          [
            20.125925,
            68.847782
          ],
          [
            20.125603,
            68.847364
          ],
          [
            20.12468,
            68.846497
          ],
          [
            20.124067,
            68.846057
          ],
          [
            20.122856,
            68.845188
          ],
          [
            20.120582,
            68.843384
          ],
          [
            20.119959,
            68.842764
          ],
          [
            20.119573,
            68.842346
          ],
          [
            20.119208,
            68.842098
          ],
          [
            20.119101,
            68.841765
          ],
          [
            20.118736,
            68.841378
          ],
          [
            20.118329,
            68.840696
          ],
          [
            20.118028,
            68.840255
          ],
          [
            20.118071,
            68.839968
          ],
          [
            20.117728,
            68.83955
          ],
          [
            20.117515,
            68.839165
          ],
          [
            20.116481,
            68.838582
          ],
          [
            20.114938,
            68.838551
          ],
          [
            20.11408,
            68.838163
          ],
          [
            20.113415,
            68.837915
          ],
          [
            20.112921,
            68.837745
          ],
          [
            20.112192,
            68.837334
          ],
          [
            20.111913,
            68.836699
          ],
          [
            20.111698,
            68.835839
          ],
          [
            20.111612,
            68.835444
          ],
          [
            20.111591,
            68.835266
          ],
          [
            20.111205,
            68.835041
          ],
          [
            20.110969,
            68.834809
          ],
          [
            20.111033,
            68.833647
          ],
          [
            20.110518,
            68.832283
          ],
          [
            20.110239,
            68.831322
          ],
          [
            20.110303,
            68.830873
          ],
          [
            20.110754,
            68.830447
          ],
          [
            20.111419,
            68.829904
          ],
          [
            20.111805,
            68.829617
          ],
          [
            20.112342,
            68.829455
          ],
          [
            20.112943,
            68.828517
          ],
          [
            20.11305,
            68.828277
          ],
          [
            20.113092,
            68.82799
          ],
          [
            20.112835,
            68.827734
          ],
          [
            20.112471,
            68.827626
          ],
          [
            20.11217,
            68.826781
          ],
          [
            20.11232,
            68.826525
          ],
          [
            20.112428,
            68.82606
          ],
          [
            20.112342,
            68.82527
          ],
          [
            20.112256,
            68.824766
          ],
          [
            20.11217,
            68.824378
          ],
          [
            20.112235,
            68.824076
          ],
          [
            20.11217,
            68.823696
          ],
          [
            20.111891,
            68.823068
          ],
          [
            20.111527,
            68.822464
          ],
          [
            20.111441,
            68.821968
          ],
          [
            20.111248,
            68.821386
          ],
          [
            20.110968,
            68.821099
          ],
          [
            20.111248,
            68.820751
          ],
          [
            20.111226,
            68.820324
          ],
          [
            20.111097,
            68.819619
          ],
          [
            20.11099,
            68.819456
          ],
          [
            20.10981,
            68.819123
          ],
          [
            20.109574,
            68.819037
          ]
        ]
      }
    }
  ]
}
