{
  "type": "FeatureCollection",
  "features": [
    {
      "type": "Feature",
      "properties": {
        "trailId": "nordkalottleden",
        "sectionId": "nordkalottleden-full-24-palnostugan-abisko",
        "source": "E1 Hiking Europe GPX",
        "e1Stage": "03.11 Pålnostugan - Abisko Turiststation",
        "sourceUrl": "https://e1.hiking-europe.eu/gpx/no-sf-s/no-sf-s-03-11-palnostugan-abisko-turiststation.gpx",
        "sourceFormat": "gpx",
        "segment": 1
      },
      "geometry": {
        "type": "LineString",
        "coordinates": [
          [
            18.614477,
            68.493175
          ],
          [
            18.614103,
            68.493068
          ],
          [
            18.613566,
            68.49291
          ],
          [
            18.613459,
            68.4928
          ],
          [
            18.613309,
            68.492722
          ],
          [
            18.612622,
            68.492556
          ],
          [
            18.611528,
            68.492242
          ],
          [
            18.610841,
            68.492124
          ],
          [
            18.610477,
            68.492029
          ],
          [
            18.610069,
            68.491848
          ],
          [
            18.609618,
            68.491573
          ],
          [
            18.608996,
            68.491345
          ],
          [
            18.608331,
            68.49114
          ],
          [
            18.607709,
            68.490944
          ],
          [
            18.607172,
            68.490747
          ],
          [
            18.606957,
            68.490692
          ],
          [
            18.606399,
            68.490645
          ],
          [
            18.606142,
            68.490629
          ],
          [
            18.605842,
            68.490503
          ],
          [
            18.606056,
            68.490243
          ],
          [
            18.606185,
            68.490062
          ],
          [
            18.606249,
            68.489976
          ],
          [
            18.606282,
            68.489846
          ],
          [
            18.606292,
            68.489645
          ],
          [
            18.606346,
            68.489531
          ],
          [
            18.606496,
            68.489358
          ],
          [
            18.606367,
            68.489201
          ],
          [
            18.606271,
            68.489063
          ],
          [
            18.606217,
            68.488851
          ],
          [
            18.606174,
            68.488682
          ],
          [
            18.606142,
            68.488564
          ],
          [
            18.605906,
            68.488359
          ],
          [
            18.605863,
            68.488296
          ],
          [
            18.605895,
            68.488103
          ],
          [
            18.605799,
            68.48795
          ],
          [
            18.605724,
            68.487737
          ],
          [
            18.605573,
            68.487493
          ],
          [
            18.605123,
            68.487155
          ],
          [
            18.605005,
            68.486931
          ],
          [
            18.604769,
            68.486616
          ],
          [
            18.604629,
            68.486549
          ],
          [
            18.604501,
            68.486356
          ],
          [
            18.604468,
            68.486195
          ],
          [
            18.604436,
            68.486053
          ],
          [
            18.604361,
            68.485872
          ],
          [
            18.604243,
            68.485735
          ],
          [
            18.604179,
            68.485636
          ],
          [
            18.604125,
            68.485475
          ],
          [
            18.604189,
            68.4854
          ],
          [
            18.604157,
            68.485278
          ],
          [
            18.604254,
            68.485137
          ],
          [
            18.604371,
            68.485078
          ],
          [
            18.604436,
            68.484983
          ],
          [
            18.604468,
            68.484881
          ],
          [
            18.604554,
            68.484806
          ],
          [
            18.604404,
            68.484724
          ],
          [
            18.604232,
            68.48461
          ],
          [
            18.603932,
            68.48446
          ],
          [
            18.603803,
            68.484365
          ],
          [
            18.603653,
            68.484059
          ],
          [
            18.603556,
            68.483791
          ],
          [
            18.603567,
            68.4837
          ],
          [
            18.603642,
            68.483618
          ],
          [
            18.603631,
            68.483519
          ],
          [
            18.603535,
            68.483421
          ],
          [
            18.603406,
            68.483319
          ],
          [
            18.603363,
            68.483224
          ],
          [
            18.603234,
            68.483193
          ],
          [
            18.60317,
            68.483043
          ],
          [
            18.602934,
            68.48274
          ],
          [
            18.602956,
            68.48265
          ],
          [
            18.603095,
            68.482504
          ],
          [
            18.603202,
            68.482363
          ],
          [
            18.603245,
            68.48204
          ],
          [
            18.603267,
            68.48189
          ],
          [
            18.603438,
            68.481583
          ],
          [
            18.603342,
            68.481524
          ],
          [
            18.603277,
            68.48141
          ],
          [
            18.603256,
            68.481312
          ],
          [
            18.603224,
            68.481257
          ],
          [
            18.603116,
            68.48117
          ],
          [
            18.603041,
            68.481052
          ],
          [
            18.603095,
            68.480954
          ],
          [
            18.603385,
            68.480745
          ],
          [
            18.603449,
            68.480659
          ],
          [
            18.60346,
            68.480548
          ],
          [
            18.603567,
            68.480391
          ],
          [
            18.603771,
            68.480316
          ],
          [
            18.603986,
            68.480249
          ],
          [
            18.604222,
            68.480139
          ],
          [
            18.60434,
            68.480068
          ],
          [
            18.60435,
            68.480001
          ],
          [
            18.604425,
            68.47993
          ],
          [
            18.604747,
            68.479761
          ],
          [
            18.604822,
            68.479702
          ],
          [
            18.605155,
            68.479576
          ],
          [
            18.605509,
            68.479557
          ],
          [
            18.606013,
            68.479431
          ],
          [
            18.606399,
            68.479478
          ],
          [
            18.606679,
            68.479486
          ],
          [
            18.607226,
            68.479399
          ],
          [
            18.60773,
            68.479301
          ],
          [
            18.608127,
            68.479202
          ],
          [
            18.608451,
            68.47901
          ],
          [
            18.608481,
            68.478959
          ],
          [
            18.608674,
            68.478671
          ],
          [
            18.608792,
            68.478581
          ],
          [
            18.608695,
            68.478399
          ],
          [
            18.608674,
            68.478057
          ],
          [
            18.608685,
            68.477821
          ],
          [
            18.608781,
            68.477726
          ],
          [
            18.608942,
            68.477573
          ],
          [
            18.609146,
            68.477388
          ],
          [
            18.609189,
            68.477333
          ],
          [
            18.609286,
            68.477191
          ],
          [
            18.609329,
            68.476986
          ],
          [
            18.609404,
            68.476864
          ],
          [
            18.609371,
            68.476593
          ],
          [
            18.60935,
            68.476494
          ],
          [
            18.609436,
            68.476345
          ],
          [
            18.609532,
            68.476199
          ],
          [
            18.609575,
            68.476002
          ],
          [
            18.609554,
            68.475806
          ],
          [
            18.609457,
            68.475605
          ],
          [
            18.609468,
            68.47553
          ],
          [
            18.609543,
            68.475388
          ],
          [
            18.6095,
            68.475341
          ],
          [
            18.609275,
            68.475203
          ],
          [
            18.609039,
            68.47503
          ],
          [
            18.608867,
            68.474782
          ],
          [
            18.608728,
            68.474562
          ],
          [
            18.608395,
            68.474133
          ],
          [
            18.608062,
            68.473829
          ],
          [
            18.607827,
            68.473605
          ],
          [
            18.607762,
            68.473456
          ],
          [
            18.607644,
            68.473361
          ],
          [
            18.607472,
            68.473231
          ],
          [
            18.607279,
            68.473113
          ],
          [
            18.607183,
            68.47307
          ],
          [
            18.607215,
            68.472975
          ],
          [
            18.607151,
            68.472849
          ],
          [
            18.606839,
            68.472672
          ],
          [
            18.606292,
            68.472546
          ],
          [
            18.606141,
            68.472436
          ],
          [
            18.606088,
            68.472235
          ],
          [
            18.606099,
            68.472156
          ],
          [
            18.606453,
            68.471932
          ],
          [
            18.606475,
            68.471806
          ],
          [
            18.606518,
            68.471672
          ],
          [
            18.606517,
            68.471479
          ],
          [
            18.606528,
            68.471408
          ],
          [
            18.606367,
            68.471188
          ],
          [
            18.606475,
            68.471014
          ],
          [
            18.606517,
            68.470849
          ],
          [
            18.606528,
            68.470751
          ],
          [
            18.606668,
            68.470664
          ],
          [
            18.606797,
            68.470585
          ],
          [
            18.606839,
            68.470491
          ],
          [
            18.606743,
            68.470444
          ],
          [
            18.606625,
            68.470428
          ],
          [
            18.606367,
            68.470432
          ],
          [
            18.606282,
            68.470361
          ],
          [
            18.606271,
            68.470215
          ],
          [
            18.606335,
            68.469991
          ],
          [
            18.606303,
            68.469778
          ],
          [
            18.606228,
            68.469585
          ],
          [
            18.606131,
            68.469518
          ],
          [
            18.606153,
            68.469286
          ],
          [
            18.606121,
            68.468943
          ],
          [
            18.606024,
            68.46875
          ],
          [
            18.605926,
            68.468629
          ],
          [
            18.605874,
            68.468554
          ],
          [
            18.605884,
            68.468486
          ],
          [
            18.605874,
            68.46842
          ],
          [
            18.605842,
            68.468306
          ],
          [
            18.605713,
            68.468199
          ],
          [
            18.605649,
            68.468132
          ],
          [
            18.605606,
            68.467959
          ],
          [
            18.605552,
            68.467841
          ],
          [
            18.605509,
            68.467723
          ],
          [
            18.605606,
            68.467589
          ],
          [
            18.60582,
            68.467431
          ],
          [
            18.606131,
            68.467286
          ],
          [
            18.606432,
            68.467077
          ],
          [
            18.606582,
            68.466864
          ],
          [
            18.606914,
            68.466608
          ],
          [
            18.607194,
            68.466443
          ],
          [
            18.607322,
            68.46636
          ],
          [
            18.607387,
            68.466234
          ],
          [
            18.607515,
            68.466049
          ],
          [
            18.607773,
            68.465872
          ],
          [
            18.608127,
            68.465636
          ],
          [
            18.608524,
            68.465403
          ],
          [
            18.608653,
            68.465321
          ],
          [
            18.608781,
            68.46521
          ],
          [
            18.608889,
            68.465112
          ],
          [
            18.609168,
            68.464998
          ],
          [
            18.609414,
            68.464911
          ],
          [
            18.609543,
            68.464848
          ],
          [
            18.60965,
            68.464742
          ],
          [
            18.609715,
            68.464651
          ],
          [
            18.61023,
            68.464498
          ],
          [
            18.610455,
            68.464376
          ],
          [
            18.61053,
            68.464265
          ],
          [
            18.610477,
            68.464198
          ],
          [
            18.610316,
            68.464135
          ],
          [
            18.610165,
            68.464049
          ],
          [
            18.610047,
            68.463978
          ],
          [
            18.609876,
            68.463946
          ],
          [
            18.609875,
            68.463883
          ],
          [
            18.609853,
            68.463722
          ],
          [
            18.609935,
            68.46365
          ],
          [
            18.61002,
            68.463557
          ],
          [
            18.610055,
            68.463457
          ],
          [
            18.610039,
            68.463367
          ],
          [
            18.610008,
            68.463329
          ],
          [
            18.609879,
            68.463313
          ],
          [
            18.609661,
            68.463312
          ],
          [
            18.609402,
            68.463342
          ],
          [
            18.60935,
            68.463321
          ],
          [
            18.608951,
            68.463051
          ],
          [
            18.60883,
            68.463026
          ],
          [
            18.608738,
            68.463028
          ],
          [
            18.60818,
            68.462981
          ],
          [
            18.607097,
            68.462973
          ],
          [
            18.606303,
            68.462977
          ],
          [
            18.605863,
            68.46295
          ],
          [
            18.605305,
            68.462828
          ],
          [
            18.604801,
            68.462772
          ],
          [
            18.604586,
            68.462721
          ],
          [
            18.604511,
            68.462662
          ],
          [
            18.604297,
            68.462485
          ],
          [
            18.604082,
            68.462394
          ],
          [
            18.603717,
            68.462326
          ],
          [
            18.603407,
            68.462274
          ],
          [
            18.602985,
            68.462189
          ],
          [
            18.602348,
            68.462062
          ],
          [
            18.602175,
            68.462044
          ],
          [
            18.601821,
            68.462026
          ],
          [
            18.60136,
            68.461982
          ],
          [
            18.600808,
            68.461936
          ],
          [
            18.600531,
            68.461914
          ],
          [
            18.600053,
            68.461855
          ],
          [
            18.599737,
            68.461752
          ],
          [
            18.599512,
            68.461642
          ],
          [
            18.599404,
            68.461591
          ],
          [
            18.599168,
            68.46154
          ],
          [
            18.598696,
            68.461492
          ],
          [
            18.598428,
            68.461414
          ],
          [
            18.598138,
            68.461292
          ],
          [
            18.597999,
            68.461181
          ],
          [
            18.597517,
            68.461033
          ],
          [
            18.597377,
            68.460905
          ],
          [
            18.597259,
            68.460799
          ],
          [
            18.597151,
            68.46065
          ],
          [
            18.597087,
            68.460472
          ],
          [
            18.596915,
            68.460263
          ],
          [
            18.596636,
            68.460071
          ],
          [
            18.596336,
            68.459913
          ],
          [
            18.596175,
            68.459795
          ],
          [
            18.596143,
            68.459621
          ],
          [
            18.596325,
            68.459507
          ],
          [
            18.596475,
            68.459334
          ],
          [
            18.59654,
            68.459251
          ],
          [
            18.596561,
            68.459101
          ],
          [
            18.596529,
            68.459015
          ],
          [
            18.596336,
            68.458881
          ],
          [
            18.596272,
            68.458755
          ],
          [
            18.596336,
            68.458534
          ],
          [
            18.596626,
            68.458321
          ],
          [
            18.596776,
            68.458219
          ],
          [
            18.597098,
            68.458132
          ],
          [
            18.59734,
            68.458049
          ],
          [
            18.597698,
            68.457927
          ],
          [
            18.59787,
            68.457853
          ],
          [
            18.598203,
            68.457778
          ],
          [
            18.598407,
            68.457667
          ],
          [
            18.5986,
            68.457561
          ],
          [
            18.598653,
            68.457498
          ],
          [
            18.598771,
            68.457415
          ],
          [
            18.598986,
            68.457321
          ],
          [
            18.599158,
            68.457195
          ],
          [
            18.599297,
            68.457088
          ],
          [
            18.599436,
            68.457025
          ],
          [
            18.599576,
            68.456919
          ],
          [
            18.599876,
            68.456856
          ],
          [
            18.600424,
            68.456809
          ],
          [
            18.600971,
            68.456742
          ],
          [
            18.60125,
            68.456647
          ],
          [
            18.601507,
            68.456462
          ],
          [
            18.601818,
            68.456163
          ],
          [
            18.602044,
            68.456001
          ],
          [
            18.602172,
            68.455737
          ],
          [
            18.602387,
            68.455386
          ],
          [
            18.602526,
            68.455205
          ],
          [
            18.603063,
            68.454917
          ],
          [
            18.603267,
            68.454847
          ],
          [
            18.603546,
            68.454618
          ],
          [
            18.603835,
            68.454449
          ],
          [
            18.603825,
            68.454291
          ],
          [
            18.604082,
            68.454181
          ],
          [
            18.604436,
            68.453992
          ],
          [
            18.604672,
            68.453834
          ],
          [
            18.604801,
            68.453732
          ],
          [
            18.604876,
            68.453562
          ],
          [
            18.605091,
            68.453105
          ],
          [
            18.605262,
            68.45266
          ],
          [
            18.605316,
            68.45253
          ],
          [
            18.605552,
            68.452341
          ],
          [
            18.605649,
            68.452234
          ],
          [
            18.605691,
            68.452148
          ],
          [
            18.605906,
            68.451947
          ],
          [
            18.606035,
            68.451801
          ],
          [
            18.606282,
            68.451675
          ],
          [
            18.606571,
            68.451474
          ],
          [
            18.606625,
            68.451348
          ],
          [
            18.606721,
            68.451273
          ],
          [
            18.606861,
            68.451159
          ],
          [
            18.607204,
            68.450828
          ],
          [
            18.607365,
            68.450626
          ],
          [
            18.60758,
            68.450091
          ],
          [
            18.607816,
            68.449838
          ],
          [
            18.608105,
            68.44959
          ],
          [
            18.60818,
            68.449428
          ],
          [
            18.608374,
            68.449294
          ],
          [
            18.608449,
            68.449078
          ],
          [
            18.608535,
            68.449003
          ],
          [
            18.608427,
            68.448928
          ],
          [
            18.608567,
            68.448802
          ],
          [
            18.608942,
            68.448435
          ],
          [
            18.609221,
            68.448242
          ],
          [
            18.609393,
            68.44812
          ],
          [
            18.609607,
            68.448037
          ],
          [
            18.60964,
            68.447986
          ],
          [
            18.609873,
            68.447713
          ],
          [
            18.610034,
            68.447619
          ],
          [
            18.610338,
            68.447504
          ],
          [
            18.610475,
            68.447454
          ],
          [
            18.610581,
            68.447359
          ],
          [
            18.610724,
            68.447338
          ],
          [
            18.610859,
            68.447251
          ],
          [
            18.61086,
            68.447198
          ],
          [
            18.610922,
            68.447094
          ],
          [
            18.610997,
            68.446973
          ],
          [
            18.611126,
            68.446764
          ],
          [
            18.61127,
            68.446668
          ],
          [
            18.611383,
            68.446607
          ],
          [
            18.61156,
            68.446473
          ],
          [
            18.611861,
            68.446343
          ],
          [
            18.611903,
            68.446252
          ],
          [
            18.611957,
            68.446145
          ],
          [
            18.611989,
            68.446071
          ],
          [
            18.611936,
            68.446
          ],
          [
            18.611796,
            68.445854
          ],
          [
            18.611678,
            68.445735
          ],
          [
            18.611592,
            68.445511
          ],
          [
            18.611582,
            68.4452
          ],
          [
            18.611547,
            68.444923
          ],
          [
            18.611542,
            68.444826
          ],
          [
            18.611603,
            68.444766
          ],
          [
            18.611582,
            68.444657
          ],
          [
            18.61144,
            68.444561
          ],
          [
            18.611292,
            68.444514
          ],
          [
            18.611077,
            68.444439
          ],
          [
            18.610949,
            68.444372
          ],
          [
            18.611013,
            68.444175
          ],
          [
            18.611056,
            68.444108
          ],
          [
            18.611013,
            68.443934
          ],
          [
            18.611099,
            68.443769
          ],
          [
            18.611163,
            68.443639
          ],
          [
            18.611142,
            68.443406
          ],
          [
            18.610982,
            68.443129
          ],
          [
            18.610959,
            68.443083
          ],
          [
            18.610777,
            68.443008
          ],
          [
            18.61068,
            68.442937
          ],
          [
            18.610637,
            68.44287
          ],
          [
            18.610519,
            68.442819
          ],
          [
            18.610337,
            68.442748
          ],
          [
            18.610144,
            68.442621
          ],
          [
            18.610026,
            68.442539
          ],
          [
            18.609844,
            68.442515
          ],
          [
            18.609597,
            68.442558
          ],
          [
            18.609232,
            68.442598
          ],
          [
            18.609017,
            68.44255
          ],
          [
            18.608899,
            68.44246
          ],
          [
            18.608824,
            68.442334
          ],
          [
            18.608588,
            68.442231
          ],
          [
            18.608052,
            68.442144
          ],
          [
            18.607537,
            68.442074
          ],
          [
            18.606936,
            68.44201
          ],
          [
            18.606754,
            68.442003
          ],
          [
            18.606528,
            68.4419
          ],
          [
            18.605831,
            68.441904
          ],
          [
            18.605595,
            68.441943
          ],
          [
            18.605144,
            68.441995
          ],
          [
            18.604726,
            68.441999
          ],
          [
            18.604436,
            68.441951
          ],
          [
            18.603996,
            68.441868
          ],
          [
            18.603546,
            68.441849
          ],
          [
            18.602977,
            68.441908
          ],
          [
            18.602569,
            68.441975
          ],
          [
            18.602376,
            68.44192
          ],
          [
            18.602011,
            68.441813
          ],
          [
            18.601743,
            68.441734
          ],
          [
            18.601679,
            68.441679
          ],
          [
            18.601153,
            68.441569
          ],
          [
            18.60066,
            68.441439
          ],
          [
            18.600381,
            68.441368
          ],
          [
            18.600091,
            68.441171
          ],
          [
            18.600016,
            68.441135
          ],
          [
            18.599651,
            68.441029
          ],
          [
            18.599276,
            68.440918
          ],
          [
            18.598857,
            68.440757
          ],
          [
            18.59861,
            68.440532
          ],
          [
            18.598605,
            68.440481
          ],
          [
            18.598613,
            68.440355
          ],
          [
            18.598545,
            68.440294
          ],
          [
            18.598408,
            68.440205
          ],
          [
            18.598424,
            68.440098
          ],
          [
            18.598597,
            68.43996
          ],
          [
            18.59895,
            68.439831
          ],
          [
            18.600396,
            68.439534
          ],
          [
            18.601116,
            68.439336
          ],
          [
            18.601785,
            68.439133
          ],
          [
            18.602199,
            68.439005
          ],
          [
            18.602381,
            68.438871
          ],
          [
            18.602566,
            68.438689
          ],
          [
            18.602652,
            68.438496
          ],
          [
            18.602482,
            68.438289
          ],
          [
            18.602091,
            68.438053
          ],
          [
            18.601777,
            68.43779
          ],
          [
            18.601803,
            68.437595
          ],
          [
            18.602186,
            68.437427
          ],
          [
            18.602806,
            68.437247
          ],
          [
            18.603286,
            68.437041
          ],
          [
            18.603939,
            68.436643
          ],
          [
            18.604611,
            68.436436
          ],
          [
            18.605574,
            68.436253
          ],
          [
            18.606344,
            68.436121
          ],
          [
            18.606828,
            68.436064
          ],
          [
            18.608648,
            68.435785
          ],
          [
            18.609375,
            68.435779
          ],
          [
            18.609887,
            68.435841
          ],
          [
            18.61038,
            68.435933
          ],
          [
            18.612034,
            68.435842
          ],
          [
            18.612797,
            68.435684
          ],
          [
            18.613808,
            68.435532
          ],
          [
            18.614011,
            68.435524
          ],
          [
            18.615092,
            68.435624
          ],
          [
            18.615621,
            68.435631
          ],
          [
            18.616138,
            68.435572
          ],
          [
            18.616696,
            68.435504
          ],
          [
            18.617361,
            68.435464
          ],
          [
            18.618052,
            68.43546
          ],
          [
            18.61862,
            68.435442
          ],
          [
            18.619825,
            68.435287
          ],
          [
            18.620986,
            68.435068
          ],
          [
            18.622855,
            68.434886
          ],
          [
            18.624974,
            68.434515
          ],
          [
            18.625585,
            68.434439
          ],
          [
            18.626123,
            68.434414
          ],
          [
            18.626925,
            68.434338
          ],
          [
            18.628389,
            68.434258
          ],
          [
            18.62913,
            68.434138
          ],
          [
            18.629814,
            68.433946
          ],
          [
            18.63145,
            68.433623
          ],
          [
            18.633382,
            68.433113
          ],
          [
            18.635041,
            68.432733
          ],
          [
            18.635669,
            68.432628
          ],
          [
            18.636179,
            68.432625
          ],
          [
            18.636647,
            68.432563
          ],
          [
            18.637229,
            68.432395
          ],
          [
            18.638596,
            68.432181
          ],
          [
            18.639035,
            68.432089
          ],
          [
            18.639916,
            68.431994
          ],
          [
            18.640587,
            68.431895
          ],
          [
            18.641787,
            68.431678
          ],
          [
            18.642475,
            68.431622
          ],
          [
            18.642988,
            68.431662
          ],
          [
            18.643873,
            68.431829
          ],
          [
            18.644826,
            68.432014
          ],
          [
            18.64522,
            68.432066
          ],
          [
            18.645505,
            68.432088
          ],
          [
            18.645794,
            68.432111
          ],
          [
            18.646081,
            68.432024
          ],
          [
            18.646368,
            68.432008
          ],
          [
            18.646835,
            68.432025
          ],
          [
            18.647323,
            68.432075
          ],
          [
            18.647659,
            68.432079
          ],
          [
            18.647978,
            68.432056
          ],
          [
            18.648216,
            68.431999
          ],
          [
            18.648375,
            68.431934
          ],
          [
            18.648361,
            68.431862
          ],
          [
            18.648222,
            68.431781
          ],
          [
            18.647932,
            68.43174
          ],
          [
            18.647514,
            68.431698
          ],
          [
            18.647007,
            68.431472
          ],
          [
            18.646806,
            68.431458
          ],
          [
            18.646478,
            68.431358
          ],
          [
            18.64636,
            68.431308
          ],
          [
            18.646213,
            68.43125
          ],
          [
            18.646291,
            68.431146
          ],
          [
            18.646519,
            68.431083
          ],
          [
            18.646693,
            68.431026
          ],
          [
            18.646781,
            68.430961
          ],
          [
            18.646747,
            68.43085
          ],
          [
            18.646489,
            68.430689
          ],
          [
            18.646478,
            68.430583
          ],
          [
            18.646709,
            68.430348
          ],
          [
            18.646629,
            68.430221
          ],
          [
            18.646537,
            68.430091
          ],
          [
            18.646591,
            68.429989
          ],
          [
            18.646671,
            68.429785
          ],
          [
            18.6469,
            68.429652
          ],
          [
            18.647373,
            68.42954
          ],
          [
            18.648485,
            68.429358
          ],
          [
            18.64935,
            68.429261
          ],
          [
            18.650734,
            68.429069
          ],
          [
            18.651175,
            68.429014
          ],
          [
            18.651497,
            68.428918
          ],
          [
            18.651785,
            68.428675
          ],
          [
            18.651823,
            68.428615
          ],
          [
            18.651953,
            68.428416
          ],
          [
            18.652342,
            68.42821
          ],
          [
            18.652956,
            68.428047
          ],
          [
            18.65341,
            68.427851
          ],
          [
            18.65413,
            68.427132
          ],
          [
            18.654925,
            68.426494
          ],
          [
            18.656126,
            68.426138
          ],
          [
            18.656738,
            68.425982
          ],
          [
            18.657308,
            68.425763
          ],
          [
            18.658086,
            68.425327
          ],
          [
            18.658528,
            68.424874
          ],
          [
            18.658763,
            68.424644
          ],
          [
            18.658785,
            68.424623
          ],
          [
            18.658812,
            68.424593
          ],
          [
            18.658995,
            68.424473
          ],
          [
            18.660019,
            68.424264
          ],
          [
            18.660491,
            68.424107
          ],
          [
            18.661809,
            68.423465
          ],
          [
            18.662341,
            68.423306
          ],
          [
            18.662811,
            68.42313
          ],
          [
            18.662858,
            68.423
          ],
          [
            18.662817,
            68.422781
          ],
          [
            18.662771,
            68.422654
          ],
          [
            18.662719,
            68.422566
          ],
          [
            18.662801,
            68.422502
          ],
          [
            18.662901,
            68.42242
          ],
          [
            18.663371,
            68.422284
          ],
          [
            18.663788,
            68.422281
          ],
          [
            18.664504,
            68.422332
          ],
          [
            18.665239,
            68.422407
          ],
          [
            18.665929,
            68.422472
          ],
          [
            18.666389,
            68.422461
          ],
          [
            18.668063,
            68.422371
          ],
          [
            18.668738,
            68.422294
          ],
          [
            18.669214,
            68.422177
          ],
          [
            18.672652,
            68.421191
          ],
          [
            18.673363,
            68.421005
          ],
          [
            18.673969,
            68.420878
          ],
          [
            18.674576,
            68.420841
          ],
          [
            18.67557,
            68.420855
          ],
          [
            18.676774,
            68.420818
          ],
          [
            18.677662,
            68.420686
          ],
          [
            18.678139,
            68.420577
          ],
          [
            18.678739,
            68.420402
          ],
          [
            18.679059,
            68.420232
          ],
          [
            18.679214,
            68.420016
          ],
          [
            18.678344,
            68.419894
          ],
          [
            18.678095,
            68.419781
          ],
          [
            18.67858,
            68.419467
          ],
          [
            18.67863,
            68.419266
          ],
          [
            18.678264,
            68.419036
          ],
          [
            18.67822,
            68.41855
          ],
          [
            18.677802,
            68.418163
          ],
          [
            18.677763,
            68.417872
          ],
          [
            18.679538,
            68.416256
          ],
          [
            18.679765,
            68.415998
          ],
          [
            18.679917,
            68.415936
          ],
          [
            18.680247,
            68.415844
          ],
          [
            18.680237,
            68.415838
          ],
          [
            18.681082,
            68.415658
          ],
          [
            18.681654,
            68.415284
          ],
          [
            18.682075,
            68.415136
          ],
          [
            18.682295,
            68.41498
          ],
          [
            18.682179,
            68.414708
          ],
          [
            18.682217,
            68.414667
          ],
          [
            18.682498,
            68.414402
          ],
          [
            18.682657,
            68.414126
          ],
          [
            18.682974,
            68.413811
          ],
          [
            18.68416,
            68.413014
          ],
          [
            18.6845,
            68.412694
          ],
          [
            18.684799,
            68.412229
          ],
          [
            18.685247,
            68.411746
          ],
          [
            18.685557,
            68.41148
          ],
          [
            18.685954,
            68.411296
          ],
          [
            18.686357,
            68.411031
          ],
          [
            18.686726,
            68.410524
          ],
          [
            18.687069,
            68.410255
          ],
          [
            18.687367,
            68.410103
          ],
          [
            18.687604,
            68.409894
          ],
          [
            18.687751,
            68.409696
          ],
          [
            18.687722,
            68.409438
          ],
          [
            18.687531,
            68.409256
          ],
          [
            18.687374,
            68.409113
          ],
          [
            18.687353,
            68.408954
          ],
          [
            18.687419,
            68.408495
          ],
          [
            18.687332,
            68.4084
          ],
          [
            18.687374,
            68.408277
          ],
          [
            18.687232,
            68.407927
          ],
          [
            18.686995,
            68.407608
          ],
          [
            18.686677,
            68.407001
          ],
          [
            18.686431,
            68.406635
          ],
          [
            18.686329,
            68.40647
          ],
          [
            18.686217,
            68.406291
          ],
          [
            18.686099,
            68.406087
          ],
          [
            18.685881,
            68.405711
          ],
          [
            18.685986,
            68.405695
          ],
          [
            18.686226,
            68.405692
          ],
          [
            18.686618,
            68.405659
          ],
          [
            18.686919,
            68.40561
          ],
          [
            18.687075,
            68.40552
          ],
          [
            18.686968,
            68.405239
          ],
          [
            18.686672,
            68.405064
          ],
          [
            18.68658,
            68.404959
          ],
          [
            18.686518,
            68.404814
          ],
          [
            18.686527,
            68.404731
          ],
          [
            18.686562,
            68.404595
          ],
          [
            18.686681,
            68.404509
          ],
          [
            18.687373,
            68.404198
          ],
          [
            18.687997,
            68.403687
          ],
          [
            18.688229,
            68.403562
          ],
          [
            18.689029,
            68.403233
          ],
          [
            18.689296,
            68.40309
          ],
          [
            18.689341,
            68.402999
          ],
          [
            18.689359,
            68.40295
          ],
          [
            18.68949,
            68.402867
          ],
          [
            18.68888,
            68.402864
          ],
          [
            18.688678,
            68.402823
          ],
          [
            18.688594,
            68.402736
          ],
          [
            18.688574,
            68.402709
          ],
          [
            18.688521,
            68.402579
          ],
          [
            18.688504,
            68.402455
          ],
          [
            18.688575,
            68.402334
          ],
          [
            18.68863,
            68.402164
          ],
          [
            18.688564,
            68.402007
          ],
          [
            18.688635,
            68.401835
          ],
          [
            18.688712,
            68.401722
          ],
          [
            18.688769,
            68.40159
          ],
          [
            18.688623,
            68.401293
          ],
          [
            18.688549,
            68.401216
          ],
          [
            18.688548,
            68.401121
          ],
          [
            18.688651,
            68.400991
          ],
          [
            18.688807,
            68.400841
          ],
          [
            18.689005,
            68.400743
          ],
          [
            18.689243,
            68.400681
          ],
          [
            18.689589,
            68.400589
          ],
          [
            18.689699,
            68.400516
          ],
          [
            18.689671,
            68.400352
          ],
          [
            18.689671,
            68.400196
          ],
          [
            18.689928,
            68.400007
          ],
          [
            18.690175,
            68.399915
          ],
          [
            18.69047,
            68.399851
          ],
          [
            18.690916,
            68.399839
          ],
          [
            18.691362,
            68.399875
          ],
          [
            18.69177,
            68.399879
          ],
          [
            18.692067,
            68.399827
          ],
          [
            18.692322,
            68.399666
          ],
          [
            18.692412,
            68.399512
          ],
          [
            18.692593,
            68.399402
          ],
          [
            18.692967,
            68.399363
          ],
          [
            18.693313,
            68.399282
          ],
          [
            18.693398,
            68.399102
          ],
          [
            18.693396,
            68.398925
          ],
          [
            18.693244,
            68.398867
          ],
          [
            18.693142,
            68.398794
          ],
          [
            18.693372,
            68.398657
          ],
          [
            18.693389,
            68.398589
          ],
          [
            18.693105,
            68.398514
          ],
          [
            18.692538,
            68.39851
          ],
          [
            18.692136,
            68.398416
          ],
          [
            18.691823,
            68.398217
          ],
          [
            18.691636,
            68.39817
          ],
          [
            18.691157,
            68.398147
          ],
          [
            18.690736,
            68.398087
          ],
          [
            18.690628,
            68.398055
          ],
          [
            18.690425,
            68.397955
          ],
          [
            18.690308,
            68.397862
          ],
          [
            18.690349,
            68.397802
          ],
          [
            18.690402,
            68.397745
          ],
          [
            18.690506,
            68.397714
          ],
          [
            18.691137,
            68.397579
          ],
          [
            18.691818,
            68.397451
          ],
          [
            18.693488,
            68.397242
          ],
          [
            18.693982,
            68.397
          ],
          [
            18.694513,
            68.396678
          ],
          [
            18.694852,
            68.396403
          ],
          [
            18.695116,
            68.396225
          ],
          [
            18.695145,
            68.396194
          ],
          [
            18.69556,
            68.395927
          ],
          [
            18.696108,
            68.395677
          ],
          [
            18.697952,
            68.395042
          ],
          [
            18.699093,
            68.394687
          ],
          [
            18.699807,
            68.394508
          ],
          [
            18.700518,
            68.394212
          ],
          [
            18.700881,
            68.393982
          ],
          [
            18.701703,
            68.393623
          ],
          [
            18.702834,
            68.393284
          ],
          [
            18.70398,
            68.393072
          ],
          [
            18.704502,
            68.392901
          ],
          [
            18.704898,
            68.392733
          ],
          [
            18.705304,
            68.392576
          ],
          [
            18.706411,
            68.392122
          ],
          [
            18.70753,
            68.391807
          ],
          [
            18.707964,
            68.391608
          ],
          [
            18.709885,
            68.391117
          ],
          [
            18.71049,
            68.390939
          ],
          [
            18.711846,
            68.390476
          ],
          [
            18.712826,
            68.390245
          ],
          [
            18.713475,
            68.38989
          ],
          [
            18.713872,
            68.389731
          ],
          [
            18.714343,
            68.389561
          ],
          [
            18.71575,
            68.389185
          ],
          [
            18.716278,
            68.388863
          ],
          [
            18.716747,
            68.388297
          ],
          [
            18.71738,
            68.388069
          ],
          [
            18.717581,
            68.387901
          ],
          [
            18.717703,
            68.387673
          ],
          [
            18.718244,
            68.387557
          ],
          [
            18.718969,
            68.387174
          ],
          [
            18.718861,
            68.386982
          ],
          [
            18.719464,
            68.386896
          ],
          [
            18.720024,
            68.386774
          ],
          [
            18.720506,
            68.386618
          ],
          [
            18.720993,
            68.386607
          ],
          [
            18.722211,
            68.386419
          ],
          [
            18.722766,
            68.386378
          ],
          [
            18.724217,
            68.386127
          ],
          [
            18.724712,
            68.386064
          ],
          [
            18.726313,
            68.385889
          ],
          [
            18.727938,
            68.385764
          ],
          [
            18.728467,
            68.385705
          ],
          [
            18.729375,
            68.385527
          ],
          [
            18.730227,
            68.385413
          ],
          [
            18.730787,
            68.385426
          ],
          [
            18.731232,
            68.385511
          ],
          [
            18.731419,
            68.385526
          ],
          [
            18.731814,
            68.385557
          ],
          [
            18.732421,
            68.385194
          ],
          [
            18.732849,
            68.385043
          ],
          [
            18.733954,
            68.384785
          ],
          [
            18.734503,
            68.384619
          ],
          [
            18.735032,
            68.384497
          ],
          [
            18.736485,
            68.384209
          ],
          [
            18.73709,
            68.383968
          ],
          [
            18.73754,
            68.383689
          ],
          [
            18.737724,
            68.383514
          ],
          [
            18.738057,
            68.383289
          ],
          [
            18.738485,
            68.383077
          ],
          [
            18.73863,
            68.38286
          ],
          [
            18.738807,
            68.382407
          ],
          [
            18.738472,
            68.382119
          ],
          [
            18.738857,
            68.381935
          ],
          [
            18.739556,
            68.381798
          ],
          [
            18.740671,
            68.381379
          ],
          [
            18.740964,
            68.381051
          ],
          [
            18.74115,
            68.38076
          ],
          [
            18.741405,
            68.38057
          ],
          [
            18.741834,
            68.380328
          ],
          [
            18.741999,
            68.380131
          ],
          [
            18.742533,
            68.380202
          ],
          [
            18.744016,
            68.379739
          ],
          [
            18.745289,
            68.379109
          ],
          [
            18.746308,
            68.378754
          ],
          [
            18.7468,
            68.378268
          ],
          [
            18.746923,
            68.377931
          ],
          [
            18.747054,
            68.377757
          ],
          [
            18.748333,
            68.377032
          ],
          [
            18.750262,
            68.376321
          ],
          [
            18.750559,
            68.376133
          ],
          [
            18.751357,
            68.375713
          ],
          [
            18.751496,
            68.375521
          ],
          [
            18.751787,
            68.375277
          ],
          [
            18.752902,
            68.374805
          ],
          [
            18.753428,
            68.374414
          ],
          [
            18.754232,
            68.373885
          ],
          [
            18.754909,
            68.373626
          ],
          [
            18.75508,
            68.373653
          ],
          [
            18.755407,
            68.373717
          ],
          [
            18.755648,
            68.373718
          ],
          [
            18.756047,
            68.373374
          ],
          [
            18.756654,
            68.372931
          ],
          [
            18.756837,
            68.372829
          ],
          [
            18.757262,
            68.372708
          ],
          [
            18.75832,
            68.372448
          ],
          [
            18.758821,
            68.372331
          ],
          [
            18.75912,
            68.372209
          ],
          [
            18.76031,
            68.372052
          ],
          [
            18.762912,
            68.371714
          ],
          [
            18.764179,
            68.371544
          ],
          [
            18.766805,
            68.371134
          ],
          [
            18.768506,
            68.370943
          ],
          [
            18.768717,
            68.370878
          ],
          [
            18.768815,
            68.370826
          ],
          [
            18.769259,
            68.370468
          ],
          [
            18.769475,
            68.370425
          ],
          [
            18.769785,
            68.370053
          ],
          [
            18.770536,
            68.369372
          ],
          [
            18.772116,
            68.368705
          ],
          [
            18.772539,
            68.36857
          ],
          [
            18.773789,
            68.368247
          ],
          [
            18.778037,
            68.367482
          ],
          [
            18.778842,
            68.367314
          ],
          [
            18.779616,
            68.367076
          ],
          [
            18.780113,
            68.366726
          ],
          [
            18.780399,
            68.366444
          ],
          [
            18.781208,
            68.364964
          ],
          [
            18.78198,
            68.364132
          ],
          [
            18.782202,
            68.363799
          ],
          [
            18.782259,
            68.363392
          ],
          [
            18.782069,
            68.362774
          ],
          [
            18.781699,
            68.36247
          ],
          [
            18.78027,
            68.361654
          ],
          [
            18.779223,
            68.361221
          ],
          [
            18.779006,
            68.361071
          ],
          [
            18.778767,
            68.360781
          ],
          [
            18.778354,
            68.360681
          ],
          [
            18.776503,
            68.360356
          ],
          [
            18.775309,
            68.360168
          ],
          [
            18.775024,
            68.360093
          ],
          [
            18.774862,
            68.360003
          ],
          [
            18.774938,
            68.359905
          ],
          [
            18.775096,
            68.359826
          ],
          [
            18.775259,
            68.359756
          ],
          [
            18.775507,
            68.35967
          ],
          [
            18.775771,
            68.359596
          ],
          [
            18.77603,
            68.359522
          ],
          [
            18.776438,
            68.359393
          ],
          [
            18.776706,
            68.359346
          ],
          [
            18.777731,
            68.359146
          ],
          [
            18.777907,
            68.3591
          ],
          [
            18.778284,
            68.359002
          ],
          [
            18.779524,
            68.358615
          ],
          [
            18.779832,
            68.358498
          ],
          [
            18.780151,
            68.3584
          ],
          [
            18.780347,
            68.358381
          ],
          [
            18.780846,
            68.35831
          ]
        ]
      }
    }
  ]
}
