{
  "type": "FeatureCollection",
  "features": [
    {
      "type": "Feature",
      "properties": {
        "trailId": "nordkalottleden",
        "sectionId": "nordkalottleden-full-31-gautelis-skoaddejavre",
        "source": "E1 Hiking Europe GPX",
        "e1Stage": "04.06 Gautelis-hytta - Skoaddejavrehytta",
        "sourceUrl": "https://e1.hiking-europe.eu/images/gpx/848/no-sf-s04-06gautelis-hytta-skoaddejavrehytta.gpx",
        "sourceFormat": "gpx",
        "segment": 1
      },
      "geometry": {
        "type": "LineString",
        "coordinates": [
          [
            17.83836,
            68.03877
          ],
          [
            17.83764,
            68.03905
          ],
          [
            17.837089,
            68.039407
          ],
          [
            17.836765,
            68.039937
          ],
          [
            17.836128,
            68.040512
          ],
          [
            17.834969,
            68.041667
          ],
          [
            17.835077,
            68.042317
          ],
          [
            17.834905,
            68.042646
          ],
          [
            17.834004,
            68.042847
          ],
          [
            17.832952,
            68.043801
          ],
          [
            17.830785,
            68.044852
          ],
          [
            17.82997,
            68.045791
          ],
          [
            17.831193,
            68.047668
          ],
          [
            17.831558,
            68.048599
          ],
          [
            17.831343,
            68.050211
          ],
          [
            17.832566,
            68.050957
          ],
          [
            17.83248,
            68.052047
          ],
          [
            17.832432,
            68.052475
          ],
          [
            17.831118,
            68.053834
          ],
          [
            17.831152,
            68.054172
          ],
          [
            17.831152,
            68.054172
          ],
          [
            17.828575,
            68.056386
          ],
          [
            17.826494,
            68.05791
          ],
          [
            17.826601,
            68.058326
          ],
          [
            17.825893,
            68.059016
          ],
          [
            17.825764,
            68.059417
          ],
          [
            17.824863,
            68.059673
          ],
          [
            17.825378,
            68.060539
          ],
          [
            17.82439,
            68.060945
          ],
          [
            17.823146,
            68.061918
          ],
          [
            17.822503,
            68.062936
          ],
          [
            17.8227,
            68.063316
          ],
          [
            17.824395,
            68.064574
          ],
          [
            17.829738,
            68.06439
          ],
          [
            17.830891,
            68.064969
          ],
          [
            17.829416,
            68.065705
          ],
          [
            17.825511,
            68.066161
          ],
          [
            17.82579,
            68.066674
          ],
          [
            17.826133,
            68.066971
          ],
          [
            17.825747,
            68.06774
          ],
          [
            17.825918,
            68.068854
          ],
          [
            17.823472,
            68.069255
          ],
          [
            17.822721,
            68.069904
          ],
          [
            17.822528,
            68.070457
          ],
          [
            17.822635,
            68.070882
          ],
          [
            17.820747,
            68.07198
          ],
          [
            17.820168,
            68.072533
          ],
          [
            17.820275,
            68.072885
          ],
          [
            17.819824,
            68.073518
          ],
          [
            17.819588,
            68.074544
          ],
          [
            17.81858,
            68.074933
          ],
          [
            17.81741,
            68.0758
          ],
          [
            17.816304,
            68.076173
          ],
          [
            17.814954,
            68.076326
          ],
          [
            17.812475,
            68.076389
          ],
          [
            17.808377,
            68.076565
          ],
          [
            17.805759,
            68.076925
          ],
          [
            17.803677,
            68.077294
          ],
          [
            17.800759,
            68.078007
          ],
          [
            17.798802,
            68.078122
          ],
          [
            17.795309,
            68.078672
          ],
          [
            17.791382,
            68.0788
          ],
          [
            17.787649,
            68.079104
          ],
          [
            17.781683,
            68.07876
          ],
          [
            17.781343,
            68.078703
          ],
          [
            17.78098,
            68.078522
          ],
          [
            17.779404,
            68.077738
          ],
          [
            17.779404,
            68.077161
          ],
          [
            17.779188,
            68.076684
          ],
          [
            17.77964,
            68.076543
          ],
          [
            17.780262,
            68.076433
          ],
          [
            17.780605,
            68.076359
          ],
          [
            17.781035,
            68.076301
          ],
          [
            17.781351,
            68.076315
          ],
          [
            17.781823,
            68.076339
          ],
          [
            17.78229,
            68.076397
          ],
          [
            17.782907,
            68.076391
          ],
          [
            17.7831,
            68.076355
          ],
          [
            17.783357,
            68.076297
          ],
          [
            17.78355,
            68.076213
          ],
          [
            17.783738,
            68.076071
          ],
          [
            17.783786,
            68.075934
          ],
          [
            17.78376,
            68.075802
          ],
          [
            17.783786,
            68.0757
          ],
          [
            17.783776,
            68.075532
          ],
          [
            17.783636,
            68.075436
          ],
          [
            17.78339,
            68.07537
          ],
          [
            17.783121,
            68.075342
          ],
          [
            17.782858,
            68.075282
          ],
          [
            17.782757,
            68.075197
          ],
          [
            17.782563,
            68.075061
          ],
          [
            17.782338,
            68.074999
          ],
          [
            17.782124,
            68.074907
          ],
          [
            17.781925,
            68.074771
          ],
          [
            17.781898,
            68.074667
          ],
          [
            17.781802,
            68.074582
          ],
          [
            17.781539,
            68.07454
          ],
          [
            17.781222,
            68.074538
          ],
          [
            17.780917,
            68.074532
          ],
          [
            17.780707,
            68.074496
          ],
          [
            17.780573,
            68.074426
          ],
          [
            17.780578,
            68.074336
          ],
          [
            17.780745,
            68.074248
          ],
          [
            17.78082,
            68.074176
          ],
          [
            17.780267,
            68.07402
          ],
          [
            17.779007,
            68.073585
          ],
          [
            17.777413,
            68.07301
          ],
          [
            17.776274,
            68.072588
          ],
          [
            17.776376,
            68.072479
          ],
          [
            17.776692,
            68.072384
          ],
          [
            17.776874,
            68.072274
          ],
          [
            17.776995,
            68.072196
          ],
          [
            17.777102,
            68.072053
          ],
          [
            17.776963,
            68.07186
          ],
          [
            17.776789,
            68.071772
          ],
          [
            17.776617,
            68.071688
          ],
          [
            17.776413,
            68.071538
          ],
          [
            17.776153,
            68.0714
          ],
          [
            17.776008,
            68.071344
          ],
          [
            17.775799,
            68.071334
          ],
          [
            17.775549,
            68.071358
          ],
          [
            17.775174,
            68.07141
          ],
          [
            17.77456,
            68.071421
          ],
          [
            17.773991,
            68.071387
          ],
          [
            17.773428,
            68.071314
          ],
          [
            17.772907,
            68.071204
          ],
          [
            17.771647,
            68.07088
          ],
          [
            17.770689,
            68.070658
          ],
          [
            17.769801,
            68.070412
          ],
          [
            17.769429,
            68.070319
          ],
          [
            17.768978,
            68.070213
          ],
          [
            17.768608,
            68.070112
          ],
          [
            17.768278,
            68.069979
          ],
          [
            17.76798,
            68.069803
          ],
          [
            17.767677,
            68.06957
          ],
          [
            17.767422,
            68.069271
          ],
          [
            17.767189,
            68.068992
          ],
          [
            17.767098,
            68.068708
          ],
          [
            17.766996,
            68.068411
          ],
          [
            17.766856,
            68.068151
          ],
          [
            17.766666,
            68.067851
          ],
          [
            17.766462,
            68.067582
          ],
          [
            17.766186,
            68.067339
          ],
          [
            17.766017,
            68.067217
          ],
          [
            17.765875,
            68.067117
          ],
          [
            17.765861,
            68.067029
          ],
          [
            17.765987,
            68.066884
          ],
          [
            17.766156,
            68.066742
          ],
          [
            17.76639,
            68.066436
          ],
          [
            17.766738,
            68.065956
          ],
          [
            17.767025,
            68.065502
          ],
          [
            17.767103,
            68.065339
          ],
          [
            17.767087,
            68.065192
          ],
          [
            17.767044,
            68.065048
          ],
          [
            17.766947,
            68.064869
          ],
          [
            17.766813,
            68.064733
          ],
          [
            17.766658,
            68.064614
          ],
          [
            17.766476,
            68.064455
          ],
          [
            17.76621,
            68.064238
          ],
          [
            17.765939,
            68.064107
          ],
          [
            17.765679,
            68.064007
          ],
          [
            17.765314,
            68.063925
          ],
          [
            17.763257,
            68.063654
          ],
          [
            17.762771,
            68.063594
          ],
          [
            17.762262,
            68.063517
          ],
          [
            17.761803,
            68.063418
          ],
          [
            17.76142,
            68.063286
          ],
          [
            17.760942,
            68.063107
          ],
          [
            17.760537,
            68.063003
          ],
          [
            17.759872,
            68.062876
          ],
          [
            17.75914,
            68.062744
          ],
          [
            17.758078,
            68.062538
          ],
          [
            17.75646,
            68.062196
          ],
          [
            17.755897,
            68.062139
          ],
          [
            17.755178,
            68.062127
          ],
          [
            17.754706,
            68.062127
          ],
          [
            17.754143,
            68.062278
          ],
          [
            17.753445,
            68.062542
          ],
          [
            17.752748,
            68.062863
          ],
          [
            17.751364,
            68.06345
          ],
          [
            17.750666,
            68.063835
          ],
          [
            17.749851,
            68.064332
          ],
          [
            17.748542,
            68.064089
          ],
          [
            17.748242,
            68.063917
          ],
          [
            17.746182,
            68.063412
          ],
          [
            17.744653,
            68.063291
          ],
          [
            17.743768,
            68.063128
          ],
          [
            17.74019,
            68.062754
          ],
          [
            17.736241,
            68.062617
          ],
          [
            17.735018,
            68.062417
          ],
          [
            17.734396,
            68.062128
          ],
          [
            17.731091,
            68.061615
          ],
          [
            17.729804,
            68.061519
          ],
          [
            17.728366,
            68.061247
          ],
          [
            17.723045,
            68.06091
          ],
          [
            17.718646,
            68.060325
          ],
          [
            17.717766,
            68.060284
          ],
          [
            17.712295,
            68.059314
          ],
          [
            17.707874,
            68.058946
          ],
          [
            17.705471,
            68.058809
          ],
          [
            17.703883,
            68.058473
          ],
          [
            17.701501,
            68.058529
          ],
          [
            17.700836,
            68.058336
          ],
          [
            17.699356,
            68.058649
          ],
          [
            17.697703,
            68.058625
          ],
          [
            17.696974,
            68.058392
          ],
          [
            17.693777,
            68.05804
          ],
          [
            17.692275,
            68.057839
          ],
          [
            17.691073,
            68.057847
          ],
          [
            17.68985,
            68.057975
          ],
          [
            17.687876,
            68.057639
          ],
          [
            17.685837,
            68.056628
          ],
          [
            17.683606,
            68.056131
          ],
          [
            17.681546,
            68.056203
          ],
          [
            17.679872,
            68.055923
          ],
          [
            17.678842,
            68.055498
          ],
          [
            17.676682,
            68.055314
          ],
          [
            17.675345,
            68.054961
          ],
          [
            17.669536,
            68.054649
          ],
          [
            17.668852,
            68.054825
          ],
          [
            17.666361,
            68.055058
          ],
          [
            17.664633,
            68.05501
          ],
          [
            17.661726,
            68.054737
          ],
          [
            17.659934,
            68.05432
          ],
          [
            17.656383,
            68.054023
          ],
          [
            17.654108,
            68.054052
          ],
          [
            17.653143,
            68.053967
          ],
          [
            17.652177,
            68.053747
          ],
          [
            17.648529,
            68.053739
          ],
          [
            17.645901,
            68.053883
          ],
          [
            17.643025,
            68.05432
          ],
          [
            17.641834,
            68.054633
          ],
          [
            17.641083,
            68.054733
          ],
          [
            17.638412,
            68.054581
          ],
          [
            17.63706,
            68.054597
          ],
          [
            17.634281,
            68.0544
          ],
          [
            17.633337,
            68.054236
          ],
          [
            17.630837,
            68.054713
          ],
          [
            17.629443,
            68.054881
          ],
          [
            17.628638,
            68.05519
          ],
          [
            17.624904,
            68.055695
          ],
          [
            17.620205,
            68.056205
          ],
          [
            17.619422,
            68.056197
          ],
          [
            17.618725,
            68.056148
          ],
          [
            17.615098,
            68.056225
          ],
          [
            17.612051,
            68.056513
          ],
          [
            17.609283,
            68.056582
          ],
          [
            17.607298,
            68.056722
          ],
          [
            17.605775,
            68.056758
          ],
          [
            17.602503,
            68.057063
          ],
          [
            17.60026,
            68.057119
          ],
          [
            17.599552,
            68.057215
          ],
          [
            17.598404,
            68.057576
          ],
          [
            17.596505,
            68.057925
          ],
          [
            17.595593,
            68.058357
          ],
          [
            17.594531,
            68.058494
          ],
          [
            17.593555,
            68.058831
          ],
          [
            17.592793,
            68.058867
          ],
          [
            17.592771,
            68.059676
          ]
        ]
      }
    }
  ]
}
