{
  "type": "FeatureCollection",
  "features": [
    {
      "type": "Feature",
      "properties": {
        "trailId": "nordkalottleden",
        "sectionId": "nordkalottleden-full-28-salka-duolbanjunni-junction",
        "sectionOrder": 28,
        "source": "partial shared Kungsleden geometry",
        "splitPolicy": "First 42% of Sälka-Singi line used as planning reference for Sälka-Duolbanjunni junction.",
        "segment": 1
      },
      "geometry": {
        "type": "LineString",
        "coordinates": [
          [
            18.282492,
            67.946409
          ],
          [
            18.282483,
            67.945971
          ],
          [
            18.282729,
            67.945793
          ],
          [
            18.282873,
            67.945184
          ],
          [
            18.283364,
            67.944722
          ],
          [
            18.282889,
            67.943642
          ],
          [
            18.282991,
            67.943284
          ],
          [
            18.283537,
            67.94269
          ],
          [
            18.282394,
            67.941175
          ],
          [
            18.282871,
            67.939765
          ],
          [
            18.282715,
            67.93917
          ],
          [
            18.283307,
            67.938276
          ],
          [
            18.283214,
            67.938059
          ],
          [
            18.282603,
            67.9378
          ],
          [
            18.282304,
            67.937323
          ],
          [
            18.282527,
            67.936812
          ],
          [
            18.282115,
            67.935627
          ],
          [
            18.282529,
            67.934738
          ],
          [
            18.282337,
            67.934435
          ],
          [
            18.282541,
            67.934308
          ],
          [
            18.282519,
            67.932829
          ],
          [
            18.283054,
            67.932215
          ],
          [
            18.284799,
            67.931329
          ],
          [
            18.285531,
            67.930765
          ],
          [
            18.285887,
            67.930397
          ],
          [
            18.286091,
            67.929723
          ],
          [
            18.286786,
            67.929253
          ],
          [
            18.287101,
            67.928704
          ],
          [
            18.286203,
            67.927783
          ],
          [
            18.286005,
            67.927224
          ],
          [
            18.286304,
            67.926976
          ],
          [
            18.285962,
            67.926278
          ],
          [
            18.28614,
            67.925856
          ],
          [
            18.287474,
            67.924608
          ],
          [
            18.287397,
            67.92435
          ],
          [
            18.287575,
            67.92402
          ],
          [
            18.287973,
            67.92371
          ],
          [
            18.287801,
            67.92304
          ],
          [
            18.287111,
            67.922325
          ],
          [
            18.287229,
            67.922124
          ],
          [
            18.287675,
            67.921842
          ],
          [
            18.289215,
            67.921439
          ],
          [
            18.290387,
            67.921023
          ],
          [
            18.2916,
            67.920388
          ],
          [
            18.293197,
            67.919984
          ],
          [
            18.294826,
            67.919777
          ],
          [
            18.295639,
            67.919141
          ],
          [
            18.296764,
            67.918537
          ],
          [
            18.299596,
            67.917331
          ],
          [
            18.299959,
            67.917007
          ],
          [
            18.301489,
            67.916213
          ],
          [
            18.303119,
            67.914911
          ],
          [
            18.304208,
            67.91439
          ],
          [
            18.304739,
            67.914006
          ],
          [
            18.307815,
            67.911601
          ],
          [
            18.308302,
            67.911298
          ],
          [
            18.308625,
            67.911231
          ],
          [
            18.310146,
            67.908423
          ],
          [
            18.310929,
            67.907774
          ],
          [
            18.312669,
            67.906794
          ],
          [
            18.313531,
            67.906467
          ],
          [
            18.313632,
            67.906347
          ]
        ]
      }
    }
  ]
}
