{
  "type": "FeatureCollection",
  "features": [
    {
      "type": "Feature",
      "properties": {
        "trailId": "nordkalottleden",
        "sectionId": "nordkalottleden-full-33-sitashytta-paurohytta",
        "source": "E1 Hiking Europe GPX",
        "e1Stage": "04.08 Sitashytta - Paurohytta",
        "sourceUrl": "https://e1.hiking-europe.eu/gpx/no-sf-s/no-sf-s-04-08-sitashytta-paurohytta.gpx",
        "sourceFormat": "gpx",
        "segment": 1
      },
      "geometry": {
        "type": "LineString",
        "coordinates": [
          [
            17.235325,
            68.100863
          ],
          [
            17.23492,
            68.101006
          ],
          [
            17.234038,
            68.101306
          ],
          [
            17.233437,
            68.101505
          ],
          [
            17.232748,
            68.101769
          ],
          [
            17.232418,
            68.10196
          ],
          [
            17.232198,
            68.10206
          ],
          [
            17.231777,
            68.10221
          ],
          [
            17.230843,
            68.102545
          ],
          [
            17.230116,
            68.102837
          ],
          [
            17.229819,
            68.102943
          ],
          [
            17.229041,
            68.103195
          ],
          [
            17.228285,
            68.103515
          ],
          [
            17.227812,
            68.103689
          ],
          [
            17.227045,
            68.103877
          ],
          [
            17.226546,
            68.104035
          ],
          [
            17.226031,
            68.104255
          ],
          [
            17.225592,
            68.104413
          ],
          [
            17.225093,
            68.104553
          ],
          [
            17.224519,
            68.104675
          ],
          [
            17.223934,
            68.104797
          ],
          [
            17.223076,
            68.104895
          ],
          [
            17.222389,
            68.104995
          ],
          [
            17.221702,
            68.105117
          ],
          [
            17.221037,
            68.105247
          ],
          [
            17.22034,
            68.105367
          ],
          [
            17.219127,
            68.105621
          ],
          [
            17.218591,
            68.105767
          ],
          [
            17.218092,
            68.1059
          ],
          [
            17.217604,
            68.106043
          ],
          [
            17.217073,
            68.106263
          ],
          [
            17.216091,
            68.106796
          ],
          [
            17.215699,
            68.106984
          ],
          [
            17.215308,
            68.107254
          ],
          [
            17.214981,
            68.10761
          ],
          [
            17.214471,
            68.108057
          ],
          [
            17.214198,
            68.108287
          ],
          [
            17.213714,
            68.108776
          ],
          [
            17.213433,
            68.109024
          ],
          [
            17.212934,
            68.109572
          ],
          [
            17.212771,
            68.109652
          ],
          [
            17.212543,
            68.109674
          ],
          [
            17.212095,
            68.109683
          ],
          [
            17.211491,
            68.109672
          ],
          [
            17.210566,
            68.109578
          ],
          [
            17.209631,
            68.109356
          ],
          [
            17.209273,
            68.109239
          ],
          [
            17.208982,
            68.109115
          ],
          [
            17.208986,
            68.108977
          ],
          [
            17.209254,
            68.108594
          ],
          [
            17.209453,
            68.108158
          ],
          [
            17.209442,
            68.108034
          ],
          [
            17.209438,
            68.107551
          ],
          [
            17.209468,
            68.107335
          ],
          [
            17.209643,
            68.106722
          ],
          [
            17.20997,
            68.106402
          ],
          [
            17.20904,
            68.106191
          ],
          [
            17.207744,
            68.106344
          ],
          [
            17.206285,
            68.106478
          ],
          [
            17.205687,
            68.106454
          ],
          [
            17.205046,
            68.106383
          ],
          [
            17.204775,
            68.106322
          ],
          [
            17.204652,
            68.106195
          ],
          [
            17.204257,
            68.106061
          ],
          [
            17.203964,
            68.106042
          ],
          [
            17.20141,
            68.105194
          ],
          [
            17.200101,
            68.103721
          ],
          [
            17.199458,
            68.103137
          ],
          [
            17.198664,
            68.102809
          ],
          [
            17.19669,
            68.102553
          ],
          [
            17.187506,
            68.10064
          ],
          [
            17.186326,
            68.098984
          ],
          [
            17.185167,
            68.098015
          ],
          [
            17.184223,
            68.097727
          ],
          [
            17.183279,
            68.097575
          ],
          [
            17.181219,
            68.097591
          ],
          [
            17.179845,
            68.097719
          ],
          [
            17.177614,
            68.097255
          ],
          [
            17.176691,
            68.096366
          ],
          [
            17.170662,
            68.095358
          ],
          [
            17.16976,
            68.095454
          ],
          [
            17.16843,
            68.09595
          ],
          [
            17.162744,
            68.096486
          ],
          [
            17.155083,
            68.096774
          ],
          [
            17.152959,
            68.096694
          ],
          [
            17.151092,
            68.096438
          ],
          [
            17.14532,
            68.096518
          ],
          [
            17.142166,
            68.096342
          ],
          [
            17.139119,
            68.096334
          ],
          [
            17.136887,
            68.095822
          ],
          [
            17.136243,
            68.09539
          ],
          [
            17.135836,
            68.094781
          ],
          [
            17.135256,
            68.094357
          ],
          [
            17.132081,
            68.094549
          ],
          [
            17.131458,
            68.094237
          ],
          [
            17.124892,
            68.094021
          ],
          [
            17.121996,
            68.09374
          ],
          [
            17.119099,
            68.093196
          ],
          [
            17.117661,
            68.092604
          ],
          [
            17.116245,
            68.092251
          ],
          [
            17.11588,
            68.091667
          ],
          [
            17.115,
            68.091251
          ],
          [
            17.114678,
            68.090234
          ],
          [
            17.112812,
            68.089577
          ],
          [
            17.111481,
            68.089433
          ],
          [
            17.110129,
            68.088897
          ],
          [
            17.110151,
            68.088336
          ],
          [
            17.110945,
            68.087455
          ],
          [
            17.110494,
            68.086951
          ],
          [
            17.110837,
            68.086614
          ],
          [
            17.110215,
            68.085797
          ],
          [
            17.109607,
            68.085719
          ],
          [
            17.109421,
            68.085693
          ],
          [
            17.107984,
            68.084845
          ],
          [
            17.107769,
            68.082802
          ],
          [
            17.104894,
            68.080816
          ],
          [
            17.104443,
            68.080399
          ],
          [
            17.104894,
            68.079871
          ],
          [
            17.10558,
            68.079638
          ],
          [
            17.106482,
            68.078477
          ],
          [
            17.107211,
            68.07794
          ],
          [
            17.108821,
            68.076802
          ],
          [
            17.109786,
            68.075553
          ],
          [
            17.109614,
            68.075256
          ],
          [
            17.11264,
            68.073077
          ],
          [
            17.112769,
            68.072604
          ],
          [
            17.118112,
            68.070088
          ],
          [
            17.122146,
            68.069078
          ],
          [
            17.124463,
            68.067956
          ],
          [
            17.125665,
            68.066938
          ],
          [
            17.132531,
            68.064477
          ],
          [
            17.133454,
            68.063235
          ],
          [
            17.133668,
            68.062497
          ],
          [
            17.1356,
            68.061976
          ],
          [
            17.136866,
            68.061038
          ],
          [
            17.136973,
            68.06075
          ],
          [
            17.137509,
            68.059988
          ],
          [
            17.136072,
            68.058793
          ],
          [
            17.134441,
            68.05796
          ],
          [
            17.133089,
            68.055145
          ],
          [
            17.132231,
            68.054456
          ],
          [
            17.131351,
            68.053269
          ],
          [
            17.133089,
            68.0516
          ],
          [
            17.13369,
            68.050895
          ],
          [
            17.133046,
            68.050742
          ],
          [
            17.132838,
            68.050743
          ],
          [
            17.132366,
            68.050747
          ],
          [
            17.131759,
            68.050726
          ],
          [
            17.131501,
            68.050461
          ],
          [
            17.131823,
            68.050173
          ],
          [
            17.131802,
            68.04974
          ],
          [
            17.132703,
            68.048889
          ],
          [
            17.133282,
            68.048047
          ],
          [
            17.135364,
            68.046788
          ],
          [
            17.135836,
            68.045929
          ],
          [
            17.13723,
            68.045552
          ],
          [
            17.139183,
            68.044389
          ],
          [
            17.140385,
            68.043338
          ],
          [
            17.143003,
            68.042488
          ],
          [
            17.144183,
            68.040923
          ],
          [
            17.145316,
            68.040338
          ],
          [
            17.147165,
            68.039422
          ],
          [
            17.148453,
            68.037866
          ],
          [
            17.147788,
            68.035474
          ],
          [
            17.146457,
            68.034019
          ],
          [
            17.141307,
            68.032422
          ],
          [
            17.138196,
            68.030343
          ],
          [
            17.135439,
            68.029329
          ],
          [
            17.133679,
            68.028021
          ],
          [
            17.131834,
            68.027302
          ],
          [
            17.12884,
            68.027162
          ],
          [
            17.126759,
            68.027178
          ],
          [
            17.125407,
            68.026993
          ],
          [
            17.124978,
            68.027194
          ],
          [
            17.124184,
            68.027234
          ],
          [
            17.123208,
            68.026825
          ],
          [
            17.121856,
            68.026644
          ],
          [
            17.121019,
            68.026829
          ],
          [
            17.119313,
            68.026792
          ],
          [
            17.117253,
            68.025684
          ],
          [
            17.115923,
            68.024516
          ],
          [
            17.113691,
            68.023633
          ],
          [
            17.111084,
            68.023428
          ],
          [
            17.108145,
            68.023448
          ],
          [
            17.107587,
            68.023095
          ],
          [
            17.105409,
            68.023665
          ],
          [
            17.103134,
            68.023998
          ],
          [
            17.101943,
            68.024653
          ],
          [
            17.101407,
            68.024693
          ],
          [
            17.100795,
            68.025022
          ],
          [
            17.099454,
            68.025359
          ],
          [
            17.099122,
            68.0256
          ],
          [
            17.098274,
            68.025668
          ],
          [
            17.0966,
            68.026218
          ],
          [
            17.096513,
            68.026309
          ],
          [
            17.096085,
            68.026756
          ],
          [
            17.095602,
            68.027447
          ],
          [
            17.093704,
            68.028334
          ],
          [
            17.093135,
            68.028394
          ],
          [
            17.092717,
            68.028563
          ],
          [
            17.092084,
            68.028426
          ],
          [
            17.090978,
            68.028382
          ],
          [
            17.090742,
            68.028467
          ],
          [
            17.089476,
            68.02935
          ],
          [
            17.088371,
            68.029952
          ],
          [
            17.087245,
            68.030366
          ],
          [
            17.085571,
            68.030763
          ],
          [
            17.084273,
            68.031441
          ],
          [
            17.082363,
            68.032067
          ],
          [
            17.080475,
            68.032477
          ],
          [
            17.079777,
            68.032914
          ],
          [
            17.078951,
            68.033568
          ],
          [
            17.0782,
            68.034556
          ],
          [
            17.077321,
            68.035129
          ],
          [
            17.076312,
            68.035908
          ],
          [
            17.075411,
            68.036466
          ],
          [
            17.073963,
            68.036979
          ],
          [
            17.073351,
            68.037489
          ],
          [
            17.07325,
            68.038
          ],
          [
            17.072546,
            68.03911
          ],
          [
            17.071473,
            68.039648
          ],
          [
            17.066688,
            68.041261
          ],
          [
            17.065175,
            68.041389
          ],
          [
            17.063952,
            68.04187
          ],
          [
            17.063309,
            68.042031
          ],
          [
            17.061624,
            68.042075
          ],
          [
            17.060669,
            68.042304
          ],
          [
            17.059951,
            68.042548
          ],
          [
            17.058674,
            68.042785
          ],
          [
            17.055348,
            68.042925
          ],
          [
            17.053395,
            68.043311
          ],
          [
            17.051936,
            68.043226
          ],
          [
            17.050649,
            68.043318
          ],
          [
            17.050316,
            68.043575
          ],
          [
            17.050177,
            68.04443
          ],
          [
            17.049619,
            68.045396
          ],
          [
            17.046851,
            68.045918
          ],
          [
            17.044909,
            68.046447
          ],
          [
            17.044844,
            68.046604
          ],
          [
            17.04316,
            68.047001
          ],
          [
            17.042221,
            68.047083
          ],
          [
            17.04169,
            68.047129
          ],
          [
            17.040735,
            68.04745
          ],
          [
            17.039802,
            68.047623
          ],
          [
            17.036508,
            68.048441
          ],
          [
            17.03547,
            68.048552
          ],
          [
            17.032742,
            68.048846
          ],
          [
            17.031625,
            68.04907
          ],
          [
            17.031635,
            68.049272
          ]
        ]
      }
    }
  ]
}
