{
  "type": "FeatureCollection",
  "features": [
    {
      "type": "Feature",
      "properties": {
        "trailId": "nordkalottleden",
        "sectionId": "nordkalottleden-full-27-alesjaure-salka",
        "sectionOrder": 27,
        "source": "shared Kungsleden runtime geometry",
        "segment": 1
      },
      "geometry": {
        "type": "LineString",
        "coordinates": [
          [
            18.415542,
            68.134996
          ],
          [
            18.415042,
            68.134861
          ],
          [
            18.414692,
            68.134635
          ],
          [
            18.415122,
            68.133776
          ],
          [
            18.416027,
            68.132885
          ],
          [
            18.416007,
            68.132188
          ],
          [
            18.415771,
            68.13191
          ],
          [
            18.41594,
            68.131617
          ],
          [
            18.415872,
            68.130892
          ],
          [
            18.414095,
            68.129343
          ],
          [
            18.413227,
            68.129208
          ],
          [
            18.412394,
            68.12894
          ],
          [
            18.411757,
            68.12856
          ],
          [
            18.411311,
            68.128463
          ],
          [
            18.409651,
            68.127638
          ],
          [
            18.407992,
            68.126977
          ],
          [
            18.404171,
            68.125554
          ],
          [
            18.40092,
            68.12454
          ],
          [
            18.400466,
            68.124276
          ],
          [
            18.398221,
            68.123609
          ],
          [
            18.395188,
            68.122139
          ],
          [
            18.392978,
            68.121713
          ],
          [
            18.38989,
            68.120965
          ],
          [
            18.3879,
            68.120685
          ],
          [
            18.385619,
            68.120245
          ],
          [
            18.382778,
            68.119334
          ],
          [
            18.380451,
            68.118701
          ],
          [
            18.375996,
            68.117677
          ],
          [
            18.368748,
            68.115687
          ],
          [
            18.365824,
            68.11477
          ],
          [
            18.362018,
            68.113404
          ],
          [
            18.360206,
            68.112926
          ],
          [
            18.359677,
            68.11269
          ],
          [
            18.358342,
            68.112376
          ],
          [
            18.35718,
            68.112203
          ],
          [
            18.354025,
            68.111214
          ],
          [
            18.35341,
            68.110784
          ],
          [
            18.351462,
            68.110371
          ],
          [
            18.350817,
            68.110097
          ],
          [
            18.347833,
            68.109259
          ],
          [
            18.347161,
            68.108938
          ],
          [
            18.344142,
            68.108349
          ],
          [
            18.342967,
            68.10826
          ],
          [
            18.342192,
            68.108103
          ],
          [
            18.341574,
            68.107565
          ],
          [
            18.339959,
            68.107076
          ],
          [
            18.339531,
            68.106764
          ],
          [
            18.339104,
            68.106628
          ],
          [
            18.33869,
            68.106278
          ],
          [
            18.338636,
            68.106076
          ],
          [
            18.339453,
            68.105195
          ],
          [
            18.339506,
            68.104958
          ],
          [
            18.339022,
            68.104823
          ],
          [
            18.33616,
            68.104892
          ],
          [
            18.333718,
            68.104726
          ],
          [
            18.331785,
            68.104473
          ],
          [
            18.330844,
            68.104105
          ],
          [
            18.32868,
            68.103731
          ],
          [
            18.327381,
            68.103653
          ],
          [
            18.326857,
            68.103444
          ],
          [
            18.326393,
            68.102993
          ],
          [
            18.324961,
            68.102027
          ],
          [
            18.322817,
            68.101172
          ],
          [
            18.322111,
            68.100986
          ],
          [
            18.320418,
            68.100169
          ],
          [
            18.319824,
            68.099676
          ],
          [
            18.318502,
            68.099405
          ],
          [
            18.31717,
            68.098849
          ],
          [
            18.315992,
            68.097977
          ],
          [
            18.315342,
            68.097687
          ],
          [
            18.314606,
            68.097153
          ],
          [
            18.31338,
            68.096701
          ],
          [
            18.311381,
            68.095322
          ],
          [
            18.310498,
            68.094971
          ],
          [
            18.308826,
            68.094087
          ],
          [
            18.306479,
            68.092259
          ],
          [
            18.303598,
            68.090265
          ],
          [
            18.303309,
            68.089919
          ],
          [
            18.302481,
            68.089589
          ],
          [
            18.300276,
            68.088404
          ],
          [
            18.29911,
            68.087888
          ],
          [
            18.29709,
            68.087249
          ],
          [
            18.29455,
            68.08608
          ],
          [
            18.293916,
            68.085688
          ],
          [
            18.291594,
            68.084824
          ],
          [
            18.290457,
            68.084276
          ],
          [
            18.287924,
            68.08354
          ],
          [
            18.285538,
            68.082717
          ],
          [
            18.284964,
            68.082606
          ],
          [
            18.282934,
            68.081788
          ],
          [
            18.282341,
            68.081433
          ],
          [
            18.281724,
            68.081241
          ],
          [
            18.280731,
            68.080514
          ],
          [
            18.28021,
            68.08041
          ],
          [
            18.27912,
            68.079819
          ],
          [
            18.278681,
            68.079446
          ],
          [
            18.278729,
            68.078945
          ],
          [
            18.277982,
            68.07885
          ],
          [
            18.276933,
            68.078841
          ],
          [
            18.274027,
            68.077788
          ],
          [
            18.272418,
            68.077527
          ],
          [
            18.272184,
            68.077113
          ],
          [
            18.272275,
            68.076758
          ],
          [
            18.272156,
            68.076622
          ],
          [
            18.271521,
            68.076496
          ],
          [
            18.27135,
            68.07605
          ],
          [
            18.270984,
            68.075917
          ],
          [
            18.270556,
            68.075145
          ],
          [
            18.269982,
            68.074722
          ],
          [
            18.269728,
            68.07429
          ],
          [
            18.26945,
            68.074186
          ],
          [
            18.268794,
            68.073145
          ],
          [
            18.267825,
            68.072458
          ],
          [
            18.267781,
            68.072264
          ],
          [
            18.266573,
            68.07152
          ],
          [
            18.266258,
            68.070655
          ],
          [
            18.266317,
            68.069884
          ],
          [
            18.265051,
            68.068641
          ],
          [
            18.265138,
            68.068242
          ],
          [
            18.264845,
            68.067772
          ],
          [
            18.264602,
            68.067599
          ],
          [
            18.263502,
            68.067303
          ],
          [
            18.261984,
            68.066682
          ],
          [
            18.260926,
            68.066107
          ],
          [
            18.26035,
            68.065922
          ],
          [
            18.260231,
            68.065765
          ],
          [
            18.259872,
            68.0657
          ],
          [
            18.257749,
            68.064277
          ],
          [
            18.254616,
            68.062875
          ],
          [
            18.253751,
            68.062335
          ],
          [
            18.25274,
            68.060854
          ],
          [
            18.252801,
            68.060553
          ],
          [
            18.251628,
            68.058811
          ],
          [
            18.250467,
            68.057495
          ],
          [
            18.250072,
            68.057246
          ],
          [
            18.249142,
            68.055952
          ],
          [
            18.248377,
            68.055383
          ],
          [
            18.248415,
            68.055199
          ],
          [
            18.247357,
            68.05413
          ],
          [
            18.24639,
            68.051386
          ]
        ]
      }
    },
    {
      "type": "Feature",
      "properties": {
        "trailId": "nordkalottleden",
        "sectionId": "nordkalottleden-full-27-alesjaure-salka",
        "sectionOrder": 27,
        "source": "shared Kungsleden runtime geometry",
        "segment": 2
      },
      "geometry": {
        "type": "LineString",
        "coordinates": [
          [
            18.245238,
            68.049116
          ],
          [
            18.243799,
            68.044561
          ],
          [
            18.243827,
            68.043066
          ],
          [
            18.243537,
            68.042625
          ],
          [
            18.243332,
            68.041231
          ],
          [
            18.24409,
            68.040288
          ],
          [
            18.244964,
            68.038745
          ],
          [
            18.245299,
            68.036466
          ],
          [
            18.245755,
            68.035724
          ],
          [
            18.245996,
            68.034701
          ],
          [
            18.245476,
            68.029964
          ],
          [
            18.246002,
            68.028247
          ],
          [
            18.245707,
            68.026818
          ],
          [
            18.245863,
            68.026301
          ],
          [
            18.245755,
            68.025399
          ],
          [
            18.246175,
            68.024622
          ],
          [
            18.24662,
            68.024295
          ],
          [
            18.247872,
            68.022756
          ],
          [
            18.248163,
            68.021552
          ],
          [
            18.24895,
            68.02109
          ],
          [
            18.249428,
            68.02096
          ],
          [
            18.249495,
            68.020793
          ],
          [
            18.248057,
            68.019902
          ],
          [
            18.245642,
            68.019124
          ],
          [
            18.245107,
            68.018769
          ],
          [
            18.245117,
            68.01759
          ],
          [
            18.243668,
            68.016526
          ],
          [
            18.243395,
            68.015439
          ],
          [
            18.243067,
            68.015216
          ],
          [
            18.242833,
            68.014811
          ],
          [
            18.242649,
            68.013991
          ],
          [
            18.243342,
            68.013004
          ],
          [
            18.242973,
            68.012491
          ],
          [
            18.244294,
            68.011888
          ],
          [
            18.244275,
            68.011598
          ],
          [
            18.24453,
            68.011356
          ],
          [
            18.245598,
            68.011229
          ],
          [
            18.24585,
            68.010871
          ],
          [
            18.246508,
            68.010612
          ],
          [
            18.246651,
            68.010123
          ],
          [
            18.246521,
            68.009649
          ],
          [
            18.247291,
            68.007782
          ],
          [
            18.247661,
            68.007361
          ],
          [
            18.247198,
            68.006724
          ],
          [
            18.2477,
            68.006301
          ],
          [
            18.248811,
            68.005996
          ],
          [
            18.249205,
            68.005423
          ],
          [
            18.248962,
            68.00428
          ],
          [
            18.249344,
            68.003204
          ],
          [
            18.250067,
            68.002635
          ],
          [
            18.250989,
            68.001451
          ],
          [
            18.251958,
            67.999889
          ],
          [
            18.251963,
            67.999513
          ],
          [
            18.252351,
            67.998815
          ],
          [
            18.253349,
            67.997771
          ],
          [
            18.253392,
            67.99748
          ],
          [
            18.253739,
            67.997281
          ],
          [
            18.254731,
            67.995521
          ],
          [
            18.256738,
            67.993786
          ],
          [
            18.256909,
            67.993371
          ],
          [
            18.256424,
            67.992167
          ],
          [
            18.254487,
            67.99043
          ],
          [
            18.254557,
            67.989735
          ],
          [
            18.254293,
            67.98884
          ],
          [
            18.254384,
            67.988235
          ],
          [
            18.254665,
            67.987821
          ],
          [
            18.254351,
            67.987156
          ],
          [
            18.254594,
            67.986319
          ],
          [
            18.254998,
            67.985939
          ],
          [
            18.254714,
            67.985263
          ],
          [
            18.255146,
            67.984402
          ],
          [
            18.254709,
            67.984015
          ],
          [
            18.252078,
            67.982928
          ],
          [
            18.251859,
            67.981123
          ],
          [
            18.255183,
            67.97568
          ],
          [
            18.256037,
            67.975147
          ],
          [
            18.258696,
            67.974116
          ],
          [
            18.259727,
            67.973773
          ],
          [
            18.261082,
            67.973562
          ],
          [
            18.262173,
            67.973156
          ],
          [
            18.263278,
            67.972277
          ],
          [
            18.264378,
            67.971913
          ],
          [
            18.26688,
            67.97007
          ],
          [
            18.267662,
            67.96933
          ],
          [
            18.268022,
            67.968074
          ],
          [
            18.267981,
            67.967413
          ],
          [
            18.267568,
            67.967069
          ],
          [
            18.267396,
            67.965777
          ],
          [
            18.268402,
            67.963951
          ],
          [
            18.269481,
            67.962755
          ],
          [
            18.273233,
            67.960325
          ],
          [
            18.274052,
            67.959948
          ],
          [
            18.274937,
            67.959205
          ],
          [
            18.27392,
            67.957613
          ],
          [
            18.273803,
            67.95694
          ],
          [
            18.27432,
            67.955667
          ],
          [
            18.276085,
            67.95357
          ],
          [
            18.276136,
            67.951801
          ],
          [
            18.276693,
            67.950372
          ],
          [
            18.277306,
            67.949846
          ],
          [
            18.277406,
            67.949354
          ],
          [
            18.278237,
            67.94846
          ],
          [
            18.279516,
            67.947771
          ],
          [
            18.281189,
            67.947429
          ],
          [
            18.281322,
            67.947129
          ],
          [
            18.282207,
            67.946949
          ],
          [
            18.282393,
            67.946469
          ]
        ]
      }
    }
  ]
}
