{
  "type": "Feature",
  "bbox": [
    12.030982,
    58.076028,
    12.046404,
    58.148133
  ],
  "properties": {
    "schemaVersion": "candidate-trail-mapdata/v1",
    "trailId": "bohusleden",
    "sectionId": "bohusleden-stage-10-lysevatten-hasterod",
    "sectionNumber": 10,
    "name": "Lysevatten - Hasteröd",
    "from": "Lysevatten",
    "to": "Hasteröd",
    "sourceName": "West Sweden Trails / Hoodin official GPX",
    "sourceUrl": "https://cdn.hoodin.com/beta-trailsinwest/assets/geomanager/geofiles/etapp10.gpx",
    "sourceAccessedDate": "2026-04-30",
    "coordinateOrder": "GeoJSON [longitude, latitude]",
    "geometryCompleteness": "full-official",
    "geometryStatus": "A-",
    "rawPointCount": 2427,
    "duplicateConsecutivePointCount": 1618,
    "effectiveVertexCount": 809,
    "computedDistanceKm": 11.728,
    "officialDistanceKm": 12,
    "startCoordinate": [
      12.032154,
      58.076028
    ],
    "endCoordinate": [
      12.038506,
      58.148133
    ],
    "importReadiness": "ready-for-normalization-with-caveats",
    "importRecommendation": "candidate-for-normalization-after-standard QA/live checks",
    "warnings": []
  },
  "geometry": {
    "type": "LineString",
    "coordinates": [
      [
        12.032154,
        58.076028
      ],
      [
        12.03227,
        58.076091
      ],
      [
        12.032322,
        58.076142
      ],
      [
        12.03237,
        58.07617
      ],
      [
        12.032787,
        58.076237
      ],
      [
        12.032967,
        58.076296
      ],
      [
        12.03345,
        58.076544
      ],
      [
        12.033562,
        58.07661
      ],
      [
        12.033803,
        58.076734
      ],
      [
        12.033916,
        58.076782
      ],
      [
        12.03395,
        58.076783
      ],
      [
        12.034163,
        58.076852
      ],
      [
        12.034279,
        58.076883
      ],
      [
        12.034502,
        58.077024
      ],
      [
        12.034583,
        58.077054
      ],
      [
        12.034702,
        58.077067
      ],
      [
        12.034798,
        58.077071
      ],
      [
        12.034916,
        58.077041
      ],
      [
        12.03505,
        58.076935
      ],
      [
        12.035206,
        58.076823
      ],
      [
        12.035337,
        58.076723
      ],
      [
        12.035444,
        58.076655
      ],
      [
        12.035541,
        58.076622
      ],
      [
        12.035617,
        58.076598
      ],
      [
        12.035796,
        58.076574
      ],
      [
        12.036087,
        58.0766
      ],
      [
        12.036259,
        58.076636
      ],
      [
        12.036408,
        58.076708
      ],
      [
        12.036588,
        58.076856
      ],
      [
        12.036629,
        58.076918
      ],
      [
        12.036726,
        58.076936
      ],
      [
        12.03684,
        58.076909
      ],
      [
        12.037106,
        58.076801
      ],
      [
        12.037239,
        58.076781
      ],
      [
        12.037317,
        58.076773
      ],
      [
        12.037638,
        58.076561
      ],
      [
        12.037696,
        58.07647
      ],
      [
        12.037769,
        58.076356
      ],
      [
        12.037841,
        58.076285
      ],
      [
        12.037997,
        58.0762
      ],
      [
        12.038363,
        58.076123
      ],
      [
        12.038601,
        58.076118
      ],
      [
        12.038753,
        58.076107
      ],
      [
        12.038928,
        58.076121
      ],
      [
        12.039179,
        58.076155
      ],
      [
        12.039358,
        58.076232
      ],
      [
        12.039567,
        58.076338
      ],
      [
        12.039625,
        58.076429
      ],
      [
        12.039672,
        58.076628
      ],
      [
        12.039687,
        58.076738
      ],
      [
        12.039618,
        58.076888
      ],
      [
        12.039639,
        58.076942
      ],
      [
        12.039718,
        58.076998
      ],
      [
        12.039783,
        58.077027
      ],
      [
        12.039887,
        58.07704
      ],
      [
        12.040012,
        58.077027
      ],
      [
        12.040081,
        58.077009
      ],
      [
        12.040153,
        58.077023
      ],
      [
        12.040167,
        58.077075
      ],
      [
        12.040177,
        58.077132
      ],
      [
        12.040167,
        58.077261
      ],
      [
        12.040206,
        58.077663
      ],
      [
        12.040234,
        58.077718
      ],
      [
        12.040313,
        58.077772
      ],
      [
        12.040427,
        58.077801
      ],
      [
        12.040508,
        58.077843
      ],
      [
        12.040499,
        58.077923
      ],
      [
        12.04049,
        58.078038
      ],
      [
        12.040499,
        58.078143
      ],
      [
        12.040547,
        58.078233
      ],
      [
        12.04067,
        58.078278
      ],
      [
        12.040821,
        58.078323
      ],
      [
        12.041086,
        58.078383
      ],
      [
        12.041284,
        58.078403
      ],
      [
        12.041407,
        58.078413
      ],
      [
        12.04153,
        58.078419
      ],
      [
        12.041737,
        58.078455
      ],
      [
        12.041766,
        58.07849
      ],
      [
        12.04167,
        58.078596
      ],
      [
        12.041604,
        58.078628
      ],
      [
        12.041593,
        58.078676
      ],
      [
        12.041524,
        58.07874
      ],
      [
        12.041576,
        58.078838
      ],
      [
        12.041767,
        58.078885
      ],
      [
        12.04184,
        58.078919
      ],
      [
        12.041886,
        58.078915
      ],
      [
        12.041966,
        58.078885
      ],
      [
        12.042101,
        58.078891
      ],
      [
        12.04227,
        58.078949
      ],
      [
        12.042375,
        58.079018
      ],
      [
        12.042465,
        58.079091
      ],
      [
        12.042639,
        58.079123
      ],
      [
        12.042832,
        58.0792
      ],
      [
        12.042921,
        58.079209
      ],
      [
        12.043044,
        58.07925
      ],
      [
        12.043075,
        58.079274
      ],
      [
        12.04313,
        58.079276
      ],
      [
        12.043238,
        58.079325
      ],
      [
        12.043325,
        58.079408
      ],
      [
        12.0434,
        58.079439
      ],
      [
        12.043439,
        58.079486
      ],
      [
        12.043521,
        58.079507
      ],
      [
        12.043561,
        58.079534
      ],
      [
        12.043616,
        58.079598
      ],
      [
        12.043725,
        58.079652
      ],
      [
        12.043762,
        58.079663
      ],
      [
        12.043861,
        58.07966
      ],
      [
        12.044025,
        58.079676
      ],
      [
        12.04409,
        58.079662
      ],
      [
        12.04412,
        58.079636
      ],
      [
        12.044175,
        58.079625
      ],
      [
        12.044275,
        58.079625
      ],
      [
        12.044373,
        58.079646
      ],
      [
        12.044427,
        58.079644
      ],
      [
        12.044509,
        58.079715
      ],
      [
        12.044524,
        58.079852
      ],
      [
        12.04457,
        58.079903
      ],
      [
        12.044632,
        58.079944
      ],
      [
        12.044632,
        58.080028
      ],
      [
        12.044763,
        58.080129
      ],
      [
        12.04487,
        58.080202
      ],
      [
        12.044938,
        58.080252
      ],
      [
        12.044983,
        58.080251
      ],
      [
        12.045172,
        58.080285
      ],
      [
        12.045342,
        58.080362
      ],
      [
        12.045389,
        58.080466
      ],
      [
        12.045468,
        58.080513
      ],
      [
        12.045578,
        58.080597
      ],
      [
        12.045623,
        58.080653
      ],
      [
        12.045557,
        58.080728
      ],
      [
        12.045561,
        58.080896
      ],
      [
        12.045418,
        58.081077
      ],
      [
        12.04508,
        58.081262
      ],
      [
        12.04453,
        58.081396
      ],
      [
        12.043993,
        58.081578
      ],
      [
        12.043416,
        58.081825
      ],
      [
        12.043126,
        58.082024
      ],
      [
        12.043005,
        58.082087
      ],
      [
        12.042925,
        58.082148
      ],
      [
        12.042878,
        58.082165
      ],
      [
        12.042797,
        58.082206
      ],
      [
        12.042799,
        58.082232
      ],
      [
        12.042766,
        58.08225
      ],
      [
        12.042743,
        58.082274
      ],
      [
        12.042735,
        58.082341
      ],
      [
        12.042808,
        58.082389
      ],
      [
        12.042837,
        58.082413
      ],
      [
        12.04289,
        58.082444
      ],
      [
        12.042971,
        58.082451
      ],
      [
        12.04305,
        58.082496
      ],
      [
        12.043079,
        58.082537
      ],
      [
        12.043025,
        58.082583
      ],
      [
        12.043051,
        58.082603
      ],
      [
        12.043056,
        58.082626
      ],
      [
        12.043044,
        58.082664
      ],
      [
        12.043051,
        58.082679
      ],
      [
        12.043054,
        58.082714
      ],
      [
        12.043079,
        58.082734
      ],
      [
        12.043078,
        58.082792
      ],
      [
        12.043111,
        58.082808
      ],
      [
        12.043123,
        58.082833
      ],
      [
        12.043108,
        58.082859
      ],
      [
        12.043111,
        58.082882
      ],
      [
        12.043126,
        58.082919
      ],
      [
        12.043224,
        58.082991
      ],
      [
        12.043101,
        58.083043
      ],
      [
        12.043072,
        58.083064
      ],
      [
        12.043063,
        58.083093
      ],
      [
        12.043025,
        58.083109
      ],
      [
        12.042995,
        58.083133
      ],
      [
        12.043008,
        58.083156
      ],
      [
        12.04301,
        58.083218
      ],
      [
        12.043027,
        58.083276
      ],
      [
        12.04304,
        58.08336
      ],
      [
        12.043014,
        58.083399
      ],
      [
        12.042973,
        58.083431
      ],
      [
        12.042893,
        58.083451
      ],
      [
        12.04281,
        58.083462
      ],
      [
        12.042781,
        58.083485
      ],
      [
        12.042533,
        58.083514
      ],
      [
        12.042378,
        58.083536
      ],
      [
        12.042272,
        58.083578
      ],
      [
        12.042129,
        58.083646
      ],
      [
        12.041993,
        58.083651
      ],
      [
        12.041891,
        58.083657
      ],
      [
        12.041451,
        58.083643
      ],
      [
        12.041091,
        58.083678
      ],
      [
        12.041072,
        58.083695
      ],
      [
        12.041036,
        58.083712
      ],
      [
        12.040941,
        58.083808
      ],
      [
        12.040889,
        58.083825
      ],
      [
        12.040734,
        58.083847
      ],
      [
        12.040661,
        58.08389
      ],
      [
        12.040552,
        58.083958
      ],
      [
        12.040333,
        58.084105
      ],
      [
        12.040291,
        58.084184
      ],
      [
        12.040227,
        58.084308
      ],
      [
        12.039991,
        58.084939
      ],
      [
        12.039994,
        58.085065
      ],
      [
        12.040038,
        58.085129
      ],
      [
        12.040114,
        58.085213
      ],
      [
        12.040295,
        58.085586
      ],
      [
        12.040246,
        58.085653
      ],
      [
        12.040081,
        58.085775
      ],
      [
        12.039752,
        58.086055
      ],
      [
        12.039643,
        58.08615
      ],
      [
        12.039516,
        58.086314
      ],
      [
        12.039318,
        58.086479
      ],
      [
        12.038991,
        58.086738
      ],
      [
        12.038562,
        58.08697
      ],
      [
        12.037882,
        58.087316
      ],
      [
        12.037684,
        58.087466
      ],
      [
        12.037256,
        58.087769
      ],
      [
        12.037575,
        58.08812
      ],
      [
        12.037828,
        58.088298
      ],
      [
        12.038053,
        58.088421
      ],
      [
        12.03854,
        58.088625
      ],
      [
        12.038738,
        58.088675
      ],
      [
        12.03932,
        58.088791
      ],
      [
        12.03964,
        58.088819
      ],
      [
        12.041219,
        58.088926
      ],
      [
        12.041288,
        58.089031
      ],
      [
        12.041301,
        58.089077
      ],
      [
        12.041344,
        58.08915
      ],
      [
        12.041991,
        58.089295
      ],
      [
        12.042234,
        58.089401
      ],
      [
        12.042583,
        58.089627
      ],
      [
        12.042758,
        58.08974
      ],
      [
        12.043343,
        58.089982
      ],
      [
        12.043601,
        58.090115
      ],
      [
        12.043695,
        58.09019
      ],
      [
        12.043757,
        58.090246
      ],
      [
        12.04385,
        58.090329
      ],
      [
        12.043921,
        58.090406
      ],
      [
        12.043988,
        58.090521
      ],
      [
        12.044035,
        58.090648
      ],
      [
        12.044139,
        58.090761
      ],
      [
        12.044494,
        58.091011
      ],
      [
        12.04474,
        58.091174
      ],
      [
        12.044934,
        58.091311
      ],
      [
        12.045175,
        58.091604
      ],
      [
        12.045318,
        58.091722
      ],
      [
        12.045469,
        58.091824
      ],
      [
        12.04563,
        58.091899
      ],
      [
        12.045913,
        58.091954
      ],
      [
        12.045885,
        58.092039
      ],
      [
        12.045843,
        58.09214
      ],
      [
        12.045314,
        58.092778
      ],
      [
        12.044823,
        58.093352
      ],
      [
        12.044691,
        58.093552
      ],
      [
        12.044559,
        58.093777
      ],
      [
        12.044295,
        58.094153
      ],
      [
        12.044257,
        58.094253
      ],
      [
        12.04421,
        58.094491
      ],
      [
        12.044139,
        58.094631
      ],
      [
        12.044007,
        58.094871
      ],
      [
        12.043814,
        58.095042
      ],
      [
        12.043563,
        58.095227
      ],
      [
        12.043389,
        58.095355
      ],
      [
        12.043289,
        58.095455
      ],
      [
        12.043267,
        58.095498
      ],
      [
        12.043256,
        58.095583
      ],
      [
        12.04328,
        58.095633
      ],
      [
        12.043535,
        58.097702
      ],
      [
        12.043647,
        58.098331
      ],
      [
        12.04365,
        58.098628
      ],
      [
        12.043643,
        58.098705
      ],
      [
        12.043477,
        58.098702
      ],
      [
        12.043326,
        58.098702
      ],
      [
        12.042961,
        58.098724
      ],
      [
        12.042712,
        58.098769
      ],
      [
        12.042301,
        58.098892
      ],
      [
        12.041868,
        58.099023
      ],
      [
        12.041667,
        58.09907
      ],
      [
        12.041329,
        58.099154
      ],
      [
        12.041168,
        58.099254
      ],
      [
        12.040998,
        58.099434
      ],
      [
        12.040856,
        58.099545
      ],
      [
        12.040544,
        58.09964
      ],
      [
        12.040308,
        58.09967
      ],
      [
        12.040023,
        58.09957
      ],
      [
        12.039872,
        58.099495
      ],
      [
        12.039626,
        58.09948
      ],
      [
        12.039266,
        58.099465
      ],
      [
        12.039219,
        58.09957
      ],
      [
        12.039153,
        58.099701
      ],
      [
        12.039125,
        58.099811
      ],
      [
        12.039201,
        58.099911
      ],
      [
        12.039182,
        58.100282
      ],
      [
        12.039248,
        58.100532
      ],
      [
        12.039268,
        58.100783
      ],
      [
        12.03923,
        58.100973
      ],
      [
        12.039211,
        58.101048
      ],
      [
        12.039136,
        58.101134
      ],
      [
        12.039026,
        58.101153
      ],
      [
        12.038823,
        58.101204
      ],
      [
        12.038653,
        58.101204
      ],
      [
        12.038473,
        58.101259
      ],
      [
        12.038417,
        58.101374
      ],
      [
        12.038398,
        58.101465
      ],
      [
        12.038379,
        58.10153
      ],
      [
        12.038294,
        58.101575
      ],
      [
        12.038086,
        58.10164
      ],
      [
        12.037934,
        58.10173
      ],
      [
        12.037774,
        58.101896
      ],
      [
        12.037584,
        58.102026
      ],
      [
        12.037357,
        58.102131
      ],
      [
        12.037282,
        58.102312
      ],
      [
        12.037083,
        58.102522
      ],
      [
        12.037064,
        58.102597
      ],
      [
        12.037045,
        58.102703
      ],
      [
        12.036904,
        58.102758
      ],
      [
        12.036743,
        58.102803
      ],
      [
        12.036516,
        58.102838
      ],
      [
        12.036251,
        58.102838
      ],
      [
        12.036033,
        58.102803
      ],
      [
        12.035815,
        58.102788
      ],
      [
        12.035635,
        58.102783
      ],
      [
        12.035474,
        58.102791
      ],
      [
        12.035238,
        58.102843
      ],
      [
        12.035039,
        58.102914
      ],
      [
        12.034831,
        58.102979
      ],
      [
        12.034727,
        58.103014
      ],
      [
        12.034585,
        58.103024
      ],
      [
        12.034453,
        58.103074
      ],
      [
        12.034339,
        58.103144
      ],
      [
        12.034216,
        58.103235
      ],
      [
        12.034055,
        58.103305
      ],
      [
        12.033866,
        58.10337
      ],
      [
        12.033611,
        58.103455
      ],
      [
        12.033431,
        58.103576
      ],
      [
        12.033402,
        58.103666
      ],
      [
        12.033346,
        58.103781
      ],
      [
        12.03328,
        58.103921
      ],
      [
        12.033251,
        58.104057
      ],
      [
        12.033346,
        58.104142
      ],
      [
        12.033441,
        58.104282
      ],
      [
        12.03346,
        58.104437
      ],
      [
        12.033536,
        58.104553
      ],
      [
        12.033593,
        58.104633
      ],
      [
        12.03382,
        58.104798
      ],
      [
        12.033924,
        58.104873
      ],
      [
        12.033953,
        58.104978
      ],
      [
        12.033858,
        58.105474
      ],
      [
        12.03384,
        58.10561
      ],
      [
        12.033859,
        58.10576
      ],
      [
        12.033859,
        58.105865
      ],
      [
        12.033878,
        58.10594
      ],
      [
        12.033793,
        58.106051
      ],
      [
        12.033765,
        58.106176
      ],
      [
        12.033812,
        58.106356
      ],
      [
        12.033509,
        58.106817
      ],
      [
        12.033311,
        58.107003
      ],
      [
        12.032904,
        58.107274
      ],
      [
        12.032422,
        58.107649
      ],
      [
        12.032261,
        58.107639
      ],
      [
        12.03191,
        58.107524
      ],
      [
        12.03164,
        58.107449
      ],
      [
        12.031551,
        58.107609
      ],
      [
        12.03149,
        58.107672
      ],
      [
        12.031442,
        58.107783
      ],
      [
        12.031419,
        58.107875
      ],
      [
        12.031446,
        58.108004
      ],
      [
        12.031484,
        58.108095
      ],
      [
        12.031496,
        58.108213
      ],
      [
        12.031451,
        58.108315
      ],
      [
        12.031415,
        58.1084
      ],
      [
        12.031395,
        58.108502
      ],
      [
        12.031357,
        58.108598
      ],
      [
        12.031344,
        58.108696
      ],
      [
        12.031339,
        58.108805
      ],
      [
        12.031343,
        58.108901
      ],
      [
        12.031337,
        58.10896
      ],
      [
        12.031334,
        58.108987
      ],
      [
        12.031335,
        58.109014
      ],
      [
        12.03114,
        58.109088
      ],
      [
        12.031098,
        58.109105
      ],
      [
        12.031029,
        58.109144
      ],
      [
        12.031007,
        58.10919
      ],
      [
        12.031037,
        58.109263
      ],
      [
        12.031101,
        58.109331
      ],
      [
        12.031218,
        58.109422
      ],
      [
        12.031299,
        58.10949
      ],
      [
        12.031327,
        58.10951
      ],
      [
        12.031394,
        58.109588
      ],
      [
        12.031351,
        58.109705
      ],
      [
        12.03128,
        58.109769
      ],
      [
        12.031175,
        58.109838
      ],
      [
        12.031112,
        58.109881
      ],
      [
        12.031072,
        58.109907
      ],
      [
        12.030992,
        58.109998
      ],
      [
        12.030982,
        58.110057
      ],
      [
        12.031006,
        58.110123
      ],
      [
        12.031038,
        58.110172
      ],
      [
        12.031081,
        58.110218
      ],
      [
        12.031108,
        58.110255
      ],
      [
        12.031137,
        58.110298
      ],
      [
        12.031146,
        58.110323
      ],
      [
        12.031156,
        58.110373
      ],
      [
        12.031165,
        58.110481
      ],
      [
        12.031175,
        58.110649
      ],
      [
        12.031184,
        58.110781
      ],
      [
        12.031189,
        58.110894
      ],
      [
        12.031218,
        58.111035
      ],
      [
        12.031246,
        58.111177
      ],
      [
        12.031312,
        58.111355
      ],
      [
        12.031412,
        58.111568
      ],
      [
        12.031516,
        58.111636
      ],
      [
        12.032034,
        58.11171
      ],
      [
        12.03213,
        58.111789
      ],
      [
        12.032226,
        58.111864
      ],
      [
        12.032336,
        58.111969
      ],
      [
        12.03249,
        58.112101
      ],
      [
        12.03269,
        58.112336
      ],
      [
        12.03286,
        58.112541
      ],
      [
        12.032868,
        58.112617
      ],
      [
        12.032706,
        58.112787
      ],
      [
        12.032294,
        58.113191
      ],
      [
        12.032398,
        58.113257
      ],
      [
        12.032474,
        58.113272
      ],
      [
        12.032602,
        58.113271
      ],
      [
        12.032815,
        58.113244
      ],
      [
        12.033056,
        58.113216
      ],
      [
        12.033217,
        58.113191
      ],
      [
        12.033307,
        58.113194
      ],
      [
        12.033535,
        58.113201
      ],
      [
        12.033653,
        58.113163
      ],
      [
        12.033742,
        58.113155
      ],
      [
        12.033781,
        58.113163
      ],
      [
        12.033828,
        58.113181
      ],
      [
        12.033894,
        58.113193
      ],
      [
        12.034173,
        58.113261
      ],
      [
        12.034443,
        58.113341
      ],
      [
        12.034699,
        58.113501
      ],
      [
        12.034893,
        58.113662
      ],
      [
        12.03504,
        58.113739
      ],
      [
        12.035253,
        58.113774
      ],
      [
        12.0354,
        58.113769
      ],
      [
        12.03558,
        58.113779
      ],
      [
        12.035769,
        58.113812
      ],
      [
        12.035897,
        58.113849
      ],
      [
        12.036139,
        58.113912
      ],
      [
        12.036304,
        58.113962
      ],
      [
        12.03648,
        58.114034
      ],
      [
        12.036565,
        58.114057
      ],
      [
        12.036631,
        58.11409
      ],
      [
        12.036698,
        58.114142
      ],
      [
        12.036745,
        58.114205
      ],
      [
        12.036773,
        58.114277
      ],
      [
        12.036778,
        58.11432
      ],
      [
        12.036774,
        58.114373
      ],
      [
        12.036769,
        58.11442
      ],
      [
        12.036769,
        58.114468
      ],
      [
        12.0368,
        58.114543
      ],
      [
        12.03688,
        58.114556
      ],
      [
        12.036968,
        58.114589
      ],
      [
        12.037015,
        58.114691
      ],
      [
        12.037034,
        58.114771
      ],
      [
        12.037054,
        58.11491
      ],
      [
        12.037087,
        58.115046
      ],
      [
        12.037115,
        58.115111
      ],
      [
        12.037217,
        58.115206
      ],
      [
        12.037377,
        58.115269
      ],
      [
        12.037537,
        58.115324
      ],
      [
        12.037628,
        58.115402
      ],
      [
        12.037702,
        58.115504
      ],
      [
        12.037762,
        58.115584
      ],
      [
        12.037797,
        58.115707
      ],
      [
        12.037795,
        58.115721
      ],
      [
        12.037792,
        58.115754
      ],
      [
        12.037793,
        58.115808
      ],
      [
        12.037689,
        58.115903
      ],
      [
        12.037637,
        58.115958
      ],
      [
        12.037556,
        58.116018
      ],
      [
        12.037416,
        58.116134
      ],
      [
        12.03737,
        58.116156
      ],
      [
        12.03731,
        58.116209
      ],
      [
        12.037169,
        58.116287
      ],
      [
        12.037069,
        58.116402
      ],
      [
        12.037102,
        58.116575
      ],
      [
        12.037169,
        58.116692
      ],
      [
        12.037202,
        58.116798
      ],
      [
        12.037264,
        58.116918
      ],
      [
        12.037278,
        58.116968
      ],
      [
        12.037302,
        58.117081
      ],
      [
        12.037302,
        58.117151
      ],
      [
        12.037278,
        58.117221
      ],
      [
        12.03725,
        58.117281
      ],
      [
        12.037066,
        58.117439
      ],
      [
        12.036942,
        58.117549
      ],
      [
        12.036857,
        58.117622
      ],
      [
        12.036768,
        58.117692
      ],
      [
        12.036659,
        58.117756
      ],
      [
        12.036603,
        58.117786
      ],
      [
        12.036471,
        58.117838
      ],
      [
        12.036404,
        58.117861
      ],
      [
        12.03633,
        58.117885
      ],
      [
        12.036281,
        58.117911
      ],
      [
        12.036249,
        58.117967
      ],
      [
        12.036254,
        58.117974
      ],
      [
        12.036249,
        58.117994
      ],
      [
        12.036338,
        58.11802
      ],
      [
        12.036458,
        58.118074
      ],
      [
        12.036543,
        58.118121
      ],
      [
        12.036593,
        58.118149
      ],
      [
        12.036678,
        58.118214
      ],
      [
        12.03671,
        58.118243
      ],
      [
        12.036752,
        58.118295
      ],
      [
        12.036788,
        58.118339
      ],
      [
        12.036791,
        58.118352
      ],
      [
        12.036774,
        58.118394
      ],
      [
        12.036874,
        58.11851
      ],
      [
        12.036981,
        58.118744
      ],
      [
        12.037089,
        58.118916
      ],
      [
        12.037233,
        58.119092
      ],
      [
        12.037378,
        58.119256
      ],
      [
        12.037425,
        58.119354
      ],
      [
        12.03761,
        58.119455
      ],
      [
        12.037681,
        58.119504
      ],
      [
        12.0378,
        58.119595
      ],
      [
        12.038291,
        58.119976
      ],
      [
        12.03846,
        58.120113
      ],
      [
        12.038458,
        58.120205
      ],
      [
        12.038483,
        58.120325
      ],
      [
        12.038259,
        58.120703
      ],
      [
        12.037991,
        58.121088
      ],
      [
        12.037683,
        58.121374
      ],
      [
        12.037556,
        58.12147
      ],
      [
        12.037438,
        58.121502
      ],
      [
        12.037289,
        58.121567
      ],
      [
        12.037119,
        58.121804
      ],
      [
        12.037044,
        58.12207
      ],
      [
        12.036855,
        58.122428
      ],
      [
        12.03661,
        58.122706
      ],
      [
        12.036502,
        58.122763
      ],
      [
        12.036478,
        58.122843
      ],
      [
        12.036482,
        58.122888
      ],
      [
        12.036599,
        58.122961
      ],
      [
        12.036612,
        58.12306
      ],
      [
        12.03665,
        58.123151
      ],
      [
        12.036624,
        58.123217
      ],
      [
        12.036621,
        58.1233
      ],
      [
        12.036587,
        58.123344
      ],
      [
        12.036583,
        58.123404
      ],
      [
        12.036623,
        58.123474
      ],
      [
        12.036628,
        58.123559
      ],
      [
        12.036621,
        58.123625
      ],
      [
        12.036585,
        58.123678
      ],
      [
        12.036522,
        58.123766
      ],
      [
        12.036485,
        58.123824
      ],
      [
        12.036446,
        58.123875
      ],
      [
        12.0364,
        58.12392
      ],
      [
        12.036373,
        58.123958
      ],
      [
        12.036353,
        58.123989
      ],
      [
        12.036323,
        58.124018
      ],
      [
        12.036317,
        58.124047
      ],
      [
        12.036305,
        58.124067
      ],
      [
        12.036298,
        58.124088
      ],
      [
        12.036339,
        58.124133
      ],
      [
        12.036405,
        58.124176
      ],
      [
        12.03653,
        58.124239
      ],
      [
        12.036551,
        58.124251
      ],
      [
        12.036589,
        58.124285
      ],
      [
        12.036626,
        58.124327
      ],
      [
        12.036644,
        58.124365
      ],
      [
        12.036659,
        58.124399
      ],
      [
        12.036699,
        58.124504
      ],
      [
        12.036722,
        58.124556
      ],
      [
        12.036787,
        58.124661
      ],
      [
        12.036876,
        58.124766
      ],
      [
        12.03691,
        58.124804
      ],
      [
        12.036923,
        58.124819
      ],
      [
        12.036933,
        58.124835
      ],
      [
        12.036941,
        58.124864
      ],
      [
        12.036819,
        58.124864
      ],
      [
        12.036738,
        58.124864
      ],
      [
        12.036627,
        58.124863
      ],
      [
        12.036473,
        58.124838
      ],
      [
        12.036353,
        58.124822
      ],
      [
        12.036234,
        58.124798
      ],
      [
        12.036145,
        58.124786
      ],
      [
        12.036049,
        58.124773
      ],
      [
        12.035941,
        58.124755
      ],
      [
        12.035821,
        58.124763
      ],
      [
        12.035708,
        58.124825
      ],
      [
        12.035432,
        58.124904
      ],
      [
        12.035229,
        58.12496
      ],
      [
        12.035007,
        58.125009
      ],
      [
        12.034729,
        58.125168
      ],
      [
        12.034568,
        58.125274
      ],
      [
        12.034437,
        58.125466
      ],
      [
        12.034429,
        58.125715
      ],
      [
        12.034337,
        58.126012
      ],
      [
        12.034291,
        58.126106
      ],
      [
        12.034206,
        58.126232
      ],
      [
        12.034283,
        58.126383
      ],
      [
        12.034499,
        58.126457
      ],
      [
        12.034661,
        58.126542
      ],
      [
        12.034746,
        58.126664
      ],
      [
        12.034754,
        58.126795
      ],
      [
        12.034592,
        58.127003
      ],
      [
        12.034431,
        58.127178
      ],
      [
        12.034331,
        58.127358
      ],
      [
        12.034547,
        58.127476
      ],
      [
        12.03484,
        58.127667
      ],
      [
        12.035102,
        58.127932
      ],
      [
        12.035264,
        58.128152
      ],
      [
        12.035249,
        58.128336
      ],
      [
        12.035226,
        58.128495
      ],
      [
        12.035056,
        58.128674
      ],
      [
        12.034849,
        58.128817
      ],
      [
        12.034717,
        58.12894
      ],
      [
        12.03481,
        58.12905
      ],
      [
        12.034911,
        58.129209
      ],
      [
        12.035003,
        58.129294
      ],
      [
        12.035074,
        58.129434
      ],
      [
        12.0351,
        58.129477
      ],
      [
        12.035159,
        58.129547
      ],
      [
        12.035288,
        58.129706
      ],
      [
        12.035375,
        58.129777
      ],
      [
        12.035439,
        58.129829
      ],
      [
        12.035576,
        58.129932
      ],
      [
        12.035795,
        58.130096
      ],
      [
        12.035964,
        58.130227
      ],
      [
        12.03624,
        58.130444
      ],
      [
        12.036864,
        58.130912
      ],
      [
        12.036927,
        58.130958
      ],
      [
        12.037124,
        58.131102
      ],
      [
        12.037252,
        58.13119
      ],
      [
        12.03737,
        58.131265
      ],
      [
        12.037464,
        58.131316
      ],
      [
        12.037595,
        58.131381
      ],
      [
        12.037726,
        58.131434
      ],
      [
        12.03788,
        58.131483
      ],
      [
        12.038042,
        58.131511
      ],
      [
        12.03822,
        58.13154
      ],
      [
        12.038412,
        58.131564
      ],
      [
        12.038559,
        58.131585
      ],
      [
        12.038836,
        58.131621
      ],
      [
        12.039307,
        58.131666
      ],
      [
        12.040008,
        58.131739
      ],
      [
        12.040478,
        58.13178
      ],
      [
        12.040686,
        58.131796
      ],
      [
        12.040848,
        58.131816
      ],
      [
        12.040972,
        58.13182
      ],
      [
        12.041072,
        58.131824
      ],
      [
        12.041195,
        58.131808
      ],
      [
        12.041334,
        58.131796
      ],
      [
        12.041534,
        58.131775
      ],
      [
        12.041711,
        58.131767
      ],
      [
        12.04195,
        58.131759
      ],
      [
        12.04219,
        58.131751
      ],
      [
        12.042413,
        58.131759
      ],
      [
        12.042513,
        58.131767
      ],
      [
        12.04266,
        58.131791
      ],
      [
        12.042798,
        58.13182
      ],
      [
        12.042914,
        58.131836
      ],
      [
        12.043007,
        58.131856
      ],
      [
        12.043138,
        58.131881
      ],
      [
        12.043246,
        58.131913
      ],
      [
        12.043438,
        58.131946
      ],
      [
        12.043377,
        58.132023
      ],
      [
        12.043269,
        58.132142
      ],
      [
        12.043238,
        58.132187
      ],
      [
        12.0432,
        58.132244
      ],
      [
        12.043231,
        58.132403
      ],
      [
        12.043277,
        58.132566
      ],
      [
        12.043316,
        58.132729
      ],
      [
        12.043339,
        58.132827
      ],
      [
        12.043363,
        58.132925
      ],
      [
        12.043386,
        58.13301
      ],
      [
        12.043386,
        58.133112
      ],
      [
        12.043293,
        58.133222
      ],
      [
        12.043147,
        58.13332
      ],
      [
        12.042908,
        58.133483
      ],
      [
        12.042708,
        58.133626
      ],
      [
        12.042577,
        58.13374
      ],
      [
        12.042462,
        58.133818
      ],
      [
        12.042385,
        58.133932
      ],
      [
        12.042323,
        58.134038
      ],
      [
        12.042277,
        58.134148
      ],
      [
        12.0423,
        58.134279
      ],
      [
        12.042285,
        58.134364
      ],
      [
        12.042308,
        58.134421
      ],
      [
        12.042316,
        58.13447
      ],
      [
        12.042331,
        58.134539
      ],
      [
        12.042362,
        58.134609
      ],
      [
        12.042447,
        58.134707
      ],
      [
        12.042563,
        58.1348
      ],
      [
        12.042764,
        58.134922
      ],
      [
        12.042864,
        58.134971
      ],
      [
        12.042972,
        58.13502
      ],
      [
        12.043049,
        58.135057
      ],
      [
        12.043172,
        58.135085
      ],
      [
        12.043265,
        58.135106
      ],
      [
        12.04338,
        58.135122
      ],
      [
        12.043496,
        58.135138
      ],
      [
        12.04365,
        58.135183
      ],
      [
        12.043905,
        58.135228
      ],
      [
        12.044383,
        58.135338
      ],
      [
        12.044864,
        58.135495
      ],
      [
        12.045146,
        58.135574
      ],
      [
        12.045318,
        58.135687
      ],
      [
        12.045648,
        58.135794
      ],
      [
        12.04591,
        58.135945
      ],
      [
        12.046095,
        58.136063
      ],
      [
        12.046342,
        58.136242
      ],
      [
        12.046404,
        58.136409
      ],
      [
        12.045919,
        58.13694
      ],
      [
        12.045765,
        58.137192
      ],
      [
        12.045264,
        58.137446
      ],
      [
        12.044987,
        58.137556
      ],
      [
        12.04481,
        58.137625
      ],
      [
        12.044571,
        58.1378
      ],
      [
        12.044409,
        58.137996
      ],
      [
        12.044275,
        58.13821
      ],
      [
        12.044136,
        58.138365
      ],
      [
        12.044102,
        58.138514
      ],
      [
        12.044253,
        58.138863
      ],
      [
        12.044195,
        58.13894
      ],
      [
        12.043956,
        58.138979
      ],
      [
        12.04384,
        58.138975
      ],
      [
        12.043655,
        58.138995
      ],
      [
        12.043536,
        58.139081
      ],
      [
        12.043359,
        58.139191
      ],
      [
        12.042954,
        58.139373
      ],
      [
        12.042222,
        58.139695
      ],
      [
        12.041729,
        58.139889
      ],
      [
        12.042057,
        58.140136
      ],
      [
        12.042261,
        58.140268
      ],
      [
        12.042443,
        58.140496
      ],
      [
        12.042181,
        58.14059
      ],
      [
        12.04183,
        58.140698
      ],
      [
        12.041552,
        58.140774
      ],
      [
        12.041502,
        58.140916
      ],
      [
        12.041352,
        58.141053
      ],
      [
        12.041167,
        58.141175
      ],
      [
        12.040944,
        58.141286
      ],
      [
        12.040786,
        58.141408
      ],
      [
        12.040652,
        58.141799
      ],
      [
        12.040625,
        58.142036
      ],
      [
        12.040471,
        58.142189
      ],
      [
        12.040452,
        58.142342
      ],
      [
        12.040369,
        58.142414
      ],
      [
        12.040178,
        58.142607
      ],
      [
        12.039901,
        58.142766
      ],
      [
        12.039735,
        58.142807
      ],
      [
        12.039465,
        58.142866
      ],
      [
        12.039184,
        58.142976
      ],
      [
        12.03891,
        58.142993
      ],
      [
        12.038641,
        58.143113
      ],
      [
        12.038444,
        58.143164
      ],
      [
        12.038317,
        58.143162
      ],
      [
        12.038205,
        58.143105
      ],
      [
        12.038108,
        58.143048
      ],
      [
        12.037927,
        58.143052
      ],
      [
        12.037584,
        58.143152
      ],
      [
        12.037357,
        58.143213
      ],
      [
        12.03733,
        58.14328
      ],
      [
        12.0374,
        58.143582
      ],
      [
        12.037461,
        58.143656
      ],
      [
        12.037581,
        58.143784
      ],
      [
        12.038052,
        58.144102
      ],
      [
        12.038148,
        58.144161
      ],
      [
        12.038094,
        58.144226
      ],
      [
        12.03799,
        58.144385
      ],
      [
        12.037975,
        58.144538
      ],
      [
        12.037914,
        58.144654
      ],
      [
        12.037964,
        58.144775
      ],
      [
        12.038033,
        58.144777
      ],
      [
        12.038238,
        58.14483
      ],
      [
        12.038449,
        58.144936
      ],
      [
        12.038546,
        58.145031
      ],
      [
        12.038523,
        58.145184
      ],
      [
        12.038466,
        58.145254
      ],
      [
        12.038234,
        58.145337
      ],
      [
        12.038119,
        58.14539
      ],
      [
        12.037945,
        58.145574
      ],
      [
        12.037263,
        58.145535
      ],
      [
        12.0368,
        58.145492
      ],
      [
        12.036233,
        58.145452
      ],
      [
        12.036037,
        58.14544
      ],
      [
        12.035836,
        58.145426
      ],
      [
        12.035759,
        58.145417
      ],
      [
        12.035674,
        58.145407
      ],
      [
        12.035601,
        58.145403
      ],
      [
        12.035528,
        58.145395
      ],
      [
        12.035447,
        58.145383
      ],
      [
        12.035381,
        58.145393
      ],
      [
        12.03532,
        58.145413
      ],
      [
        12.035266,
        58.14543
      ],
      [
        12.035121,
        58.145494
      ],
      [
        12.034944,
        58.145592
      ],
      [
        12.034867,
        58.145653
      ],
      [
        12.034782,
        58.145723
      ],
      [
        12.034566,
        58.145849
      ],
      [
        12.034405,
        58.146041
      ],
      [
        12.034243,
        58.146281
      ],
      [
        12.033973,
        58.146546
      ],
      [
        12.033788,
        58.146795
      ],
      [
        12.033847,
        58.146829
      ],
      [
        12.034914,
        58.147124
      ],
      [
        12.037132,
        58.147726
      ],
      [
        12.037566,
        58.147845
      ],
      [
        12.037775,
        58.147904
      ],
      [
        12.037956,
        58.147955
      ],
      [
        12.038192,
        58.148025
      ],
      [
        12.03833,
        58.148069
      ],
      [
        12.038506,
        58.148133
      ]
    ]
  }
}
