{
  "type": "Feature",
  "bbox": [
    11.174108,
    58.937119,
    11.302371,
    58.969362
  ],
  "properties": {
    "schemaVersion": "candidate-trail-mapdata/v1",
    "trailId": "bohusleden",
    "sectionId": "bohusleden-stage-27-hogstad-stromstad",
    "sectionNumber": 27,
    "name": "Högstad - Strömstad",
    "from": "Högstad",
    "to": "Strömstad",
    "sourceName": "West Sweden Trails / Hoodin official GPX",
    "sourceUrl": "https://cdn.hoodin.com/beta-trailsinwest/assets/geomanager/geofiles/Etapp27_Krokstrand_stromstad.gpx",
    "sourceAccessedDate": "2026-04-30",
    "coordinateOrder": "GeoJSON [longitude, latitude]",
    "geometryCompleteness": "full-official",
    "geometryStatus": "navigation-grade after removing consecutive duplicate points",
    "rawPointCount": 1983,
    "duplicateConsecutivePointCount": 1322,
    "effectiveVertexCount": 661,
    "computedDistanceKm": 14.935,
    "officialDistanceKm": 15,
    "startCoordinate": [
      11.302371,
      58.951745
    ],
    "endCoordinate": [
      11.174108,
      58.937119
    ],
    "importReadiness": "ready-for-normalization-with-caveats",
    "importRecommendation": "candidate-for-normalization-after-standard QA/live checks",
    "warnings": [
      "GPX elevations are zero/unusable.",
      "Collapse consecutive duplicate coordinates before import or length calculations.",
      "GPX filename says Krokstrand_stromstad but geometry is Högstad-Strömstad."
    ]
  },
  "geometry": {
    "type": "LineString",
    "coordinates": [
      [
        11.302371,
        58.951745
      ],
      [
        11.302125,
        58.95177
      ],
      [
        11.301981,
        58.951772
      ],
      [
        11.301832,
        58.951797
      ],
      [
        11.30166,
        58.95181
      ],
      [
        11.301517,
        58.951846
      ],
      [
        11.301389,
        58.951932
      ],
      [
        11.301263,
        58.951999
      ],
      [
        11.301136,
        58.952077
      ],
      [
        11.300981,
        58.952157
      ],
      [
        11.300757,
        58.952278
      ],
      [
        11.300574,
        58.952346
      ],
      [
        11.300416,
        58.952398
      ],
      [
        11.300235,
        58.952414
      ],
      [
        11.30006,
        58.952421
      ],
      [
        11.299986,
        58.952435
      ],
      [
        11.299895,
        58.952455
      ],
      [
        11.299693,
        58.952514
      ],
      [
        11.299537,
        58.952585
      ],
      [
        11.29937,
        58.952672
      ],
      [
        11.299246,
        58.952754
      ],
      [
        11.299164,
        58.952837
      ],
      [
        11.299087,
        58.952911
      ],
      [
        11.299025,
        58.952968
      ],
      [
        11.298947,
        58.953037
      ],
      [
        11.298851,
        58.953108
      ],
      [
        11.298735,
        58.953166
      ],
      [
        11.298545,
        58.953236
      ],
      [
        11.298397,
        58.953348
      ],
      [
        11.298268,
        58.953491
      ],
      [
        11.298156,
        58.953641
      ],
      [
        11.298042,
        58.953827
      ],
      [
        11.298006,
        58.953955
      ],
      [
        11.297923,
        58.954039
      ],
      [
        11.297793,
        58.954116
      ],
      [
        11.297433,
        58.954286
      ],
      [
        11.297319,
        58.954352
      ],
      [
        11.296858,
        58.954367
      ],
      [
        11.296729,
        58.954387
      ],
      [
        11.296448,
        58.954345
      ],
      [
        11.296129,
        58.954297
      ],
      [
        11.295911,
        58.954306
      ],
      [
        11.295567,
        58.954465
      ],
      [
        11.295344,
        58.954646
      ],
      [
        11.295144,
        58.954689
      ],
      [
        11.295236,
        58.954849
      ],
      [
        11.295244,
        58.95495
      ],
      [
        11.295249,
        58.95502
      ],
      [
        11.294801,
        58.955359
      ],
      [
        11.294516,
        58.955584
      ],
      [
        11.294424,
        58.955788
      ],
      [
        11.294304,
        58.955928
      ],
      [
        11.294087,
        58.956003
      ],
      [
        11.293875,
        58.956033
      ],
      [
        11.293766,
        58.956075
      ],
      [
        11.293747,
        58.956127
      ],
      [
        11.293737,
        58.956182
      ],
      [
        11.293698,
        58.956225
      ],
      [
        11.293362,
        58.95627
      ],
      [
        11.293137,
        58.956263
      ],
      [
        11.292767,
        58.956306
      ],
      [
        11.292407,
        58.956413
      ],
      [
        11.292236,
        58.956552
      ],
      [
        11.291973,
        58.956724
      ],
      [
        11.291783,
        58.956871
      ],
      [
        11.291774,
        58.956951
      ],
      [
        11.291907,
        58.957009
      ],
      [
        11.292164,
        58.957044
      ],
      [
        11.292642,
        58.957129
      ],
      [
        11.292842,
        58.957207
      ],
      [
        11.292862,
        58.957342
      ],
      [
        11.292801,
        58.957421
      ],
      [
        11.292238,
        58.957486
      ],
      [
        11.291914,
        58.957584
      ],
      [
        11.29207,
        58.957651
      ],
      [
        11.292591,
        58.957825
      ],
      [
        11.292933,
        58.957948
      ],
      [
        11.293282,
        58.958082
      ],
      [
        11.293502,
        58.958143
      ],
      [
        11.293837,
        58.958266
      ],
      [
        11.294076,
        58.958371
      ],
      [
        11.294362,
        58.958544
      ],
      [
        11.294538,
        58.95864
      ],
      [
        11.294673,
        58.958681
      ],
      [
        11.294796,
        58.958719
      ],
      [
        11.294944,
        58.958764
      ],
      [
        11.294984,
        58.958821
      ],
      [
        11.295049,
        58.958899
      ],
      [
        11.295203,
        58.958951
      ],
      [
        11.295326,
        58.958973
      ],
      [
        11.295643,
        58.959021
      ],
      [
        11.295814,
        58.95905
      ],
      [
        11.29602,
        58.959094
      ],
      [
        11.296246,
        58.959167
      ],
      [
        11.296493,
        58.959278
      ],
      [
        11.296718,
        58.959362
      ],
      [
        11.296917,
        58.959445
      ],
      [
        11.297081,
        58.959517
      ],
      [
        11.297386,
        58.959786
      ],
      [
        11.297382,
        58.959974
      ],
      [
        11.297401,
        58.960039
      ],
      [
        11.297457,
        58.960091
      ],
      [
        11.297585,
        58.960143
      ],
      [
        11.297427,
        58.960149
      ],
      [
        11.297186,
        58.960127
      ],
      [
        11.297034,
        58.960122
      ],
      [
        11.296861,
        58.960139
      ],
      [
        11.296634,
        58.960145
      ],
      [
        11.296386,
        58.960108
      ],
      [
        11.295995,
        58.960006
      ],
      [
        11.295686,
        58.959926
      ],
      [
        11.295405,
        58.959846
      ],
      [
        11.295192,
        58.959792
      ],
      [
        11.295033,
        58.959801
      ],
      [
        11.294653,
        58.959878
      ],
      [
        11.294465,
        58.959948
      ],
      [
        11.294003,
        58.96017
      ],
      [
        11.29369,
        58.960393
      ],
      [
        11.293583,
        58.960592
      ],
      [
        11.293846,
        58.960867
      ],
      [
        11.293679,
        58.960945
      ],
      [
        11.293551,
        58.961133
      ],
      [
        11.293527,
        58.961275
      ],
      [
        11.293552,
        58.961418
      ],
      [
        11.293474,
        58.961542
      ],
      [
        11.293152,
        58.961733
      ],
      [
        11.292978,
        58.96217
      ],
      [
        11.293022,
        58.962359
      ],
      [
        11.293218,
        58.962546
      ],
      [
        11.293188,
        58.962702
      ],
      [
        11.292707,
        58.962823
      ],
      [
        11.292839,
        58.963026
      ],
      [
        11.292933,
        58.963183
      ],
      [
        11.292914,
        58.963342
      ],
      [
        11.292792,
        58.963558
      ],
      [
        11.292683,
        58.963707
      ],
      [
        11.292506,
        58.963849
      ],
      [
        11.292151,
        58.964027
      ],
      [
        11.29183,
        58.96416
      ],
      [
        11.291567,
        58.964241
      ],
      [
        11.291272,
        58.964256
      ],
      [
        11.290974,
        58.964249
      ],
      [
        11.290555,
        58.964206
      ],
      [
        11.290275,
        58.964164
      ],
      [
        11.289995,
        58.964141
      ],
      [
        11.289689,
        58.96416
      ],
      [
        11.28938,
        58.964218
      ],
      [
        11.289127,
        58.964291
      ],
      [
        11.288871,
        58.964386
      ],
      [
        11.288645,
        58.964506
      ],
      [
        11.288442,
        58.964638
      ],
      [
        11.28819,
        58.964819
      ],
      [
        11.287998,
        58.964937
      ],
      [
        11.287824,
        58.96502
      ],
      [
        11.287587,
        58.965086
      ],
      [
        11.2873,
        58.965169
      ],
      [
        11.287133,
        58.965248
      ],
      [
        11.287007,
        58.965343
      ],
      [
        11.286881,
        58.965469
      ],
      [
        11.286785,
        58.965602
      ],
      [
        11.286715,
        58.965702
      ],
      [
        11.286654,
        58.965806
      ],
      [
        11.28605,
        58.965548
      ],
      [
        11.285449,
        58.96531
      ],
      [
        11.284974,
        58.965132
      ],
      [
        11.284575,
        58.964975
      ],
      [
        11.284189,
        58.964821
      ],
      [
        11.283932,
        58.964717
      ],
      [
        11.283553,
        58.964565
      ],
      [
        11.282733,
        58.964218
      ],
      [
        11.28198,
        58.963896
      ],
      [
        11.280933,
        58.963457
      ],
      [
        11.279874,
        58.962996
      ],
      [
        11.278696,
        58.962506
      ],
      [
        11.277092,
        58.961786
      ],
      [
        11.275617,
        58.961167
      ],
      [
        11.274184,
        58.960538
      ],
      [
        11.272706,
        58.959895
      ],
      [
        11.271757,
        58.959488
      ],
      [
        11.270999,
        58.959159
      ],
      [
        11.270365,
        58.958919
      ],
      [
        11.269631,
        58.958678
      ],
      [
        11.269557,
        58.958751
      ],
      [
        11.269542,
        58.958815
      ],
      [
        11.269603,
        58.958898
      ],
      [
        11.269795,
        58.959053
      ],
      [
        11.270254,
        58.959386
      ],
      [
        11.270414,
        58.959521
      ],
      [
        11.270505,
        58.959819
      ],
      [
        11.270622,
        58.960138
      ],
      [
        11.270672,
        58.960207
      ],
      [
        11.269676,
        58.960646
      ],
      [
        11.269453,
        58.960736
      ],
      [
        11.269165,
        58.960796
      ],
      [
        11.268686,
        58.960858
      ],
      [
        11.268307,
        58.960941
      ],
      [
        11.268161,
        58.960989
      ],
      [
        11.268096,
        58.961068
      ],
      [
        11.26808,
        58.961175
      ],
      [
        11.268165,
        58.961305
      ],
      [
        11.268405,
        58.961449
      ],
      [
        11.268566,
        58.961537
      ],
      [
        11.26902,
        58.961987
      ],
      [
        11.269011,
        58.962049
      ],
      [
        11.268904,
        58.96218
      ],
      [
        11.268712,
        58.962292
      ],
      [
        11.268552,
        58.962446
      ],
      [
        11.2685,
        58.962639
      ],
      [
        11.268518,
        58.962766
      ],
      [
        11.268455,
        58.962822
      ],
      [
        11.268393,
        58.962864
      ],
      [
        11.268317,
        58.962892
      ],
      [
        11.268065,
        58.962887
      ],
      [
        11.267886,
        58.962953
      ],
      [
        11.26781,
        58.963016
      ],
      [
        11.267645,
        58.963382
      ],
      [
        11.267475,
        58.96368
      ],
      [
        11.267324,
        58.963725
      ],
      [
        11.267188,
        58.963703
      ],
      [
        11.267046,
        58.96366
      ],
      [
        11.266875,
        58.963666
      ],
      [
        11.266581,
        58.963696
      ],
      [
        11.2662,
        58.963627
      ],
      [
        11.265983,
        58.963545
      ],
      [
        11.265826,
        58.963569
      ],
      [
        11.265511,
        58.963623
      ],
      [
        11.26517,
        58.963607
      ],
      [
        11.264951,
        58.963663
      ],
      [
        11.264739,
        58.963654
      ],
      [
        11.264629,
        58.963685
      ],
      [
        11.264661,
        58.963776
      ],
      [
        11.264912,
        58.963956
      ],
      [
        11.265091,
        58.964063
      ],
      [
        11.265348,
        58.964315
      ],
      [
        11.265402,
        58.964494
      ],
      [
        11.265474,
        58.964579
      ],
      [
        11.265621,
        58.964618
      ],
      [
        11.265802,
        58.964649
      ],
      [
        11.266071,
        58.964736
      ],
      [
        11.266159,
        58.964876
      ],
      [
        11.266287,
        58.965022
      ],
      [
        11.266098,
        58.965034
      ],
      [
        11.265802,
        58.965034
      ],
      [
        11.265743,
        58.965034
      ],
      [
        11.265644,
        58.965027
      ],
      [
        11.265508,
        58.965017
      ],
      [
        11.265177,
        58.964972
      ],
      [
        11.264808,
        58.964892
      ],
      [
        11.264493,
        58.964823
      ],
      [
        11.263869,
        58.964672
      ],
      [
        11.263462,
        58.96447
      ],
      [
        11.263216,
        58.964439
      ],
      [
        11.262755,
        58.964458
      ],
      [
        11.262213,
        58.964408
      ],
      [
        11.261948,
        58.964496
      ],
      [
        11.261624,
        58.964655
      ],
      [
        11.261474,
        58.964752
      ],
      [
        11.261464,
        58.964755
      ],
      [
        11.261447,
        58.96476
      ],
      [
        11.261431,
        58.964764
      ],
      [
        11.261397,
        58.964773
      ],
      [
        11.261323,
        58.964795
      ],
      [
        11.260951,
        58.964874
      ],
      [
        11.26027,
        58.965117
      ],
      [
        11.260163,
        58.9652
      ],
      [
        11.259602,
        58.965393
      ],
      [
        11.258957,
        58.965525
      ],
      [
        11.258632,
        58.965636
      ],
      [
        11.258515,
        58.9657
      ],
      [
        11.257828,
        58.965877
      ],
      [
        11.257736,
        58.96595
      ],
      [
        11.257608,
        58.966133
      ],
      [
        11.257448,
        58.96632
      ],
      [
        11.257353,
        58.96635
      ],
      [
        11.257093,
        58.966387
      ],
      [
        11.256976,
        58.96646
      ],
      [
        11.256906,
        58.966583
      ],
      [
        11.256941,
        58.966646
      ],
      [
        11.256957,
        58.966763
      ],
      [
        11.256963,
        58.966866
      ],
      [
        11.256898,
        58.966956
      ],
      [
        11.256811,
        58.967094
      ],
      [
        11.257381,
        58.967564
      ],
      [
        11.257902,
        58.967984
      ],
      [
        11.258628,
        58.968358
      ],
      [
        11.258893,
        58.968466
      ],
      [
        11.25892,
        58.968478
      ],
      [
        11.25903,
        58.968504
      ],
      [
        11.258926,
        58.968635
      ],
      [
        11.258753,
        58.968764
      ],
      [
        11.258664,
        58.968892
      ],
      [
        11.258642,
        58.968891
      ],
      [
        11.258143,
        58.969051
      ],
      [
        11.257524,
        58.969303
      ],
      [
        11.257399,
        58.969338
      ],
      [
        11.25725,
        58.969356
      ],
      [
        11.257095,
        58.969328
      ],
      [
        11.256522,
        58.969292
      ],
      [
        11.255936,
        58.969302
      ],
      [
        11.255566,
        58.969362
      ],
      [
        11.255391,
        58.969354
      ],
      [
        11.255121,
        58.969236
      ],
      [
        11.254874,
        58.969177
      ],
      [
        11.254458,
        58.969149
      ],
      [
        11.253966,
        58.969105
      ],
      [
        11.253963,
        58.969104
      ],
      [
        11.253406,
        58.968992
      ],
      [
        11.253164,
        58.968857
      ],
      [
        11.252895,
        58.968743
      ],
      [
        11.252393,
        58.968711
      ],
      [
        11.251995,
        58.96871
      ],
      [
        11.251767,
        58.968727
      ],
      [
        11.251536,
        58.96851
      ],
      [
        11.251206,
        58.968239
      ],
      [
        11.251145,
        58.968034
      ],
      [
        11.251008,
        58.967647
      ],
      [
        11.250974,
        58.967377
      ],
      [
        11.25081,
        58.967027
      ],
      [
        11.250708,
        58.966813
      ],
      [
        11.250666,
        58.966659
      ],
      [
        11.250663,
        58.966622
      ],
      [
        11.250661,
        58.966295
      ],
      [
        11.250553,
        58.966029
      ],
      [
        11.25054,
        58.965883
      ],
      [
        11.250443,
        58.965906
      ],
      [
        11.250339,
        58.965927
      ],
      [
        11.250189,
        58.965952
      ],
      [
        11.250062,
        58.965961
      ],
      [
        11.249815,
        58.965988
      ],
      [
        11.249669,
        58.965988
      ],
      [
        11.249481,
        58.96598
      ],
      [
        11.249287,
        58.965973
      ],
      [
        11.249135,
        58.965941
      ],
      [
        11.248802,
        58.965857
      ],
      [
        11.248402,
        58.965718
      ],
      [
        11.24821,
        58.965585
      ],
      [
        11.247946,
        58.965334
      ],
      [
        11.247579,
        58.965078
      ],
      [
        11.247251,
        58.964914
      ],
      [
        11.246655,
        58.964678
      ],
      [
        11.246063,
        58.964542
      ],
      [
        11.245555,
        58.964435
      ],
      [
        11.245254,
        58.964334
      ],
      [
        11.244926,
        58.96418
      ],
      [
        11.244407,
        58.964018
      ],
      [
        11.244005,
        58.963897
      ],
      [
        11.243644,
        58.963857
      ],
      [
        11.242987,
        58.963826
      ],
      [
        11.242252,
        58.963729
      ],
      [
        11.241723,
        58.963639
      ],
      [
        11.241422,
        58.963548
      ],
      [
        11.241157,
        58.963441
      ],
      [
        11.240841,
        58.963322
      ],
      [
        11.240697,
        58.963227
      ],
      [
        11.240526,
        58.963203
      ],
      [
        11.240263,
        58.963087
      ],
      [
        11.24002,
        58.962943
      ],
      [
        11.239818,
        58.962843
      ],
      [
        11.239602,
        58.962797
      ],
      [
        11.239306,
        58.962707
      ],
      [
        11.239122,
        58.962699
      ],
      [
        11.238794,
        58.96274
      ],
      [
        11.238579,
        58.962698
      ],
      [
        11.2381,
        58.962538
      ],
      [
        11.237588,
        58.962398
      ],
      [
        11.237441,
        58.962401
      ],
      [
        11.237184,
        58.962374
      ],
      [
        11.237022,
        58.962688
      ],
      [
        11.236857,
        58.963101
      ],
      [
        11.236721,
        58.963608
      ],
      [
        11.236477,
        58.964395
      ],
      [
        11.23632,
        58.964916
      ],
      [
        11.236186,
        58.964949
      ],
      [
        11.2361,
        58.965006
      ],
      [
        11.235942,
        58.965016
      ],
      [
        11.235791,
        58.964998
      ],
      [
        11.235597,
        58.964959
      ],
      [
        11.23533,
        58.964883
      ],
      [
        11.23486,
        58.964715
      ],
      [
        11.234669,
        58.964738
      ],
      [
        11.234552,
        58.964747
      ],
      [
        11.234394,
        58.964748
      ],
      [
        11.234257,
        58.964736
      ],
      [
        11.234147,
        58.964712
      ],
      [
        11.234038,
        58.964688
      ],
      [
        11.233929,
        58.964665
      ],
      [
        11.233846,
        58.964651
      ],
      [
        11.233824,
        58.964646
      ],
      [
        11.233715,
        58.964623
      ],
      [
        11.233666,
        58.964612
      ],
      [
        11.233605,
        58.964599
      ],
      [
        11.233485,
        58.964566
      ],
      [
        11.233456,
        58.964559
      ],
      [
        11.233429,
        58.964551
      ],
      [
        11.233403,
        58.964541
      ],
      [
        11.233379,
        58.96453
      ],
      [
        11.233357,
        58.964518
      ],
      [
        11.233337,
        58.964505
      ],
      [
        11.23327,
        58.964457
      ],
      [
        11.233203,
        58.96438
      ],
      [
        11.233071,
        58.96432
      ],
      [
        11.232902,
        58.96427
      ],
      [
        11.23275,
        58.964259
      ],
      [
        11.232658,
        58.964247
      ],
      [
        11.232584,
        58.964228
      ],
      [
        11.232544,
        58.964199
      ],
      [
        11.232506,
        58.964169
      ],
      [
        11.232469,
        58.964139
      ],
      [
        11.232433,
        58.964109
      ],
      [
        11.232399,
        58.964077
      ],
      [
        11.232367,
        58.964046
      ],
      [
        11.232336,
        58.964014
      ],
      [
        11.232293,
        58.963988
      ],
      [
        11.232265,
        58.963955
      ],
      [
        11.232238,
        58.963922
      ],
      [
        11.232213,
        58.963889
      ],
      [
        11.23219,
        58.963855
      ],
      [
        11.232169,
        58.963821
      ],
      [
        11.232149,
        58.963787
      ],
      [
        11.232141,
        58.963767
      ],
      [
        11.232125,
        58.963733
      ],
      [
        11.23211,
        58.963698
      ],
      [
        11.232096,
        58.963663
      ],
      [
        11.232085,
        58.963628
      ],
      [
        11.232075,
        58.963592
      ],
      [
        11.232069,
        58.963566
      ],
      [
        11.232067,
        58.963557
      ],
      [
        11.23206,
        58.963522
      ],
      [
        11.232056,
        58.963486
      ],
      [
        11.232052,
        58.963453
      ],
      [
        11.23205,
        58.963417
      ],
      [
        11.232051,
        58.963381
      ],
      [
        11.232053,
        58.963346
      ],
      [
        11.232057,
        58.96331
      ],
      [
        11.232062,
        58.963274
      ],
      [
        11.23207,
        58.963239
      ],
      [
        11.232078,
        58.963203
      ],
      [
        11.232089,
        58.963168
      ],
      [
        11.232106,
        58.963117
      ],
      [
        11.232122,
        58.963066
      ],
      [
        11.232139,
        58.963015
      ],
      [
        11.232156,
        58.962974
      ],
      [
        11.232172,
        58.962923
      ],
      [
        11.232189,
        58.962872
      ],
      [
        11.232205,
        58.96282
      ],
      [
        11.232222,
        58.962769
      ],
      [
        11.232239,
        58.962718
      ],
      [
        11.232255,
        58.962667
      ],
      [
        11.232272,
        58.962616
      ],
      [
        11.232289,
        58.962565
      ],
      [
        11.232305,
        58.962514
      ],
      [
        11.232318,
        58.962465
      ],
      [
        11.232334,
        58.962414
      ],
      [
        11.232351,
        58.962363
      ],
      [
        11.232378,
        58.962275
      ],
      [
        11.2324,
        58.962187
      ],
      [
        11.232418,
        58.962099
      ],
      [
        11.232431,
        58.96201
      ],
      [
        11.232441,
        58.961921
      ],
      [
        11.232452,
        58.961822
      ],
      [
        11.232453,
        58.961733
      ],
      [
        11.232449,
        58.961644
      ],
      [
        11.232442,
        58.961555
      ],
      [
        11.23243,
        58.961467
      ],
      [
        11.232414,
        58.961378
      ],
      [
        11.232394,
        58.96129
      ],
      [
        11.232369,
        58.961194
      ],
      [
        11.23234,
        58.961106
      ],
      [
        11.232307,
        58.961019
      ],
      [
        11.23227,
        58.960932
      ],
      [
        11.232229,
        58.960846
      ],
      [
        11.232184,
        58.96076
      ],
      [
        11.232134,
        58.960675
      ],
      [
        11.232093,
        58.960598
      ],
      [
        11.232036,
        58.960514
      ],
      [
        11.231974,
        58.960431
      ],
      [
        11.231909,
        58.960349
      ],
      [
        11.231839,
        58.960268
      ],
      [
        11.231766,
        58.960187
      ],
      [
        11.231689,
        58.960108
      ],
      [
        11.231588,
        58.960008
      ],
      [
        11.231504,
        58.95993
      ],
      [
        11.231416,
        58.959854
      ],
      [
        11.231324,
        58.959779
      ],
      [
        11.231229,
        58.959705
      ],
      [
        11.231129,
        58.959632
      ],
      [
        11.231027,
        58.959561
      ],
      [
        11.230921,
        58.959491
      ],
      [
        11.230804,
        58.959407
      ],
      [
        11.230692,
        58.95934
      ],
      [
        11.230576,
        58.959274
      ],
      [
        11.230458,
        58.95921
      ],
      [
        11.230336,
        58.959147
      ],
      [
        11.230162,
        58.959061
      ],
      [
        11.229689,
        58.958852
      ],
      [
        11.22934,
        58.959058
      ],
      [
        11.22924,
        58.959079
      ],
      [
        11.229155,
        58.959104
      ],
      [
        11.229133,
        58.95914
      ],
      [
        11.229094,
        58.959162
      ],
      [
        11.229082,
        58.959191
      ],
      [
        11.229042,
        58.959213
      ],
      [
        11.22908,
        58.959267
      ],
      [
        11.229075,
        58.959303
      ],
      [
        11.229076,
        58.959354
      ],
      [
        11.229053,
        58.959414
      ],
      [
        11.229015,
        58.959427
      ],
      [
        11.228411,
        58.959678
      ],
      [
        11.227822,
        58.959946
      ],
      [
        11.227401,
        58.960265
      ],
      [
        11.227203,
        58.960465
      ],
      [
        11.227177,
        58.96068
      ],
      [
        11.227004,
        58.960819
      ],
      [
        11.226935,
        58.961104
      ],
      [
        11.227003,
        58.961268
      ],
      [
        11.227177,
        58.961408
      ],
      [
        11.227525,
        58.961554
      ],
      [
        11.227909,
        58.961692
      ],
      [
        11.228085,
        58.961815
      ],
      [
        11.228154,
        58.96197
      ],
      [
        11.228049,
        58.962119
      ],
      [
        11.227721,
        58.962243
      ],
      [
        11.227046,
        58.962357
      ],
      [
        11.226371,
        58.96247
      ],
      [
        11.22566,
        58.962599
      ],
      [
        11.224952,
        58.962693
      ],
      [
        11.224371,
        58.962756
      ],
      [
        11.223742,
        58.96278
      ],
      [
        11.223115,
        58.962778
      ],
      [
        11.222513,
        58.962723
      ],
      [
        11.221855,
        58.962693
      ],
      [
        11.221428,
        58.962634
      ],
      [
        11.22085,
        58.962516
      ],
      [
        11.220108,
        58.962322
      ],
      [
        11.219352,
        58.962091
      ],
      [
        11.218627,
        58.961906
      ],
      [
        11.218064,
        58.961806
      ],
      [
        11.217581,
        58.961773
      ],
      [
        11.216571,
        58.961785
      ],
      [
        11.215925,
        58.9618
      ],
      [
        11.215564,
        58.961762
      ],
      [
        11.21533,
        58.961682
      ],
      [
        11.214991,
        58.961465
      ],
      [
        11.214479,
        58.961089
      ],
      [
        11.21419,
        58.960891
      ],
      [
        11.213872,
        58.960782
      ],
      [
        11.2136,
        58.960584
      ],
      [
        11.213115,
        58.960137
      ],
      [
        11.212912,
        58.959942
      ],
      [
        11.212876,
        58.959806
      ],
      [
        11.212746,
        58.95973
      ],
      [
        11.212084,
        58.959304
      ],
      [
        11.211836,
        58.959197
      ],
      [
        11.211467,
        58.959087
      ],
      [
        11.211353,
        58.95902
      ],
      [
        11.211283,
        58.958874
      ],
      [
        11.211203,
        58.958674
      ],
      [
        11.211026,
        58.958551
      ],
      [
        11.210679,
        58.958405
      ],
      [
        11.210374,
        58.958332
      ],
      [
        11.210094,
        58.95835
      ],
      [
        11.209781,
        58.958349
      ],
      [
        11.209628,
        58.958317
      ],
      [
        11.209328,
        58.958209
      ],
      [
        11.208838,
        58.958085
      ],
      [
        11.208343,
        58.958006
      ],
      [
        11.20791,
        58.957992
      ],
      [
        11.206944,
        58.957925
      ],
      [
        11.206646,
        58.957942
      ],
      [
        11.206313,
        58.957958
      ],
      [
        11.205757,
        58.957958
      ],
      [
        11.205201,
        58.957949
      ],
      [
        11.204509,
        58.957918
      ],
      [
        11.204313,
        58.957813
      ],
      [
        11.204064,
        58.957715
      ],
      [
        11.204036,
        58.957507
      ],
      [
        11.203939,
        58.957307
      ],
      [
        11.203716,
        58.957138
      ],
      [
        11.203555,
        58.956881
      ],
      [
        11.203242,
        58.956592
      ],
      [
        11.202988,
        58.956395
      ],
      [
        11.202666,
        58.956178
      ],
      [
        11.202251,
        58.955868
      ],
      [
        11.201804,
        58.95553
      ],
      [
        11.201413,
        58.955167
      ],
      [
        11.200899,
        58.954818
      ],
      [
        11.200405,
        58.954586
      ],
      [
        11.200008,
        58.954412
      ],
      [
        11.199801,
        58.954252
      ],
      [
        11.199423,
        58.953925
      ],
      [
        11.199139,
        58.953826
      ],
      [
        11.198838,
        58.953583
      ],
      [
        11.198644,
        58.95346
      ],
      [
        11.198522,
        58.953307
      ],
      [
        11.198391,
        58.953254
      ],
      [
        11.197711,
        58.953082
      ],
      [
        11.196108,
        58.952678
      ],
      [
        11.195166,
        58.95238
      ],
      [
        11.194839,
        58.952353
      ],
      [
        11.193941,
        58.95229
      ],
      [
        11.193444,
        58.952221
      ],
      [
        11.193247,
        58.952117
      ],
      [
        11.192809,
        58.951825
      ],
      [
        11.192671,
        58.951659
      ],
      [
        11.19222,
        58.951484
      ],
      [
        11.191899,
        58.951403
      ],
      [
        11.191685,
        58.951127
      ],
      [
        11.191465,
        58.950914
      ],
      [
        11.191203,
        58.950771
      ],
      [
        11.190226,
        58.95032
      ],
      [
        11.188772,
        58.949623
      ],
      [
        11.18752,
        58.94908
      ],
      [
        11.187456,
        58.94889
      ],
      [
        11.187279,
        58.948616
      ],
      [
        11.187219,
        58.9482
      ],
      [
        11.187451,
        58.948118
      ],
      [
        11.188165,
        58.948039
      ],
      [
        11.1889,
        58.94808
      ],
      [
        11.189975,
        58.9483
      ],
      [
        11.190751,
        58.948531
      ],
      [
        11.191507,
        58.948642
      ],
      [
        11.19206,
        58.948598
      ],
      [
        11.192753,
        58.94846
      ],
      [
        11.192966,
        58.948188
      ],
      [
        11.19338,
        58.948167
      ],
      [
        11.193758,
        58.948068
      ],
      [
        11.19445,
        58.947627
      ],
      [
        11.194921,
        58.947131
      ],
      [
        11.195184,
        58.946706
      ],
      [
        11.195025,
        58.946609
      ],
      [
        11.194983,
        58.946431
      ],
      [
        11.195169,
        58.946349
      ],
      [
        11.194998,
        58.945814
      ],
      [
        11.194716,
        58.945099
      ],
      [
        11.19457,
        58.944433
      ],
      [
        11.194581,
        58.943958
      ],
      [
        11.194932,
        58.942702
      ],
      [
        11.1952,
        58.942038
      ],
      [
        11.193644,
        58.941767
      ],
      [
        11.191678,
        58.941339
      ],
      [
        11.191238,
        58.941503
      ],
      [
        11.190662,
        58.941558
      ],
      [
        11.189237,
        58.941573
      ],
      [
        11.188527,
        58.941438
      ],
      [
        11.187841,
        58.941315
      ],
      [
        11.187179,
        58.941121
      ],
      [
        11.186587,
        58.940892
      ],
      [
        11.186086,
        58.94071
      ],
      [
        11.185743,
        58.940613
      ],
      [
        11.185426,
        58.940409
      ],
      [
        11.184971,
        58.94024
      ],
      [
        11.183415,
        58.939981
      ],
      [
        11.182889,
        58.939835
      ],
      [
        11.180095,
        58.938487
      ],
      [
        11.179685,
        58.938342
      ],
      [
        11.179712,
        58.938176
      ],
      [
        11.178958,
        58.937981
      ],
      [
        11.175823,
        58.937439
      ],
      [
        11.175322,
        58.937245
      ],
      [
        11.174817,
        58.937254
      ],
      [
        11.174108,
        58.937119
      ]
    ]
  }
}
