{
  "type": "FeatureCollection",
  "features": [
    {
      "type": "Feature",
      "properties": {
        "trailId": "ostkustleden",
        "sectionId": "ostkustleden-etapp-4-krokstorp-mortfors",
        "candidateGeometry": true,
        "runtimeImportApproved": false,
        "sourceUrl": "https://www.naturkartan.se/en/kalmar-lan/krokstorp-mortfors-ostkustleden-etapp-4.gpx",
        "source": "candidate-normalized-geojson",
        "classification": "navigation-grade after normalization; not raw-importable",
        "sourceComputedDistanceKm": 17.409,
        "lineCount": 10,
        "pointCount": 990,
        "componentSelectionApplied": false,
        "selectedComponentIndexes": null,
        "reverseApplied": false,
        "densifyApplied": false,
        "buildPolicyNotes": null,
        "lastUpdated": "2026-04-30",
        "id": "ostkustleden-etapp-4-krokstorp-mortfors",
        "trailSystemId": "ostkustleden",
        "name": "Ostkustleden Etapp 4, Krokstorp - Mörtfors",
        "part": 1
      },
      "geometry": {
        "type": "MultiLineString",
        "coordinates": [
          [
            [
              16.459728608256,
              57.4573952970922
            ],
            [
              16.4596082231673,
              57.4573962540669
            ],
            [
              16.4591298367943,
              57.4574201889333
            ],
            [
              16.4588474514473,
              57.4574491278367
            ],
            [
              16.458521034468,
              57.4575022649746
            ],
            [
              16.4581982834415,
              57.4575560198043
            ],
            [
              16.4578819524267,
              57.4576057852884
            ],
            [
              16.4577108859656,
              57.4576636883291
            ],
            [
              16.4575859994493,
              57.4577516986747
            ],
            [
              16.4575316966589,
              57.4578272030915
            ],
            [
              16.4572460515134,
              57.4577848938447
            ],
            [
              16.4571056495234,
              57.4577774108168
            ],
            [
              16.4568430205265,
              57.4577118945486
            ],
            [
              16.4565775571345,
              57.4576608011029
            ],
            [
              16.4563689615887,
              57.4576126811004
            ],
            [
              16.4561879452392,
              57.4575894546451
            ],
            [
              16.4560302713401,
              57.4575659772684
            ],
            [
              16.4558570855462,
              57.4574833001569
            ],
            [
              16.4556599891816,
              57.4573846855041
            ],
            [
              16.4554711171275,
              57.4573291602843
            ],
            [
              16.4552537506608,
              57.4573153197729
            ],
            [
              16.455046598832,
              57.4573067653266
            ],
            [
              16.454865571381,
              57.4572835370361
            ],
            [
              16.4546238165437,
              57.457241177232
            ],
            [
              16.4544388749537,
              57.4572017993591
            ],
            [
              16.4541514701903,
              57.4571887080986
            ],
            [
              16.4539250091048,
              57.4572001436339
            ],
            [
              16.4537003249059,
              57.4571683941026
            ],
            [
              16.4533750581041,
              57.4571233311225
            ],
            [
              16.4529189177695,
              57.4569996722285
            ],
            [
              16.4527862867284,
              57.4569734879159
            ],
            [
              16.4525505396977,
              57.4569163811509
            ],
            [
              16.4523478306689,
              57.4568759167652
            ],
            [
              16.4520503548604,
              57.4568342281738
            ],
            [
              16.451823369322,
              57.45681988709
            ],
            [
              16.4515765141071,
              57.456831671348
            ],
            [
              16.4512128933888,
              57.4568113372192
            ],
            [
              16.4509242414478,
              57.4567648978605
            ],
            [
              16.4506863347225,
              57.4566780897448
            ],
            [
              16.4503515230715,
              57.4565425399455
            ],
            [
              16.4500228266695,
              57.4564110968135
            ],
            [
              16.4497349095243,
              57.4562918703563
            ],
            [
              16.4493532827432,
              57.4561646526639
            ],
            [
              16.449247807428,
              57.4561082147315
            ],
            [
              16.4489593635655,
              57.4560323832059
            ],
            [
              16.4487575481447,
              57.4559619293949
            ],
            [
              16.4486055088897,
              57.4559095965643
            ],
            [
              16.4485079893992,
              57.4559027410654
            ],
            [
              16.4484306120664,
              57.455905064809
            ],
            [
              16.4482345684282,
              57.4558337116201
            ],
            [
              16.4480048548096,
              57.4558290938649
            ],
            [
              16.4477341962223,
              57.4559000265609
            ],
            [
              16.4475028683059,
              57.4558452879399
            ],
            [
              16.4471834550977,
              57.4557429967869
            ],
            [
              16.4469388817733,
              57.4557048819165
            ],
            [
              16.4463964728118,
              57.4555883872291
            ],
            [
              16.4461502943448,
              57.4555154703426
            ],
            [
              16.4458020834754,
              57.4554395009521
            ],
            [
              16.4455717350443,
              57.455384966279
            ],
            [
              16.4455753313816,
              57.4552754756867
            ],
            [
              16.4455463965208,
              57.455219372594
            ],
            [
              16.4455008269922,
              57.4549891641326
            ],
            [
              16.4453025525682,
              57.4548313947876
            ],
            [
              16.4451328310729,
              57.4547286697009
            ],
            [
              16.444913004842,
              57.4545655185181
            ],
            [
              16.4445870218558,
              57.4544211375954
            ],
            [
              16.4445212855954,
              57.4543902016546
            ],
            [
              16.4445177221355,
              57.4543885462767
            ]
          ],
          [
            [
              16.4710173019153,
              57.4739213560542
            ],
            [
              16.4706520787136,
              57.4739609500633
            ],
            [
              16.4698662486885,
              57.4743742973276
            ],
            [
              16.469706810964,
              57.4744857695098
            ],
            [
              16.4694845820562,
              57.4745241805659
            ],
            [
              16.4688937199904,
              57.4746133758498
            ],
            [
              16.4683790802888,
              57.4746873466552
            ],
            [
              16.4681470376549,
              57.4747312544985
            ],
            [
              16.4674566921276,
              57.4747477695173
            ],
            [
              16.4666547646805,
              57.4748158786459
            ],
            [
              16.4659761362661,
              57.4748790348462
            ],
            [
              16.4652694769788,
              57.4749964625224
            ],
            [
              16.4649746970841,
              57.4750590345663
            ],
            [
              16.4647387992515,
              57.4750885765031
            ],
            [
              16.4646127353659,
              57.4751097355797
            ],
            [
              16.4645314221642,
              57.475168193236
            ],
            [
              16.4644507950023,
              57.4752446273723
            ],
            [
              16.4643065931369,
              57.4754080917317
            ],
            [
              16.4640572423778,
              57.4757076288045
            ],
            [
              16.4640115521495,
              57.4758268603191
            ],
            [
              16.464032182143,
              57.476024512235
            ],
            [
              16.4641063587907,
              57.476135244259
            ],
            [
              16.4642502748807,
              57.4762362167707
            ],
            [
              16.4643920446757,
              57.4763696036331
            ],
            [
              16.4645666449804,
              57.4764882291939
            ],
            [
              16.4645881886166,
              57.4765293724995
            ],
            [
              16.4646131622533,
              57.4766640205495
            ],
            [
              16.4646387861647,
              57.4767249047346
            ],
            [
              16.4650120561114,
              57.4768899421953
            ],
            [
              16.4651260728288,
              57.4769948368263
            ],
            [
              16.4651425322598,
              57.4770792110105
            ],
            [
              16.4650665744131,
              57.4775549577285
            ],
            [
              16.4652771717677,
              57.477674873646
            ],
            [
              16.465367,
              57.477773000025
            ],
            [
              16.46536,
              57.477869000025
            ],
            [
              16.465046,
              57.477974000025
            ],
            [
              16.4650054905721,
              57.4780719186349
            ],
            [
              16.4651078374533,
              57.4781319674112
            ],
            [
              16.4651199663221,
              57.4781894085311
            ],
            [
              16.4650227794675,
              57.4782696167625
            ],
            [
              16.464984790039,
              57.4783257910699
            ],
            [
              16.4649668806271,
              57.4783835484186
            ],
            [
              16.4648162605606,
              57.4785079883479
            ],
            [
              16.4653795554124,
              57.4788101333732
            ],
            [
              16.465615018189,
              57.4789413707412
            ],
            [
              16.4658314208896,
              57.4791063200502
            ],
            [
              16.4658474867196,
              57.4791799023225
            ],
            [
              16.4654525719813,
              57.4794252556558
            ],
            [
              16.465337,
              57.479586000025
            ],
            [
              16.464991,
              57.4796580000249
            ],
            [
              16.464708,
              57.479764000025
            ],
            [
              16.464006,
              57.479829000025
            ],
            [
              16.46372,
              57.479936000025
            ],
            [
              16.4635160535764,
              57.4801082651298
            ],
            [
              16.4633712186649,
              57.4802735755473
            ],
            [
              16.4638614640985,
              57.4804979879878
            ],
            [
              16.4641347444045,
              57.4806192341527
            ],
            [
              16.4642880539651,
              57.4806993450422
            ],
            [
              16.464497833167,
              57.4808420045385
            ],
            [
              16.4646755643149,
              57.4810003769947
            ],
            [
              16.4647408709689,
              57.4811646243053
            ],
            [
              16.464814118492,
              57.4813441008955
            ],
            [
              16.4649800685134,
              57.481468675043
            ],
            [
              16.4652286936275,
              57.4815364283402
            ],
            [
              16.4655440782451,
              57.4815717767276
            ],
            [
              16.465884244712,
              57.4815575168934
            ],
            [
              16.466080577118,
              57.4815639445065
            ],
            [
              16.4663944394907,
              57.4816438360582
            ],
            [
              16.4664703033247,
              57.4816658888472
            ],
            [
              16.4668073855684,
              57.481763884263
            ],
            [
              16.4670648177412,
              57.4818572685236
            ],
            [
              16.4671949102426,
              57.4819343462782
            ],
            [
              16.467369621331,
              57.4820355306016
            ]
          ],
          [
            [
              16.4715270282426,
              57.524670505041
            ],
            [
              16.4712859652152,
              57.524866671088
            ],
            [
              16.4710883350034,
              57.5247987983552
            ],
            [
              16.470823242929,
              57.5247516220591
            ],
            [
              16.4708331679939,
              57.5247265122716
            ],
            [
              16.4708287050326,
              57.5246647575936
            ],
            [
              16.470825802223,
              57.5246243649657
            ],
            [
              16.4707591827131,
              57.524531512322
            ],
            [
              16.4706419622293,
              57.5243632317551
            ],
            [
              16.470569687042,
              57.524188868532
            ],
            [
              16.4705655827366,
              57.5240823937563
            ],
            [
              16.4706007514794,
              57.5239600939114
            ],
            [
              16.4706782033684,
              57.523731343181
            ],
            [
              16.4707238600997,
              57.5236171522617
            ],
            [
              16.4707427067106,
              57.5235702702846
            ],
            [
              16.4707620560598,
              57.5235606496131
            ],
            [
              16.4706240582121,
              57.5233603287577
            ],
            [
              16.4705088443145,
              57.5232014621015
            ],
            [
              16.4703960776773,
              57.523112713173
            ],
            [
              16.470288725651,
              57.5230832870623
            ],
            [
              16.4701586899618,
              57.5230822613522
            ],
            [
              16.4700546417888,
              57.5229500954885
            ],
            [
              16.4699273497941,
              57.5228703111022
            ],
            [
              16.4696910548334,
              57.5227990897775
            ],
            [
              16.4694558064536,
              57.5227298401699
            ],
            [
              16.4693024003905,
              57.5226733519184
            ],
            [
              16.469149008257,
              57.522580504973
            ],
            [
              16.468898997243,
              57.5224707428256
            ],
            [
              16.4687427393378,
              57.5223667761588
            ],
            [
              16.4685965322957,
              57.5222467687077
            ],
            [
              16.4685061273214,
              57.5221901155531
            ],
            [
              16.4684247287486,
              57.5221541696103
            ],
            [
              16.4683482023424,
              57.5221381629657
            ],
            [
              16.4681651891791,
              57.5221350224764
            ],
            [
              16.4679238466952,
              57.5221407500513
            ],
            [
              16.4676048141886,
              57.5221636109494
            ],
            [
              16.4672592865196,
              57.522169549778
            ],
            [
              16.4671167695343,
              57.5221519826846
            ],
            [
              16.4670312619094,
              57.5221247575923
            ],
            [
              16.4669012264141,
              57.5220833423527
            ],
            [
              16.4666635806007,
              57.5219822185694
            ],
            [
              16.4664516336619,
              57.52188150326
            ],
            [
              16.4662733303031,
              57.5218095666061
            ],
            [
              16.4659945952132,
              57.5216928134132
            ],
            [
              16.4657505083133,
              57.5214978952421
            ],
            [
              16.4655530901896,
              57.5213006900263
            ],
            [
              16.4654236243865,
              57.521136872995
            ],
            [
              16.4652516385773,
              57.520996857537
            ],
            [
              16.4650914911552,
              57.5209069820825
            ],
            [
              16.4649770827009,
              57.520865686152
            ],
            [
              16.4649561851343,
              57.5208581453629
            ],
            [
              16.4647362761354,
              57.5205929466456
            ],
            [
              16.4645135466014,
              57.5203421491512
            ],
            [
              16.4643398657572,
              57.5201554671776
            ],
            [
              16.4642444784863,
              57.5201026039243
            ],
            [
              16.4641339105283,
              57.5200912055942
            ],
            [
              16.4640677109359,
              57.5201062634578
            ],
            [
              16.4640351781277,
              57.5201299547629
            ],
            [
              16.4639318010209,
              57.5201328332445
            ],
            [
              16.463867297311,
              57.5201029901149
            ],
            [
              16.4638191706688,
              57.5199724402788
            ],
            [
              16.4637817351009,
              57.5196765954655
            ],
            [
              16.4636723349265,
              57.5194210045273
            ],
            [
              16.4635505569537,
              57.5192840431005
            ],
            [
              16.4634095871166,
              57.5191706235666
            ],
            [
              16.463379,
              57.5190270000251
            ],
            [
              16.463041,
              57.518808000025
            ],
            [
              16.4630060534222,
              57.5186570965643
            ],
            [
              16.4632463874418,
              57.5185165230709
            ],
            [
              16.4634160828903,
              57.5183683263022
            ],
            [
              16.463763,
              57.518038000025
            ],
            [
              16.4637911210567,
              57.5177393389252
            ],
            [
              16.4638092730439,
              57.5172432899206
            ],
            [
              16.4638167305156,
              57.5168460685438
            ],
            [
              16.4639758984083,
              57.5166180431405
            ],
            [
              16.464195073359,
              57.5164261457965
            ],
            [
              16.464460167678,
              57.51622855923
            ],
            [
              16.4646051291369,
              57.5160746520711
            ],
            [
              16.4647148264602,
              57.5158618165582
            ],
            [
              16.4647924788623,
              57.5156844534152
            ],
            [
              16.4645771956314,
              57.5156734568599
            ],
            [
              16.464483928847,
              57.5156487408032
            ],
            [
              16.4643907434754,
              57.51562405323
            ],
            [
              16.4643291104909,
              57.5155932174293
            ],
            [
              16.4642673143847,
              57.515562288275
            ],
            [
              16.4641612375298,
              57.5154720573989
            ],
            [
              16.4638695628825,
              57.5151388319658
            ],
            [
              16.4635621737311,
              57.5147938290008
            ],
            [
              16.4633791745156,
              57.5145894751039
            ],
            [
              16.4633785702724,
              57.5145888117869
            ],
            [
              16.4633741329329,
              57.5145838509059
            ],
            [
              16.463173593143,
              57.5143599056436
            ],
            [
              16.4627284179342,
              57.5138593756289
            ],
            [
              16.4623929578255,
              57.5134926963931
            ],
            [
              16.4621319948396,
              57.5132045615541
            ],
            [
              16.4619330581264,
              57.5129783313234
            ],
            [
              16.4617861493292,
              57.5127977947821
            ],
            [
              16.4616531626598,
              57.5125925918625
            ],
            [
              16.4615524245246,
              57.5123900900744
            ],
            [
              16.461510520486,
              57.5121655575651
            ],
            [
              16.4615242197621,
              57.5119430690143
            ],
            [
              16.4615789964017,
              57.5117315884013
            ],
            [
              16.4617318584936,
              57.5114539591009
            ],
            [
              16.4618916621487,
              57.5111169421294
            ],
            [
              16.4620401025878,
              57.510863226625
            ],
            [
              16.4621561921857,
              57.5106475660077
            ],
            [
              16.4622773404583,
              57.5104348490867
            ],
            [
              16.4623862968425,
              57.51023062762
            ],
            [
              16.4625215690411,
              57.5100242988143
            ],
            [
              16.4626672376864,
              57.509857331276
            ],
            [
              16.4628127779423,
              57.5097305041363
            ],
            [
              16.4630055336509,
              57.5095946294992
            ],
            [
              16.4631618123961,
              57.5095172237061
            ],
            [
              16.4633758398212,
              57.5094416758404
            ],
            [
              16.4635942336208,
              57.5093859393897
            ],
            [
              16.4637605142175,
              57.5093453897735
            ],
            [
              16.4638710101635,
              57.5092737850946
            ],
            [
              16.4639262018034,
              57.5091611622694
            ],
            [
              16.4638989853425,
              57.509066840174
            ],
            [
              16.4638312672043,
              57.5089754239142
            ],
            [
              16.463682239014,
              57.5088061362279
            ],
            [
              16.4635613225234,
              57.5086596804616
            ],
            [
              16.4634565911363,
              57.5084948270568
            ],
            [
              16.4635122050791,
              57.5084333894711
            ],
            [
              16.4635498769258,
              57.508356955701
            ],
            [
              16.4635434251359,
              57.5082953052326
            ],
            [
              16.463495569561,
              57.5082222797048
            ],
            [
              16.4634495859332,
              57.5081612842144
            ],
            [
              16.4634471943992,
              57.5081472936951
            ],
            [
              16.463437857106,
              57.5080928299681
            ],
            [
              16.4634311432057,
              57.5079978649397
            ],
            [
              16.4633965042321,
              57.5079180407267
            ],
            [
              16.4632995028231,
              57.5078491321301
            ],
            [
              16.4630892500649,
              57.5077536979642
            ],
            [
              16.4628969272521,
              57.5076350975026
            ],
            [
              16.4627136011943,
              57.5075242591673
            ],
            [
              16.4626015582052,
              57.5074442939865
            ],
            [
              16.4625428464402,
              57.5073803942465
            ],
            [
              16.4625221637907,
              57.5073243812377
            ],
            [
              16.4625348812974,
              57.5072710704926
            ],
            [
              16.4626013995434,
              57.5072217830154
            ],
            [
              16.4626895167838,
              57.5071775989685
            ],
            [
              16.4629021627613,
              57.5070902872538
            ],
            [
              16.4631223448418,
              57.5069954889527
            ],
            [
              16.4633398324703,
              57.5068721477848
            ],
            [
              16.463502531869,
              57.5067722583982
            ],
            [
              16.4636758600798,
              57.5066235601892
            ],
            [
              16.4637951316612,
              57.5064656172874
            ],
            [
              16.463866706948,
              57.5063369936337
            ],
            [
              16.4641060997776,
              57.5063423600149
            ],
            [
              16.4646606846641,
              57.5064532088547
            ],
            [
              16.4650919113929,
              57.5065671550318
            ],
            [
              16.4655480301888,
              57.5066305647936
            ],
            [
              16.465832055205,
              57.5066419247421
            ],
            [
              16.4660543619736,
              57.5066072585166
            ],
            [
              16.4662903563154,
              57.5064898571074
            ],
            [
              16.4664477859264,
              57.5063230118567
            ],
            [
              16.4665717514905,
              57.5061529439665
            ],
            [
              16.4668222072971,
              57.5059743468183
            ],
            [
              16.4672081511933,
              57.5057602024854
            ],
            [
              16.4675292137721,
              57.50559701193
            ],
            [
              16.4678581379547,
              57.5054660666049
            ],
            [
              16.468238575776,
              57.5053758594853
            ],
            [
              16.4685014756865,
              57.5052653540822
            ],
            [
              16.468792,
              57.505130000025
            ],
            [
              16.4689069372425,
              57.5048468444088
            ],
            [
              16.468837,
              57.504558000025
            ],
            [
              16.468793161254,
              57.5043861048029
            ],
            [
              16.4690051986558,
              57.5042527998534
            ],
            [
              16.4690923110709,
              57.5041710772391
            ],
            [
              16.4690628172008,
              57.5040941903513
            ],
            [
              16.468971199546,
              57.5040520757272
            ],
            [
              16.468837849511,
              57.5040552823596
            ],
            [
              16.4686481956009,
              57.5040698534667
            ],
            [
              16.4685099479563,
              57.5040300260916
            ],
            [
              16.4683716410399,
              57.5039883950775
            ],
            [
              16.4682847275435,
              57.5038923658743
            ],
            [
              16.4683288984349,
              57.5038218801733
            ],
            [
              16.4684661566633,
              57.5037432199919
            ],
            [
              16.4687021842677,
              57.5036276103183
            ],
            [
              16.4688179452676,
              57.5035078939415
            ],
            [
              16.4688498678918,
              57.5033764908922
            ],
            [
              16.4688416428798,
              57.503241930073
            ],
            [
              16.4687595050294,
              57.5030937760126
            ],
            [
              16.4686092333077,
              57.5029984128313
            ],
            [
              16.4684900251733,
              57.5029314502568
            ],
            [
              16.4682459866019,
              57.5028288346079
            ],
            [
              16.4682444264731,
              57.5028288862564
            ],
            [
              16.4680776109122,
              57.5028513560321
            ],
            [
              16.4680083496742,
              57.5028054868993
            ],
            [
              16.4679911735781,
              57.5026081732087
            ],
            [
              16.4681105922892,
              57.5024058257112
            ],
            [
              16.4682921469827,
              57.5022602652315
            ],
            [
              16.4683178533762,
              57.5021415070113
            ],
            [
              16.4680771635018,
              57.5019447643933
            ],
            [
              16.4678502521086,
              57.5017604380464
            ],
            [
              16.4677742203875,
              57.5015960678346
            ],
            [
              16.4677864623497,
              57.5014738523765
            ],
            [
              16.4679402761213,
              57.5013601093184
            ],
            [
              16.4680946132269,
              57.5013073085765
            ],
            [
              16.4683067292307,
              57.5012579787675
            ],
            [
              16.4684588557936,
              57.5012124623258
            ],
            [
              16.4685365887158,
              57.5011659887062
            ],
            [
              16.4685857743637,
              57.5010917385616
            ],
            [
              16.4686302274547,
              57.5009761272539
            ],
            [
              16.4686624081585,
              57.5008560817098
            ],
            [
              16.4687326794713,
              57.5007573007048
            ],
            [
              16.4689030407956,
              57.5007097537981
            ],
            [
              16.4692154114546,
              57.5005843609534
            ],
            [
              16.4694329206697,
              57.5004186811329
            ],
            [
              16.4696509380131,
              57.5001757825601
            ],
            [
              16.4699720870293,
              57.4998330525223
            ],
            [
              16.4702495383423,
              57.4995733670119
            ],
            [
              16.4704815479978,
              57.4994398383842
            ],
            [
              16.470593953461,
              57.4993201523893
            ],
            [
              16.4705621809943,
              57.4990888825824
            ],
            [
              16.4705043796787,
              57.4988758384862
            ],
            [
              16.4704963416425,
              57.4987466591055
            ],
            [
              16.4705837093136,
              57.4985791411646
            ],
            [
              16.4705257130505,
              57.4985316493531
            ],
            [
              16.4704178091126,
              57.4984552551139
            ],
            [
              16.4701028014676,
              57.4983370286393
            ],
            [
              16.4697442072652,
              57.4982029267376
            ],
            [
              16.4694270551836,
              57.4981509723785
            ],
            [
              16.4690660372238,
              57.4980670255125
            ],
            [
              16.4688143888833,
              57.4979556130487
            ],
            [
              16.4685486385926,
              57.4977995050618
            ],
            [
              16.4682101647171,
              57.497672464965
            ],
            [
              16.4678705997563,
              57.4974827457939
            ],
            [
              16.4677251836801,
              57.4973546268906
            ],
            [
              16.4677729040819,
              57.4972307982726
            ],
            [
              16.4678773280935,
              57.4971138368486
            ],
            [
              16.4679487520307,
              57.4970113628751
            ],
            [
              16.4679366584001,
              57.4968932519643
            ],
            [
              16.4678243808846,
              57.4967559983545
            ],
            [
              16.4676617750253,
              57.4965975294406
            ],
            [
              16.4676498576822,
              57.4964883641378
            ],
            [
              16.4677237300126,
              57.4963375370245
            ],
            [
              16.4678821681218,
              57.4960752276913
            ],
            [
              16.4680697872714,
              57.4957697708813
            ],
            [
              16.4683763259383,
              57.4952255083592
            ],
            [
              16.46857846042,
              57.4949880191784
            ],
            [
              16.4686867248965,
              57.4948971376519
            ],
            [
              16.4688665951894,
              57.4946934430716
            ],
            [
              16.468890878852,
              57.4946168531935
            ],
            [
              16.4689169446944,
              57.4944975349958
            ],
            [
              16.4689086292949,
              57.494357874567
            ],
            [
              16.4689505062239,
              57.4942691452041
            ],
            [
              16.4690424017463,
              57.4941720178984
            ],
            [
              16.469202397481,
              57.4941221487925
            ],
            [
              16.4695555701081,
              57.494013006463
            ],
            [
              16.4696780660997,
              57.4939133489801
            ],
            [
              16.4697572894806,
              57.4938224018548
            ],
            [
              16.4697806657547,
              57.4937789949289
            ],
            [
              16.4697867827579,
              57.493650421932
            ],
            [
              16.469909922731,
              57.4936315986973
            ],
            [
              16.4700597188497,
              57.4936233637594
            ],
            [
              16.4701854327808,
              57.4935847718192
            ],
            [
              16.4703293297281,
              57.4934724469091
            ],
            [
              16.4705144257147,
              57.4932736484294
            ],
            [
              16.4706742774408,
              57.4931324724578
            ],
            [
              16.4707819939886,
              57.4930401576094
            ],
            [
              16.4708393342281,
              57.4929320331439
            ],
            [
              16.4709204931045,
              57.4928434801349
            ],
            [
              16.4710602463443,
              57.4926988671116
            ],
            [
              16.471243419105,
              57.4925575240568
            ],
            [
              16.4714002056746,
              57.4924271571248
            ],
            [
              16.4716231703915,
              57.4922783595561
            ],
            [
              16.4718399818056,
              57.4921493489445
            ],
            [
              16.4719841313162,
              57.4920477928651
            ],
            [
              16.4721177125711,
              57.4919229660964
            ],
            [
              16.4721619798108,
              57.4918257038202
            ],
            [
              16.4721502209093,
              57.4917539759583
            ],
            [
              16.4721754136186,
              57.4916945493169
            ],
            [
              16.472236049727,
              57.4916384852597
            ],
            [
              16.4725596460479,
              57.4914170678889
            ],
            [
              16.472650264563,
              57.4913157429724
            ],
            [
              16.4727512865869,
              57.4912287065331
            ],
            [
              16.4728525389178,
              57.4911506443458
            ],
            [
              16.4729338948263,
              57.4910763382715
            ],
            [
              16.4731959944524,
              57.4910257361602
            ],
            [
              16.4736210280207,
              57.4909576681687
            ],
            [
              16.4738567895143,
              57.4909198595794
            ],
            [
              16.4741779730201,
              57.4908346487984
            ],
            [
              16.474621595205,
              57.4907143280838
            ],
            [
              16.47487,
              57.490490000025
            ],
            [
              16.475137,
              57.490345000025
            ],
            [
              16.47539,
              57.490103000025
            ],
            [
              16.475681,
              57.489837000025
            ],
            [
              16.475868,
              57.489680000025
            ],
            [
              16.476187,
              57.489585000025
            ],
            [
              16.476268,
              57.489506000025
            ],
            [
              16.47614,
              57.489446000025
            ],
            [
              16.4762,
              57.489169000025
            ],
            [
              16.476101,
              57.488909000025
            ],
            [
              16.476253,
              57.488653000025
            ],
            [
              16.476243,
              57.488475000025
            ],
            [
              16.476725,
              57.488216000025
            ],
            [
              16.476993,
              57.488093000025
            ],
            [
              16.477351,
              57.488079000025
            ],
            [
              16.477519,
              57.488040000025
            ],
            [
              16.477561,
              57.487952000025
            ],
            [
              16.477532,
              57.487852000025
            ],
            [
              16.477539,
              57.487568000025
            ],
            [
              16.4776804587634,
              57.4873127556083
            ],
            [
              16.477659,
              57.486897000025
            ],
            [
              16.4775058306748,
              57.4866840956305
            ],
            [
              16.4772814623117,
              57.486436334973
            ],
            [
              16.4769969730726,
              57.4861872998181
            ],
            [
              16.4766816578362,
              57.4860058785921
            ],
            [
              16.4765846838231,
              57.4858870731115
            ],
            [
              16.4766153987472,
              57.4856913951137
            ],
            [
              16.4766034345126,
              57.4856392088955
            ],
            [
              16.4764950932997,
              57.4853635052016
            ],
            [
              16.4761492770027,
              57.4852141481016
            ],
            [
              16.4757718052634,
              57.4850192955101
            ],
            [
              16.4756359736914,
              57.4849670028348
            ],
            [
              16.4755636598236,
              57.4849213744338
            ],
            [
              16.4754498496706,
              57.4848945361767
            ],
            [
              16.4754045344367,
              57.4848738284961
            ],
            [
              16.475217,
              57.484766000025
            ],
            [
              16.475136,
              57.484684000025
            ],
            [
              16.4750586999814,
              57.4846313426417
            ],
            [
              16.475069228533,
              57.4845288610945
            ],
            [
              16.4749817241864,
              57.4844990151945
            ],
            [
              16.4748230610855,
              57.4844284210084
            ],
            [
              16.4746781231144,
              57.4843720829366
            ],
            [
              16.474640040015,
              57.4843203003168
            ],
            [
              16.4745773727933,
              57.4842237845855
            ],
            [
              16.4744553397612,
              57.4841510979199
            ],
            [
              16.4742188183593,
              57.4840380079116
            ],
            [
              16.473986090085,
              57.4839410591964
            ],
            [
              16.4737751323164,
              57.4839086131316
            ],
            [
              16.4736775517292,
              57.4838770520585
            ],
            [
              16.4735615645736,
              57.4837809627633
            ],
            [
              16.4734397174492,
              57.4837349702483
            ],
            [
              16.4732472902131,
              57.4837797659971
            ],
            [
              16.4731283582324,
              57.4837916058599
            ],
            [
              16.4730124120791,
              57.4838194785821
            ],
            [
              16.4727943814832,
              57.483894876427
            ],
            [
              16.4726780059585,
              57.4839065893006
            ],
            [
              16.4725789199576,
              57.4839415153433
            ],
            [
              16.4724568368034,
              57.4839891893803
            ],
            [
              16.4723422757731,
              57.4840673578815
            ],
            [
              16.4722383793049,
              57.4841705856178
            ],
            [
              16.4721023279238,
              57.484291151716
            ],
            [
              16.4720313713575,
              57.484354485493
            ],
            [
              16.4719571214205,
              57.4844519567768
            ],
            [
              16.4719396105285,
              57.484552620364
            ],
            [
              16.4719392297146,
              57.484672912272
            ],
            [
              16.4718247777585,
              57.4847616924582
            ],
            [
              16.4716669538205,
              57.4848471878534
            ],
            [
              16.4713896757237,
              57.4849550888981
            ],
            [
              16.4711724251822,
              57.4850643464009
            ],
            [
              16.4708790922919,
              57.485195686207
            ],
            [
              16.4707535459366,
              57.4852396605368
            ],
            [
              16.4705915208055,
              57.4852910782626
            ],
            [
              16.4704998917835,
              57.4853599459045
            ],
            [
              16.4703986054645,
              57.4854414619695
            ],
            [
              16.4703131077841,
              57.4854887457154
            ],
            [
              16.4700950304349,
              57.4855639000143
            ],
            [
              16.4699684120519,
              57.4856363995898
            ],
            [
              16.4698129791472,
              57.4856212799155
            ],
            [
              16.469437235145,
              57.4855885992565
            ],
            [
              16.4691115612032,
              57.4855487362319
            ],
            [
              16.4687874683457,
              57.4854951218291
            ],
            [
              16.4686076841593,
              57.4854462329563
            ],
            [
              16.4685246141321,
              57.4854077894304
            ],
            [
              16.4683949915303,
              57.4853478575844
            ],
            [
              16.4682299463959,
              57.4851923939218
            ],
            [
              16.4680273227475,
              57.4850422415552
            ],
            [
              16.4678663712254,
              57.4849300861877
            ],
            [
              16.4676652221322,
              57.4847950486756
            ],
            [
              16.4673930697354,
              57.484662414019
            ],
            [
              16.4670964803788,
              57.4845343040031
            ],
            [
              16.4669352752731,
              57.4844248843754
            ],
            [
              16.4667479282982,
              57.4842516641379
            ],
            [
              16.4665374049677,
              57.4840514498954
            ],
            [
              16.4663471110661,
              57.4838443923641
            ],
            [
              16.4663622387725,
              57.4837770581106
            ],
            [
              16.4664670786176,
              57.4836924623889
            ],
            [
              16.4668098258175,
              57.4835242764425
            ],
            [
              16.4671537348633,
              57.4833841040142
            ],
            [
              16.4674692897664,
              57.4832432751348
            ],
            [
              16.467626115433,
              57.4831381077299
            ],
            [
              16.4676470227845,
              57.4830409331398
            ],
            [
              16.4675557245585,
              57.4829338353992
            ],
            [
              16.4673958076439,
              57.482765862
            ],
            [
              16.4672471233084,
              57.4826008866005
            ],
            [
              16.467166067968,
              57.482451624396
            ],
            [
              16.4671285569875,
              57.4823317628156
            ],
            [
              16.4671482599152,
              57.4822497712008
            ],
            [
              16.4672556771552,
              57.4821146040292
            ],
            [
              16.4673516756008,
              57.4820479832402
            ]
          ],
          [
            [
              16.4682444264731,
              57.5028288862564
            ],
            [
              16.4680828319464,
              57.5028498435971
            ]
          ],
          [
            [
              16.4597374643687,
              57.4573952222253
            ],
            [
              16.4597941843889,
              57.4575330330395
            ],
            [
              16.4601224798384,
              57.457621040451
            ],
            [
              16.4603516197132,
              57.4576888218993
            ],
            [
              16.4605890389752,
              57.4577635890049
            ],
            [
              16.4607614296077,
              57.4578101139043
            ],
            [
              16.4609707448138,
              57.4578695728908
            ],
            [
              16.4612351196568,
              57.4579323487059
            ],
            [
              16.4615120673312,
              57.4579329384308
            ],
            [
              16.4617062290763,
              57.4579506267941
            ],
            [
              16.4620213699974,
              57.4579921713162
            ],
            [
              16.4623023816449,
              57.4580125149004
            ],
            [
              16.4627557621002,
              57.4580021869336
            ],
            [
              16.4629964778359,
              57.4580157625462
            ],
            [
              16.463228190136,
              57.4580564200406
            ],
            [
              16.4633300237734,
              57.4581038897265
            ],
            [
              16.4634536388471,
              57.4581996806969
            ],
            [
              16.4635138602188,
              57.4582943748355
            ],
            [
              16.4635821103306,
              57.4584267477631
            ],
            [
              16.4636923372137,
              57.4585208986442
            ],
            [
              16.463911045182,
              57.4585706924502
            ],
            [
              16.4643387251414,
              57.4585876296895
            ],
            [
              16.4647632045621,
              57.4586081970583
            ],
            [
              16.4651090493385,
              57.4586673943515
            ],
            [
              16.4653715088033,
              57.4587275046443
            ],
            [
              16.4659845683227,
              57.4589762821627
            ],
            [
              16.4663662817224,
              57.459103442033
            ],
            [
              16.4665505719602,
              57.4591248184734
            ],
            [
              16.4666976599229,
              57.4591322125268
            ],
            [
              16.4672304929547,
              57.4591048196713
            ],
            [
              16.4674648628893,
              57.4590355384303
            ],
            [
              16.4678396017613,
              57.4589798041779
            ],
            [
              16.4683420882304,
              57.4590238828954
            ],
            [
              16.4685216836411,
              57.4592861349195
            ]
          ],
          [
            [
              16.4710211133443,
              57.4739209447814
            ],
            [
              16.4713102926007,
              57.4740041415521
            ],
            [
              16.4714983157415,
              57.4740638493621
            ],
            [
              16.472142,
              57.4739700000249
            ],
            [
              16.47267,
              57.473971000025
            ],
            [
              16.4733741627418,
              57.4737071408544
            ],
            [
              16.4736655126876,
              57.4735123821151
            ],
            [
              16.4738862047947,
              57.4734116570807
            ],
            [
              16.4742301255097,
              57.4733008979253
            ],
            [
              16.4747085279134,
              57.4732213287703
            ],
            [
              16.4749640024291,
              57.4731670267721
            ],
            [
              16.4750787941016,
              57.4730977575454
            ],
            [
              16.4750894413148,
              57.4730799600161
            ],
            [
              16.4752477493966,
              57.4730241587007
            ],
            [
              16.475347920866,
              57.4729083792275
            ],
            [
              16.4754374739786,
              57.4727693296346
            ],
            [
              16.4755329660984,
              57.4726050748208
            ],
            [
              16.4755924504183,
              57.4724644750055
            ],
            [
              16.4757135423623,
              57.472260494573
            ],
            [
              16.4758658956301,
              57.4719808126476
            ],
            [
              16.4759178817259,
              57.471809718097
            ],
            [
              16.4759897064269,
              57.471633085028
            ],
            [
              16.4761364728643,
              57.4713929713224
            ],
            [
              16.476291315832,
              57.4712048859507
            ],
            [
              16.4763799430347,
              57.4711956496444
            ],
            [
              16.4765343559879,
              57.4711795511722
            ],
            [
              16.4765750729025,
              57.471175307021
            ],
            [
              16.47644128869,
              57.4708455874791
            ],
            [
              16.4764867966703,
              57.4706924999689
            ],
            [
              16.4766267374043,
              57.4705727193615
            ],
            [
              16.4769583205823,
              57.4705015933313
            ],
            [
              16.4770723769064,
              57.4704089925104
            ],
            [
              16.4771973301963,
              57.4703468390194
            ],
            [
              16.4774339592475,
              57.4702244278532
            ],
            [
              16.4775255491074,
              57.4696002930133
            ],
            [
              16.4775038158046,
              57.4694298290666
            ],
            [
              16.4773026493794,
              57.4692860585385
            ],
            [
              16.4770271282294,
              57.4689974292993
            ],
            [
              16.4767756115671,
              57.4687301437193
            ],
            [
              16.476665973488,
              57.4684095323287
            ],
            [
              16.476689704302,
              57.468197360661
            ],
            [
              16.4767991490171,
              57.4678371323686
            ],
            [
              16.4769200275865,
              57.4674993726834
            ],
            [
              16.477068509332,
              57.4674546613883
            ],
            [
              16.4772358645932,
              57.4674802705833
            ],
            [
              16.4774129759795,
              57.4674968158341
            ],
            [
              16.4775118140153,
              57.467454700802
            ],
            [
              16.4776194592236,
              57.4673693922356
            ],
            [
              16.4777987016276,
              57.4672206487025
            ],
            [
              16.4779739414094,
              57.4671689335884
            ],
            [
              16.4781622432809,
              57.4671081368358
            ],
            [
              16.4783901042382,
              57.4670308512355
            ],
            [
              16.4784809520072,
              57.4669402924365
            ],
            [
              16.4786626660101,
              57.4667609855909
            ],
            [
              16.4787809263204,
              57.4665767937392
            ],
            [
              16.4788753377422,
              57.4664951839888
            ],
            [
              16.4790171103014,
              57.4664383503448
            ],
            [
              16.4791719909471,
              57.4663742313613
            ],
            [
              16.4793385317686,
              57.4662489304526
            ],
            [
              16.4794802293008,
              57.4661903001135
            ],
            [
              16.4795277489361,
              57.466100094945
            ],
            [
              16.4795176738533,
              57.4659762145516
            ],
            [
              16.4794492344567,
              57.4657899251923
            ],
            [
              16.4793708414362,
              57.4656055072131
            ],
            [
              16.4793343578017,
              57.465490823011
            ],
            [
              16.4793148807978,
              57.4653885805525
            ],
            [
              16.4792143036276,
              57.4652456598577
            ],
            [
              16.4790939851956,
              57.4651118779428
            ],
            [
              16.4789913045175,
              57.465013896969
            ],
            [
              16.4788479587112,
              57.4648910822447
            ],
            [
              16.4787554654714,
              57.4648002040465
            ],
            [
              16.4786698521785,
              57.4647164536397
            ],
            [
              16.4786206948955,
              57.4646252211474
            ],
            [
              16.4785543796738,
              57.4645161723718
            ],
            [
              16.4784650687828,
              57.4644198728058
            ],
            [
              16.47833315389,
              57.4643490680603
            ],
            [
              16.4782069710415,
              57.4642440833649
            ],
            [
              16.4780054902635,
              57.4640678397373
            ],
            [
              16.4778856710212,
              57.4639520269338
            ],
            [
              16.4777813721737,
              57.4637947668586
            ],
            [
              16.4776909118577,
              57.4636553624827
            ],
            [
              16.4776596169576,
              57.4634867386376
            ],
            [
              16.4776592438975,
              57.463351998035
            ],
            [
              16.4776535038935,
              57.4632640112535
            ],
            [
              16.4775908653214,
              57.4631675038795
            ],
            [
              16.4775456758701,
              57.4630995979795
            ],
            [
              16.4774598240808,
              57.4630068651798
            ],
            [
              16.4773943434668,
              57.4629283385116
            ],
            [
              16.4773556224986,
              57.4628531973616
            ],
            [
              16.4773503736434,
              57.4627831663841
            ],
            [
              16.4773451250748,
              57.4627131498927
            ],
            [
              16.4773857336339,
              57.4626140139059
            ],
            [
              16.4773842621968,
              57.4625601246946
            ],
            [
              16.477342546273,
              57.4624975826951
            ],
            [
              16.4772535619655,
              57.4624120599367
            ],
            [
              16.4771645182848,
              57.4623247408634
            ],
            [
              16.4770547402095,
              57.4622106486854
            ],
            [
              16.4769822113123,
              57.4621178084759
            ],
            [
              16.4769632328662,
              57.462033521412
            ],
            [
              16.476976864941,
              57.4619220254698
            ],
            [
              16.476957886612,
              57.4618377384023
            ],
            [
              16.4769712929598,
              57.4617190573846
            ],
            [
              16.4769517319611,
              57.4616132218378
            ],
            [
              16.4768896808438,
              57.461538262556
            ],
            [
              16.476757183158,
              57.461445900452
            ],
            [
              16.4766183711044,
              57.4613661767272
            ],
            [
              16.4764286879172,
              57.4612545081028
            ],
            [
              16.4762901818755,
              57.4611855545582
            ],
            [
              16.4761953045152,
              57.4611288219419
            ],
            [
              16.4760594904536,
              57.4610364912139
            ],
            [
              16.476125,
              57.4608050000249
            ],
            [
              16.476123,
              57.4606020000249
            ],
            [
              16.476193,
              57.4605170000249
            ],
            [
              16.476203,
              57.4604230000249
            ],
            [
              16.476257,
              57.4603370000249
            ],
            [
              16.476194,
              57.4601420000249
            ],
            [
              16.476271,
              57.459959000025
            ],
            [
              16.476253,
              57.4597600000249
            ],
            [
              16.475989,
              57.4596260000249
            ],
            [
              16.475889,
              57.4594430000249
            ],
            [
              16.475646,
              57.4593050000249
            ],
            [
              16.475463,
              57.4591370000249
            ],
            [
              16.4745591574897,
              57.4592702448802
            ],
            [
              16.4740564674901,
              57.4594982154739
            ],
            [
              16.4735413460479,
              57.459831071077
            ],
            [
              16.4733736177975,
              57.4598980474993
            ],
            [
              16.4731761339759,
              57.4599409346247
            ],
            [
              16.4729865161805,
              57.4599862066704
            ],
            [
              16.472767684612,
              57.4600556112119
            ],
            [
              16.4725887489137,
              57.4601206681358
            ],
            [
              16.4723928608262,
              57.460214458013
            ],
            [
              16.4722394576614,
              57.4602629496696
            ],
            [
              16.4720137208381,
              57.4603016738391
            ],
            [
              16.4717761152597,
              57.4603286086824
            ],
            [
              16.4716668517033,
              57.4603392474457
            ],
            [
              16.4716077993324,
              57.4603450356332
            ],
            [
              16.4714662108861,
              57.4603469488447
            ],
            [
              16.4712856874241,
              57.4603329053458
            ],
            [
              16.4711025270328,
              57.4602846610167
            ],
            [
              16.4708684158866,
              57.4602190017807
            ],
            [
              16.4707469076496,
              57.4601800378699
            ],
            [
              16.4705804893697,
              57.4601632314386
            ],
            [
              16.4703332205473,
              57.4601168522038
            ],
            [
              16.4702126684606,
              57.4600935085378
            ],
            [
              16.4700806770698,
              57.4600360177416
            ],
            [
              16.469834338054,
              57.4599117789597
            ],
            [
              16.4696771998484,
              57.4598001825464
            ],
            [
              16.469469962156,
              57.4597195649202
            ],
            [
              16.4692453649577,
              57.4596452247824
            ],
            [
              16.4689908331231,
              57.4595559590807
            ],
            [
              16.468781942418,
              57.4594662792475
            ],
            [
              16.4686377168878,
              57.4593868505096
            ],
            [
              16.4685419035847,
              57.4593123759812
            ],
            [
              16.4685279185892,
              57.4592942084649
            ]
          ],
          [
            [
              16.3996517176726,
              57.4416484077436
            ],
            [
              16.3994866181486,
              57.4416757870451
            ],
            [
              16.3991888472241,
              57.4417347540229
            ],
            [
              16.3988975840548,
              57.4419032003547
            ],
            [
              16.3981068437681,
              57.4420250778634
            ],
            [
              16.3977164413703,
              57.4420174723938
            ],
            [
              16.3975113226789,
              57.4420235131571
            ],
            [
              16.3970402508847,
              57.4419670308419
            ],
            [
              16.3968067599827,
              57.4419561489817
            ],
            [
              16.3965510763337,
              57.4419789144944
            ],
            [
              16.3962360883998,
              57.4419865655746
            ],
            [
              16.3957663783068,
              57.4420126808013
            ],
            [
              16.3954530581041,
              57.4420127178872
            ],
            [
              16.3951367050364,
              57.4420409886117
            ],
            [
              16.3947421820776,
              57.4420732306057
            ],
            [
              16.393288823975,
              57.442134902154
            ],
            [
              16.392770070113,
              57.4422069874846
            ],
            [
              16.3921198404696,
              57.4423192817738
            ],
            [
              16.3918531768953,
              57.4423511261859
            ],
            [
              16.3917276380757,
              57.4423391395918
            ],
            [
              16.3916373235489,
              57.4423354983439
            ],
            [
              16.3911360357921,
              57.4426035009904
            ],
            [
              16.3907994673519,
              57.442679184455
            ],
            [
              16.3901093783794,
              57.4427407701453
            ],
            [
              16.3897459871911,
              57.4427715667908
            ],
            [
              16.3888893977137,
              57.4429105018586
            ],
            [
              16.3880843269636,
              57.4430189923044
            ],
            [
              16.3874536078162,
              57.443058303309
            ],
            [
              16.3872290003103,
              57.4430645904935
            ],
            [
              16.3872289868759,
              57.4430645905554
            ],
            [
              16.3870222539739,
              57.4430703820886
            ],
            [
              16.3866894712836,
              57.4431636404963
            ],
            [
              16.3865083448658,
              57.4432152052793
            ],
            [
              16.3865083586443,
              57.4432152269484
            ],
            [
              16.3866097138441,
              57.4433415338836
            ]
          ],
          [
            [
              16.404765936079,
              57.441983153579
            ],
            [
              16.4045690885224,
              57.4420285745292
            ],
            [
              16.4041856375727,
              57.4420359064204
            ],
            [
              16.4041756315993,
              57.4420360987562
            ],
            [
              16.4036554123296,
              57.4420203890014
            ],
            [
              16.4030650177703,
              57.4419598416711
            ],
            [
              16.4023013241244,
              57.4419263712046
            ],
            [
              16.4014444477385,
              57.4419558390321
            ],
            [
              16.400694034299,
              57.4418911822827
            ],
            [
              16.4006806613207,
              57.4418900355492
            ],
            [
              16.4001600700532,
              57.4417557834619
            ],
            [
              16.3996473051496,
              57.44165078
            ]
          ],
          [
            [
              16.4165446060033,
              57.4471810753408
            ],
            [
              16.4161205541267,
              57.4470876991
            ],
            [
              16.4157836752033,
              57.447075455359
            ],
            [
              16.4155233483206,
              57.447016441703
            ],
            [
              16.4152064491446,
              57.4469951967496
            ],
            [
              16.4150030716106,
              57.4470115582292
            ],
            [
              16.4145133778721,
              57.4471718523603
            ],
            [
              16.4142967673353,
              57.4472151597792
            ],
            [
              16.4139866762852,
              57.447233410559
            ],
            [
              16.4136797307556,
              57.447194198871
            ],
            [
              16.4133027313881,
              57.4471496515036
            ],
            [
              16.4130324559871,
              57.4471103993369
            ],
            [
              16.4127589281902,
              57.4470873095701
            ],
            [
              16.412071802513,
              57.4470538339333
            ],
            [
              16.4118315050743,
              57.4469965854424
            ],
            [
              16.4115846647329,
              57.4469824564361
            ],
            [
              16.4112511366305,
              57.4469719883114
            ],
            [
              16.4110005776364,
              57.446837528034
            ],
            [
              16.4107290262812,
              57.446781724053
            ],
            [
              16.4105133471878,
              57.4467374090942
            ],
            [
              16.4096825496902,
              57.4466124626044
            ],
            [
              16.4094191129864,
              57.4466216771732
            ],
            [
              16.409218989383,
              57.4466128836132
            ],
            [
              16.4091052180934,
              57.4464926594861
            ],
            [
              16.4089880271424,
              57.4463491035329
            ],
            [
              16.4087907137489,
              57.4461768811082
            ],
            [
              16.4087270674417,
              57.446087139773
            ],
            [
              16.4087233988149,
              57.4459865787694
            ],
            [
              16.4087931295955,
              57.4458931285682
            ],
            [
              16.4089296242161,
              57.4458265539762
            ],
            [
              16.4091629073514,
              57.4457742584278
            ],
            [
              16.409286026593,
              57.445695127995
            ],
            [
              16.4093724082778,
              57.445596280582
            ],
            [
              16.4094454661537,
              57.4455010320185
            ],
            [
              16.4095852096976,
              57.4454075216952
            ],
            [
              16.4097083993813,
              57.445340959199
            ],
            [
              16.4097414487334,
              57.4452493356816
            ],
            [
              16.4097277002475,
              57.4451308210786
            ],
            [
              16.4095536206021,
              57.4449226587791
            ],
            [
              16.4091627666141,
              57.4447129033156
            ],
            [
              16.408072168248,
              57.4436363651378
            ],
            [
              16.4078546164144,
              57.4433923173409
            ],
            [
              16.4077372366095,
              57.443182309987
            ],
            [
              16.4076695516018,
              57.4428770721995
            ],
            [
              16.4077121312542,
              57.4426381796973
            ],
            [
              16.4077145554017,
              57.4423544270027
            ],
            [
              16.4076442890494,
              57.4422790674486
            ],
            [
              16.4073973578056,
              57.4422254063631
            ],
            [
              16.4069839108941,
              57.4422347587791
            ],
            [
              16.4067304827857,
              57.4422313949013
            ],
            [
              16.4064401702839,
              57.4421670070339
            ],
            [
              16.40619667014,
              57.4421438760921
            ],
            [
              16.4057799472082,
              57.4421639977973
            ],
            [
              16.4054064310625,
              57.4421553489028
            ],
            [
              16.4051628725839,
              57.4421088681649
            ],
            [
              16.4049526673844,
              57.442067741427
            ],
            [
              16.4047956767503,
              57.4419762970175
            ]
          ],
          [
            [
              16.4165407954912,
              57.4471862516593
            ],
            [
              16.4165078304772,
              57.4472311876504
            ],
            [
              16.416466906446,
              57.4474243496509
            ],
            [
              16.4164181817623,
              57.4476187229397
            ],
            [
              16.4163918628853,
              57.447658534058
            ],
            [
              16.4165429082883,
              57.4477068681082
            ],
            [
              16.4167799108437,
              57.4477712881209
            ],
            [
              16.4170133314953,
              57.4477674773659
            ],
            [
              16.4172065928086,
              57.447718794553
            ],
            [
              16.4173733873578,
              57.4477276138386
            ],
            [
              16.4174936843466,
              57.4477957420632
            ],
            [
              16.4175775823028,
              57.4479429215741
            ],
            [
              16.4176415978905,
              57.4481314242134
            ],
            [
              16.4176120301717,
              57.4482607607576
            ],
            [
              16.417575951911,
              57.4484331956635
            ],
            [
              16.4176298132461,
              57.4485768117126
            ],
            [
              16.4177836032043,
              57.4486862141263
            ],
            [
              16.4181406287703,
              57.4487307508955
            ],
            [
              16.4183609039133,
              57.4487754362172
            ],
            [
              16.418657730093,
              57.4487805292626
            ],
            [
              16.4189346107176,
              57.4487982220243
            ],
            [
              16.4190682572745,
              57.4488663273546
            ],
            [
              16.4193058138977,
              57.4490780074304
            ],
            [
              16.4195068807819,
              57.4493525776234
            ],
            [
              16.4196678126914,
              57.4495894700278
            ],
            [
              16.4197491566135,
              57.44995574704
            ],
            [
              16.4197229243063,
              57.450083285757
            ],
            [
              16.4197498998642,
              57.4501622684904
            ],
            [
              16.4200168947989,
              57.4502140837431
            ],
            [
              16.420330564036,
              57.4502604698066
            ],
            [
              16.4207074818338,
              57.4502672688253
            ],
            [
              16.4209374400954,
              57.4502203502063
            ],
            [
              16.4212775795031,
              57.4502056448844
            ],
            [
              16.4215111114032,
              57.4502251661385
            ],
            [
              16.4219913764524,
              57.4502228798875
            ],
            [
              16.4223581261179,
              57.4501883881752
            ],
            [
              16.4229183525567,
              57.4501608745408
            ],
            [
              16.4233451475641,
              57.4501299112387
            ],
            [
              16.4238152347657,
              57.4500827392642
            ],
            [
              16.4241784523839,
              57.4499943698782
            ],
            [
              16.4245149877133,
              57.4499096147302
            ],
            [
              16.4247882035465,
              57.4498321164845
            ],
            [
              16.4250781218429,
              57.4497689588972
            ],
            [
              16.4252414791853,
              57.4497526182878
            ],
            [
              16.4253483068948,
              57.4497794479831
            ],
            [
              16.4254020025903,
              57.4498691864034
            ],
            [
              16.4254958387866,
              57.4499876103478
            ],
            [
              16.4254395994712,
              57.4501115886303
            ],
            [
              16.4253732632156,
              57.4502122321522
            ],
            [
              16.4254776658584,
              57.4503081689323
            ],
            [
              16.4258511033513,
              57.4504559636884
            ],
            [
              16.426037917961,
              57.4504629563005
            ],
            [
              16.4263417264997,
              57.4505470457887
            ],
            [
              16.4265286381763,
              57.4505827604874
            ],
            [
              16.4270058114242,
              57.4506245658596
            ],
            [
              16.4270603512657,
              57.4505885254576
            ],
            [
              16.4271853336454,
              57.45046443978
            ],
            [
              16.4273272091555,
              57.4503048103637
            ],
            [
              16.4274717120142,
              57.4501527959899
            ],
            [
              16.4276492922497,
              57.4499869703543
            ],
            [
              16.4278615150055,
              57.4498600272323
            ],
            [
              16.4280697127432,
              57.4497414634142
            ],
            [
              16.4282553319015,
              57.4496473439272
            ],
            [
              16.4284197298227,
              57.4495982212487
            ],
            [
              16.4286463455977,
              57.4495539129316
            ],
            [
              16.4289219724905,
              57.44945369043
            ],
            [
              16.4290060785172,
              57.449404601226
            ],
            [
              16.4291266555722,
              57.449334236671
            ],
            [
              16.4292381273419,
              57.4491899245992
            ],
            [
              16.4293268488427,
              57.4490298382815
            ],
            [
              16.4295026657634,
              57.4488685970212
            ],
            [
              16.4296065774481,
              57.4488179751576
            ],
            [
              16.4298927748074,
              57.4487132068305
            ],
            [
              16.4300897112957,
              57.4487366601629
            ],
            [
              16.4302924115569,
              57.4487845049075
            ],
            [
              16.4303687620762,
              57.4488009770717
            ],
            [
              16.4306382888622,
              57.4488591177456
            ],
            [
              16.4306943467893,
              57.4488738863847
            ],
            [
              16.430992251655,
              57.4489420856228
            ],
            [
              16.4312657661166,
              57.4490148819802
            ],
            [
              16.4314668884431,
              57.4490755983883
            ],
            [
              16.4316790909339,
              57.4491540368218
            ],
            [
              16.4318571631553,
              57.4492317242198
            ],
            [
              16.4319357977772,
              57.4492716915804
            ],
            [
              16.4320301000846,
              57.4493084588835
            ],
            [
              16.432190078765,
              57.4493888362774
            ],
            [
              16.4322755645115,
              57.4494317830115
            ],
            [
              16.4323708427461,
              57.4495201167742
            ],
            [
              16.4324504935552,
              57.4495998205264
            ],
            [
              16.4325494820946,
              57.4496418017379
            ],
            [
              16.4326892379454,
              57.449671004397
            ],
            [
              16.4329445585768,
              57.4496985604667
            ],
            [
              16.4332528165867,
              57.4497138318421
            ],
            [
              16.4335879318904,
              57.449742955818
            ],
            [
              16.4339109911125,
              57.4497875880083
            ],
            [
              16.4342389495923,
              57.4498349839965
            ],
            [
              16.4344933606856,
              57.449906542825
            ],
            [
              16.43465570716,
              57.4499913097921
            ],
            [
              16.4348176391513,
              57.4501184572724
            ],
            [
              16.4349922175481,
              57.45021662983
            ],
            [
              16.4351090742919,
              57.4502612147954
            ],
            [
              16.4353552860225,
              57.4503495976289
            ],
            [
              16.4356261836031,
              57.4504692024933
            ],
            [
              16.4358206301753,
              57.4505698754174
            ],
            [
              16.4359526885278,
              57.450645005003
            ],
            [
              16.4360852392517,
              57.4507401477566
            ],
            [
              16.4362428890813,
              57.4508600488567
            ],
            [
              16.4363801815655,
              57.4509495171245
            ],
            [
              16.4365751871047,
              57.4510144503875
            ],
            [
              16.4367872997383,
              57.4510574782372
            ],
            [
              16.4369919705953,
              57.451073333684
            ],
            [
              16.4372604415634,
              57.4510810602951
            ],
            [
              16.4375101097339,
              57.4510894165349
            ],
            [
              16.4377862578014,
              57.4511261963633
            ],
            [
              16.4378787821755,
              57.4511402793349
            ],
            [
              16.4379244643941,
              57.451171751194
            ],
            [
              16.4379746697981,
              57.451223940565
            ],
            [
              16.4380836180992,
              57.4513597018749
            ],
            [
              16.4381942872413,
              57.4515172740417
            ],
            [
              16.4382536338899,
              57.4516882642838
            ],
            [
              16.438295284527,
              57.4518177638036
            ],
            [
              16.4383413107358,
              57.4519662715568
            ],
            [
              16.4383996917734,
              57.4521464187478
            ],
            [
              16.4384247358656,
              57.4522169605106
            ],
            [
              16.4384792646722,
              57.4523077396662
            ],
            [
              16.4386240114522,
              57.4525092288774
            ],
            [
              16.4387479079968,
              57.452700137285
            ],
            [
              16.4388117087353,
              57.4528351391796
            ],
            [
              16.4388031463084,
              57.4529276690063
            ],
            [
              16.4388154246509,
              57.4530866750237
            ],
            [
              16.4388171735626,
              57.4532769870586
            ],
            [
              16.4387929094127,
              57.453372943574
            ],
            [
              16.4387597285789,
              57.4534477640053
            ],
            [
              16.4386867851332,
              57.4535795834153
            ],
            [
              16.4386027010498,
              57.4537838581313
            ],
            [
              16.4387854230141,
              57.4538967957128
            ],
            [
              16.4390784069243,
              57.4539658347309
            ],
            [
              16.439640076026,
              57.4541407234183
            ],
            [
              16.4401048543834,
              57.454272799881
            ],
            [
              16.4404968882494,
              57.4544190948982
            ],
            [
              16.4406972802756,
              57.4545130319301
            ],
            [
              16.4408272959198,
              57.4545178445335
            ],
            [
              16.441069,
              57.4545930000249
            ],
            [
              16.4412963881479,
              57.4547140642111
            ],
            [
              16.4413994159316,
              57.4547510346663
            ],
            [
              16.4415396057603,
              57.4547386218684
            ],
            [
              16.4418210220379,
              57.4546323435431
            ],
            [
              16.442187106488,
              57.4544709600486
            ],
            [
              16.4425311034015,
              57.4543392624589
            ],
            [
              16.4426457201403,
              57.4543262479476
            ],
            [
              16.4427693304142,
              57.4543488253202
            ],
            [
              16.4429563539861,
              57.4543726853822
            ],
            [
              16.4430952402025,
              57.4543585244033
            ],
            [
              16.4432561452771,
              57.4543395908106
            ],
            [
              16.4434303003395,
              57.4543028447363
            ],
            [
              16.443631,
              57.4542390000249
            ],
            [
              16.4438315362742,
              57.4542056178237
            ],
            [
              16.4439857727004,
              57.454223504653
            ],
            [
              16.4441399911659,
              57.4542532700997
            ],
            [
              16.4443763305535,
              57.4543171379013
            ],
            [
              16.4445212855954,
              57.4543902016546
            ]
          ]
        ]
      }
    }
  ]
}
