{
  "type": "FeatureCollection",
  "features": [
    {
      "type": "Feature",
      "id": "PS.ProtectedSites.NR.15760610",
      "geometry": {
        "type": "Polygon",
        "coordinates": [
          [
            [
              14.57886326,
              58.64786332
            ],
            [
              14.57852923,
              58.64843996
            ],
            [
              14.57852976,
              58.64844052
            ],
            [
              14.57940807,
              58.6489046
            ],
            [
              14.58000898,
              58.64918614
            ],
            [
              14.58100147,
              58.649263
            ],
            [
              14.58131284,
              58.64928062
            ],
            [
              14.58526785,
              58.6495921
            ],
            [
              14.58526865,
              58.64959207
            ],
            [
              14.58526937,
              58.64959187
            ],
            [
              14.58665026,
              58.64897349
            ],
            [
              14.5872525,
              58.64862914
            ],
            [
              14.58783355,
              58.64830581
            ],
            [
              14.5884047,
              58.64802928
            ],
            [
              14.58905822,
              58.64773898
            ],
            [
              14.58930017,
              58.64752654
            ],
            [
              14.58929997,
              58.64752596
            ],
            [
              14.58872803,
              58.64694474
            ],
            [
              14.58872731,
              58.64694434
            ],
            [
              14.58732801,
              58.64682198
            ],
            [
              14.58700642,
              58.64681511
            ],
            [
              14.58698018,
              58.64555532
            ],
            [
              14.586985,
              58.64535096
            ],
            [
              14.58736043,
              58.64466448
            ],
            [
              14.58805792,
              58.64417982
            ],
            [
              14.58820806,
              58.64407877
            ],
            [
              14.58820811,
              58.64407839
            ],
            [
              14.58820767,
              58.64407787
            ],
            [
              14.58792256,
              58.64390518
            ],
            [
              14.58750678,
              58.64374878
            ],
            [
              14.5870073,
              58.64365555
            ],
            [
              14.58632909,
              58.64361628
            ],
            [
              14.58489258,
              58.64333384
            ],
            [
              14.58422848,
              58.64326855
            ],
            [
              14.58422722,
              58.64326879
            ],
            [
              14.58259466,
              58.64401744
            ],
            [
              14.58199507,
              58.64460233
            ],
            [
              14.58180524,
              58.64499397
            ],
            [
              14.58159114,
              58.64541383
            ],
            [
              14.58159134,
              58.64541436
            ],
            [
              14.5821482,
              58.64598118
            ],
            [
              14.58262926,
              58.64661537
            ],
            [
              14.58159364,
              58.64744502
            ],
            [
              14.58122748,
              58.64751528
            ],
            [
              14.58022424,
              58.64765606
            ],
            [
              14.57951092,
              58.64775334
            ],
            [
              14.57886386,
              58.64786285
            ],
            [
              14.57886326,
              58.64786332
            ]
          ]
        ]
      },
      "geometry_name": "geom",
      "properties": {
        "nvrid": "2014934",
        "gtype": "Polygon",
        "namn": "Håketjärnarna",
        "skyddstyp": "Naturreservat",
        "skyddstyp_kod": "NR",
        "beslutsstatus": "Gällande",
        "beslutsmyndighet": "Länsstyrelse",
        "urspr_beslutsdatum": "20090608",
        "urspr_gallandedatum": "20090716",
        "senaste_gallandedatum": "20090716",
        "ikrafttradandedatum_foreskrift": null,
        "tillsynsmyndighet": null,
        "provningsmyndighet_tillstand": " ",
        "provningsmyndighet_dispens": " ",
        "lan": "Västra Götalands Län",
        "kommun": "Karlsborg",
        "iucnkategori": "Ia, Strikt naturreservat (Strict Nature Reserve)",
        "forvaltare": "Länsstyrelsen i Västra Götalands län",
        "data_friluftsliv_publicerat": "Ja",
        "area_ha": 24.04,
        "land_ha": 23.61,
        "skog_ha": 21.76,
        "vatten_ha": 0.43
      }
    }
  ],
  "totalFeatures": 1,
  "numberMatched": 1,
  "numberReturned": 1,
  "timeStamp": "2026-04-30T16:41:18.658Z",
  "crs": {
    "type": "name",
    "properties": {
      "name": "urn:ogc:def:crs:EPSG::4326"
    }
  }
}
