{
  "type": "FeatureCollection",
  "features": [
    {
      "type": "Feature",
      "id": "PS.ProtectedSites.NVO.15757323",
      "geometry": {
        "type": "Polygon",
        "coordinates": [
          [
            [
              14.07030383,
              58.0778362
            ],
            [
              14.07031111,
              58.07792396
            ],
            [
              14.07031134,
              58.07792678
            ],
            [
              14.07031136,
              58.07792688
            ],
            [
              14.07033249,
              58.07792153
            ],
            [
              14.0815059,
              58.07509001
            ],
            [
              14.08168676,
              58.07504415
            ],
            [
              14.08290435,
              58.07446027
            ],
            [
              14.08334359,
              58.07443215
            ],
            [
              14.08769003,
              58.07554644
            ],
            [
              14.08769215,
              58.07558978
            ],
            [
              14.08773278,
              58.07642739
            ],
            [
              14.0877513,
              58.07680903
            ],
            [
              14.08582726,
              58.07825373
            ],
            [
              14.08417049,
              58.07912633
            ],
            [
              14.08210256,
              58.07937879
            ],
            [
              14.07550794,
              58.07967434
            ],
            [
              14.07066448,
              58.08089047
            ],
            [
              14.06980716,
              58.08062231
            ],
            [
              14.06900328,
              58.08037085
            ],
            [
              14.0690032,
              58.08037082
            ],
            [
              14.06900323,
              58.08037089
            ],
            [
              14.06900406,
              58.08037421
            ],
            [
              14.0691514,
              58.08096289
            ],
            [
              14.0692186,
              58.08116229
            ],
            [
              14.06931365,
              58.08137841
            ],
            [
              14.07068332,
              58.08416762
            ],
            [
              14.07083871,
              58.08448406
            ],
            [
              14.07085692,
              58.0845038
            ],
            [
              14.07197021,
              58.08571104
            ],
            [
              14.07245611,
              58.0862379
            ],
            [
              14.07210786,
              58.08634143
            ],
            [
              14.07158325,
              58.08649738
            ],
            [
              14.07159129,
              58.08651081
            ],
            [
              14.07159139,
              58.08651096
            ],
            [
              14.07159162,
              58.08651138
            ],
            [
              14.07179583,
              58.08688053
            ],
            [
              14.0717961,
              58.08688104
            ],
            [
              14.07200131,
              58.08728058
            ],
            [
              14.07200168,
              58.08728136
            ],
            [
              14.07200173,
              58.08728147
            ],
            [
              14.07219441,
              58.08771402
            ],
            [
              14.07230403,
              58.08794709
            ],
            [
              14.07241522,
              58.08817649
            ],
            [
              14.07251771,
              58.08836892
            ],
            [
              14.0726297,
              58.08854814
            ],
            [
              14.07262997,
              58.0885486
            ],
            [
              14.07275456,
              58.08874769
            ],
            [
              14.07290173,
              58.08896855
            ],
            [
              14.07304277,
              58.08917758
            ],
            [
              14.07304283,
              58.08917768
            ],
            [
              14.07315337,
              58.0893437
            ],
            [
              14.07315365,
              58.08934411
            ],
            [
              14.073229,
              58.08946338
            ],
            [
              14.0732291,
              58.08946356
            ],
            [
              14.07341205,
              58.08976006
            ],
            [
              14.07341228,
              58.08976043
            ],
            [
              14.07341267,
              58.08976113
            ],
            [
              14.07357344,
              58.09006382
            ],
            [
              14.07360491,
              58.0901212
            ],
            [
              14.07360518,
              58.09012168
            ],
            [
              14.07379821,
              58.09047338
            ],
            [
              14.07396773,
              58.09078304
            ],
            [
              14.07396834,
              58.09078424
            ],
            [
              14.07396847,
              58.09078453
            ],
            [
              14.07402933,
              58.09092535
            ],
            [
              14.07406759,
              58.09100128
            ],
            [
              14.0740679,
              58.09100192
            ],
            [
              14.07406827,
              58.09100277
            ],
            [
              14.07410897,
              58.09110697
            ],
            [
              14.07410929,
              58.09110785
            ],
            [
              14.07410955,
              58.09110884
            ],
            [
              14.07410975,
              58.09110959
            ],
            [
              14.07412817,
              58.09118223
            ],
            [
              14.07412874,
              58.09118452
            ],
            [
              14.07412885,
              58.09118492
            ],
            [
              14.07412892,
              58.09118491
            ],
            [
              14.07523055,
              58.09103793
            ],
            [
              14.07670244,
              58.09084154
            ],
            [
              14.07873546,
              58.09304515
            ],
            [
              14.0792591,
              58.09361269
            ],
            [
              14.0809493,
              58.09544442
            ],
            [
              14.08099424,
              58.09549312
            ],
            [
              14.07562678,
              58.09673021
            ],
            [
              14.07558237,
              58.09674045
            ],
            [
              14.0755472,
              58.09674856
            ],
            [
              14.07570511,
              58.09708536
            ],
            [
              14.07571119,
              58.09709831
            ],
            [
              14.0757862,
              58.09730271
            ],
            [
              14.07577378,
              58.09739664
            ],
            [
              14.07576614,
              58.09745433
            ],
            [
              14.07575965,
              58.09750351
            ],
            [
              14.07572849,
              58.09755759
            ],
            [
              14.07561822,
              58.09774897
            ],
            [
              14.07561667,
              58.09775313
            ],
            [
              14.07554024,
              58.09795782
            ],
            [
              14.0755004,
              58.09852137
            ],
            [
              14.07546419,
              58.09908139
            ],
            [
              14.07538914,
              58.09929749
            ],
            [
              14.07521171,
              58.09948371
            ],
            [
              14.07496321,
              58.09974453
            ],
            [
              14.07490066,
              58.09997702
            ],
            [
              14.07486983,
              58.10016586
            ],
            [
              14.07484448,
              58.10032104
            ],
            [
              14.07483412,
              58.10069104
            ],
            [
              14.07489485,
              58.10146549
            ],
            [
              14.07489733,
              58.10149723
            ],
            [
              14.07441385,
              58.10152273
            ],
            [
              14.07395984,
              58.10172127
            ],
            [
              14.07382536,
              58.10177222
            ],
            [
              14.07347981,
              58.10190316
            ],
            [
              14.07303894,
              58.10221334
            ],
            [
              14.07278479,
              58.10237803
            ],
            [
              14.07275557,
              58.10239696
            ],
            [
              14.07190779,
              58.10268139
            ],
            [
              14.07178431,
              58.10272281
            ],
            [
              14.07176568,
              58.10363895
            ],
            [
              14.07172433,
              58.10370111
            ],
            [
              14.07166862,
              58.10382769
            ],
            [
              14.07166876,
              58.10383038
            ],
            [
              14.07167307,
              58.10391583
            ],
            [
              14.07168746,
              58.10396214
            ],
            [
              14.07169602,
              58.10398968
            ],
            [
              14.07170959,
              58.10403328
            ],
            [
              14.07184721,
              58.10416155
            ],
            [
              14.07200153,
              58.1042937
            ],
            [
              14.07216847,
              58.10444044
            ],
            [
              14.0722871,
              58.10456621
            ],
            [
              14.07228916,
              58.10456839
            ],
            [
              14.07233148,
              58.10464822
            ],
            [
              14.07237219,
              58.10475317
            ],
            [
              14.07238604,
              58.10490617
            ],
            [
              14.07241601,
              58.10507203
            ],
            [
              14.07242789,
              58.10525554
            ],
            [
              14.07241627,
              58.10543503
            ],
            [
              14.07245885,
              58.10556339
            ],
            [
              14.07248242,
              58.10572374
            ],
            [
              14.07248317,
              58.10592143
            ],
            [
              14.07247689,
              58.10601835
            ],
            [
              14.07247989,
              58.10623404
            ],
            [
              14.07258127,
              58.10634549
            ],
            [
              14.07268047,
              58.10654313
            ],
            [
              14.0727348,
              58.10669176
            ],
            [
              14.07275254,
              58.1067403
            ],
            [
              14.07275491,
              58.10686073
            ],
            [
              14.07272622,
              58.10704172
            ],
            [
              14.07276284,
              58.10710526
            ],
            [
              14.07283159,
              58.10719635
            ],
            [
              14.07291792,
              58.10738299
            ],
            [
              14.07292243,
              58.10752323
            ],
            [
              14.07291406,
              58.10770459
            ],
            [
              14.07290174,
              58.10789484
            ],
            [
              14.07282325,
              58.10805876
            ],
            [
              14.07275247,
              58.10820845
            ],
            [
              14.07271249,
              58.10826606
            ],
            [
              14.07265886,
              58.10834335
            ],
            [
              14.0726402,
              58.10842209
            ],
            [
              14.07268058,
              58.10858453
            ],
            [
              14.07266883,
              58.1087137
            ],
            [
              14.07261615,
              58.10884575
            ],
            [
              14.07253317,
              58.10893376
            ],
            [
              14.07249952,
              58.10896946
            ],
            [
              14.07233439,
              58.10905635
            ],
            [
              14.07227987,
              58.10907806
            ],
            [
              14.07213578,
              58.10913545
            ],
            [
              14.0719642,
              58.10921684
            ],
            [
              14.07183834,
              58.109326
            ],
            [
              14.07180803,
              58.10934684
            ],
            [
              14.07170334,
              58.10941883
            ],
            [
              14.07149904,
              58.10953378
            ],
            [
              14.07144264,
              58.10955499
            ],
            [
              14.07122074,
              58.10963841
            ],
            [
              14.07088629,
              58.10971868
            ],
            [
              14.07077968,
              58.10974809
            ],
            [
              14.07051307,
              58.10982161
            ],
            [
              14.07038221,
              58.10986868
            ],
            [
              14.07029412,
              58.10990036
            ],
            [
              14.07001981,
              58.11004818
            ],
            [
              14.06979143,
              58.1102202
            ],
            [
              14.06957531,
              58.11036009
            ],
            [
              14.06948248,
              58.11043598
            ],
            [
              14.06956301,
              58.11048413
            ],
            [
              14.0696586,
              58.11054128
            ],
            [
              14.06984109,
              58.11055354
            ],
            [
              14.07009734,
              58.1105797
            ],
            [
              14.07023155,
              58.11059864
            ],
            [
              14.07031595,
              58.11061057
            ],
            [
              14.07032306,
              58.11061271
            ],
            [
              14.07057563,
              58.11068889
            ],
            [
              14.07081531,
              58.11076147
            ],
            [
              14.07110701,
              58.11086913
            ],
            [
              14.07133831,
              58.11101882
            ],
            [
              14.07150178,
              58.11116731
            ],
            [
              14.07161427,
              58.11131668
            ],
            [
              14.07179015,
              58.11148334
            ],
            [
              14.07194989,
              58.11163717
            ],
            [
              14.07216878,
              58.11171655
            ],
            [
              14.07226783,
              58.11181178
            ],
            [
              14.07234808,
              58.11198752
            ],
            [
              14.07246091,
              58.11209758
            ],
            [
              14.07265776,
              58.11228956
            ],
            [
              14.07289174,
              58.11231205
            ],
            [
              14.07302547,
              58.1123249
            ],
            [
              14.07354823,
              58.11190477
            ],
            [
              14.07368423,
              58.11186936
            ],
            [
              14.07374847,
              58.11185264
            ],
            [
              14.07403925,
              58.11187419
            ],
            [
              14.07534632,
              58.11197106
            ],
            [
              14.076026,
              58.11216829
            ],
            [
              14.07637424,
              58.11224606
            ],
            [
              14.07652455,
              58.11227963
            ],
            [
              14.0765195,
              58.11229265
            ],
            [
              14.07620126,
              58.11311137
            ],
            [
              14.07562952,
              58.1145821
            ],
            [
              14.07629846,
              58.11452459
            ],
            [
              14.07803222,
              58.11437554
            ],
            [
              14.07807287,
              58.11437204
            ],
            [
              14.07934543,
              58.11500182
            ],
            [
              14.07982726,
              58.11524026
            ],
            [
              14.07982896,
              58.11482016
            ],
            [
              14.08009121,
              58.11402628
            ],
            [
              14.08030636,
              58.11337503
            ],
            [
              14.07970616,
              58.11250566
            ],
            [
              14.07966073,
              58.11243985
            ],
            [
              14.08028531,
              58.11131706
            ],
            [
              14.08140755,
              58.1092995
            ],
            [
              14.08144627,
              58.10922987
            ],
            [
              14.08431485,
              58.10889155
            ],
            [
              14.08582384,
              58.10892507
            ],
            [
              14.08713614,
              58.10815234
            ],
            [
              14.08838288,
              58.10796529
            ],
            [
              14.09271519,
              58.10731519
            ],
            [
              14.09416208,
              58.10789754
            ],
            [
              14.09551661,
              58.10845563
            ],
            [
              14.09697066,
              58.10866106
            ],
            [
              14.09699992,
              58.10866518
            ],
            [
              14.09769518,
              58.10972125
            ],
            [
              14.09909417,
              58.11184602
            ],
            [
              14.0991032,
              58.11185973
            ],
            [
              14.09753319,
              58.11363346
            ],
            [
              14.09527539,
              58.11618384
            ],
            [
              14.09652994,
              58.11736585
            ],
            [
              14.09761078,
              58.11833525
            ],
            [
              14.09764155,
              58.11836284
            ],
            [
              14.09497213,
              58.11952923
            ],
            [
              14.09458442,
              58.11969863
            ],
            [
              14.09174657,
              58.12093845
            ],
            [
              14.0917465,
              58.12093848
            ],
            [
              14.09174668,
              58.12093852
            ],
            [
              14.09175158,
              58.12093976
            ],
            [
              14.0970446,
              58.12227333
            ],
            [
              14.09704469,
              58.12227335
            ],
            [
              14.09969956,
              58.12294212
            ],
            [
              14.09982101,
              58.12297272
            ],
            [
              14.10066162,
              58.12318443
            ],
            [
              14.10066802,
              58.12318314
            ],
            [
              14.10220136,
              58.1228724
            ],
            [
              14.10463685,
              58.12237876
            ],
            [
              14.10473097,
              58.12236683
            ],
            [
              14.10547924,
              58.12227202
            ],
            [
              14.10555398,
              58.12231965
            ],
            [
              14.10566502,
              58.12239039
            ],
            [
              14.10564563,
              58.12240529
            ],
            [
              14.10306483,
              58.12438839
            ],
            [
              14.10299321,
              58.12444341
            ],
            [
              14.10297004,
              58.12464046
            ],
            [
              14.10252566,
              58.12841985
            ],
            [
              14.10249155,
              58.12870994
            ],
            [
              14.0997995,
              58.13128255
            ],
            [
              14.09978097,
              58.13130027
            ],
            [
              14.09978271,
              58.13130277
            ],
            [
              14.10738449,
              58.1423063
            ],
            [
              14.10738457,
              58.1423063
            ],
            [
              14.10960399,
              58.1424109
            ],
            [
              14.1104263,
              58.14244965
            ],
            [
              14.1157706,
              58.14444278
            ],
            [
              14.12877062,
              58.14631845
            ],
            [
              14.12875244,
              58.14627342
            ],
            [
              14.11862716,
              58.12117726
            ],
            [
              14.1191932,
              58.11766822
            ],
            [
              14.12202502,
              58.10010133
            ],
            [
              14.12050732,
              58.09664205
            ],
            [
              14.12024529,
              58.09604471
            ],
            [
              14.11698833,
              58.08861868
            ],
            [
              14.11690191,
              58.08858754
            ],
            [
              14.11662058,
              58.08848613
            ],
            [
              14.11620491,
              58.08835989
            ],
            [
              14.11564904,
              58.08814839
            ],
            [
              14.11524033,
              58.08807078
            ],
            [
              14.11460428,
              58.08789194
            ],
            [
              14.11410506,
              58.08769586
            ],
            [
              14.11373698,
              58.08756868
            ],
            [
              14.11330994,
              58.08740986
            ],
            [
              14.11282635,
              58.08723383
            ],
            [
              14.11238636,
              58.0870658
            ],
            [
              14.11202255,
              58.086874
            ],
            [
              14.11172954,
              58.08679132
            ],
            [
              14.11144282,
              58.08671595
            ],
            [
              14.11118274,
              58.08654583
            ],
            [
              14.11098785,
              58.08636435
            ],
            [
              14.11100414,
              58.0862209
            ],
            [
              14.1109629,
              58.08612671
            ],
            [
              14.11090018,
              58.08599798
            ],
            [
              14.11069798,
              58.08577323
            ],
            [
              14.11036297,
              58.08535198
            ],
            [
              14.10997369,
              58.08491207
            ],
            [
              14.10766105,
              58.08169585
            ],
            [
              14.10780992,
              58.08164815
            ],
            [
              14.10792188,
              58.08159442
            ],
            [
              14.10799047,
              58.08152914
            ],
            [
              14.10863188,
              58.08152247
            ],
            [
              14.10863703,
              58.08151985
            ],
            [
              14.10876855,
              58.08145301
            ],
            [
              14.10887082,
              58.081338
            ],
            [
              14.10895192,
              58.08102316
            ],
            [
              14.10905768,
              58.0808004
            ],
            [
              14.10947067,
              58.08043929
            ],
            [
              14.1097839,
              58.08015368
            ],
            [
              14.10978639,
              58.08015027
            ],
            [
              14.10993989,
              58.0799408
            ],
            [
              14.11021993,
              58.0797229
            ],
            [
              14.11050143,
              58.07947179
            ],
            [
              14.110718,
              58.07932486
            ],
            [
              14.11097048,
              58.07925048
            ],
            [
              14.11174659,
              58.07915522
            ],
            [
              14.11203644,
              58.07907971
            ],
            [
              14.1125575,
              58.0789438
            ],
            [
              14.11335716,
              58.07874834
            ],
            [
              14.11416318,
              58.07861049
            ],
            [
              14.11520467,
              58.07845002
            ],
            [
              14.11605275,
              58.07829139
            ],
            [
              14.11685424,
              58.07822171
            ],
            [
              14.11571586,
              58.07646141
            ],
            [
              14.11616416,
              58.07560759
            ],
            [
              14.11630544,
              58.07533851
            ],
            [
              14.11491256,
              58.07522476
            ],
            [
              14.11322727,
              58.0726891
            ],
            [
              14.11073164,
              58.06893352
            ],
            [
              14.10726271,
              58.06371004
            ],
            [
              14.09067112,
              58.05405103
            ],
            [
              14.09012879,
              58.05373517
            ],
            [
              14.07856746,
              58.04700009
            ],
            [
              14.07374441,
              58.04418934
            ],
            [
              14.0681637,
              58.04093629
            ],
            [
              14.06488479,
              58.03902458
            ],
            [
              14.0646905,
              58.03891131
            ],
            [
              14.06887004,
              58.02719099
            ],
            [
              14.06959801,
              58.02514871
            ],
            [
              14.06911928,
              58.02541467
            ],
            [
              14.06840246,
              58.02589359
            ],
            [
              14.06778387,
              58.02632226
            ],
            [
              14.06722894,
              58.02621658
            ],
            [
              14.0671438,
              58.02652049
            ],
            [
              14.06694844,
              58.0266534
            ],
            [
              14.06673944,
              58.02688669
            ],
            [
              14.06663308,
              58.02716044
            ],
            [
              14.06639414,
              58.02732683
            ],
            [
              14.06628276,
              58.02742543
            ],
            [
              14.06605978,
              58.02752201
            ],
            [
              14.06578116,
              58.02758885
            ],
            [
              14.0654575,
              58.02767104
            ],
            [
              14.06512339,
              58.02796684
            ],
            [
              14.06519421,
              58.02828432
            ],
            [
              14.06499922,
              58.02857545
            ],
            [
              14.06175799,
              58.0282186
            ],
            [
              14.06061654,
              58.02707805
            ],
            [
              14.0597198,
              58.0262836
            ],
            [
              14.05891723,
              58.02539507
            ],
            [
              14.05918491,
              58.02533295
            ],
            [
              14.06053194,
              58.02502034
            ],
            [
              14.06395168,
              58.02422662
            ],
            [
              14.03744109,
              58.01900708
            ],
            [
              14.02891534,
              58.01729956
            ],
            [
              14.02856614,
              58.01723017
            ],
            [
              14.02823653,
              58.01716466
            ],
            [
              14.025884,
              58.01671748
            ],
            [
              14.02548624,
              58.0166309
            ],
            [
              14.02530678,
              58.01659183
            ],
            [
              14.02338416,
              58.01935855
            ],
            [
              14.02167915,
              58.02170634
            ],
            [
              14.02022385,
              58.02371
            ],
            [
              14.01817625,
              58.02648839
            ],
            [
              14.01631043,
              58.02901968
            ],
            [
              14.01628417,
              58.02905529
            ],
            [
              14.01634314,
              58.02916209
            ],
            [
              14.01632394,
              58.02916347
            ],
            [
              14.0163332,
              58.02922619
            ],
            [
              14.01639882,
              58.02935505
            ],
            [
              14.01655866,
              58.02953411
            ],
            [
              14.01667647,
              58.02963328
            ],
            [
              14.01689431,
              58.02981654
            ],
            [
              14.01704922,
              58.02994691
            ],
            [
              14.01705069,
              58.02994823
            ],
            [
              14.01716096,
              58.03005394
            ],
            [
              14.01716116,
              58.03005413
            ],
            [
              14.01716265,
              58.03005571
            ],
            [
              14.01716344,
              58.03005668
            ],
            [
              14.01732522,
              58.03026396
            ],
            [
              14.01732573,
              58.03026462
            ],
            [
              14.01732612,
              58.03026519
            ],
            [
              14.01746293,
              58.03046799
            ],
            [
              14.0177389,
              58.03082122
            ],
            [
              14.01773921,
              58.03082163
            ],
            [
              14.01791759,
              58.03106122
            ],
            [
              14.01791778,
              58.03106147
            ],
            [
              14.0179184,
              58.03106239
            ],
            [
              14.01816061,
              58.03143768
            ],
            [
              14.01816108,
              58.03143842
            ],
            [
              14.01816119,
              58.03143865
            ],
            [
              14.01843628,
              58.0319237
            ],
            [
              14.01868717,
              58.03235058
            ],
            [
              14.01868723,
              58.03235068
            ],
            [
              14.01868727,
              58.03235073
            ],
            [
              14.01886189,
              58.03264377
            ],
            [
              14.01909692,
              58.03302801
            ],
            [
              14.01941294,
              58.03353392
            ],
            [
              14.01941323,
              58.03353441
            ],
            [
              14.01941342,
              58.03353472
            ],
            [
              14.019601,
              58.0338699
            ],
            [
              14.01960154,
              58.03387096
            ],
            [
              14.01963764,
              58.0339468
            ],
            [
              14.01963778,
              58.03394711
            ],
            [
              14.01972497,
              58.03413023
            ],
            [
              14.01972511,
              58.03413055
            ],
            [
              14.01972577,
              58.03413228
            ],
            [
              14.01972607,
              58.03413329
            ],
            [
              14.01977211,
              58.03431791
            ],
            [
              14.01977228,
              58.03431864
            ],
            [
              14.01977233,
              58.03431901
            ],
            [
              14.01983065,
              58.03465913
            ],
            [
              14.0198308,
              58.03466043
            ],
            [
              14.01987196,
              58.03517996
            ],
            [
              14.01991787,
              58.03564499
            ],
            [
              14.02001566,
              58.03590422
            ],
            [
              14.02012603,
              58.03616834
            ],
            [
              14.02027204,
              58.0364117
            ],
            [
              14.02046155,
              58.03666516
            ],
            [
              14.02074879,
              58.03703866
            ],
            [
              14.02074918,
              58.03703918
            ],
            [
              14.0207496,
              58.0370398
            ],
            [
              14.02092953,
              58.03730767
            ],
            [
              14.02093019,
              58.03730872
            ],
            [
              14.02093061,
              58.03730949
            ],
            [
              14.02112073,
              58.03767234
            ],
            [
              14.02112114,
              58.0376731
            ],
            [
              14.02112146,
              58.03767375
            ],
            [
              14.0211216,
              58.03767403
            ],
            [
              14.02126303,
              58.03797267
            ],
            [
              14.0270763,
              58.03932665
            ],
            [
              14.027463,
              58.03942994
            ],
            [
              14.03913568,
              58.04211929
            ],
            [
              14.04695097,
              58.04391909
            ],
            [
              14.0469542,
              58.04391983
            ],
            [
              14.04696289,
              58.0439326
            ],
            [
              14.04757235,
              58.04482761
            ],
            [
              14.04534507,
              58.04571736
            ],
            [
              14.04493075,
              58.04588287
            ],
            [
              14.04464306,
              58.04599778
            ],
            [
              14.04904332,
              58.04885084
            ],
            [
              14.04970366,
              58.04927894
            ],
            [
              14.05387651,
              58.05192812
            ],
            [
              14.05618554,
              58.05343631
            ],
            [
              14.06224443,
              58.05731306
            ],
            [
              14.06226838,
              58.05732838
            ],
            [
              14.06274916,
              58.05834831
            ],
            [
              14.06396247,
              58.06092192
            ],
            [
              14.06418624,
              58.06139653
            ],
            [
              14.06691152,
              58.0671758
            ],
            [
              14.06795605,
              58.06939035
            ],
            [
              14.06786635,
              58.06940096
            ],
            [
              14.06697038,
              58.06950686
            ],
            [
              14.06697029,
              58.06950687
            ],
            [
              14.06697077,
              58.0695078
            ],
            [
              14.06697163,
              58.06950947
            ],
            [
              14.06698462,
              58.06953478
            ],
            [
              14.06843653,
              58.07236137
            ],
            [
              14.06877849,
              58.07299647
            ],
            [
              14.06910122,
              58.07361503
            ],
            [
              14.06945488,
              58.07427908
            ],
            [
              14.06975414,
              58.07489365
            ],
            [
              14.0699812,
              58.07531463
            ],
            [
              14.06994983,
              58.07532002
            ],
            [
              14.06988024,
              58.07533199
            ],
            [
              14.06990505,
              58.07538534
            ],
            [
              14.06990511,
              58.07538548
            ],
            [
              14.06990549,
              58.07538637
            ],
            [
              14.06995871,
              58.07552405
            ],
            [
              14.06995898,
              58.07552482
            ],
            [
              14.07001706,
              58.07570055
            ],
            [
              14.07001709,
              58.07570062
            ],
            [
              14.07001744,
              58.07570195
            ],
            [
              14.07001753,
              58.07570237
            ],
            [
              14.07004895,
              58.07583928
            ],
            [
              14.07004904,
              58.0758397
            ],
            [
              14.07004912,
              58.07584006
            ],
            [
              14.0701036,
              58.0761542
            ],
            [
              14.07010359,
              58.07615427
            ],
            [
              14.07017042,
              58.07655097
            ],
            [
              14.07022968,
              58.07690578
            ],
            [
              14.07022976,
              58.07690648
            ],
            [
              14.0702866,
              58.07739028
            ],
            [
              14.07028667,
              58.07739088
            ],
            [
              14.07028671,
              58.07739146
            ],
            [
              14.07029496,
              58.07762882
            ],
            [
              14.0703038,
              58.07783562
            ],
            [
              14.07030383,
              58.0778362
            ]
          ],
          [
            [
              14.10027647,
              58.08965878
            ],
            [
              14.10184668,
              58.08950504
            ],
            [
              14.10208374,
              58.08958281
            ],
            [
              14.10289684,
              58.08988707
            ],
            [
              14.10375231,
              58.09020719
            ],
            [
              14.10376172,
              58.09019505
            ],
            [
              14.10439926,
              58.08937222
            ],
            [
              14.10456396,
              58.08934279
            ],
            [
              14.10495479,
              58.08917178
            ],
            [
              14.10503688,
              58.0892074
            ],
            [
              14.10512314,
              58.08924484
            ],
            [
              14.10521094,
              58.08915297
            ],
            [
              14.10524308,
              58.08911936
            ],
            [
              14.10533456,
              58.08911432
            ],
            [
              14.1058353,
              58.0890867
            ],
            [
              14.10583541,
              58.08908669
            ],
            [
              14.10583542,
              58.08908673
            ],
            [
              14.10594914,
              58.0893241
            ],
            [
              14.10609443,
              58.08936887
            ],
            [
              14.10615355,
              58.08938147
            ],
            [
              14.10671463,
              58.08950112
            ],
            [
              14.10671596,
              58.08968868
            ],
            [
              14.10672068,
              58.09036114
            ],
            [
              14.10658287,
              58.0905123
            ],
            [
              14.10654578,
              58.09055298
            ],
            [
              14.10651638,
              58.0905553
            ],
            [
              14.10626621,
              58.09057502
            ],
            [
              14.10618196,
              58.09055017
            ],
            [
              14.10614303,
              58.0905387
            ],
            [
              14.10538489,
              58.09027584
            ],
            [
              14.10537306,
              58.09027174
            ],
            [
              14.10438011,
              58.09041594
            ],
            [
              14.10389399,
              58.09099392
            ],
            [
              14.10385885,
              58.0910357
            ],
            [
              14.1022661,
              58.09049097
            ],
            [
              14.10044232,
              58.08972815
            ],
            [
              14.10033817,
              58.08968458
            ],
            [
              14.10027647,
              58.08965878
            ]
          ],
          [
            [
              14.09678192,
              58.08803691
            ],
            [
              14.096782,
              58.08803693
            ],
            [
              14.09679978,
              58.08804153
            ],
            [
              14.09827178,
              58.08842255
            ],
            [
              14.09833288,
              58.08843837
            ],
            [
              14.09759718,
              58.08867663
            ],
            [
              14.0972175,
              58.08879958
            ],
            [
              14.0972157,
              58.08882031
            ],
            [
              14.09720482,
              58.08894492
            ],
            [
              14.09715824,
              58.08941801
            ],
            [
              14.09708839,
              58.09012709
            ],
            [
              14.09600759,
              58.09053024
            ],
            [
              14.09598768,
              58.09056499
            ],
            [
              14.09567875,
              58.09110432
            ],
            [
              14.09542665,
              58.09154442
            ],
            [
              14.09541554,
              58.0915638
            ],
            [
              14.0920158,
              58.09157359
            ],
            [
              14.09202155,
              58.09156081
            ],
            [
              14.09232801,
              58.09088146
            ],
            [
              14.09245086,
              58.09060913
            ],
            [
              14.09250333,
              58.09057222
            ],
            [
              14.09398556,
              58.0895294
            ],
            [
              14.09397626,
              58.0895062
            ],
            [
              14.09370696,
              58.08883417
            ],
            [
              14.09361712,
              58.08860998
            ],
            [
              14.09631058,
              58.08812227
            ],
            [
              14.09678192,
              58.08803691
            ]
          ]
        ]
      },
      "geometry_name": "geom",
      "properties": {
        "nvrid": "2001952",
        "gtype": "Polygon",
        "namn": "Hökensås",
        "skyddstyp": "Naturvårdsområde",
        "skyddstyp_kod": "NVO",
        "beslutsstatus": "Gällande",
        "beslutsmyndighet": "Länsstyrelse",
        "urspr_beslutsdatum": "19960216",
        "urspr_gallandedatum": "19980611",
        "senaste_gallandedatum": "19980611",
        "ikrafttradandedatum_foreskrift": null,
        "tillsynsmyndighet": null,
        "provningsmyndighet_tillstand": " ",
        "provningsmyndighet_dispens": " ",
        "lan": "Västra Götalands Län",
        "kommun": "Tidaholm",
        "iucnkategori": "V, Skyddat landskap/havsområde (Protected Landscape/Seascape)",
        "forvaltare": "Länsstyrelsen i Västra Götalands län",
        "data_friluftsliv_publicerat": "Ja",
        "area_ha": 2869.25,
        "land_ha": 2681.03,
        "skog_ha": 2198.92,
        "vatten_ha": 188.22
      }
    }
  ],
  "totalFeatures": 1,
  "numberMatched": 1,
  "numberReturned": 1,
  "timeStamp": "2026-04-30T16:41:20.942Z",
  "crs": {
    "type": "name",
    "properties": {
      "name": "urn:ogc:def:crs:EPSG::4326"
    }
  }
}
