{
  "type": "FeatureCollection",
  "features": [
    {
      "type": "Feature",
      "id": "PS.ProtectedSites.NR.15761352",
      "geometry": {
        "type": "Polygon",
        "coordinates": [
          [
            [
              14.0946205,
              58.19237008
            ],
            [
              14.09461951,
              58.19237024
            ],
            [
              14.09461901,
              58.1923705
            ],
            [
              14.09461868,
              58.19237103
            ],
            [
              14.09461878,
              58.19237139
            ],
            [
              14.09480715,
              58.19267885
            ],
            [
              14.09507101,
              58.1931212
            ],
            [
              14.09522478,
              58.19339771
            ],
            [
              14.09530977,
              58.19350943
            ],
            [
              14.095433,
              58.19361925
            ],
            [
              14.09554901,
              58.19367773
            ],
            [
              14.09567145,
              58.19371073
            ],
            [
              14.09584359,
              58.1937474
            ],
            [
              14.09605229,
              58.1937773
            ],
            [
              14.09634499,
              58.1937959
            ],
            [
              14.09662544,
              58.19380443
            ],
            [
              14.09709657,
              58.19380709
            ],
            [
              14.09728445,
              58.19377482
            ],
            [
              14.09740573,
              58.19375096
            ],
            [
              14.09759467,
              58.1936842
            ],
            [
              14.09776282,
              58.19359393
            ],
            [
              14.09804387,
              58.19338207
            ],
            [
              14.09836452,
              58.19314893
            ],
            [
              14.09856696,
              58.19301643
            ],
            [
              14.09875044,
              58.19293921
            ],
            [
              14.09899392,
              58.19288025
            ],
            [
              14.09929738,
              58.19283685
            ],
            [
              14.10036185,
              58.19275513
            ],
            [
              14.10036284,
              58.19275488
            ],
            [
              14.10036328,
              58.19275457
            ],
            [
              14.10036343,
              58.19275399
            ],
            [
              14.10022785,
              58.19231175
            ],
            [
              14.10029041,
              58.19214475
            ],
            [
              14.10042627,
              58.19219075
            ],
            [
              14.100643,
              58.19223836
            ],
            [
              14.10064421,
              58.1922384
            ],
            [
              14.10077439,
              58.19221969
            ],
            [
              14.10092645,
              58.19214572
            ],
            [
              14.10102578,
              58.19209392
            ],
            [
              14.10117579,
              58.19204504
            ],
            [
              14.10132625,
              58.19199253
            ],
            [
              14.1015169,
              58.19190145
            ],
            [
              14.10166513,
              58.19183275
            ],
            [
              14.10186633,
              58.19173825
            ],
            [
              14.10194764,
              58.19169869
            ],
            [
              14.10219255,
              58.19165541
            ],
            [
              14.10251636,
              58.1916444
            ],
            [
              14.10271275,
              58.19165936
            ],
            [
              14.1029819,
              58.19165255
            ],
            [
              14.10317439,
              58.19166923
            ],
            [
              14.10351299,
              58.19182015
            ],
            [
              14.10378706,
              58.19192661
            ],
            [
              14.10404571,
              58.19206884
            ],
            [
              14.1040465,
              58.19206899
            ],
            [
              14.10435965,
              58.19209004
            ],
            [
              14.10455144,
              58.19207682
            ],
            [
              14.10475401,
              58.19200659
            ],
            [
              14.10487139,
              58.19199799
            ],
            [
              14.1053082,
              58.19195596
            ],
            [
              14.10543451,
              58.19194532
            ],
            [
              14.10554017,
              58.19192798
            ],
            [
              14.10584619,
              58.19195895
            ],
            [
              14.10584723,
              58.1919589
            ],
            [
              14.10584782,
              58.1919587
            ],
            [
              14.10584835,
              58.19195823
            ],
            [
              14.10599726,
              58.19165679
            ],
            [
              14.10425483,
              58.19005892
            ],
            [
              14.099011,
              58.1877133
            ],
            [
              14.09900962,
              58.18771307
            ],
            [
              14.09900861,
              58.18771328
            ],
            [
              14.099008,
              58.18771376
            ],
            [
              14.09631708,
              58.19234723
            ],
            [
              14.0946205,
              58.19237008
            ]
          ]
        ]
      },
      "geometry_name": "geom",
      "properties": {
        "nvrid": "2000412",
        "gtype": "Polygon",
        "namn": "Hyltan",
        "skyddstyp": "Naturreservat",
        "skyddstyp_kod": "NR",
        "beslutsstatus": "Gällande",
        "beslutsmyndighet": "Kommun",
        "urspr_beslutsdatum": "20010924",
        "urspr_gallandedatum": "20020219",
        "senaste_gallandedatum": "20020219",
        "ikrafttradandedatum_foreskrift": null,
        "tillsynsmyndighet": null,
        "provningsmyndighet_tillstand": " ",
        "provningsmyndighet_dispens": " ",
        "lan": "Västra Götalands Län",
        "kommun": "Tidaholm",
        "iucnkategori": "IV, Habitat/Artskyddsområde (Habitat/Species Management Area)",
        "forvaltare": "Tidaholms kommun",
        "data_friluftsliv_publicerat": "Nej",
        "area_ha": 19.64,
        "land_ha": 12.34,
        "skog_ha": 11.88,
        "vatten_ha": 7.3
      }
    }
  ],
  "totalFeatures": 1,
  "numberMatched": 1,
  "numberReturned": 1,
  "timeStamp": "2026-04-30T16:41:21.221Z",
  "crs": {
    "type": "name",
    "properties": {
      "name": "urn:ogc:def:crs:EPSG::4326"
    }
  }
}
