{
  "type": "FeatureCollection",
  "features": [
    {
      "type": "Feature",
      "id": "PS.ProtectedSites.Natura2000.SE0310710",
      "geometry": {
        "type": "MultiPolygon",
        "coordinates": [
          [
            [
              [
                14.69554231,
                57.77001583
              ],
              [
                14.69554319,
                57.77001632
              ],
              [
                14.69527888,
                57.77005898
              ],
              [
                14.69606257,
                57.77030199
              ],
              [
                14.6960577,
                57.77029529
              ],
              [
                14.6960503,
                57.77029113
              ],
              [
                14.69594326,
                57.77010808
              ],
              [
                14.69585293,
                57.76996562
              ],
              [
                14.69554231,
                57.77001583
              ]
            ]
          ],
          [
            [
              [
                14.69179048,
                57.77185765
              ],
              [
                14.69177377,
                57.7718634
              ],
              [
                14.69179166,
                57.77189128
              ],
              [
                14.6918882,
                57.77204183
              ],
              [
                14.69198855,
                57.77220336
              ],
              [
                14.69209266,
                57.77237372
              ],
              [
                14.69214555,
                57.77236602
              ],
              [
                14.69214773,
                57.77236876
              ],
              [
                14.69253084,
                57.77227742
              ],
              [
                14.69253559,
                57.77227628
              ],
              [
                14.69268934,
                57.77223963
              ],
              [
                14.69269382,
                57.77223855
              ],
              [
                14.69276422,
                57.77222178
              ],
              [
                14.69328267,
                57.77209817
              ],
              [
                14.69329863,
                57.7717504
              ],
              [
                14.69329894,
                57.77174334
              ],
              [
                14.69329939,
                57.77173383
              ],
              [
                14.69331747,
                57.77173863
              ],
              [
                14.69335186,
                57.77170015
              ],
              [
                14.69347309,
                57.77156447
              ],
              [
                14.69356874,
                57.77145744
              ],
              [
                14.69370662,
                57.77140796
              ],
              [
                14.69381704,
                57.77137386
              ],
              [
                14.6932246,
                57.77103372
              ],
              [
                14.69342284,
                57.77098714
              ],
              [
                14.69342762,
                57.77098601
              ],
              [
                14.69340651,
                57.77096249
              ],
              [
                14.69336509,
                57.77096764
              ],
              [
                14.69311851,
                57.7709756
              ],
              [
                14.6928539,
                57.77095302
              ],
              [
                14.69291585,
                57.77109533
              ],
              [
                14.69292178,
                57.77111
              ],
              [
                14.69290988,
                57.77111493
              ],
              [
                14.69291553,
                57.77113504
              ],
              [
                14.69259713,
                57.77130996
              ],
              [
                14.69257101,
                57.77127952
              ],
              [
                14.69254943,
                57.77127034
              ],
              [
                14.69236796,
                57.77112761
              ],
              [
                14.69217648,
                57.77099265
              ],
              [
                14.69200303,
                57.7709075
              ],
              [
                14.69187277,
                57.77084886
              ],
              [
                14.69173156,
                57.7706699
              ],
              [
                14.69165913,
                57.77051907
              ],
              [
                14.69165343,
                57.77050718
              ],
              [
                14.69163164,
                57.77042076
              ],
              [
                14.69123449,
                57.77045881
              ],
              [
                14.69029128,
                57.77054917
              ],
              [
                14.69054159,
                57.77086771
              ],
              [
                14.6906628,
                57.77102195
              ],
              [
                14.69069384,
                57.77106145
              ],
              [
                14.6907071,
                57.77107564
              ],
              [
                14.69072415,
                57.7710939
              ],
              [
                14.69100503,
                57.77139452
              ],
              [
                14.69108137,
                57.77143485
              ],
              [
                14.69119175,
                57.77136293
              ],
              [
                14.69125654,
                57.77132431
              ],
              [
                14.69139833,
                57.77132556
              ],
              [
                14.69156337,
                57.77136621
              ],
              [
                14.69174745,
                57.77143491
              ],
              [
                14.69177129,
                57.77144383
              ],
              [
                14.69188251,
                57.77150432
              ],
              [
                14.69199886,
                57.77151901
              ],
              [
                14.69210452,
                57.77158265
              ],
              [
                14.69210986,
                57.77159939
              ],
              [
                14.6921179,
                57.77162458
              ],
              [
                14.6920144,
                57.77168476
              ],
              [
                14.69202215,
                57.77168442
              ],
              [
                14.69189813,
                57.77179386
              ],
              [
                14.69179038,
                57.7718575
              ],
              [
                14.69179048,
                57.77185765
              ]
            ]
          ]
        ]
      },
      "geometry_name": "geom",
      "properties": {
        "omradesnamn": "Västra Fagerhult",
        "omradestyp": "SCI",
        "uppgiftslamnare": "Länsstyrelsen i Jönköpings län",
        "sammanstalltdatum": "20031001",
        "uppdateratdatum": "20090401",
        "spa_datum": null,
        "sci_foreslaget_datum": "200404              ",
        "sci_datum": "200501              ",
        "sac_datum": "201103              ",
        "area_ha": 2,
        "kvalitet": "Runt den södra gården hålls marken öppen med lieslåtter och floran innehåller hävdarter som t.ex. ängsstarr, Jungfru Marie nycklar, ormrot, hirsstarr, knägräs, darrgräs och hotarten granspira. Här finns också många ovanliga och hotade vaxskivlingar.\r\n\r\n Artrik slåtteräng som hävdas genom traditionell lieslåtter och efterbete. En starkt minskande naturtyp med artrik kärlväxt- och svampflora, därför särskilt bevarandevärd.",
        "karaktar": "Byn Västra Fagerhult är belägen på krönet av en flack höjdsträckning.",
        "arter": " ",
        "naturtyper": "6230, 6270, 6410, 6510",
        "lan": "Jönköpings län",
        "kommun": "Nässjö",
        "objectid": 903894,
        "shape_area": null,
        "shape_len": null
      }
    }
  ],
  "totalFeatures": 1,
  "numberMatched": 1,
  "numberReturned": 1,
  "timeStamp": "2026-04-30T16:41:21.724Z",
  "crs": {
    "type": "name",
    "properties": {
      "name": "urn:ogc:def:crs:EPSG::4326"
    }
  }
}
