{
  "type": "FeatureCollection",
  "features": [
    {
      "type": "Feature",
      "properties": {
        "trailId": "hoglandsleden",
        "sectionId": "hoglandsleden-ho22-skillingaryd-asafors",
        "candidateGeometry": true,
        "runtimeImportApproved": false,
        "sourceUrl": "https://www.naturkartan.se/sv/jonkopings-lan/ho22-skillingaryd-asafors.gpx",
        "source": "candidate-normalized-geojson",
        "classification": "navigation-grade",
        "sourceComputedDistanceKm": 24.151149,
        "lineCount": 1,
        "pointCount": 1103,
        "componentSelectionApplied": false,
        "selectedComponentIndexes": null,
        "reverseApplied": false,
        "densifyApplied": false,
        "buildPolicyNotes": null,
        "lastUpdated": "2026-04-30",
        "id": "hoglandsleden-ho22-skillingaryd-asafors",
        "trailSystemId": "hoglandsleden",
        "name": "Skillingaryd - Åsafors",
        "part": 1
      },
      "geometry": {
        "type": "LineString",
        "coordinates": [
          [
            14.06862,
            57.42843
          ],
          [
            14.06858,
            57.42841
          ],
          [
            14.06857,
            57.42838
          ],
          [
            14.06856,
            57.42833
          ],
          [
            14.068156,
            57.428346
          ],
          [
            14.06799,
            57.42805
          ],
          [
            14.06784,
            57.42782
          ],
          [
            14.06778,
            57.42774
          ],
          [
            14.06714,
            57.42756
          ],
          [
            14.06668,
            57.42743
          ],
          [
            14.06624,
            57.4273
          ],
          [
            14.0659,
            57.42717
          ],
          [
            14.06558,
            57.42705
          ],
          [
            14.06539,
            57.42697
          ],
          [
            14.06527,
            57.4269
          ],
          [
            14.06501,
            57.42663
          ],
          [
            14.06476,
            57.42646
          ],
          [
            14.06442,
            57.42633
          ],
          [
            14.06386,
            57.42618
          ],
          [
            14.06344,
            57.42604
          ],
          [
            14.06329,
            57.42603
          ],
          [
            14.0631,
            57.42609
          ],
          [
            14.06294,
            57.42617
          ],
          [
            14.06262,
            57.42634
          ],
          [
            14.06229,
            57.42644
          ],
          [
            14.06187,
            57.4265
          ],
          [
            14.06152,
            57.42654
          ],
          [
            14.06122,
            57.42659
          ],
          [
            14.06103,
            57.42662
          ],
          [
            14.06084,
            57.42664
          ],
          [
            14.06068,
            57.42666
          ],
          [
            14.06053,
            57.4267
          ],
          [
            14.06037,
            57.42676
          ],
          [
            14.0601,
            57.42689
          ],
          [
            14.05982,
            57.4271
          ],
          [
            14.0595,
            57.42728
          ],
          [
            14.05941,
            57.42739
          ],
          [
            14.05913,
            57.42747
          ],
          [
            14.05815,
            57.4276
          ],
          [
            14.05816,
            57.42798
          ],
          [
            14.05816,
            57.42838
          ],
          [
            14.05812,
            57.42857
          ],
          [
            14.05803,
            57.42877
          ],
          [
            14.05786,
            57.42898
          ],
          [
            14.05748,
            57.42932
          ],
          [
            14.05733,
            57.42947
          ],
          [
            14.05714,
            57.42967
          ],
          [
            14.05693,
            57.42989
          ],
          [
            14.05666,
            57.43022
          ],
          [
            14.05651,
            57.43051
          ],
          [
            14.05635,
            57.4308
          ],
          [
            14.05613,
            57.431
          ],
          [
            14.05557,
            57.43132
          ],
          [
            14.05541,
            57.43144
          ],
          [
            14.05529,
            57.43155
          ],
          [
            14.05515,
            57.43193
          ],
          [
            14.0545,
            57.43209
          ],
          [
            14.05431,
            57.4321
          ],
          [
            14.05398,
            57.43205
          ],
          [
            14.05384,
            57.43207
          ],
          [
            14.0537,
            57.43214
          ],
          [
            14.05362,
            57.43228
          ],
          [
            14.05346,
            57.43264
          ],
          [
            14.05328,
            57.43273
          ],
          [
            14.05283,
            57.43287
          ],
          [
            14.05195,
            57.43305
          ],
          [
            14.05172,
            57.43308
          ],
          [
            14.05152,
            57.43306
          ],
          [
            14.05138,
            57.433
          ],
          [
            14.05131,
            57.4329
          ],
          [
            14.05121,
            57.43282
          ],
          [
            14.05102,
            57.43273
          ],
          [
            14.05073,
            57.43266
          ],
          [
            14.0504,
            57.43258
          ],
          [
            14.0503,
            57.4325
          ],
          [
            14.05025,
            57.4324
          ],
          [
            14.05011,
            57.43239
          ],
          [
            14.04988,
            57.43242
          ],
          [
            14.04955,
            57.43256
          ],
          [
            14.04934,
            57.43267
          ],
          [
            14.0489,
            57.4328
          ],
          [
            14.04866,
            57.43285
          ],
          [
            14.04849,
            57.43286
          ],
          [
            14.04837,
            57.43282
          ],
          [
            14.04794,
            57.43256
          ],
          [
            14.04767,
            57.43239
          ],
          [
            14.04734,
            57.43221
          ],
          [
            14.04708,
            57.43213
          ],
          [
            14.04685,
            57.43205
          ],
          [
            14.04673,
            57.43195
          ],
          [
            14.04664,
            57.43184
          ],
          [
            14.04649,
            57.43159
          ],
          [
            14.04634,
            57.43135
          ],
          [
            14.0462,
            57.43118
          ],
          [
            14.046,
            57.43099
          ],
          [
            14.04579,
            57.43084
          ],
          [
            14.04557,
            57.43071
          ],
          [
            14.04547,
            57.43056
          ],
          [
            14.04542,
            57.43049
          ],
          [
            14.04533,
            57.43041
          ],
          [
            14.04521,
            57.43034
          ],
          [
            14.04495,
            57.43025
          ],
          [
            14.04443,
            57.43009
          ],
          [
            14.04388,
            57.42991
          ],
          [
            14.04339,
            57.42975
          ],
          [
            14.04307,
            57.42963
          ],
          [
            14.0428,
            57.42956
          ],
          [
            14.04228,
            57.42951
          ],
          [
            14.04201,
            57.42944
          ],
          [
            14.04168,
            57.42948
          ],
          [
            14.04148,
            57.42948
          ],
          [
            14.04123,
            57.42946
          ],
          [
            14.04091,
            57.42939
          ],
          [
            14.04058,
            57.42928
          ],
          [
            14.04025,
            57.42913
          ],
          [
            14.03987,
            57.42898
          ],
          [
            14.03936,
            57.4288
          ],
          [
            14.03891,
            57.42865
          ],
          [
            14.0386,
            57.42854
          ],
          [
            14.03846,
            57.42843
          ],
          [
            14.03841,
            57.42831
          ],
          [
            14.03837,
            57.42814
          ],
          [
            14.03825,
            57.42781
          ],
          [
            14.0382,
            57.42773
          ],
          [
            14.03784,
            57.42761
          ],
          [
            14.03711,
            57.42739
          ],
          [
            14.03688,
            57.42725
          ],
          [
            14.03677,
            57.42718
          ],
          [
            14.03596,
            57.42701
          ],
          [
            14.03573,
            57.4269
          ],
          [
            14.03569,
            57.4268
          ],
          [
            14.03577,
            57.42671
          ],
          [
            14.03579,
            57.42659
          ],
          [
            14.0357,
            57.42636
          ],
          [
            14.03557,
            57.42606
          ],
          [
            14.03544,
            57.42591
          ],
          [
            14.0352,
            57.42577
          ],
          [
            14.03509,
            57.42566
          ],
          [
            14.03508,
            57.42552
          ],
          [
            14.03508,
            57.42534
          ],
          [
            14.03504,
            57.42522
          ],
          [
            14.03494,
            57.42508
          ],
          [
            14.03478,
            57.42489
          ],
          [
            14.03476,
            57.42479
          ],
          [
            14.03481,
            57.42459
          ],
          [
            14.03484,
            57.42434
          ],
          [
            14.03483,
            57.42412
          ],
          [
            14.03486,
            57.42379
          ],
          [
            14.03488,
            57.4236
          ],
          [
            14.03483,
            57.42341
          ],
          [
            14.03474,
            57.42319
          ],
          [
            14.03466,
            57.42304
          ],
          [
            14.03462,
            57.42282
          ],
          [
            14.03446,
            57.42237
          ],
          [
            14.03432,
            57.42216
          ],
          [
            14.03432,
            57.42205
          ],
          [
            14.03355,
            57.4222
          ],
          [
            14.03329,
            57.42231
          ],
          [
            14.0331,
            57.42235
          ],
          [
            14.03286,
            57.42237
          ],
          [
            14.03258,
            57.42233
          ],
          [
            14.03232,
            57.42231
          ],
          [
            14.03199,
            57.42228
          ],
          [
            14.03181,
            57.4223
          ],
          [
            14.03165,
            57.42231
          ],
          [
            14.03127,
            57.42225
          ],
          [
            14.03106,
            57.4222
          ],
          [
            14.0309,
            57.42215
          ],
          [
            14.03068,
            57.42213
          ],
          [
            14.03052,
            57.42206
          ],
          [
            14.03038,
            57.42197
          ],
          [
            14.03012,
            57.42179
          ],
          [
            14.02992,
            57.42165
          ],
          [
            14.02962,
            57.42154
          ],
          [
            14.02924,
            57.42139
          ],
          [
            14.02897,
            57.42129
          ],
          [
            14.02881,
            57.42118
          ],
          [
            14.02864,
            57.42109
          ],
          [
            14.02828,
            57.42097
          ],
          [
            14.02812,
            57.42091
          ],
          [
            14.02786,
            57.42084
          ],
          [
            14.0277,
            57.42076
          ],
          [
            14.02763,
            57.42069
          ],
          [
            14.0276,
            57.42063
          ],
          [
            14.02754,
            57.42041
          ],
          [
            14.02749,
            57.42017
          ],
          [
            14.0274,
            57.4199
          ],
          [
            14.0271,
            57.41947
          ],
          [
            14.02696,
            57.41935
          ],
          [
            14.0268,
            57.41928
          ],
          [
            14.02653,
            57.41921
          ],
          [
            14.02638,
            57.41913
          ],
          [
            14.02635,
            57.41907
          ],
          [
            14.02636,
            57.41894
          ],
          [
            14.02644,
            57.41873
          ],
          [
            14.02649,
            57.41855
          ],
          [
            14.0265,
            57.41829
          ],
          [
            14.02651,
            57.41812
          ],
          [
            14.02645,
            57.41805
          ],
          [
            14.02629,
            57.41801
          ],
          [
            14.02614,
            57.41803
          ],
          [
            14.02594,
            57.41808
          ],
          [
            14.02575,
            57.41815
          ],
          [
            14.02573,
            57.41824
          ],
          [
            14.02581,
            57.41839
          ],
          [
            14.02582,
            57.41867
          ],
          [
            14.02569,
            57.41898
          ],
          [
            14.02565,
            57.41931
          ],
          [
            14.02562,
            57.41951
          ],
          [
            14.02557,
            57.41978
          ],
          [
            14.02553,
            57.41987
          ],
          [
            14.02475,
            57.41987
          ],
          [
            14.02429,
            57.41985
          ],
          [
            14.02421,
            57.41987
          ],
          [
            14.02374,
            57.42009
          ],
          [
            14.02355,
            57.42018
          ],
          [
            14.02333,
            57.4203
          ],
          [
            14.02321,
            57.42018
          ],
          [
            14.02276,
            57.42006
          ],
          [
            14.02244,
            57.41998
          ],
          [
            14.02224,
            57.41992
          ],
          [
            14.02211,
            57.42006
          ],
          [
            14.02199,
            57.42022
          ],
          [
            14.02192,
            57.42043
          ],
          [
            14.02181,
            57.42052
          ],
          [
            14.0217,
            57.42061
          ],
          [
            14.02155,
            57.4207
          ],
          [
            14.02133,
            57.42073
          ],
          [
            14.02114,
            57.42073
          ],
          [
            14.02103,
            57.42073
          ],
          [
            14.02093,
            57.42076
          ],
          [
            14.02078,
            57.42083
          ],
          [
            14.02044,
            57.42101
          ],
          [
            14.02024,
            57.42115
          ],
          [
            14.02009,
            57.42123
          ],
          [
            14.01986,
            57.42129
          ],
          [
            14.01964,
            57.42125
          ],
          [
            14.01946,
            57.42115
          ],
          [
            14.01929,
            57.42098
          ],
          [
            14.01913,
            57.42094
          ],
          [
            14.01871,
            57.42088
          ],
          [
            14.01852,
            57.42088
          ],
          [
            14.01836,
            57.4209
          ],
          [
            14.01796,
            57.42091
          ],
          [
            14.01775,
            57.4209
          ],
          [
            14.01755,
            57.4209
          ],
          [
            14.01728,
            57.42091
          ],
          [
            14.01705,
            57.42095
          ],
          [
            14.01649,
            57.42109
          ],
          [
            14.01607,
            57.42117
          ],
          [
            14.01587,
            57.42121
          ],
          [
            14.01572,
            57.42128
          ],
          [
            14.01556,
            57.42144
          ],
          [
            14.01546,
            57.42147
          ],
          [
            14.01437,
            57.42155
          ],
          [
            14.01418,
            57.42158
          ],
          [
            14.01383,
            57.42178
          ],
          [
            14.01365,
            57.42192
          ],
          [
            14.01354,
            57.42195
          ],
          [
            14.01331,
            57.42196
          ],
          [
            14.01316,
            57.42196
          ],
          [
            14.01302,
            57.422
          ],
          [
            14.01225,
            57.42231
          ],
          [
            14.01207,
            57.42234
          ],
          [
            14.01188,
            57.42229
          ],
          [
            14.01155,
            57.42211
          ],
          [
            14.01133,
            57.42207
          ],
          [
            14.01102,
            57.42202
          ],
          [
            14.0108,
            57.42203
          ],
          [
            14.01059,
            57.42209
          ],
          [
            14.01038,
            57.42216
          ],
          [
            14.00994,
            57.42242
          ],
          [
            14.00963,
            57.42263
          ],
          [
            14.00944,
            57.42276
          ],
          [
            14.00919,
            57.42283
          ],
          [
            14.00899,
            57.42291
          ],
          [
            14.00891,
            57.42298
          ],
          [
            14.00867,
            57.42316
          ],
          [
            14.00831,
            57.42322
          ],
          [
            14.0081,
            57.42328
          ],
          [
            14.00778,
            57.42343
          ],
          [
            14.00763,
            57.42353
          ],
          [
            14.00751,
            57.42359
          ],
          [
            14.00726,
            57.42365
          ],
          [
            14.00682,
            57.42374
          ],
          [
            14.00655,
            57.42383
          ],
          [
            14.00624,
            57.42393
          ],
          [
            14.00613,
            57.42401
          ],
          [
            14.0061,
            57.4241
          ],
          [
            14.00606,
            57.4242
          ],
          [
            14.00597,
            57.42444
          ],
          [
            14.00589,
            57.42463
          ],
          [
            14.00582,
            57.42479
          ],
          [
            14.00569,
            57.42476
          ],
          [
            14.00549,
            57.42471
          ],
          [
            14.00511,
            57.42466
          ],
          [
            14.00491,
            57.42468
          ],
          [
            14.00471,
            57.4248
          ],
          [
            14.00446,
            57.42494
          ],
          [
            14.00435,
            57.42506
          ],
          [
            14.00417,
            57.4254
          ],
          [
            14.00376,
            57.4256
          ],
          [
            14.00343,
            57.42576
          ],
          [
            14.00315,
            57.42592
          ],
          [
            14.00295,
            57.42598
          ],
          [
            14.00269,
            57.42603
          ],
          [
            14.00237,
            57.42612
          ],
          [
            14.00204,
            57.42629
          ],
          [
            14.00184,
            57.42656
          ],
          [
            14.00161,
            57.42696
          ],
          [
            14.00119,
            57.42737
          ],
          [
            14.00101,
            57.42755
          ],
          [
            14.00098,
            57.42768
          ],
          [
            14.00104,
            57.42803
          ],
          [
            14.00099,
            57.42842
          ],
          [
            14.00089,
            57.42854
          ],
          [
            14.00061,
            57.42869
          ],
          [
            14.00043,
            57.42886
          ],
          [
            14.00023,
            57.42892
          ],
          [
            14.00007,
            57.42883
          ],
          [
            13.99989,
            57.42877
          ],
          [
            13.99969,
            57.42871
          ],
          [
            13.99935,
            57.42858
          ],
          [
            13.99916,
            57.42853
          ],
          [
            13.99895,
            57.42853
          ],
          [
            13.99881,
            57.42858
          ],
          [
            13.99862,
            57.42885
          ],
          [
            13.99853,
            57.42893
          ],
          [
            13.9984,
            57.42902
          ],
          [
            13.99824,
            57.42911
          ],
          [
            13.99789,
            57.42923
          ],
          [
            13.9975,
            57.42937
          ],
          [
            13.99728,
            57.42944
          ],
          [
            13.99709,
            57.42945
          ],
          [
            13.99693,
            57.42944
          ],
          [
            13.99666,
            57.42938
          ],
          [
            13.99631,
            57.4293
          ],
          [
            13.99615,
            57.42927
          ],
          [
            13.99592,
            57.42925
          ],
          [
            13.99568,
            57.42926
          ],
          [
            13.99535,
            57.4293
          ],
          [
            13.99528,
            57.42938
          ],
          [
            13.9951,
            57.4296
          ],
          [
            13.99498,
            57.42975
          ],
          [
            13.99492,
            57.42988
          ],
          [
            13.9949,
            57.42999
          ],
          [
            13.99492,
            57.43013
          ],
          [
            13.99496,
            57.43024
          ],
          [
            13.99512,
            57.43062
          ],
          [
            13.9952,
            57.43087
          ],
          [
            13.99429,
            57.43095
          ],
          [
            13.99397,
            57.43097
          ],
          [
            13.99372,
            57.43097
          ],
          [
            13.99344,
            57.43093
          ],
          [
            13.99328,
            57.43085
          ],
          [
            13.9931,
            57.43077
          ],
          [
            13.99284,
            57.43077
          ],
          [
            13.99267,
            57.43074
          ],
          [
            13.99249,
            57.43072
          ],
          [
            13.99218,
            57.43065
          ],
          [
            13.99195,
            57.43061
          ],
          [
            13.99152,
            57.43057
          ],
          [
            13.99121,
            57.43052
          ],
          [
            13.99081,
            57.43043
          ],
          [
            13.99048,
            57.43032
          ],
          [
            13.99019,
            57.43029
          ],
          [
            13.98985,
            57.4303
          ],
          [
            13.98983,
            57.43015
          ],
          [
            13.9898,
            57.43001
          ],
          [
            13.98973,
            57.42988
          ],
          [
            13.98966,
            57.42979
          ],
          [
            13.98957,
            57.42971
          ],
          [
            13.98947,
            57.42964
          ],
          [
            13.9892,
            57.4295
          ],
          [
            13.9891,
            57.42941
          ],
          [
            13.98889,
            57.42919
          ],
          [
            13.98878,
            57.42906
          ],
          [
            13.98871,
            57.42897
          ],
          [
            13.98856,
            57.42879
          ],
          [
            13.98844,
            57.42863
          ],
          [
            13.98833,
            57.42849
          ],
          [
            13.98824,
            57.42836
          ],
          [
            13.98818,
            57.42824
          ],
          [
            13.98811,
            57.42813
          ],
          [
            13.98797,
            57.428
          ],
          [
            13.98783,
            57.42789
          ],
          [
            13.98767,
            57.42782
          ],
          [
            13.98749,
            57.42773
          ],
          [
            13.98722,
            57.42763
          ],
          [
            13.98668,
            57.42746
          ],
          [
            13.9864,
            57.42736
          ],
          [
            13.98606,
            57.42725
          ],
          [
            13.98591,
            57.42723
          ],
          [
            13.98568,
            57.42722
          ],
          [
            13.98549,
            57.4272
          ],
          [
            13.98536,
            57.42719
          ],
          [
            13.98524,
            57.42715
          ],
          [
            13.98511,
            57.42708
          ],
          [
            13.98496,
            57.427
          ],
          [
            13.98475,
            57.42693
          ],
          [
            13.98436,
            57.42685
          ],
          [
            13.98407,
            57.42678
          ],
          [
            13.98338,
            57.42655
          ],
          [
            13.98302,
            57.42648
          ],
          [
            13.98265,
            57.42645
          ],
          [
            13.9824,
            57.42646
          ],
          [
            13.98217,
            57.42652
          ],
          [
            13.98194,
            57.42658
          ],
          [
            13.98176,
            57.42661
          ],
          [
            13.98155,
            57.42662
          ],
          [
            13.9813,
            57.42661
          ],
          [
            13.98113,
            57.42658
          ],
          [
            13.98096,
            57.42653
          ],
          [
            13.98086,
            57.42648
          ],
          [
            13.98075,
            57.42639
          ],
          [
            13.98057,
            57.4262
          ],
          [
            13.98043,
            57.42605
          ],
          [
            13.98031,
            57.42594
          ],
          [
            13.98029,
            57.42586
          ],
          [
            13.98035,
            57.42567
          ],
          [
            13.98045,
            57.4254
          ],
          [
            13.98053,
            57.42525
          ],
          [
            13.9806,
            57.42512
          ],
          [
            13.98061,
            57.42499
          ],
          [
            13.98083,
            57.42463
          ],
          [
            13.98109,
            57.4243
          ],
          [
            13.98116,
            57.42417
          ],
          [
            13.98129,
            57.42391
          ],
          [
            13.98137,
            57.42359
          ],
          [
            13.98156,
            57.42352
          ],
          [
            13.98255,
            57.42346
          ],
          [
            13.98282,
            57.42337
          ],
          [
            13.98309,
            57.42336
          ],
          [
            13.98373,
            57.42343
          ],
          [
            13.98388,
            57.42342
          ],
          [
            13.98397,
            57.42338
          ],
          [
            13.98418,
            57.42327
          ],
          [
            13.98446,
            57.42313
          ],
          [
            13.98464,
            57.423
          ],
          [
            13.9848,
            57.42288
          ],
          [
            13.98501,
            57.42272
          ],
          [
            13.98519,
            57.42253
          ],
          [
            13.98523,
            57.42243
          ],
          [
            13.98524,
            57.42236
          ],
          [
            13.9852,
            57.42224
          ],
          [
            13.98517,
            57.42209
          ],
          [
            13.98513,
            57.42189
          ],
          [
            13.98512,
            57.4217
          ],
          [
            13.98515,
            57.42134
          ],
          [
            13.98518,
            57.42118
          ],
          [
            13.98518,
            57.42104
          ],
          [
            13.98513,
            57.42084
          ],
          [
            13.98507,
            57.42063
          ],
          [
            13.98502,
            57.4204
          ],
          [
            13.98496,
            57.42016
          ],
          [
            13.98496,
            57.42014
          ],
          [
            13.98498,
            57.41977
          ],
          [
            13.985,
            57.41963
          ],
          [
            13.98501,
            57.41939
          ],
          [
            13.98506,
            57.41927
          ],
          [
            13.98509,
            57.41922
          ],
          [
            13.98498,
            57.41904
          ],
          [
            13.98492,
            57.41895
          ],
          [
            13.98482,
            57.41888
          ],
          [
            13.98453,
            57.41883
          ],
          [
            13.98447,
            57.4188
          ],
          [
            13.98441,
            57.41876
          ],
          [
            13.98439,
            57.41876
          ],
          [
            13.98435,
            57.41878
          ],
          [
            13.98381,
            57.4188
          ],
          [
            13.98278,
            57.41887
          ],
          [
            13.98184,
            57.41894
          ],
          [
            13.98093,
            57.419
          ],
          [
            13.98038,
            57.41902
          ],
          [
            13.98,
            57.41901
          ],
          [
            13.97985,
            57.41898
          ],
          [
            13.97971,
            57.41887
          ],
          [
            13.97956,
            57.41876
          ],
          [
            13.97943,
            57.41867
          ],
          [
            13.97927,
            57.41853
          ],
          [
            13.97922,
            57.41846
          ],
          [
            13.97914,
            57.41835
          ],
          [
            13.97907,
            57.41826
          ],
          [
            13.97896,
            57.4181
          ],
          [
            13.97883,
            57.41792
          ],
          [
            13.97879,
            57.41785
          ],
          [
            13.97878,
            57.41781
          ],
          [
            13.97878,
            57.41771
          ],
          [
            13.97877,
            57.41763
          ],
          [
            13.97868,
            57.41752
          ],
          [
            13.97857,
            57.41739
          ],
          [
            13.97841,
            57.41722
          ],
          [
            13.9783,
            57.4171
          ],
          [
            13.97823,
            57.41703
          ],
          [
            13.97818,
            57.41696
          ],
          [
            13.97813,
            57.41686
          ],
          [
            13.97813,
            57.41676
          ],
          [
            13.97817,
            57.41656
          ],
          [
            13.9782,
            57.41642
          ],
          [
            13.97821,
            57.41632
          ],
          [
            13.97814,
            57.41618
          ],
          [
            13.9781,
            57.41604
          ],
          [
            13.97809,
            57.41593
          ],
          [
            13.97809,
            57.41586
          ],
          [
            13.97806,
            57.41581
          ],
          [
            13.97801,
            57.41576
          ],
          [
            13.97798,
            57.41571
          ],
          [
            13.97796,
            57.41566
          ],
          [
            13.97798,
            57.41543
          ],
          [
            13.97801,
            57.41529
          ],
          [
            13.97804,
            57.41522
          ],
          [
            13.97803,
            57.41514
          ],
          [
            13.97798,
            57.41501
          ],
          [
            13.97797,
            57.41495
          ],
          [
            13.97797,
            57.41488
          ],
          [
            13.97798,
            57.41482
          ],
          [
            13.97797,
            57.41471
          ],
          [
            13.97797,
            57.41463
          ],
          [
            13.97798,
            57.41456
          ],
          [
            13.97799,
            57.4145
          ],
          [
            13.97801,
            57.41445
          ],
          [
            13.97807,
            57.41434
          ],
          [
            13.97815,
            57.41426
          ],
          [
            13.97794,
            57.41433
          ],
          [
            13.97764,
            57.41446
          ],
          [
            13.97736,
            57.41457
          ],
          [
            13.97704,
            57.41468
          ],
          [
            13.97653,
            57.4148
          ],
          [
            13.97621,
            57.41486
          ],
          [
            13.97556,
            57.41497
          ],
          [
            13.97526,
            57.41504
          ],
          [
            13.97511,
            57.41511
          ],
          [
            13.97502,
            57.41523
          ],
          [
            13.97494,
            57.41539
          ],
          [
            13.97481,
            57.41566
          ],
          [
            13.9746,
            57.41588
          ],
          [
            13.97449,
            57.41601
          ],
          [
            13.97432,
            57.41622
          ],
          [
            13.9741,
            57.41638
          ],
          [
            13.97378,
            57.41656
          ],
          [
            13.97347,
            57.41662
          ],
          [
            13.97318,
            57.4166
          ],
          [
            13.97282,
            57.4166
          ],
          [
            13.97253,
            57.41663
          ],
          [
            13.97232,
            57.41669
          ],
          [
            13.97216,
            57.41683
          ],
          [
            13.97189,
            57.4169
          ],
          [
            13.97155,
            57.41694
          ],
          [
            13.97124,
            57.41696
          ],
          [
            13.97102,
            57.41701
          ],
          [
            13.97076,
            57.41713
          ],
          [
            13.9706,
            57.41738
          ],
          [
            13.9704,
            57.41763
          ],
          [
            13.97019,
            57.41777
          ],
          [
            13.97004,
            57.41793
          ],
          [
            13.96987,
            57.41807
          ],
          [
            13.96962,
            57.41823
          ],
          [
            13.96941,
            57.41837
          ],
          [
            13.96915,
            57.41863
          ],
          [
            13.96897,
            57.41875
          ],
          [
            13.96825,
            57.41892
          ],
          [
            13.96799,
            57.41908
          ],
          [
            13.96773,
            57.41924
          ],
          [
            13.96733,
            57.41949
          ],
          [
            13.96692,
            57.41978
          ],
          [
            13.96665,
            57.41988
          ],
          [
            13.96643,
            57.41993
          ],
          [
            13.96622,
            57.41992
          ],
          [
            13.96606,
            57.41988
          ],
          [
            13.96554,
            57.41972
          ],
          [
            13.96533,
            57.41969
          ],
          [
            13.96508,
            57.41967
          ],
          [
            13.96479,
            57.41965
          ],
          [
            13.9642,
            57.41963
          ],
          [
            13.96389,
            57.41961
          ],
          [
            13.96355,
            57.41954
          ],
          [
            13.96316,
            57.41944
          ],
          [
            13.96293,
            57.4194
          ],
          [
            13.96272,
            57.41938
          ],
          [
            13.96228,
            57.41937
          ],
          [
            13.96199,
            57.41942
          ],
          [
            13.96151,
            57.4196
          ],
          [
            13.9613,
            57.41968
          ],
          [
            13.9609,
            57.41981
          ],
          [
            13.96093,
            57.41962
          ],
          [
            13.96095,
            57.41946
          ],
          [
            13.96092,
            57.41934
          ],
          [
            13.96083,
            57.41919
          ],
          [
            13.96077,
            57.41908
          ],
          [
            13.96069,
            57.41885
          ],
          [
            13.96075,
            57.41879
          ],
          [
            13.96079,
            57.41873
          ],
          [
            13.96072,
            57.4187
          ],
          [
            13.96046,
            57.41864
          ],
          [
            13.96006,
            57.41852
          ],
          [
            13.95985,
            57.41844
          ],
          [
            13.95969,
            57.41825
          ],
          [
            13.95958,
            57.41817
          ],
          [
            13.95937,
            57.41806
          ],
          [
            13.95918,
            57.41795
          ],
          [
            13.95908,
            57.41784
          ],
          [
            13.95893,
            57.41768
          ],
          [
            13.9588,
            57.41759
          ],
          [
            13.9586,
            57.41756
          ],
          [
            13.95832,
            57.41754
          ],
          [
            13.95782,
            57.41757
          ],
          [
            13.95746,
            57.4176
          ],
          [
            13.95711,
            57.41759
          ],
          [
            13.9568,
            57.41756
          ],
          [
            13.95669,
            57.41742
          ],
          [
            13.95655,
            57.41719
          ],
          [
            13.95645,
            57.4169
          ],
          [
            13.95637,
            57.41681
          ],
          [
            13.95623,
            57.41673
          ],
          [
            13.95578,
            57.41657
          ],
          [
            13.95551,
            57.41651
          ],
          [
            13.95538,
            57.41627
          ],
          [
            13.95538,
            57.41614
          ],
          [
            13.95544,
            57.41589
          ],
          [
            13.95549,
            57.41552
          ],
          [
            13.95543,
            57.41538
          ],
          [
            13.95535,
            57.41524
          ],
          [
            13.95534,
            57.41514
          ],
          [
            13.95537,
            57.41489
          ],
          [
            13.95539,
            57.41475
          ],
          [
            13.95539,
            57.41458
          ],
          [
            13.95536,
            57.41451
          ],
          [
            13.9537,
            57.41495
          ],
          [
            13.95313,
            57.41514
          ],
          [
            13.95292,
            57.41516
          ],
          [
            13.95281,
            57.41514
          ],
          [
            13.95264,
            57.41506
          ],
          [
            13.95266,
            57.41497
          ],
          [
            13.95262,
            57.41484
          ],
          [
            13.95248,
            57.41472
          ],
          [
            13.95219,
            57.41451
          ],
          [
            13.95205,
            57.41441
          ],
          [
            13.95203,
            57.41429
          ],
          [
            13.95212,
            57.41417
          ],
          [
            13.95269,
            57.41359
          ],
          [
            13.95322,
            57.41319
          ],
          [
            13.95323,
            57.41303
          ],
          [
            13.95255,
            57.41296
          ],
          [
            13.95221,
            57.41296
          ],
          [
            13.95159,
            57.41301
          ],
          [
            13.95099,
            57.41309
          ],
          [
            13.95004,
            57.41316
          ],
          [
            13.94963,
            57.41324
          ],
          [
            13.949,
            57.41297
          ],
          [
            13.94876,
            57.41291
          ],
          [
            13.94858,
            57.41286
          ],
          [
            13.94847,
            57.4128
          ],
          [
            13.94831,
            57.41267
          ],
          [
            13.94793,
            57.41235
          ],
          [
            13.94764,
            57.41212
          ],
          [
            13.94725,
            57.41179
          ],
          [
            13.94695,
            57.41153
          ],
          [
            13.94675,
            57.41134
          ],
          [
            13.94651,
            57.41106
          ],
          [
            13.94639,
            57.41093
          ],
          [
            13.94633,
            57.41081
          ],
          [
            13.94627,
            57.41067
          ],
          [
            13.94627,
            57.41046
          ],
          [
            13.94613,
            57.41015
          ],
          [
            13.94604,
            57.40999
          ],
          [
            13.94584,
            57.4097
          ],
          [
            13.94565,
            57.40941
          ],
          [
            13.94559,
            57.40926
          ],
          [
            13.94552,
            57.40907
          ],
          [
            13.94539,
            57.40893
          ],
          [
            13.94524,
            57.40885
          ],
          [
            13.945,
            57.40876
          ],
          [
            13.94477,
            57.40866
          ],
          [
            13.94463,
            57.40849
          ],
          [
            13.94451,
            57.4081
          ],
          [
            13.94453,
            57.40763
          ],
          [
            13.94444,
            57.40741
          ],
          [
            13.94428,
            57.40714
          ],
          [
            13.94411,
            57.4068
          ],
          [
            13.94407,
            57.40669
          ],
          [
            13.94408,
            57.40657
          ],
          [
            13.94411,
            57.4064
          ],
          [
            13.94418,
            57.40619
          ],
          [
            13.94421,
            57.406
          ],
          [
            13.94422,
            57.40574
          ],
          [
            13.94423,
            57.40565
          ],
          [
            13.94431,
            57.40553
          ],
          [
            13.94433,
            57.40545
          ],
          [
            13.94433,
            57.40538
          ],
          [
            13.94429,
            57.40524
          ],
          [
            13.94413,
            57.40515
          ],
          [
            13.94391,
            57.40504
          ],
          [
            13.94373,
            57.40496
          ],
          [
            13.94362,
            57.4049
          ],
          [
            13.94348,
            57.40479
          ],
          [
            13.94332,
            57.40471
          ],
          [
            13.94302,
            57.40461
          ],
          [
            13.94287,
            57.40453
          ],
          [
            13.94273,
            57.40446
          ],
          [
            13.94262,
            57.4044
          ],
          [
            13.94229,
            57.40425
          ],
          [
            13.94188,
            57.40405
          ],
          [
            13.94176,
            57.40406
          ],
          [
            13.94154,
            57.40411
          ],
          [
            13.94116,
            57.40415
          ],
          [
            13.94063,
            57.40418
          ],
          [
            13.94043,
            57.40416
          ],
          [
            13.94031,
            57.40411
          ],
          [
            13.94023,
            57.40406
          ],
          [
            13.94005,
            57.40393
          ],
          [
            13.9399,
            57.40389
          ],
          [
            13.93978,
            57.40389
          ],
          [
            13.9395,
            57.40399
          ],
          [
            13.93926,
            57.4041
          ],
          [
            13.93903,
            57.40418
          ],
          [
            13.93827,
            57.40434
          ],
          [
            13.938,
            57.40442
          ],
          [
            13.93759,
            57.40459
          ],
          [
            13.93734,
            57.40468
          ],
          [
            13.93716,
            57.40478
          ],
          [
            13.93678,
            57.40495
          ],
          [
            13.93629,
            57.40509
          ],
          [
            13.93574,
            57.40531
          ],
          [
            13.93524,
            57.40543
          ],
          [
            13.93504,
            57.4055
          ],
          [
            13.93477,
            57.40562
          ],
          [
            13.93451,
            57.40574
          ],
          [
            13.93428,
            57.40586
          ],
          [
            13.934,
            57.40604
          ],
          [
            13.9338,
            57.40622
          ],
          [
            13.93374,
            57.40632
          ],
          [
            13.93367,
            57.40644
          ],
          [
            13.93355,
            57.40657
          ],
          [
            13.93342,
            57.4067
          ],
          [
            13.93335,
            57.40678
          ],
          [
            13.93325,
            57.40689
          ],
          [
            13.93317,
            57.40695
          ],
          [
            13.93294,
            57.40707
          ],
          [
            13.93253,
            57.40729
          ],
          [
            13.93222,
            57.40735
          ],
          [
            13.932,
            57.4074
          ],
          [
            13.93167,
            57.40754
          ],
          [
            13.93136,
            57.40764
          ],
          [
            13.931,
            57.40777
          ],
          [
            13.93078,
            57.40787
          ],
          [
            13.93055,
            57.40797
          ],
          [
            13.93046,
            57.40803
          ],
          [
            13.93022,
            57.4083
          ],
          [
            13.93006,
            57.40845
          ],
          [
            13.92996,
            57.40858
          ],
          [
            13.92985,
            57.40885
          ],
          [
            13.92979,
            57.409
          ],
          [
            13.92972,
            57.40915
          ],
          [
            13.92954,
            57.40934
          ],
          [
            13.92938,
            57.40946
          ],
          [
            13.92917,
            57.40957
          ],
          [
            13.92887,
            57.40973
          ],
          [
            13.92833,
            57.40994
          ],
          [
            13.92806,
            57.41008
          ],
          [
            13.92791,
            57.41021
          ],
          [
            13.92784,
            57.4104
          ],
          [
            13.9278,
            57.41064
          ],
          [
            13.92772,
            57.41078
          ],
          [
            13.92761,
            57.41086
          ],
          [
            13.92746,
            57.41093
          ],
          [
            13.92722,
            57.411
          ],
          [
            13.92687,
            57.4111
          ],
          [
            13.92658,
            57.4112
          ],
          [
            13.92617,
            57.4114
          ],
          [
            13.92587,
            57.41156
          ],
          [
            13.92569,
            57.41166
          ],
          [
            13.92538,
            57.41191
          ],
          [
            13.92502,
            57.41215
          ],
          [
            13.92435,
            57.41254
          ],
          [
            13.92421,
            57.41265
          ],
          [
            13.92394,
            57.41293
          ],
          [
            13.92376,
            57.41304
          ],
          [
            13.92357,
            57.41311
          ],
          [
            13.92328,
            57.41318
          ],
          [
            13.92188,
            57.41346
          ],
          [
            13.92137,
            57.41353
          ],
          [
            13.92106,
            57.41361
          ],
          [
            13.92047,
            57.4138
          ],
          [
            13.9203,
            57.41388
          ],
          [
            13.9202,
            57.41397
          ],
          [
            13.92013,
            57.41424
          ],
          [
            13.92006,
            57.41434
          ],
          [
            13.91948,
            57.41477
          ],
          [
            13.91923,
            57.41494
          ],
          [
            13.91906,
            57.41504
          ],
          [
            13.91879,
            57.41513
          ],
          [
            13.91841,
            57.41531
          ],
          [
            13.91816,
            57.41538
          ],
          [
            13.91793,
            57.41539
          ],
          [
            13.91772,
            57.41535
          ],
          [
            13.91749,
            57.41529
          ],
          [
            13.91735,
            57.41547
          ],
          [
            13.91727,
            57.41563
          ],
          [
            13.91732,
            57.41577
          ],
          [
            13.91747,
            57.41595
          ],
          [
            13.91782,
            57.41627
          ],
          [
            13.91801,
            57.4165
          ],
          [
            13.91805,
            57.41663
          ],
          [
            13.91803,
            57.41683
          ],
          [
            13.91795,
            57.41699
          ],
          [
            13.91787,
            57.4171
          ],
          [
            13.91766,
            57.41726
          ],
          [
            13.91752,
            57.4174
          ],
          [
            13.91739,
            57.41761
          ],
          [
            13.91721,
            57.41789
          ],
          [
            13.91709,
            57.41842
          ],
          [
            13.91701,
            57.4186
          ],
          [
            13.91688,
            57.41868
          ],
          [
            13.91669,
            57.41875
          ],
          [
            13.91647,
            57.41881
          ],
          [
            13.91641,
            57.41891
          ],
          [
            13.91631,
            57.41905
          ],
          [
            13.91618,
            57.41919
          ],
          [
            13.91603,
            57.4193
          ],
          [
            13.91579,
            57.4194
          ],
          [
            13.91561,
            57.41945
          ],
          [
            13.91551,
            57.41968
          ],
          [
            13.91539,
            57.42011
          ],
          [
            13.91533,
            57.42037
          ],
          [
            13.91534,
            57.42059
          ],
          [
            13.91519,
            57.42068
          ],
          [
            13.91407,
            57.42115
          ],
          [
            13.91389,
            57.42122
          ],
          [
            13.91311,
            57.42144
          ],
          [
            13.91295,
            57.42154
          ],
          [
            13.91285,
            57.42166
          ],
          [
            13.91262,
            57.42225
          ],
          [
            13.91242,
            57.4225
          ],
          [
            13.91222,
            57.4228
          ],
          [
            13.91203,
            57.42295
          ],
          [
            13.9118,
            57.42308
          ],
          [
            13.91151,
            57.42317
          ],
          [
            13.91068,
            57.42339
          ],
          [
            13.91046,
            57.42348
          ],
          [
            13.91003,
            57.42377
          ],
          [
            13.90957,
            57.42404
          ],
          [
            13.90935,
            57.42422
          ],
          [
            13.90905,
            57.42464
          ],
          [
            13.909,
            57.42479
          ],
          [
            13.90903,
            57.42495
          ],
          [
            13.90913,
            57.4251
          ],
          [
            13.90924,
            57.42526
          ],
          [
            13.90927,
            57.42539
          ],
          [
            13.90925,
            57.42547
          ],
          [
            13.90909,
            57.42562
          ],
          [
            13.90874,
            57.42593
          ],
          [
            13.90875,
            57.42602
          ],
          [
            13.90916,
            57.42628
          ],
          [
            13.90924,
            57.4264
          ],
          [
            13.90937,
            57.42664
          ],
          [
            13.9094,
            57.42675
          ],
          [
            13.90934,
            57.42709
          ],
          [
            13.90936,
            57.42721
          ],
          [
            13.90946,
            57.4273
          ],
          [
            13.90978,
            57.42747
          ],
          [
            13.90989,
            57.42757
          ],
          [
            13.90991,
            57.4277
          ],
          [
            13.90992,
            57.42807
          ],
          [
            13.90992,
            57.42829
          ],
          [
            13.90988,
            57.42848
          ],
          [
            13.90983,
            57.4286
          ],
          [
            13.90983,
            57.42874
          ],
          [
            13.90989,
            57.42889
          ],
          [
            13.9099,
            57.42903
          ],
          [
            13.90984,
            57.42913
          ],
          [
            13.9097,
            57.42927
          ],
          [
            13.9096,
            57.42936
          ],
          [
            13.90954,
            57.42948
          ],
          [
            13.90948,
            57.42993
          ],
          [
            13.90938,
            57.43008
          ],
          [
            13.90925,
            57.43017
          ],
          [
            13.90897,
            57.43026
          ],
          [
            13.90862,
            57.43038
          ],
          [
            13.90829,
            57.43053
          ],
          [
            13.90862,
            57.43066
          ],
          [
            13.90884,
            57.43069
          ],
          [
            13.90924,
            57.43072
          ],
          [
            13.90956,
            57.43076
          ],
          [
            13.90978,
            57.43075
          ],
          [
            13.9101,
            57.43064
          ],
          [
            13.91051,
            57.43057
          ],
          [
            13.91101,
            57.43048
          ],
          [
            13.91149,
            57.43039
          ],
          [
            13.9117,
            57.43034
          ],
          [
            13.91183,
            57.43028
          ],
          [
            13.9121,
            57.43006
          ],
          [
            13.91234,
            57.43001
          ],
          [
            13.9125,
            57.42997
          ],
          [
            13.91303,
            57.4297
          ],
          [
            13.91331,
            57.42959
          ],
          [
            13.91354,
            57.4295
          ],
          [
            13.91375,
            57.42945
          ],
          [
            13.91389,
            57.42942
          ],
          [
            13.91381,
            57.42963
          ],
          [
            13.91381,
            57.42974
          ],
          [
            13.91383,
            57.43004
          ],
          [
            13.91379,
            57.43028
          ],
          [
            13.91381,
            57.43036
          ],
          [
            13.91383,
            57.43048
          ],
          [
            13.91364,
            57.43062
          ],
          [
            13.91356,
            57.43074
          ],
          [
            13.91346,
            57.43091
          ],
          [
            13.91332,
            57.43124
          ],
          [
            13.91319,
            57.43151
          ],
          [
            13.91296,
            57.43168
          ],
          [
            13.91258,
            57.43192
          ],
          [
            13.9124,
            57.43205
          ],
          [
            13.91218,
            57.43208
          ],
          [
            13.91197,
            57.43216
          ],
          [
            13.9117,
            57.43229
          ],
          [
            13.91147,
            57.43236
          ],
          [
            13.91122,
            57.43242
          ],
          [
            13.91102,
            57.43252
          ],
          [
            13.91091,
            57.43266
          ],
          [
            13.91073,
            57.43278
          ],
          [
            13.9105,
            57.43284
          ],
          [
            13.91034,
            57.43287
          ],
          [
            13.91019,
            57.43292
          ],
          [
            13.90995,
            57.43316
          ],
          [
            13.90981,
            57.43334
          ],
          [
            13.90976,
            57.43361
          ],
          [
            13.90974,
            57.43379
          ],
          [
            13.90973,
            57.43392
          ],
          [
            13.90967,
            57.43402
          ],
          [
            13.90956,
            57.43414
          ],
          [
            13.90946,
            57.43427
          ],
          [
            13.90939,
            57.43439
          ],
          [
            13.90934,
            57.43449
          ],
          [
            13.90941,
            57.43461
          ],
          [
            13.90952,
            57.43472
          ],
          [
            13.90956,
            57.43486
          ],
          [
            13.90957,
            57.43494
          ],
          [
            13.90949,
            57.43504
          ],
          [
            13.9094,
            57.43514
          ],
          [
            13.90936,
            57.43521
          ],
          [
            13.90938,
            57.43529
          ],
          [
            13.90943,
            57.43536
          ],
          [
            13.9096,
            57.43553
          ],
          [
            13.90977,
            57.43569
          ],
          [
            13.90998,
            57.43578
          ],
          [
            13.91021,
            57.43583
          ],
          [
            13.91073,
            57.43595
          ],
          [
            13.91159,
            57.43622
          ],
          [
            13.91191,
            57.43636
          ],
          [
            13.91229,
            57.4365
          ],
          [
            13.91291,
            57.43667
          ],
          [
            13.91327,
            57.43685
          ],
          [
            13.91352,
            57.43698
          ],
          [
            13.91328,
            57.43712
          ],
          [
            13.91316,
            57.43726
          ],
          [
            13.91283,
            57.43792
          ],
          [
            13.91243,
            57.43872
          ],
          [
            13.91221,
            57.43912
          ],
          [
            13.91207,
            57.43929
          ],
          [
            13.91185,
            57.43947
          ],
          [
            13.91156,
            57.43965
          ],
          [
            13.91083,
            57.44004
          ],
          [
            13.91058,
            57.44018
          ],
          [
            13.91039,
            57.44033
          ],
          [
            13.91028,
            57.44053
          ],
          [
            13.91021,
            57.44072
          ],
          [
            13.91013,
            57.44095
          ],
          [
            13.91012,
            57.44119
          ],
          [
            13.91024,
            57.44155
          ],
          [
            13.91034,
            57.44184
          ],
          [
            13.91031,
            57.44201
          ],
          [
            13.91024,
            57.44248
          ],
          [
            13.91016,
            57.44285
          ],
          [
            13.91003,
            57.44339
          ],
          [
            13.90987,
            57.44391
          ],
          [
            13.90981,
            57.44415
          ],
          [
            13.90977,
            57.44433
          ],
          [
            13.9098,
            57.4447
          ],
          [
            13.90983,
            57.44521
          ],
          [
            13.90953,
            57.44527
          ],
          [
            13.90935,
            57.44531
          ],
          [
            13.90917,
            57.44532
          ],
          [
            13.90893,
            57.44528
          ],
          [
            13.90872,
            57.4452
          ],
          [
            13.90851,
            57.44503
          ],
          [
            13.90808,
            57.44468
          ],
          [
            13.90793,
            57.44461
          ],
          [
            13.90785,
            57.44461
          ],
          [
            13.9077,
            57.44467
          ],
          [
            13.9075,
            57.44476
          ],
          [
            13.9071,
            57.44483
          ],
          [
            13.90688,
            57.44483
          ],
          [
            13.90665,
            57.44477
          ],
          [
            13.90641,
            57.44468
          ],
          [
            13.9062,
            57.44462
          ],
          [
            13.90583,
            57.44459
          ],
          [
            13.90551,
            57.44454
          ],
          [
            13.90515,
            57.44447
          ],
          [
            13.90496,
            57.44444
          ],
          [
            13.90483,
            57.44444
          ],
          [
            13.9047,
            57.44446
          ],
          [
            13.90457,
            57.44453
          ],
          [
            13.90435,
            57.44483
          ],
          [
            13.90419,
            57.44489
          ],
          [
            13.90386,
            57.44498
          ],
          [
            13.90346,
            57.44513
          ],
          [
            13.90296,
            57.44519
          ],
          [
            13.9025,
            57.44521
          ],
          [
            13.90212,
            57.44521
          ],
          [
            13.90152,
            57.44514
          ],
          [
            13.90101,
            57.44498
          ],
          [
            13.90068,
            57.44488
          ],
          [
            13.90058,
            57.44484
          ],
          [
            13.90042,
            57.44485
          ],
          [
            13.90021,
            57.44492
          ],
          [
            13.9,
            57.445
          ],
          [
            13.89949,
            57.44525
          ],
          [
            13.89901,
            57.44552
          ],
          [
            13.8988,
            57.44571
          ],
          [
            13.89878,
            57.44593
          ],
          [
            13.89897,
            57.44628
          ],
          [
            13.89911,
            57.44647
          ],
          [
            13.89927,
            57.4467
          ],
          [
            13.89941,
            57.44696
          ],
          [
            13.89943,
            57.44714
          ],
          [
            13.89947,
            57.44732
          ],
          [
            13.8996,
            57.44747
          ],
          [
            13.89976,
            57.44767
          ],
          [
            13.89997,
            57.44788
          ],
          [
            13.90014,
            57.44804
          ],
          [
            13.89997,
            57.44813
          ],
          [
            13.89964,
            57.44823
          ],
          [
            13.8992,
            57.44837
          ],
          [
            13.8987,
            57.4485
          ],
          [
            13.8983,
            57.4486
          ],
          [
            13.89786,
            57.44868
          ],
          [
            13.89717,
            57.44879
          ],
          [
            13.89639,
            57.44889
          ],
          [
            13.89601,
            57.44898
          ],
          [
            13.89595,
            57.44921
          ],
          [
            13.89596,
            57.44955
          ],
          [
            13.896,
            57.44975
          ],
          [
            13.89601,
            57.45011
          ],
          [
            13.89607,
            57.45022
          ],
          [
            13.89631,
            57.45038
          ],
          [
            13.89621,
            57.45068
          ],
          [
            13.89616,
            57.45095
          ],
          [
            13.89615,
            57.45114
          ],
          [
            13.89616,
            57.45131
          ],
          [
            13.89622,
            57.45148
          ],
          [
            13.8963,
            57.45159
          ],
          [
            13.89654,
            57.45182
          ],
          [
            13.89692,
            57.45218
          ],
          [
            13.89734,
            57.45256
          ],
          [
            13.89747,
            57.45273
          ],
          [
            13.89753,
            57.45289
          ],
          [
            13.89755,
            57.45308
          ],
          [
            13.89752,
            57.45345
          ],
          [
            13.8975,
            57.45367
          ],
          [
            13.89757,
            57.45405
          ],
          [
            13.89765,
            57.45436
          ],
          [
            13.89775,
            57.45478
          ],
          [
            13.89783,
            57.45513
          ],
          [
            13.89791,
            57.45559
          ],
          [
            13.89801,
            57.45609
          ],
          [
            13.89806,
            57.45632
          ],
          [
            13.89805,
            57.4565
          ],
          [
            13.89799,
            57.45661
          ],
          [
            13.89782,
            57.45674
          ],
          [
            13.89723,
            57.45698
          ],
          [
            13.89681,
            57.45716
          ],
          [
            13.89655,
            57.45728
          ],
          [
            13.89626,
            57.45745
          ],
          [
            13.89606,
            57.4576
          ],
          [
            13.89595,
            57.45777
          ],
          [
            13.8959,
            57.45798
          ],
          [
            13.89589,
            57.45821
          ],
          [
            13.8959,
            57.45859
          ],
          [
            13.89592,
            57.459
          ],
          [
            13.89589,
            57.45916
          ],
          [
            13.89575,
            57.45935
          ],
          [
            13.89559,
            57.45947
          ],
          [
            13.89516,
            57.45971
          ],
          [
            13.8949,
            57.45986
          ],
          [
            13.895,
            57.46004
          ],
          [
            13.89501,
            57.46024
          ],
          [
            13.89492,
            57.46087
          ],
          [
            13.89486,
            57.461
          ],
          [
            13.89476,
            57.46116
          ],
          [
            13.89408,
            57.46199
          ],
          [
            13.89348,
            57.46268
          ],
          [
            13.89304,
            57.46321
          ],
          [
            13.89293,
            57.46337
          ],
          [
            13.89289,
            57.46354
          ],
          [
            13.8929,
            57.46366
          ],
          [
            13.89272,
            57.46385
          ],
          [
            13.89268,
            57.46417
          ],
          [
            13.89264,
            57.46436
          ],
          [
            13.89235,
            57.46462
          ],
          [
            13.89195,
            57.4648
          ],
          [
            13.8915,
            57.46494
          ],
          [
            13.8907,
            57.46518
          ],
          [
            13.89036,
            57.4653
          ]
        ]
      }
    }
  ]
}
