{
  "type": "FeatureCollection",
  "features": [
    {
      "type": "Feature",
      "properties": {
        "trailId": "hoglandsleden",
        "sectionId": "hoglandsleden-ho10-ramkvilla-asa",
        "candidateGeometry": true,
        "runtimeImportApproved": false,
        "sourceUrl": "https://www.naturkartan.se/sv/jonkopings-lan/ho10-ramkvilla-asa.gpx",
        "source": "candidate-normalized-geojson",
        "classification": "navigation-grade",
        "sourceComputedDistanceKm": 15.144041,
        "lineCount": 1,
        "pointCount": 625,
        "componentSelectionApplied": false,
        "selectedComponentIndexes": null,
        "reverseApplied": false,
        "densifyApplied": false,
        "buildPolicyNotes": null,
        "lastUpdated": "2026-04-30",
        "id": "hoglandsleden-ho10-ramkvilla-asa",
        "trailSystemId": "hoglandsleden",
        "name": "Ramkvilla - Asa",
        "part": 1
      },
      "geometry": {
        "type": "LineString",
        "coordinates": [
          [
            14.94369,
            57.20565
          ],
          [
            14.94359,
            57.20562
          ],
          [
            14.94355,
            57.20561
          ],
          [
            14.94354,
            57.2056
          ],
          [
            14.94324,
            57.20552
          ],
          [
            14.94321,
            57.20552
          ],
          [
            14.943201,
            57.205529
          ],
          [
            14.94255,
            57.20536
          ],
          [
            14.94193,
            57.20519
          ],
          [
            14.94162,
            57.2051
          ],
          [
            14.94123,
            57.20503
          ],
          [
            14.94077,
            57.20495
          ],
          [
            14.94028,
            57.20487
          ],
          [
            14.93979,
            57.20477
          ],
          [
            14.93921,
            57.20465
          ],
          [
            14.93856,
            57.20452
          ],
          [
            14.93748,
            57.20432
          ],
          [
            14.93646,
            57.20414
          ],
          [
            14.93557,
            57.20399
          ],
          [
            14.93477,
            57.20386
          ],
          [
            14.93409,
            57.20375
          ],
          [
            14.93352,
            57.20365
          ],
          [
            14.93312,
            57.20358
          ],
          [
            14.93257,
            57.20349
          ],
          [
            14.93196,
            57.2034
          ],
          [
            14.93155,
            57.20335
          ],
          [
            14.9309,
            57.20328
          ],
          [
            14.9303,
            57.2032
          ],
          [
            14.92982,
            57.20314
          ],
          [
            14.9294,
            57.20307
          ],
          [
            14.92912,
            57.20302
          ],
          [
            14.92845,
            57.20286
          ],
          [
            14.92796,
            57.20275
          ],
          [
            14.92767,
            57.20267
          ],
          [
            14.92742,
            57.20263
          ],
          [
            14.92719,
            57.20261
          ],
          [
            14.92698,
            57.20261
          ],
          [
            14.92675,
            57.20262
          ],
          [
            14.92648,
            57.20267
          ],
          [
            14.92586,
            57.20283
          ],
          [
            14.92535,
            57.20296
          ],
          [
            14.92462,
            57.20313
          ],
          [
            14.92438,
            57.2032
          ],
          [
            14.92417,
            57.20334
          ],
          [
            14.92397,
            57.2035
          ],
          [
            14.92378,
            57.20367
          ],
          [
            14.92363,
            57.20377
          ],
          [
            14.92339,
            57.20383
          ],
          [
            14.92285,
            57.20384
          ],
          [
            14.92248,
            57.20382
          ],
          [
            14.92216,
            57.20374
          ],
          [
            14.9216,
            57.20357
          ],
          [
            14.92107,
            57.20345
          ],
          [
            14.92073,
            57.20338
          ],
          [
            14.92034,
            57.20326
          ],
          [
            14.91968,
            57.20303
          ],
          [
            14.91914,
            57.20286
          ],
          [
            14.91847,
            57.20281
          ],
          [
            14.91768,
            57.20278
          ],
          [
            14.91697,
            57.20277
          ],
          [
            14.91603,
            57.20277
          ],
          [
            14.91542,
            57.20276
          ],
          [
            14.91448,
            57.20271
          ],
          [
            14.91347,
            57.20265
          ],
          [
            14.91304,
            57.20264
          ],
          [
            14.91273,
            57.20267
          ],
          [
            14.91216,
            57.20276
          ],
          [
            14.91134,
            57.20289
          ],
          [
            14.91106,
            57.20292
          ],
          [
            14.91079,
            57.20291
          ],
          [
            14.91032,
            57.20285
          ],
          [
            14.90956,
            57.20271
          ],
          [
            14.90927,
            57.20267
          ],
          [
            14.90892,
            57.20267
          ],
          [
            14.90825,
            57.20278
          ],
          [
            14.90731,
            57.20294
          ],
          [
            14.90621,
            57.20316
          ],
          [
            14.90588,
            57.20321
          ],
          [
            14.90489,
            57.20329
          ],
          [
            14.90431,
            57.20335
          ],
          [
            14.90387,
            57.20342
          ],
          [
            14.90341,
            57.20348
          ],
          [
            14.90276,
            57.20359
          ],
          [
            14.90244,
            57.20367
          ],
          [
            14.90218,
            57.20377
          ],
          [
            14.90185,
            57.204
          ],
          [
            14.90158,
            57.20429
          ],
          [
            14.90142,
            57.20439
          ],
          [
            14.90119,
            57.20446
          ],
          [
            14.90097,
            57.2045
          ],
          [
            14.90031,
            57.20455
          ],
          [
            14.89974,
            57.20459
          ],
          [
            14.89957,
            57.20463
          ],
          [
            14.89945,
            57.20463
          ],
          [
            14.89904,
            57.20458
          ],
          [
            14.89859,
            57.20451
          ],
          [
            14.89806,
            57.20448
          ],
          [
            14.8974,
            57.20447
          ],
          [
            14.89682,
            57.20448
          ],
          [
            14.89622,
            57.20449
          ],
          [
            14.89574,
            57.20449
          ],
          [
            14.89531,
            57.20453
          ],
          [
            14.89511,
            57.20456
          ],
          [
            14.89476,
            57.20465
          ],
          [
            14.89457,
            57.20467
          ],
          [
            14.89421,
            57.20468
          ],
          [
            14.89396,
            57.20467
          ],
          [
            14.89379,
            57.20467
          ],
          [
            14.89361,
            57.20469
          ],
          [
            14.89335,
            57.20476
          ],
          [
            14.8928,
            57.20487
          ],
          [
            14.89228,
            57.20498
          ],
          [
            14.89216,
            57.20502
          ],
          [
            14.892,
            57.20513
          ],
          [
            14.89163,
            57.20537
          ],
          [
            14.89131,
            57.20559
          ],
          [
            14.89116,
            57.20566
          ],
          [
            14.89116,
            57.20566
          ],
          [
            14.89093,
            57.20571
          ],
          [
            14.89052,
            57.20578
          ],
          [
            14.89027,
            57.20581
          ],
          [
            14.88994,
            57.20582
          ],
          [
            14.8896,
            57.2058
          ],
          [
            14.88916,
            57.20579
          ],
          [
            14.8889,
            57.20581
          ],
          [
            14.88867,
            57.20584
          ],
          [
            14.88831,
            57.20592
          ],
          [
            14.88786,
            57.20603
          ],
          [
            14.88772,
            57.20605
          ],
          [
            14.88751,
            57.20606
          ],
          [
            14.88709,
            57.20607
          ],
          [
            14.88688,
            57.20609
          ],
          [
            14.88687,
            57.20609
          ],
          [
            14.88639,
            57.20618
          ],
          [
            14.88622,
            57.20621
          ],
          [
            14.88598,
            57.20627
          ],
          [
            14.88575,
            57.20631
          ],
          [
            14.88551,
            57.20634
          ],
          [
            14.88534,
            57.20616
          ],
          [
            14.88522,
            57.20604
          ],
          [
            14.88513,
            57.20593
          ],
          [
            14.88507,
            57.20581
          ],
          [
            14.88495,
            57.20552
          ],
          [
            14.88482,
            57.20521
          ],
          [
            14.88475,
            57.20509
          ],
          [
            14.88445,
            57.20494
          ],
          [
            14.88425,
            57.20474
          ],
          [
            14.88404,
            57.20449
          ],
          [
            14.88394,
            57.2043
          ],
          [
            14.8838,
            57.20412
          ],
          [
            14.88347,
            57.2038
          ],
          [
            14.88325,
            57.2036
          ],
          [
            14.88288,
            57.20334
          ],
          [
            14.88267,
            57.20326
          ],
          [
            14.88256,
            57.20314
          ],
          [
            14.88256,
            57.20306
          ],
          [
            14.88267,
            57.20291
          ],
          [
            14.88268,
            57.20276
          ],
          [
            14.88243,
            57.2026
          ],
          [
            14.88218,
            57.20247
          ],
          [
            14.88196,
            57.20234
          ],
          [
            14.88182,
            57.20225
          ],
          [
            14.88176,
            57.20218
          ],
          [
            14.8817,
            57.20206
          ],
          [
            14.88156,
            57.20186
          ],
          [
            14.88132,
            57.20173
          ],
          [
            14.8811,
            57.20166
          ],
          [
            14.88079,
            57.20156
          ],
          [
            14.88077,
            57.20149
          ],
          [
            14.88054,
            57.20142
          ],
          [
            14.88015,
            57.20114
          ],
          [
            14.88005,
            57.20103
          ],
          [
            14.87989,
            57.201
          ],
          [
            14.87984,
            57.20096
          ],
          [
            14.87967,
            57.20075
          ],
          [
            14.87958,
            57.2007
          ],
          [
            14.87906,
            57.20068
          ],
          [
            14.87866,
            57.20066
          ],
          [
            14.87752,
            57.2004
          ],
          [
            14.87687,
            57.20024
          ],
          [
            14.87675,
            57.20016
          ],
          [
            14.87672,
            57.20013
          ],
          [
            14.87674,
            57.20004
          ],
          [
            14.87673,
            57.2
          ],
          [
            14.87632,
            57.1997
          ],
          [
            14.87569,
            57.19965
          ],
          [
            14.87547,
            57.19962
          ],
          [
            14.87529,
            57.19956
          ],
          [
            14.87522,
            57.19952
          ],
          [
            14.87517,
            57.19946
          ],
          [
            14.87512,
            57.19943
          ],
          [
            14.87481,
            57.19941
          ],
          [
            14.87448,
            57.19945
          ],
          [
            14.87382,
            57.1996
          ],
          [
            14.87335,
            57.1997
          ],
          [
            14.87326,
            57.19976
          ],
          [
            14.87312,
            57.1999
          ],
          [
            14.87298,
            57.19999
          ],
          [
            14.87192,
            57.20075
          ],
          [
            14.8715,
            57.20112
          ],
          [
            14.87129,
            57.20131
          ],
          [
            14.87056,
            57.20115
          ],
          [
            14.87025,
            57.20104
          ],
          [
            14.87009,
            57.20096
          ],
          [
            14.86984,
            57.20066
          ],
          [
            14.86975,
            57.20056
          ],
          [
            14.86955,
            57.20053
          ],
          [
            14.86936,
            57.20055
          ],
          [
            14.8692,
            57.20063
          ],
          [
            14.86894,
            57.20078
          ],
          [
            14.86874,
            57.20088
          ],
          [
            14.86851,
            57.20098
          ],
          [
            14.86809,
            57.20109
          ],
          [
            14.86771,
            57.20119
          ],
          [
            14.86749,
            57.20123
          ],
          [
            14.86724,
            57.20127
          ],
          [
            14.86706,
            57.20122
          ],
          [
            14.86692,
            57.20116
          ],
          [
            14.86681,
            57.20106
          ],
          [
            14.86674,
            57.20094
          ],
          [
            14.86669,
            57.20082
          ],
          [
            14.86656,
            57.20073
          ],
          [
            14.86641,
            57.20065
          ],
          [
            14.86633,
            57.2006
          ],
          [
            14.86632,
            57.20052
          ],
          [
            14.86633,
            57.2004
          ],
          [
            14.86597,
            57.20031
          ],
          [
            14.86556,
            57.20021
          ],
          [
            14.86503,
            57.20016
          ],
          [
            14.86452,
            57.2001
          ],
          [
            14.86433,
            57.20006
          ],
          [
            14.86424,
            57.20001
          ],
          [
            14.86415,
            57.19991
          ],
          [
            14.86409,
            57.19985
          ],
          [
            14.86385,
            57.19984
          ],
          [
            14.86308,
            57.19988
          ],
          [
            14.86262,
            57.20012
          ],
          [
            14.86224,
            57.20024
          ],
          [
            14.8621,
            57.20023
          ],
          [
            14.86198,
            57.20014
          ],
          [
            14.86197,
            57.20006
          ],
          [
            14.862,
            57.19987
          ],
          [
            14.86204,
            57.1998
          ],
          [
            14.86164,
            57.19953
          ],
          [
            14.86151,
            57.19949
          ],
          [
            14.86084,
            57.19948
          ],
          [
            14.86067,
            57.19943
          ],
          [
            14.86011,
            57.19949
          ],
          [
            14.85999,
            57.19947
          ],
          [
            14.85984,
            57.19942
          ],
          [
            14.85953,
            57.19938
          ],
          [
            14.85927,
            57.19941
          ],
          [
            14.85911,
            57.19948
          ],
          [
            14.85892,
            57.19941
          ],
          [
            14.8577,
            57.19982
          ],
          [
            14.85653,
            57.1998
          ],
          [
            14.85598,
            57.19968
          ],
          [
            14.85509,
            57.1995
          ],
          [
            14.85484,
            57.19944
          ],
          [
            14.85467,
            57.19938
          ],
          [
            14.85424,
            57.19944
          ],
          [
            14.854,
            57.19942
          ],
          [
            14.8536,
            57.19939
          ],
          [
            14.85307,
            57.19935
          ],
          [
            14.85234,
            57.19929
          ],
          [
            14.85197,
            57.19926
          ],
          [
            14.85159,
            57.19924
          ],
          [
            14.85128,
            57.19923
          ],
          [
            14.85079,
            57.19924
          ],
          [
            14.85041,
            57.19926
          ],
          [
            14.84974,
            57.19927
          ],
          [
            14.84918,
            57.19927
          ],
          [
            14.84885,
            57.19927
          ],
          [
            14.84863,
            57.19922
          ],
          [
            14.84801,
            57.19906
          ],
          [
            14.84768,
            57.19898
          ],
          [
            14.84726,
            57.19888
          ],
          [
            14.84682,
            57.19883
          ],
          [
            14.84635,
            57.1988
          ],
          [
            14.8457,
            57.19878
          ],
          [
            14.84507,
            57.19875
          ],
          [
            14.84448,
            57.19877
          ],
          [
            14.84398,
            57.19879
          ],
          [
            14.8436,
            57.19876
          ],
          [
            14.84313,
            57.19863
          ],
          [
            14.8426,
            57.19851
          ],
          [
            14.84211,
            57.19839
          ],
          [
            14.84165,
            57.19818
          ],
          [
            14.84119,
            57.19796
          ],
          [
            14.84089,
            57.19781
          ],
          [
            14.84045,
            57.19761
          ],
          [
            14.83996,
            57.19739
          ],
          [
            14.83966,
            57.19725
          ],
          [
            14.839,
            57.19693
          ],
          [
            14.83876,
            57.19673
          ],
          [
            14.8375,
            57.19755
          ],
          [
            14.83731,
            57.19774
          ],
          [
            14.83709,
            57.19788
          ],
          [
            14.83685,
            57.19821
          ],
          [
            14.83682,
            57.19829
          ],
          [
            14.83686,
            57.1984
          ],
          [
            14.83678,
            57.19854
          ],
          [
            14.83673,
            57.19873
          ],
          [
            14.83678,
            57.19905
          ],
          [
            14.83676,
            57.19929
          ],
          [
            14.8367,
            57.19954
          ],
          [
            14.83662,
            57.1997
          ],
          [
            14.83642,
            57.1998
          ],
          [
            14.83618,
            57.19988
          ],
          [
            14.83577,
            57.20014
          ],
          [
            14.83554,
            57.20029
          ],
          [
            14.83506,
            57.20043
          ],
          [
            14.83488,
            57.20052
          ],
          [
            14.83479,
            57.20059
          ],
          [
            14.83474,
            57.20073
          ],
          [
            14.83452,
            57.20093
          ],
          [
            14.83439,
            57.20106
          ],
          [
            14.83416,
            57.20124
          ],
          [
            14.83398,
            57.20135
          ],
          [
            14.83385,
            57.20141
          ],
          [
            14.83369,
            57.20145
          ],
          [
            14.83347,
            57.20149
          ],
          [
            14.8331,
            57.2015
          ],
          [
            14.83292,
            57.20152
          ],
          [
            14.83273,
            57.20162
          ],
          [
            14.83264,
            57.2017
          ],
          [
            14.83263,
            57.2017
          ],
          [
            14.83229,
            57.20167
          ],
          [
            14.83212,
            57.20163
          ],
          [
            14.83132,
            57.20138
          ],
          [
            14.83072,
            57.20119
          ],
          [
            14.83002,
            57.20099
          ],
          [
            14.82939,
            57.20079
          ],
          [
            14.82877,
            57.20056
          ],
          [
            14.82682,
            57.19965
          ],
          [
            14.82655,
            57.19942
          ],
          [
            14.82625,
            57.19912
          ],
          [
            14.82602,
            57.19893
          ],
          [
            14.82583,
            57.1988
          ],
          [
            14.82551,
            57.19866
          ],
          [
            14.82522,
            57.19858
          ],
          [
            14.82511,
            57.19871
          ],
          [
            14.82504,
            57.19879
          ],
          [
            14.82486,
            57.19888
          ],
          [
            14.82465,
            57.19896
          ],
          [
            14.82432,
            57.19895
          ],
          [
            14.82415,
            57.19893
          ],
          [
            14.82375,
            57.19884
          ],
          [
            14.82338,
            57.19877
          ],
          [
            14.82302,
            57.19855
          ],
          [
            14.82261,
            57.19832
          ],
          [
            14.82249,
            57.19819
          ],
          [
            14.82246,
            57.1981
          ],
          [
            14.82249,
            57.19805
          ],
          [
            14.82239,
            57.19793
          ],
          [
            14.82225,
            57.1978
          ],
          [
            14.8221,
            57.19765
          ],
          [
            14.82207,
            57.19757
          ],
          [
            14.82207,
            57.19752
          ],
          [
            14.822,
            57.19749
          ],
          [
            14.82157,
            57.19746
          ],
          [
            14.82126,
            57.19741
          ],
          [
            14.82096,
            57.19735
          ],
          [
            14.82069,
            57.19728
          ],
          [
            14.82046,
            57.19717
          ],
          [
            14.82036,
            57.19711
          ],
          [
            14.82038,
            57.19707
          ],
          [
            14.82042,
            57.19705
          ],
          [
            14.82032,
            57.197
          ],
          [
            14.82017,
            57.19693
          ],
          [
            14.82015,
            57.19684
          ],
          [
            14.82015,
            57.19672
          ],
          [
            14.82017,
            57.19662
          ],
          [
            14.82024,
            57.19646
          ],
          [
            14.82035,
            57.19634
          ],
          [
            14.82029,
            57.19628
          ],
          [
            14.82007,
            57.19604
          ],
          [
            14.82,
            57.19596
          ],
          [
            14.81997,
            57.19586
          ],
          [
            14.82,
            57.19575
          ],
          [
            14.82008,
            57.19563
          ],
          [
            14.81969,
            57.19554
          ],
          [
            14.81953,
            57.19544
          ],
          [
            14.81936,
            57.19541
          ],
          [
            14.81903,
            57.19538
          ],
          [
            14.8188,
            57.19532
          ],
          [
            14.81865,
            57.19521
          ],
          [
            14.81855,
            57.19511
          ],
          [
            14.81855,
            57.19503
          ],
          [
            14.8186,
            57.19494
          ],
          [
            14.8186,
            57.19483
          ],
          [
            14.81854,
            57.19472
          ],
          [
            14.81836,
            57.19453
          ],
          [
            14.81839,
            57.19439
          ],
          [
            14.8184,
            57.19427
          ],
          [
            14.81845,
            57.19416
          ],
          [
            14.81854,
            57.19407
          ],
          [
            14.81901,
            57.1938
          ],
          [
            14.81914,
            57.19374
          ],
          [
            14.81927,
            57.19352
          ],
          [
            14.81941,
            57.19335
          ],
          [
            14.8196,
            57.19316
          ],
          [
            14.81972,
            57.19303
          ],
          [
            14.81984,
            57.19296
          ],
          [
            14.82062,
            57.19286
          ],
          [
            14.82076,
            57.19282
          ],
          [
            14.82083,
            57.19274
          ],
          [
            14.82084,
            57.19259
          ],
          [
            14.82074,
            57.1924
          ],
          [
            14.82061,
            57.19226
          ],
          [
            14.82045,
            57.1921
          ],
          [
            14.82042,
            57.19201
          ],
          [
            14.82044,
            57.19194
          ],
          [
            14.8205,
            57.19188
          ],
          [
            14.8206,
            57.19181
          ],
          [
            14.82009,
            57.19148
          ],
          [
            14.8195,
            57.1911
          ],
          [
            14.81915,
            57.19086
          ],
          [
            14.81944,
            57.19063
          ],
          [
            14.81996,
            57.19023
          ],
          [
            14.82012,
            57.19011
          ],
          [
            14.82023,
            57.18998
          ],
          [
            14.82027,
            57.18991
          ],
          [
            14.81994,
            57.1899
          ],
          [
            14.81984,
            57.18986
          ],
          [
            14.81968,
            57.18977
          ],
          [
            14.81953,
            57.18976
          ],
          [
            14.81913,
            57.18984
          ],
          [
            14.81888,
            57.18984
          ],
          [
            14.81876,
            57.1898
          ],
          [
            14.81855,
            57.18945
          ],
          [
            14.81832,
            57.18936
          ],
          [
            14.81808,
            57.1893
          ],
          [
            14.81785,
            57.18916
          ],
          [
            14.81769,
            57.18898
          ],
          [
            14.81773,
            57.18888
          ],
          [
            14.81771,
            57.18879
          ],
          [
            14.81766,
            57.18872
          ],
          [
            14.81685,
            57.18815
          ],
          [
            14.81637,
            57.18782
          ],
          [
            14.81601,
            57.1876
          ],
          [
            14.8155,
            57.1873
          ],
          [
            14.81512,
            57.1872
          ],
          [
            14.81486,
            57.18725
          ],
          [
            14.81478,
            57.18717
          ],
          [
            14.81456,
            57.18696
          ],
          [
            14.81448,
            57.18672
          ],
          [
            14.81445,
            57.18651
          ],
          [
            14.81418,
            57.18625
          ],
          [
            14.81348,
            57.18579
          ],
          [
            14.81296,
            57.18553
          ],
          [
            14.81279,
            57.18552
          ],
          [
            14.81271,
            57.18553
          ],
          [
            14.81249,
            57.18562
          ],
          [
            14.81241,
            57.18565
          ],
          [
            14.81186,
            57.18594
          ],
          [
            14.81179,
            57.18606
          ],
          [
            14.81175,
            57.18615
          ],
          [
            14.81167,
            57.18627
          ],
          [
            14.81164,
            57.18638
          ],
          [
            14.81148,
            57.18657
          ],
          [
            14.81121,
            57.18664
          ],
          [
            14.81106,
            57.18664
          ],
          [
            14.81094,
            57.18659
          ],
          [
            14.81087,
            57.18656
          ],
          [
            14.81081,
            57.18646
          ],
          [
            14.81074,
            57.18635
          ],
          [
            14.81072,
            57.18629
          ],
          [
            14.81064,
            57.1862
          ],
          [
            14.81054,
            57.18612
          ],
          [
            14.8104,
            57.186
          ],
          [
            14.81027,
            57.18569
          ],
          [
            14.80998,
            57.1853
          ],
          [
            14.80994,
            57.18521
          ],
          [
            14.81001,
            57.18512
          ],
          [
            14.81007,
            57.18504
          ],
          [
            14.81,
            57.18496
          ],
          [
            14.80995,
            57.18482
          ],
          [
            14.80997,
            57.18464
          ],
          [
            14.80982,
            57.18447
          ],
          [
            14.80969,
            57.18434
          ],
          [
            14.80954,
            57.18427
          ],
          [
            14.80942,
            57.18419
          ],
          [
            14.80915,
            57.18386
          ],
          [
            14.80911,
            57.18376
          ],
          [
            14.80907,
            57.18357
          ],
          [
            14.80901,
            57.18336
          ],
          [
            14.80895,
            57.18323
          ],
          [
            14.80884,
            57.18307
          ],
          [
            14.80859,
            57.18289
          ],
          [
            14.80846,
            57.18287
          ],
          [
            14.80813,
            57.18288
          ],
          [
            14.80799,
            57.18284
          ],
          [
            14.80782,
            57.18281
          ],
          [
            14.80768,
            57.1828
          ],
          [
            14.80705,
            57.1828
          ],
          [
            14.8064,
            57.18274
          ],
          [
            14.80601,
            57.18288
          ],
          [
            14.80554,
            57.18304
          ],
          [
            14.80509,
            57.18319
          ],
          [
            14.8049,
            57.18323
          ],
          [
            14.80469,
            57.18321
          ],
          [
            14.80454,
            57.1831
          ],
          [
            14.8044,
            57.18296
          ],
          [
            14.80396,
            57.18251
          ],
          [
            14.80366,
            57.18219
          ],
          [
            14.8033,
            57.18178
          ],
          [
            14.80282,
            57.18176
          ],
          [
            14.80246,
            57.18173
          ],
          [
            14.80187,
            57.18161
          ],
          [
            14.80143,
            57.18152
          ],
          [
            14.80128,
            57.18141
          ],
          [
            14.80093,
            57.18113
          ],
          [
            14.80065,
            57.1808
          ],
          [
            14.80053,
            57.18069
          ],
          [
            14.80009,
            57.18043
          ],
          [
            14.79991,
            57.1803
          ],
          [
            14.7998,
            57.18027
          ],
          [
            14.79967,
            57.18025
          ],
          [
            14.79911,
            57.18022
          ],
          [
            14.79803,
            57.18007
          ],
          [
            14.79774,
            57.18001
          ],
          [
            14.79769,
            57.17997
          ],
          [
            14.79767,
            57.17992
          ],
          [
            14.79777,
            57.1797
          ],
          [
            14.79784,
            57.17946
          ],
          [
            14.79793,
            57.17939
          ],
          [
            14.79851,
            57.17907
          ],
          [
            14.79895,
            57.17879
          ],
          [
            14.7993,
            57.17872
          ],
          [
            14.79956,
            57.17862
          ],
          [
            14.79969,
            57.17855
          ],
          [
            14.79973,
            57.17849
          ],
          [
            14.79976,
            57.1784
          ],
          [
            14.7997,
            57.17828
          ],
          [
            14.79979,
            57.17818
          ],
          [
            14.79981,
            57.1781
          ],
          [
            14.79988,
            57.17808
          ],
          [
            14.79999,
            57.17806
          ],
          [
            14.80005,
            57.17802
          ],
          [
            14.80006,
            57.1776
          ],
          [
            14.80001,
            57.17725
          ],
          [
            14.79999,
            57.17717
          ],
          [
            14.79993,
            57.17712
          ],
          [
            14.7998,
            57.17712
          ],
          [
            14.79971,
            57.17714
          ],
          [
            14.7996,
            57.17712
          ],
          [
            14.79946,
            57.17714
          ],
          [
            14.79941,
            57.17711
          ],
          [
            14.79932,
            57.17696
          ],
          [
            14.79925,
            57.17682
          ],
          [
            14.79922,
            57.1767
          ],
          [
            14.79917,
            57.17664
          ],
          [
            14.79905,
            57.17661
          ],
          [
            14.79899,
            57.17658
          ],
          [
            14.79896,
            57.17653
          ],
          [
            14.79898,
            57.17645
          ],
          [
            14.799,
            57.17642
          ],
          [
            14.79915,
            57.17604
          ],
          [
            14.79936,
            57.17575
          ],
          [
            14.79961,
            57.17546
          ],
          [
            14.79959,
            57.1754
          ],
          [
            14.79951,
            57.17533
          ],
          [
            14.7994,
            57.17529
          ],
          [
            14.79925,
            57.17525
          ],
          [
            14.79914,
            57.17521
          ],
          [
            14.7986,
            57.1751
          ],
          [
            14.79838,
            57.17501
          ],
          [
            14.79795,
            57.17482
          ],
          [
            14.79774,
            57.17471
          ],
          [
            14.79761,
            57.17471
          ],
          [
            14.79727,
            57.17463
          ],
          [
            14.79711,
            57.17456
          ],
          [
            14.79687,
            57.17442
          ],
          [
            14.79684,
            57.17436
          ],
          [
            14.79667,
            57.17427
          ],
          [
            14.79635,
            57.17401
          ],
          [
            14.79614,
            57.17387
          ],
          [
            14.79608,
            57.17382
          ],
          [
            14.79603,
            57.17379
          ],
          [
            14.79593,
            57.17378
          ],
          [
            14.79552,
            57.1738
          ],
          [
            14.79521,
            57.17382
          ],
          [
            14.79508,
            57.17267
          ],
          [
            14.7951,
            57.17257
          ],
          [
            14.79514,
            57.17251
          ],
          [
            14.79527,
            57.1724
          ],
          [
            14.79633,
            57.1719
          ],
          [
            14.79741,
            57.1714
          ],
          [
            14.79781,
            57.17119
          ],
          [
            14.79793,
            57.17109
          ],
          [
            14.79803,
            57.17097
          ],
          [
            14.79815,
            57.17076
          ],
          [
            14.79829,
            57.17045
          ],
          [
            14.79833,
            57.17026
          ],
          [
            14.79833,
            57.17005
          ],
          [
            14.79823,
            57.16967
          ],
          [
            14.79825,
            57.16958
          ],
          [
            14.79859,
            57.16939
          ],
          [
            14.79869,
            57.16848
          ],
          [
            14.79867,
            57.16826
          ],
          [
            14.79859,
            57.16807
          ],
          [
            14.7982,
            57.16749
          ],
          [
            14.79753,
            57.1664
          ],
          [
            14.79718,
            57.16626
          ],
          [
            14.79634,
            57.16616
          ],
          [
            14.796,
            57.16615
          ],
          [
            14.79449,
            57.16623
          ],
          [
            14.79423,
            57.16621
          ],
          [
            14.7937,
            57.16611
          ],
          [
            14.79372,
            57.16609
          ],
          [
            14.79351,
            57.16604
          ],
          [
            14.7934,
            57.16611
          ],
          [
            14.79304,
            57.16638
          ],
          [
            14.79267,
            57.16682
          ],
          [
            14.7923,
            57.16725
          ],
          [
            14.79227,
            57.16725
          ],
          [
            14.79227,
            57.16725
          ],
          [
            14.79113,
            57.16723
          ],
          [
            14.78998,
            57.16721
          ],
          [
            14.78847,
            57.16722
          ],
          [
            14.78695,
            57.16722
          ],
          [
            14.78672,
            57.16722
          ],
          [
            14.78571,
            57.16724
          ],
          [
            14.78543,
            57.16723
          ]
        ]
      }
    }
  ]
}
