{
  "type": "FeatureCollection",
  "features": [
    {
      "type": "Feature",
      "properties": {
        "trailId": "hoglandsleden",
        "sectionId": "hoglandsleden-ho03-valbacken-mariannelund",
        "candidateGeometry": true,
        "runtimeImportApproved": false,
        "sourceUrl": "https://www.naturkartan.se/sv/jonkopings-lan/ho3-ingatorp-mariannelund.gpx",
        "source": "candidate-normalized-geojson",
        "classification": "navigation-grade",
        "sourceComputedDistanceKm": 16.668,
        "lineCount": 1,
        "pointCount": 794,
        "componentSelectionApplied": false,
        "selectedComponentIndexes": null,
        "reverseApplied": false,
        "densifyApplied": false,
        "buildPolicyNotes": null,
        "lastUpdated": "2026-04-30",
        "id": "hoglandsleden-ho03-valbacken-mariannelund",
        "trailSystemId": "hoglandsleden",
        "name": "Valbacken - Mariannelund",
        "part": 1
      },
      "geometry": {
        "type": "LineString",
        "coordinates": [
          [
            15.41605,
            57.64447
          ],
          [
            15.41646,
            57.6444
          ],
          [
            15.41675,
            57.64436
          ],
          [
            15.41693,
            57.64431
          ],
          [
            15.41702,
            57.64427
          ],
          [
            15.41712,
            57.64421
          ],
          [
            15.41717,
            57.64397
          ],
          [
            15.41721,
            57.6438
          ],
          [
            15.41725,
            57.64362
          ],
          [
            15.41729,
            57.64341
          ],
          [
            15.41733,
            57.6433
          ],
          [
            15.41739,
            57.64318
          ],
          [
            15.41749,
            57.64312
          ],
          [
            15.41786,
            57.6429
          ],
          [
            15.41818,
            57.64269
          ],
          [
            15.41848,
            57.64251
          ],
          [
            15.41866,
            57.6424
          ],
          [
            15.41906,
            57.64215
          ],
          [
            15.41939,
            57.64196
          ],
          [
            15.41962,
            57.64186
          ],
          [
            15.41989,
            57.64174
          ],
          [
            15.42015,
            57.64163
          ],
          [
            15.42044,
            57.64152
          ],
          [
            15.42077,
            57.64144
          ],
          [
            15.42116,
            57.64142
          ],
          [
            15.42124,
            57.6414
          ],
          [
            15.42129,
            57.64125
          ],
          [
            15.42131,
            57.64115
          ],
          [
            15.42145,
            57.64115
          ],
          [
            15.42196,
            57.64121
          ],
          [
            15.42223,
            57.6412
          ],
          [
            15.42247,
            57.64115
          ],
          [
            15.42277,
            57.64102
          ],
          [
            15.42296,
            57.64093
          ],
          [
            15.42317,
            57.64085
          ],
          [
            15.42342,
            57.64077
          ],
          [
            15.4237,
            57.6407
          ],
          [
            15.42407,
            57.64059
          ],
          [
            15.42433,
            57.64046
          ],
          [
            15.42464,
            57.64037
          ],
          [
            15.425,
            57.64029
          ],
          [
            15.42517,
            57.64027
          ],
          [
            15.42517,
            57.64009
          ],
          [
            15.42514,
            57.63997
          ],
          [
            15.42511,
            57.63989
          ],
          [
            15.42503,
            57.63983
          ],
          [
            15.42497,
            57.63977
          ],
          [
            15.42492,
            57.6397
          ],
          [
            15.42491,
            57.63956
          ],
          [
            15.42494,
            57.63944
          ],
          [
            15.42499,
            57.63935
          ],
          [
            15.42503,
            57.63929
          ],
          [
            15.42511,
            57.63921
          ],
          [
            15.42518,
            57.63908
          ],
          [
            15.4252,
            57.639
          ],
          [
            15.42522,
            57.63886
          ],
          [
            15.42519,
            57.6386
          ],
          [
            15.42512,
            57.63845
          ],
          [
            15.42503,
            57.63832
          ],
          [
            15.42497,
            57.63824
          ],
          [
            15.4249,
            57.63806
          ],
          [
            15.42489,
            57.63793
          ],
          [
            15.42491,
            57.6378
          ],
          [
            15.42491,
            57.63766
          ],
          [
            15.42488,
            57.63752
          ],
          [
            15.42479,
            57.63737
          ],
          [
            15.42476,
            57.63726
          ],
          [
            15.42473,
            57.63715
          ],
          [
            15.42474,
            57.63701
          ],
          [
            15.42481,
            57.63692
          ],
          [
            15.42501,
            57.63682
          ],
          [
            15.42518,
            57.63676
          ],
          [
            15.42533,
            57.63669
          ],
          [
            15.42539,
            57.6366
          ],
          [
            15.42545,
            57.63649
          ],
          [
            15.42555,
            57.63641
          ],
          [
            15.42563,
            57.63633
          ],
          [
            15.42571,
            57.63626
          ],
          [
            15.42583,
            57.6362
          ],
          [
            15.4259,
            57.63614
          ],
          [
            15.426,
            57.63605
          ],
          [
            15.42605,
            57.63595
          ],
          [
            15.42614,
            57.63586
          ],
          [
            15.4263,
            57.63574
          ],
          [
            15.42647,
            57.63564
          ],
          [
            15.42667,
            57.63559
          ],
          [
            15.42683,
            57.63552
          ],
          [
            15.42696,
            57.63541
          ],
          [
            15.42713,
            57.63531
          ],
          [
            15.4273,
            57.63523
          ],
          [
            15.42748,
            57.63516
          ],
          [
            15.42766,
            57.6351
          ],
          [
            15.42788,
            57.63496
          ],
          [
            15.42797,
            57.63487
          ],
          [
            15.42803,
            57.63479
          ],
          [
            15.42806,
            57.63473
          ],
          [
            15.42811,
            57.63466
          ],
          [
            15.42813,
            57.63459
          ],
          [
            15.42813,
            57.6345
          ],
          [
            15.42815,
            57.63441
          ],
          [
            15.42818,
            57.63434
          ],
          [
            15.42823,
            57.63429
          ],
          [
            15.42824,
            57.63421
          ],
          [
            15.42822,
            57.63412
          ],
          [
            15.42821,
            57.63403
          ],
          [
            15.42825,
            57.63396
          ],
          [
            15.42835,
            57.63388
          ],
          [
            15.42866,
            57.63373
          ],
          [
            15.42887,
            57.6336
          ],
          [
            15.42904,
            57.6335
          ],
          [
            15.42915,
            57.63343
          ],
          [
            15.42922,
            57.63337
          ],
          [
            15.4293,
            57.63326
          ],
          [
            15.42936,
            57.63314
          ],
          [
            15.4294,
            57.63305
          ],
          [
            15.42949,
            57.63301
          ],
          [
            15.42972,
            57.63303
          ],
          [
            15.42991,
            57.63305
          ],
          [
            15.43012,
            57.63304
          ],
          [
            15.43026,
            57.633
          ],
          [
            15.43056,
            57.63288
          ],
          [
            15.43075,
            57.63281
          ],
          [
            15.43105,
            57.6327
          ],
          [
            15.43116,
            57.63263
          ],
          [
            15.43124,
            57.63256
          ],
          [
            15.43132,
            57.63248
          ],
          [
            15.43139,
            57.63236
          ],
          [
            15.43152,
            57.63227
          ],
          [
            15.43164,
            57.6322
          ],
          [
            15.43176,
            57.6322
          ],
          [
            15.43192,
            57.63223
          ],
          [
            15.43209,
            57.63223
          ],
          [
            15.43224,
            57.6322
          ],
          [
            15.43234,
            57.63216
          ],
          [
            15.43262,
            57.63206
          ],
          [
            15.43277,
            57.63203
          ],
          [
            15.43296,
            57.63206
          ],
          [
            15.43312,
            57.63212
          ],
          [
            15.43324,
            57.63215
          ],
          [
            15.43344,
            57.63216
          ],
          [
            15.43367,
            57.63214
          ],
          [
            15.43381,
            57.6321
          ],
          [
            15.4339,
            57.63205
          ],
          [
            15.434,
            57.63198
          ],
          [
            15.43417,
            57.63185
          ],
          [
            15.43435,
            57.63172
          ],
          [
            15.43445,
            57.63165
          ],
          [
            15.43462,
            57.63156
          ],
          [
            15.43479,
            57.63149
          ],
          [
            15.43496,
            57.63143
          ],
          [
            15.43507,
            57.63139
          ],
          [
            15.43518,
            57.63137
          ],
          [
            15.43538,
            57.63134
          ],
          [
            15.43558,
            57.63128
          ],
          [
            15.43582,
            57.63119
          ],
          [
            15.43597,
            57.63111
          ],
          [
            15.43613,
            57.63104
          ],
          [
            15.43628,
            57.63098
          ],
          [
            15.43643,
            57.63094
          ],
          [
            15.43653,
            57.63093
          ],
          [
            15.43671,
            57.63092
          ],
          [
            15.4369,
            57.63091
          ],
          [
            15.43708,
            57.6309
          ],
          [
            15.43728,
            57.6309
          ],
          [
            15.43747,
            57.63092
          ],
          [
            15.43759,
            57.63095
          ],
          [
            15.43775,
            57.63096
          ],
          [
            15.43798,
            57.63095
          ],
          [
            15.43816,
            57.63095
          ],
          [
            15.43843,
            57.63094
          ],
          [
            15.43865,
            57.63094
          ],
          [
            15.43882,
            57.63095
          ],
          [
            15.43897,
            57.63095
          ],
          [
            15.4391,
            57.63098
          ],
          [
            15.43922,
            57.63103
          ],
          [
            15.43929,
            57.63108
          ],
          [
            15.43943,
            57.63108
          ],
          [
            15.43967,
            57.631
          ],
          [
            15.43996,
            57.63089
          ],
          [
            15.44038,
            57.63075
          ],
          [
            15.44078,
            57.63062
          ],
          [
            15.44094,
            57.63056
          ],
          [
            15.4411,
            57.63048
          ],
          [
            15.4415,
            57.63032
          ],
          [
            15.4417,
            57.63027
          ],
          [
            15.44182,
            57.63022
          ],
          [
            15.44195,
            57.63013
          ],
          [
            15.44207,
            57.63001
          ],
          [
            15.44222,
            57.62989
          ],
          [
            15.44244,
            57.62984
          ],
          [
            15.44261,
            57.62983
          ],
          [
            15.44272,
            57.62982
          ],
          [
            15.4429,
            57.62984
          ],
          [
            15.44318,
            57.62984
          ],
          [
            15.44356,
            57.62984
          ],
          [
            15.44372,
            57.62975
          ],
          [
            15.44387,
            57.62963
          ],
          [
            15.44405,
            57.62959
          ],
          [
            15.44426,
            57.62965
          ],
          [
            15.44446,
            57.62972
          ],
          [
            15.44473,
            57.62979
          ],
          [
            15.44512,
            57.62983
          ],
          [
            15.44542,
            57.62985
          ],
          [
            15.44571,
            57.62987
          ],
          [
            15.44585,
            57.62991
          ],
          [
            15.44601,
            57.63003
          ],
          [
            15.44613,
            57.63017
          ],
          [
            15.44621,
            57.6303
          ],
          [
            15.44634,
            57.63046
          ],
          [
            15.44644,
            57.63054
          ],
          [
            15.44686,
            57.63064
          ],
          [
            15.44732,
            57.63075
          ],
          [
            15.44765,
            57.63083
          ],
          [
            15.44808,
            57.63094
          ],
          [
            15.44858,
            57.63106
          ],
          [
            15.44898,
            57.63116
          ],
          [
            15.44937,
            57.63138
          ],
          [
            15.44974,
            57.63156
          ],
          [
            15.45004,
            57.63172
          ],
          [
            15.45021,
            57.63176
          ],
          [
            15.45041,
            57.63179
          ],
          [
            15.4507,
            57.6318
          ],
          [
            15.45103,
            57.63168
          ],
          [
            15.45112,
            57.63152
          ],
          [
            15.45124,
            57.63145
          ],
          [
            15.45144,
            57.63134
          ],
          [
            15.45162,
            57.63131
          ],
          [
            15.45175,
            57.63131
          ],
          [
            15.45209,
            57.63134
          ],
          [
            15.45232,
            57.63136
          ],
          [
            15.45252,
            57.63136
          ],
          [
            15.45278,
            57.63135
          ],
          [
            15.45305,
            57.63137
          ],
          [
            15.45349,
            57.63143
          ],
          [
            15.45396,
            57.6315
          ],
          [
            15.45432,
            57.63158
          ],
          [
            15.45457,
            57.63164
          ],
          [
            15.45493,
            57.63172
          ],
          [
            15.45525,
            57.63179
          ],
          [
            15.45548,
            57.63184
          ],
          [
            15.45568,
            57.63191
          ],
          [
            15.45589,
            57.63205
          ],
          [
            15.45623,
            57.6323
          ],
          [
            15.45641,
            57.63242
          ],
          [
            15.45657,
            57.6325
          ],
          [
            15.45709,
            57.63262
          ],
          [
            15.45778,
            57.6328
          ],
          [
            15.45856,
            57.633
          ],
          [
            15.45942,
            57.6332
          ],
          [
            15.45988,
            57.63331
          ],
          [
            15.46074,
            57.63353
          ],
          [
            15.46099,
            57.63361
          ],
          [
            15.46122,
            57.63366
          ],
          [
            15.46149,
            57.63365
          ],
          [
            15.46209,
            57.63355
          ],
          [
            15.46244,
            57.63351
          ],
          [
            15.46273,
            57.63348
          ],
          [
            15.46335,
            57.6335
          ],
          [
            15.464,
            57.63352
          ],
          [
            15.46455,
            57.63354
          ],
          [
            15.46516,
            57.63357
          ],
          [
            15.46536,
            57.63355
          ],
          [
            15.46567,
            57.63349
          ],
          [
            15.46604,
            57.63332
          ],
          [
            15.46625,
            57.63329
          ],
          [
            15.46656,
            57.63328
          ],
          [
            15.46692,
            57.6333
          ],
          [
            15.46734,
            57.63334
          ],
          [
            15.46772,
            57.63335
          ],
          [
            15.46814,
            57.6333
          ],
          [
            15.46862,
            57.63329
          ],
          [
            15.46911,
            57.63338
          ],
          [
            15.46977,
            57.63343
          ],
          [
            15.47025,
            57.63341
          ],
          [
            15.47097,
            57.63331
          ],
          [
            15.47156,
            57.63331
          ],
          [
            15.47207,
            57.63331
          ],
          [
            15.47267,
            57.63327
          ],
          [
            15.47329,
            57.63314
          ],
          [
            15.47376,
            57.63297
          ],
          [
            15.47429,
            57.63277
          ],
          [
            15.47474,
            57.63256
          ],
          [
            15.47498,
            57.63244
          ],
          [
            15.47526,
            57.63228
          ],
          [
            15.47539,
            57.63228
          ],
          [
            15.47567,
            57.63237
          ],
          [
            15.47616,
            57.63249
          ],
          [
            15.47638,
            57.63256
          ],
          [
            15.47665,
            57.63267
          ],
          [
            15.47699,
            57.63288
          ],
          [
            15.47724,
            57.63307
          ],
          [
            15.47739,
            57.63333
          ],
          [
            15.47744,
            57.63355
          ],
          [
            15.47739,
            57.6339
          ],
          [
            15.47733,
            57.63427
          ],
          [
            15.47728,
            57.63451
          ],
          [
            15.47725,
            57.6347
          ],
          [
            15.47724,
            57.63491
          ],
          [
            15.47727,
            57.63507
          ],
          [
            15.47734,
            57.63545
          ],
          [
            15.47738,
            57.63579
          ],
          [
            15.47737,
            57.63598
          ],
          [
            15.47733,
            57.63618
          ],
          [
            15.47729,
            57.63634
          ],
          [
            15.47727,
            57.63646
          ],
          [
            15.47729,
            57.63664
          ],
          [
            15.47734,
            57.63682
          ],
          [
            15.4774,
            57.63696
          ],
          [
            15.47744,
            57.63714
          ],
          [
            15.47744,
            57.63734
          ],
          [
            15.47738,
            57.63775
          ],
          [
            15.47733,
            57.63797
          ],
          [
            15.47724,
            57.6382
          ],
          [
            15.47718,
            57.63823
          ],
          [
            15.47656,
            57.63849
          ],
          [
            15.47619,
            57.6387
          ],
          [
            15.47578,
            57.63896
          ],
          [
            15.47567,
            57.63905
          ],
          [
            15.47562,
            57.63921
          ],
          [
            15.47559,
            57.6394
          ],
          [
            15.47561,
            57.63986
          ],
          [
            15.47568,
            57.64014
          ],
          [
            15.47578,
            57.64039
          ],
          [
            15.47603,
            57.64058
          ],
          [
            15.47659,
            57.64093
          ],
          [
            15.47692,
            57.64112
          ],
          [
            15.47746,
            57.64143
          ],
          [
            15.47789,
            57.6417
          ],
          [
            15.47817,
            57.64186
          ],
          [
            15.47855,
            57.64206
          ],
          [
            15.47896,
            57.64229
          ],
          [
            15.47936,
            57.64251
          ],
          [
            15.47944,
            57.64257
          ],
          [
            15.47955,
            57.64266
          ],
          [
            15.4797,
            57.64287
          ],
          [
            15.4798,
            57.64308
          ],
          [
            15.4799,
            57.64336
          ],
          [
            15.47997,
            57.64366
          ],
          [
            15.47997,
            57.64406
          ],
          [
            15.47986,
            57.64436
          ],
          [
            15.47984,
            57.64457
          ],
          [
            15.47991,
            57.64481
          ],
          [
            15.48012,
            57.64502
          ],
          [
            15.48032,
            57.64519
          ],
          [
            15.48047,
            57.64528
          ],
          [
            15.48066,
            57.64538
          ],
          [
            15.48102,
            57.64555
          ],
          [
            15.4816,
            57.64584
          ],
          [
            15.48194,
            57.64601
          ],
          [
            15.4822,
            57.64616
          ],
          [
            15.4826,
            57.6464
          ],
          [
            15.48297,
            57.64664
          ],
          [
            15.48316,
            57.64674
          ],
          [
            15.48338,
            57.64685
          ],
          [
            15.48357,
            57.6469
          ],
          [
            15.48388,
            57.64697
          ],
          [
            15.4845,
            57.64707
          ],
          [
            15.48502,
            57.64713
          ],
          [
            15.48548,
            57.64712
          ],
          [
            15.48575,
            57.64707
          ],
          [
            15.48618,
            57.64697
          ],
          [
            15.48674,
            57.64676
          ],
          [
            15.48698,
            57.64663
          ],
          [
            15.48717,
            57.64652
          ],
          [
            15.48739,
            57.64636
          ],
          [
            15.4877,
            57.64606
          ],
          [
            15.48782,
            57.64592
          ],
          [
            15.48803,
            57.64572
          ],
          [
            15.48843,
            57.64546
          ],
          [
            15.48897,
            57.64517
          ],
          [
            15.48922,
            57.64505
          ],
          [
            15.48939,
            57.645
          ],
          [
            15.48998,
            57.64491
          ],
          [
            15.4907,
            57.64482
          ],
          [
            15.4912,
            57.64474
          ],
          [
            15.49182,
            57.64461
          ],
          [
            15.49223,
            57.64447
          ],
          [
            15.49266,
            57.6443
          ],
          [
            15.49322,
            57.64408
          ],
          [
            15.49365,
            57.64395
          ],
          [
            15.49405,
            57.64385
          ],
          [
            15.49437,
            57.64377
          ],
          [
            15.49484,
            57.64367
          ],
          [
            15.49523,
            57.64363
          ],
          [
            15.4954,
            57.64363
          ],
          [
            15.49557,
            57.64367
          ],
          [
            15.49601,
            57.64382
          ],
          [
            15.49673,
            57.64409
          ],
          [
            15.49729,
            57.64431
          ],
          [
            15.49791,
            57.64454
          ],
          [
            15.49821,
            57.64464
          ],
          [
            15.49854,
            57.64478
          ],
          [
            15.4988,
            57.64488
          ],
          [
            15.49918,
            57.64502
          ],
          [
            15.49948,
            57.64514
          ],
          [
            15.49985,
            57.64528
          ],
          [
            15.5003,
            57.64548
          ],
          [
            15.50044,
            57.64552
          ],
          [
            15.50066,
            57.64558
          ],
          [
            15.50098,
            57.64563
          ],
          [
            15.50128,
            57.64569
          ],
          [
            15.5018,
            57.64578
          ],
          [
            15.50233,
            57.64586
          ],
          [
            15.5029,
            57.64596
          ],
          [
            15.5033,
            57.64601
          ],
          [
            15.50344,
            57.64601
          ],
          [
            15.50391,
            57.64596
          ],
          [
            15.50477,
            57.64582
          ],
          [
            15.50551,
            57.64569
          ],
          [
            15.50629,
            57.64555
          ],
          [
            15.50696,
            57.64542
          ],
          [
            15.50759,
            57.64532
          ],
          [
            15.50795,
            57.64526
          ],
          [
            15.50812,
            57.645
          ],
          [
            15.50823,
            57.64481
          ],
          [
            15.50837,
            57.64452
          ],
          [
            15.5086,
            57.64422
          ],
          [
            15.50878,
            57.64403
          ],
          [
            15.50893,
            57.64388
          ],
          [
            15.50907,
            57.64379
          ],
          [
            15.50942,
            57.64357
          ],
          [
            15.50962,
            57.64347
          ],
          [
            15.50992,
            57.64332
          ],
          [
            15.51015,
            57.6432
          ],
          [
            15.51043,
            57.64308
          ],
          [
            15.51078,
            57.64295
          ],
          [
            15.51112,
            57.64283
          ],
          [
            15.51139,
            57.64273
          ],
          [
            15.51172,
            57.64257
          ],
          [
            15.51224,
            57.64233
          ],
          [
            15.51267,
            57.64213
          ],
          [
            15.51308,
            57.64195
          ],
          [
            15.51325,
            57.64188
          ],
          [
            15.51354,
            57.64178
          ],
          [
            15.5138,
            57.6417
          ],
          [
            15.51418,
            57.64156
          ],
          [
            15.51445,
            57.6414
          ],
          [
            15.5148,
            57.64117
          ],
          [
            15.51519,
            57.64087
          ],
          [
            15.51542,
            57.64069
          ],
          [
            15.51583,
            57.6404
          ],
          [
            15.51607,
            57.64026
          ],
          [
            15.51645,
            57.64003
          ],
          [
            15.51677,
            57.63983
          ],
          [
            15.51694,
            57.63968
          ],
          [
            15.51705,
            57.63954
          ],
          [
            15.51715,
            57.63937
          ],
          [
            15.51726,
            57.6392
          ],
          [
            15.51733,
            57.63902
          ],
          [
            15.51743,
            57.63891
          ],
          [
            15.51766,
            57.63872
          ],
          [
            15.51784,
            57.63862
          ],
          [
            15.5182,
            57.63847
          ],
          [
            15.51831,
            57.63844
          ],
          [
            15.51846,
            57.63848
          ],
          [
            15.51845,
            57.63867
          ],
          [
            15.5185,
            57.63881
          ],
          [
            15.51863,
            57.63894
          ],
          [
            15.51899,
            57.63918
          ],
          [
            15.5194,
            57.63944
          ],
          [
            15.5198,
            57.63967
          ],
          [
            15.52016,
            57.63989
          ],
          [
            15.52037,
            57.64008
          ],
          [
            15.52054,
            57.64029
          ],
          [
            15.52058,
            57.64039
          ],
          [
            15.52064,
            57.64053
          ],
          [
            15.52071,
            57.64071
          ],
          [
            15.52088,
            57.64091
          ],
          [
            15.52144,
            57.64123
          ],
          [
            15.52157,
            57.64133
          ],
          [
            15.52175,
            57.64143
          ],
          [
            15.52191,
            57.64148
          ],
          [
            15.52252,
            57.64161
          ],
          [
            15.52314,
            57.64174
          ],
          [
            15.52365,
            57.64187
          ],
          [
            15.52383,
            57.64193
          ],
          [
            15.52402,
            57.64202
          ],
          [
            15.52426,
            57.64217
          ],
          [
            15.52472,
            57.64246
          ],
          [
            15.52492,
            57.64257
          ],
          [
            15.52509,
            57.64266
          ],
          [
            15.5257,
            57.6429
          ],
          [
            15.52633,
            57.64316
          ],
          [
            15.52681,
            57.64335
          ],
          [
            15.52699,
            57.64344
          ],
          [
            15.52713,
            57.64353
          ],
          [
            15.52746,
            57.64381
          ],
          [
            15.52774,
            57.64406
          ],
          [
            15.52805,
            57.64433
          ],
          [
            15.52835,
            57.64462
          ],
          [
            15.52851,
            57.64487
          ],
          [
            15.52858,
            57.64512
          ],
          [
            15.5286,
            57.64548
          ],
          [
            15.52864,
            57.6456
          ],
          [
            15.5287,
            57.64568
          ],
          [
            15.5289,
            57.64582
          ],
          [
            15.52917,
            57.64598
          ],
          [
            15.52958,
            57.6462
          ],
          [
            15.52998,
            57.64642
          ],
          [
            15.53051,
            57.64666
          ],
          [
            15.53069,
            57.64676
          ],
          [
            15.53103,
            57.64697
          ],
          [
            15.53128,
            57.6471
          ],
          [
            15.53164,
            57.64725
          ],
          [
            15.53185,
            57.6473
          ],
          [
            15.53248,
            57.64735
          ],
          [
            15.53278,
            57.64737
          ],
          [
            15.53308,
            57.64742
          ],
          [
            15.53326,
            57.6475
          ],
          [
            15.53347,
            57.64763
          ],
          [
            15.53363,
            57.64778
          ],
          [
            15.53374,
            57.64789
          ],
          [
            15.53382,
            57.64809
          ],
          [
            15.53392,
            57.64851
          ],
          [
            15.53397,
            57.64866
          ],
          [
            15.53412,
            57.64885
          ],
          [
            15.53419,
            57.64891
          ],
          [
            15.53447,
            57.6491
          ],
          [
            15.53464,
            57.64921
          ],
          [
            15.53471,
            57.64928
          ],
          [
            15.53476,
            57.64939
          ],
          [
            15.53479,
            57.64949
          ],
          [
            15.53472,
            57.64974
          ],
          [
            15.53476,
            57.64985
          ],
          [
            15.53491,
            57.64999
          ],
          [
            15.53507,
            57.6501
          ],
          [
            15.53543,
            57.65032
          ],
          [
            15.53565,
            57.65042
          ],
          [
            15.53599,
            57.65047
          ],
          [
            15.53621,
            57.65046
          ],
          [
            15.53644,
            57.65039
          ],
          [
            15.5367,
            57.65022
          ],
          [
            15.53692,
            57.65013
          ],
          [
            15.53737,
            57.64993
          ],
          [
            15.53758,
            57.64989
          ],
          [
            15.53788,
            57.64994
          ],
          [
            15.53814,
            57.64987
          ],
          [
            15.53834,
            57.64979
          ],
          [
            15.5385,
            57.64968
          ],
          [
            15.53875,
            57.64954
          ],
          [
            15.53883,
            57.64948
          ],
          [
            15.53895,
            57.64937
          ],
          [
            15.5391,
            57.64927
          ],
          [
            15.53933,
            57.6492
          ],
          [
            15.53986,
            57.64897
          ],
          [
            15.54012,
            57.64884
          ],
          [
            15.54023,
            57.64876
          ],
          [
            15.54043,
            57.64869
          ],
          [
            15.54059,
            57.64865
          ],
          [
            15.54081,
            57.6486
          ],
          [
            15.54121,
            57.6485
          ],
          [
            15.54138,
            57.64846
          ],
          [
            15.54164,
            57.64842
          ],
          [
            15.54213,
            57.64834
          ],
          [
            15.54271,
            57.64826
          ],
          [
            15.54284,
            57.64823
          ],
          [
            15.54324,
            57.64814
          ],
          [
            15.54344,
            57.6481
          ],
          [
            15.54361,
            57.648
          ],
          [
            15.54368,
            57.64793
          ],
          [
            15.54373,
            57.64788
          ],
          [
            15.54385,
            57.6478
          ],
          [
            15.54406,
            57.64769
          ],
          [
            15.54425,
            57.6476
          ],
          [
            15.54451,
            57.64753
          ],
          [
            15.54473,
            57.64746
          ],
          [
            15.54491,
            57.64744
          ],
          [
            15.5451,
            57.64743
          ],
          [
            15.54523,
            57.64745
          ],
          [
            15.54543,
            57.64754
          ],
          [
            15.54573,
            57.64766
          ],
          [
            15.54601,
            57.64779
          ],
          [
            15.54619,
            57.64781
          ],
          [
            15.54637,
            57.64779
          ],
          [
            15.54677,
            57.64782
          ],
          [
            15.54719,
            57.64773
          ],
          [
            15.54731,
            57.64769
          ],
          [
            15.54745,
            57.64762
          ],
          [
            15.54759,
            57.64752
          ],
          [
            15.54778,
            57.64747
          ],
          [
            15.54818,
            57.64723
          ],
          [
            15.54842,
            57.64713
          ],
          [
            15.54877,
            57.64694
          ],
          [
            15.54884,
            57.64681
          ],
          [
            15.54886,
            57.64672
          ],
          [
            15.54899,
            57.64659
          ],
          [
            15.54911,
            57.64648
          ],
          [
            15.54927,
            57.64638
          ],
          [
            15.54941,
            57.64635
          ],
          [
            15.54955,
            57.64632
          ],
          [
            15.54978,
            57.64634
          ],
          [
            15.54996,
            57.64632
          ],
          [
            15.55021,
            57.64631
          ],
          [
            15.5504,
            57.64629
          ],
          [
            15.55057,
            57.64621
          ],
          [
            15.55063,
            57.6461
          ],
          [
            15.55085,
            57.64589
          ],
          [
            15.55099,
            57.64561
          ],
          [
            15.55137,
            57.64536
          ],
          [
            15.55162,
            57.64528
          ],
          [
            15.55189,
            57.6452
          ],
          [
            15.55197,
            57.64511
          ],
          [
            15.55199,
            57.64502
          ],
          [
            15.55185,
            57.64491
          ],
          [
            15.5518,
            57.64484
          ],
          [
            15.5523,
            57.64469
          ],
          [
            15.55295,
            57.64451
          ],
          [
            15.55378,
            57.64427
          ],
          [
            15.55454,
            57.64403
          ],
          [
            15.55493,
            57.64392
          ],
          [
            15.55546,
            57.64374
          ],
          [
            15.55585,
            57.6436
          ],
          [
            15.55636,
            57.64343
          ],
          [
            15.55674,
            57.6433
          ],
          [
            15.55721,
            57.64314
          ],
          [
            15.55774,
            57.64296
          ],
          [
            15.55819,
            57.6428
          ],
          [
            15.55857,
            57.64266
          ],
          [
            15.55886,
            57.64257
          ],
          [
            15.55949,
            57.6424
          ],
          [
            15.56029,
            57.64219
          ],
          [
            15.5607,
            57.64209
          ],
          [
            15.56112,
            57.64199
          ],
          [
            15.56197,
            57.64179
          ],
          [
            15.5623,
            57.64173
          ],
          [
            15.56274,
            57.64164
          ],
          [
            15.56311,
            57.64158
          ],
          [
            15.56389,
            57.64149
          ],
          [
            15.56405,
            57.64147
          ],
          [
            15.56438,
            57.6414
          ],
          [
            15.56464,
            57.64131
          ],
          [
            15.56501,
            57.64111
          ],
          [
            15.56549,
            57.64086
          ],
          [
            15.56585,
            57.64067
          ],
          [
            15.56636,
            57.6404
          ],
          [
            15.56672,
            57.64021
          ],
          [
            15.56709,
            57.64003
          ],
          [
            15.56758,
            57.63978
          ],
          [
            15.56807,
            57.63954
          ],
          [
            15.56861,
            57.63929
          ],
          [
            15.56904,
            57.63909
          ],
          [
            15.56923,
            57.63902
          ],
          [
            15.56942,
            57.63898
          ],
          [
            15.57007,
            57.63883
          ],
          [
            15.57048,
            57.63873
          ],
          [
            15.57091,
            57.63862
          ],
          [
            15.57137,
            57.63852
          ],
          [
            15.5718,
            57.63843
          ],
          [
            15.57239,
            57.63829
          ],
          [
            15.57296,
            57.63815
          ],
          [
            15.57326,
            57.63804
          ],
          [
            15.57378,
            57.63786
          ],
          [
            15.57409,
            57.63775
          ],
          [
            15.57446,
            57.6376
          ],
          [
            15.575,
            57.63741
          ],
          [
            15.57492,
            57.63739
          ],
          [
            15.57458,
            57.63739
          ],
          [
            15.57419,
            57.63738
          ],
          [
            15.57408,
            57.63733
          ],
          [
            15.5742,
            57.63727
          ],
          [
            15.57455,
            57.63714
          ],
          [
            15.57486,
            57.63703
          ],
          [
            15.57503,
            57.63693
          ],
          [
            15.5752,
            57.63685
          ],
          [
            15.57531,
            57.63679
          ],
          [
            15.57547,
            57.63675
          ],
          [
            15.57573,
            57.63669
          ],
          [
            15.57605,
            57.63658
          ],
          [
            15.57631,
            57.63648
          ],
          [
            15.57651,
            57.6364
          ],
          [
            15.57685,
            57.63626
          ],
          [
            15.57715,
            57.63612
          ],
          [
            15.5773,
            57.63605
          ],
          [
            15.57744,
            57.63596
          ],
          [
            15.57761,
            57.63579
          ],
          [
            15.57779,
            57.63567
          ],
          [
            15.57806,
            57.63555
          ],
          [
            15.57831,
            57.63543
          ],
          [
            15.57847,
            57.63533
          ],
          [
            15.57857,
            57.63523
          ],
          [
            15.57863,
            57.63509
          ],
          [
            15.57866,
            57.63497
          ],
          [
            15.57873,
            57.63487
          ],
          [
            15.57885,
            57.63478
          ],
          [
            15.57898,
            57.63471
          ],
          [
            15.57914,
            57.63463
          ],
          [
            15.57933,
            57.63456
          ],
          [
            15.5796,
            57.63448
          ],
          [
            15.58004,
            57.63439
          ],
          [
            15.5804,
            57.63432
          ],
          [
            15.58072,
            57.63427
          ],
          [
            15.58115,
            57.63416
          ],
          [
            15.58147,
            57.63408
          ],
          [
            15.58207,
            57.63393
          ],
          [
            15.5823,
            57.63387
          ],
          [
            15.58247,
            57.63384
          ],
          [
            15.58277,
            57.63377
          ],
          [
            15.58305,
            57.6337
          ],
          [
            15.58329,
            57.63365
          ],
          [
            15.58354,
            57.63361
          ],
          [
            15.58373,
            57.63358
          ],
          [
            15.58397,
            57.63353
          ],
          [
            15.58418,
            57.63349
          ],
          [
            15.58447,
            57.6334
          ],
          [
            15.58465,
            57.6333
          ],
          [
            15.5847,
            57.63322
          ],
          [
            15.58477,
            57.63309
          ],
          [
            15.58481,
            57.63296
          ],
          [
            15.58481,
            57.63282
          ],
          [
            15.58482,
            57.63269
          ],
          [
            15.5849,
            57.63256
          ],
          [
            15.58499,
            57.63246
          ],
          [
            15.58507,
            57.63233
          ],
          [
            15.58512,
            57.6322
          ],
          [
            15.58517,
            57.63203
          ],
          [
            15.58517,
            57.6319
          ],
          [
            15.58513,
            57.63178
          ],
          [
            15.58511,
            57.63169
          ],
          [
            15.58507,
            57.63142
          ],
          [
            15.58506,
            57.6313
          ],
          [
            15.58507,
            57.63118
          ],
          [
            15.58508,
            57.63109
          ],
          [
            15.58511,
            57.63102
          ],
          [
            15.58517,
            57.63097
          ],
          [
            15.58539,
            57.63089
          ],
          [
            15.58557,
            57.63077
          ],
          [
            15.58568,
            57.63059
          ],
          [
            15.58585,
            57.63025
          ],
          [
            15.58601,
            57.62992
          ],
          [
            15.58609,
            57.62975
          ],
          [
            15.58619,
            57.62957
          ],
          [
            15.58624,
            57.6294
          ],
          [
            15.58625,
            57.62931
          ],
          [
            15.58621,
            57.62919
          ],
          [
            15.58614,
            57.62904
          ],
          [
            15.58602,
            57.62888
          ],
          [
            15.58588,
            57.62879
          ],
          [
            15.58546,
            57.62855
          ],
          [
            15.58537,
            57.62839
          ],
          [
            15.58546,
            57.62826
          ],
          [
            15.58566,
            57.62816
          ],
          [
            15.58591,
            57.6281
          ],
          [
            15.58624,
            57.62799
          ],
          [
            15.58656,
            57.62789
          ],
          [
            15.58688,
            57.62779
          ],
          [
            15.58728,
            57.62769
          ],
          [
            15.58759,
            57.62762
          ],
          [
            15.58777,
            57.62756
          ],
          [
            15.58801,
            57.62744
          ],
          [
            15.58831,
            57.62731
          ],
          [
            15.58857,
            57.62717
          ],
          [
            15.58903,
            57.62695
          ],
          [
            15.58921,
            57.62688
          ],
          [
            15.58969,
            57.6269
          ],
          [
            15.59021,
            57.62694
          ],
          [
            15.59043,
            57.62688
          ],
          [
            15.59067,
            57.62677
          ],
          [
            15.59091,
            57.62664
          ],
          [
            15.59122,
            57.62646
          ],
          [
            15.59136,
            57.62638
          ],
          [
            15.59143,
            57.6263
          ],
          [
            15.59154,
            57.62606
          ],
          [
            15.59153,
            57.62597
          ],
          [
            15.59146,
            57.62576
          ],
          [
            15.59148,
            57.62563
          ],
          [
            15.59152,
            57.62552
          ],
          [
            15.5916,
            57.62535
          ],
          [
            15.59169,
            57.62523
          ],
          [
            15.59185,
            57.62507
          ],
          [
            15.59218,
            57.62477
          ],
          [
            15.59235,
            57.62461
          ],
          [
            15.59252,
            57.62447
          ],
          [
            15.59275,
            57.62429
          ],
          [
            15.59287,
            57.6242
          ],
          [
            15.5931,
            57.62413
          ],
          [
            15.59339,
            57.62412
          ],
          [
            15.59368,
            57.6241
          ],
          [
            15.59393,
            57.62406
          ],
          [
            15.59407,
            57.62402
          ],
          [
            15.5942,
            57.62396
          ],
          [
            15.59437,
            57.6239
          ],
          [
            15.59448,
            57.62386
          ],
          [
            15.59487,
            57.62376
          ],
          [
            15.59505,
            57.62369
          ],
          [
            15.59539,
            57.62361
          ],
          [
            15.59591,
            57.62357
          ],
          [
            15.59609,
            57.62353
          ],
          [
            15.59622,
            57.62349
          ],
          [
            15.596266,
            57.62345
          ],
          [
            15.59618,
            57.62342
          ],
          [
            15.59636,
            57.62329
          ],
          [
            15.59676,
            57.62277
          ],
          [
            15.59711,
            57.62247
          ],
          [
            15.59712,
            57.62247
          ]
        ]
      }
    }
  ]
}
