{
  "type": "FeatureCollection",
  "features": [
    {
      "type": "Feature",
      "properties": {
        "name": "Slinga 29:1: Björkbackaslingan",
        "segment": 1,
        "split": 1
      },
      "geometry": {
        "type": "LineString",
        "coordinates": [
          [
            17.53224829803935,
            59.57221762534402
          ],
          [
            17.53165438542231,
            59.57284927462103
          ],
          [
            17.53055564707921,
            59.57315005582387
          ],
          [
            17.52901147427326,
            59.57342075660765
          ],
          [
            17.52708125826516,
            59.57406742188456
          ],
          [
            17.52604191118417,
            59.57450353796415
          ],
          [
            17.52485408594893,
            59.57493964839145
          ],
          [
            17.52277539178814,
            59.57606749397499
          ],
          [
            17.52152817529074,
            59.57665395873866
          ],
          [
            17.51956826365316,
            59.57730056188572
          ],
          [
            17.51775683016368,
            59.57806744718394
          ],
          [
            17.51722230880878,
            59.57847343820663
          ],
          [
            17.51728170006984,
            59.5796462736408
          ],
          [
            17.51633143988209,
            59.58024771185009
          ],
          [
            17.51612357046565,
            59.58042814121626
          ],
          [
            17.516301744251,
            59.5806837478284
          ],
          [
            17.51686596123812,
            59.58065367656317
          ],
          [
            17.51873678598363,
            59.58142048543252
          ],
          [
            17.51989547689567,
            59.58235237671391
          ],
          [
            17.5204003026206,
            59.58239748132416
          ],
          [
            17.52120208465408,
            59.58322438846076
          ],
          [
            17.52140995407052,
            59.58369045443484
          ],
          [
            17.52135056280835,
            59.5843068543532
          ],
          [
            17.52179599727225,
            59.58424671827322
          ],
          [
            17.52230082299718,
            59.58378066000654
          ],
          [
            17.52518129919144,
            59.5826831424512
          ],
          [
            17.52773512344731,
            59.58154048338758
          ],
          [
            17.53049681709948,
            59.58062332105709
          ],
          [
            17.53221916369074,
            59.58018728429556
          ],
          [
            17.53400090154301,
            59.57954073662583
          ],
          [
            17.53610929132864,
            59.57917986740361
          ],
          [
            17.53815828984526,
            59.57844308072828
          ],
          [
            17.53878189809342,
            59.57850322718386
          ],
          [
            17.53946489760369,
            59.57866862938272
          ],
          [
            17.54041515779141,
            59.57809723652096
          ],
          [
            17.54035576653035,
            59.57695442168401
          ],
          [
            17.54151389613625,
            59.57632284945925
          ],
          [
            17.54359259029818,
            59.5752250885796
          ],
          [
            17.54436467670169,
            59.57453333045245
          ],
          [
            17.54570098009125,
            59.57372124841788
          ],
          [
            17.54617920167414,
            59.5735435890696
          ],
          [
            17.54528833274736,
            59.5731224995574
          ],
          [
            17.5443380725585,
            59.57349847258848
          ],
          [
            17.54338781237075,
            59.57375413185005
          ],
          [
            17.54181394393379,
            59.57400978916928
          ],
          [
            17.54026479294006,
            59.57369433706103
          ],
          [
            17.53949270653769,
            59.57346875505979
          ],
          [
            17.53824549004028,
            59.57324317154607
          ],
          [
            17.53753279489891,
            59.57285215654008
          ],
          [
            17.5362558827716,
            59.57283711741056
          ],
          [
            17.53560257889239,
            59.57289727388803
          ],
          [
            17.53488988375102,
            59.57259649042581
          ],
          [
            17.53376144977796,
            59.57273184331655
          ],
          [
            17.53272210269694,
            59.57271680413325
          ],
          [
            17.53221727697203,
            59.57223554672254
          ]
        ]
      }
    }
  ]
}
