{
  "type": "FeatureCollection",
  "features": [
    {
      "type": "Feature",
      "properties": {
        "trailId": "upplandsleden",
        "sectionId": "upplandsleden-etapp-8-bennebol-pansarudden",
        "officialId": "8",
        "sourceUrl": "https://www.naturkartan.se/sv/uppsala-lan/upplandsleden-etapp-8-9-km.gpx",
        "sourceFormat": "gpx",
        "segment": 1
      },
      "geometry": {
        "type": "LineString",
        "coordinates": [
          [
            18.362989,
            59.956361
          ],
          [
            18.363761,
            59.956812
          ],
          [
            18.363847,
            59.957413
          ],
          [
            18.3657,
            59.957156
          ],
          [
            18.367159,
            59.957221
          ],
          [
            18.368498,
            59.957393
          ],
          [
            18.373047,
            59.956254
          ],
          [
            18.375965,
            59.955846
          ],
          [
            18.377381,
            59.956619
          ],
          [
            18.378755,
            59.956963
          ],
          [
            18.380686,
            59.957758
          ],
          [
            18.381544,
            59.957435
          ],
          [
            18.382789,
            59.957478
          ],
          [
            18.383218,
            59.95735
          ],
          [
            18.384291,
            59.957543
          ],
          [
            18.386351,
            59.95735
          ],
          [
            18.387166,
            59.957328
          ],
          [
            18.388067,
            59.958059
          ],
          [
            18.389278,
            59.959004
          ],
          [
            18.392325,
            59.959219
          ],
          [
            18.392711,
            59.960185
          ],
          [
            18.392969,
            59.960551
          ],
          [
            18.392626,
            59.96083
          ],
          [
            18.393119,
            59.961227
          ],
          [
            18.392885,
            59.961676
          ],
          [
            18.391812,
            59.962042
          ],
          [
            18.39164,
            59.962299
          ],
          [
            18.391898,
            59.962707
          ],
          [
            18.391168,
            59.963094
          ],
          [
            18.392027,
            59.963159
          ],
          [
            18.392456,
            59.963846
          ],
          [
            18.39164,
            59.964297
          ],
          [
            18.391512,
            59.964791
          ],
          [
            18.391855,
            59.965801
          ],
          [
            18.391383,
            59.966445
          ],
          [
            18.391683,
            59.967004
          ],
          [
            18.390739,
            59.968013
          ],
          [
            18.39061,
            59.968486
          ],
          [
            18.391168,
            59.968571
          ],
          [
            18.392971,
            59.970204
          ],
          [
            18.394816,
            59.971471
          ],
          [
            18.398936,
            59.972695
          ],
          [
            18.400524,
            59.972351
          ],
          [
            18.401597,
            59.972394
          ],
          [
            18.402112,
            59.972137
          ],
          [
            18.40297,
            59.972137
          ],
          [
            18.403865,
            59.972609
          ],
          [
            18.404693,
            59.973109
          ],
          [
            18.40495,
            59.974075
          ],
          [
            18.405336,
            59.974483
          ],
          [
            18.405379,
            59.9753
          ],
          [
            18.404736,
            59.975772
          ],
          [
            18.404778,
            59.976223
          ],
          [
            18.405508,
            59.976974
          ],
          [
            18.404778,
            59.977533
          ],
          [
            18.402804,
            59.978306
          ],
          [
            18.402719,
            59.979036
          ],
          [
            18.401731,
            59.97998
          ],
          [
            18.399457,
            59.980324
          ],
          [
            18.397708,
            59.980848
          ],
          [
            18.397021,
            59.981492
          ],
          [
            18.39642,
            59.981234
          ],
          [
            18.394918,
            59.981449
          ],
          [
            18.393588,
            59.981234
          ],
          [
            18.3923,
            59.980654
          ],
          [
            18.3923,
            59.979667
          ],
          [
            18.391699,
            59.979538
          ],
          [
            18.391056,
            59.978701
          ],
          [
            18.388567,
            59.978701
          ],
          [
            18.388095,
            59.978958
          ],
          [
            18.38715,
            59.979087
          ],
          [
            18.386807,
            59.979388
          ],
          [
            18.385176,
            59.979667
          ],
          [
            18.384018,
            59.979495
          ],
          [
            18.383331,
            59.979903
          ],
          [
            18.381314,
            59.98001
          ],
          [
            18.380241,
            59.980483
          ],
          [
            18.380026,
            59.980891
          ],
          [
            18.379168,
            59.980654
          ],
          [
            18.378439,
            59.980783
          ],
          [
            18.377366,
            59.980246
          ],
          [
            18.376336,
            59.980139
          ],
          [
            18.375177,
            59.980182
          ],
          [
            18.37419,
            59.980826
          ],
          [
            18.374018,
            59.981234
          ],
          [
            18.372988,
            59.982071
          ],
          [
            18.372945,
            59.982952
          ],
          [
            18.371787,
            59.983102
          ],
          [
            18.369598,
            59.982673
          ],
          [
            18.367366,
            59.982758
          ],
          [
            18.364405,
            59.981964
          ],
          [
            18.35874,
            59.981406
          ],
          [
            18.357496,
            59.981943
          ],
          [
            18.355093,
            59.982351
          ],
          [
            18.354706,
            59.982866
          ],
          [
            18.353805,
            59.984326
          ],
          [
            18.355093,
            59.985077
          ],
          [
            18.355608,
            59.985828
          ],
          [
            18.354921,
            59.986666
          ]
        ]
      }
    }
  ]
}
