{
  "type": "FeatureCollection",
  "features": [
    {
      "type": "Feature",
      "properties": {
        "trailId": "upplandsleden",
        "sectionId": "upplandsleden-etapp-24-harnevi-ip-gansta",
        "officialId": "24",
        "sourceUrl": "https://www.naturkartan.se/sv/uppsala-lan/upplandsleden-etapp-24.gpx",
        "sourceFormat": "gpx",
        "segment": 1
      },
      "geometry": {
        "type": "LineString",
        "coordinates": [
          [
            17.09077,
            59.705925
          ],
          [
            17.092234,
            59.706245
          ],
          [
            17.093633,
            59.706709
          ],
          [
            17.093567,
            59.706851
          ],
          [
            17.09306,
            59.707099
          ],
          [
            17.092239,
            59.707387
          ],
          [
            17.0917,
            59.707626
          ],
          [
            17.091364,
            59.707935
          ],
          [
            17.090956,
            59.70819
          ],
          [
            17.090825,
            59.708677
          ],
          [
            17.090641,
            59.708916
          ],
          [
            17.090568,
            59.709347
          ],
          [
            17.090522,
            59.709731
          ],
          [
            17.090391,
            59.710019
          ],
          [
            17.090251,
            59.710506
          ],
          [
            17.090383,
            59.71099
          ],
          [
            17.090864,
            59.711497
          ],
          [
            17.092624,
            59.712762
          ],
          [
            17.094016,
            59.713709
          ],
          [
            17.093819,
            59.713901
          ],
          [
            17.093268,
            59.71404
          ],
          [
            17.090825,
            59.713391
          ],
          [
            17.087753,
            59.713098
          ]
        ]
      }
    },
    {
      "type": "Feature",
      "properties": {
        "trailId": "upplandsleden",
        "sectionId": "upplandsleden-etapp-24-harnevi-ip-gansta",
        "officialId": "24",
        "sourceUrl": "https://www.naturkartan.se/sv/uppsala-lan/upplandsleden-etapp-24.gpx",
        "sourceFormat": "gpx",
        "segment": 2
      },
      "geometry": {
        "type": "LineString",
        "coordinates": [
          [
            17.066218,
            59.724005
          ],
          [
            17.066269,
            59.723975
          ],
          [
            17.065949,
            59.723853
          ],
          [
            17.065494,
            59.723656
          ],
          [
            17.065105,
            59.723485
          ],
          [
            17.064605,
            59.723283
          ],
          [
            17.064382,
            59.723094
          ],
          [
            17.064347,
            59.722885
          ],
          [
            17.064135,
            59.722446
          ],
          [
            17.06444,
            59.722293
          ],
          [
            17.0652,
            59.722208
          ],
          [
            17.065731,
            59.722294
          ],
          [
            17.066072,
            59.722361
          ],
          [
            17.066073,
            59.72236
          ],
          [
            17.066777,
            59.722109
          ],
          [
            17.06698,
            59.72197
          ],
          [
            17.067042,
            59.721826
          ],
          [
            17.067055,
            59.721356
          ],
          [
            17.067491,
            59.720643
          ],
          [
            17.067664,
            59.720006
          ],
          [
            17.067935,
            59.719602
          ],
          [
            17.068496,
            59.718859
          ],
          [
            17.068761,
            59.718569
          ],
          [
            17.069002,
            59.718366
          ],
          [
            17.069178,
            59.718235
          ],
          [
            17.069603,
            59.718043
          ]
        ]
      }
    },
    {
      "type": "Feature",
      "properties": {
        "trailId": "upplandsleden",
        "sectionId": "upplandsleden-etapp-24-harnevi-ip-gansta",
        "officialId": "24",
        "sourceUrl": "https://www.naturkartan.se/sv/uppsala-lan/upplandsleden-etapp-24.gpx",
        "sourceFormat": "gpx",
        "segment": 3
      },
      "geometry": {
        "type": "LineString",
        "coordinates": [
          [
            17.069604,
            59.718043
          ],
          [
            17.070255,
            59.717733
          ],
          [
            17.070573,
            59.717628
          ],
          [
            17.070724,
            59.717599
          ],
          [
            17.070982,
            59.717615
          ],
          [
            17.071275,
            59.71756
          ],
          [
            17.071352,
            59.717438
          ],
          [
            17.071297,
            59.717246
          ],
          [
            17.070883,
            59.71716
          ],
          [
            17.071395,
            59.716382
          ],
          [
            17.072573,
            59.716385
          ],
          [
            17.073252,
            59.7163
          ],
          [
            17.073787,
            59.716348
          ],
          [
            17.074414,
            59.71629
          ],
          [
            17.074821,
            59.716321
          ],
          [
            17.075297,
            59.716477
          ],
          [
            17.075929,
            59.716597
          ],
          [
            17.076398,
            59.716631
          ],
          [
            17.076816,
            59.716631
          ],
          [
            17.077337,
            59.716709
          ],
          [
            17.077766,
            59.716777
          ],
          [
            17.078194,
            59.716765
          ],
          [
            17.078365,
            59.716654
          ],
          [
            17.078713,
            59.716266
          ],
          [
            17.078961,
            59.715941
          ],
          [
            17.079157,
            59.715547
          ],
          [
            17.07939,
            59.715343
          ],
          [
            17.079605,
            59.715051
          ],
          [
            17.079552,
            59.714967
          ],
          [
            17.079224,
            59.714948
          ],
          [
            17.07892,
            59.714873
          ],
          [
            17.078554,
            59.71476
          ],
          [
            17.078464,
            59.714635
          ],
          [
            17.078293,
            59.714276
          ],
          [
            17.078321,
            59.713992
          ],
          [
            17.078178,
            59.713595
          ],
          [
            17.07823,
            59.713405
          ],
          [
            17.078236,
            59.713234
          ],
          [
            17.078248,
            59.71308
          ],
          [
            17.078217,
            59.712833
          ],
          [
            17.079489,
            59.712821
          ],
          [
            17.081391,
            59.712794
          ],
          [
            17.082126,
            59.712804
          ],
          [
            17.084601,
            59.7129
          ],
          [
            17.086244,
            59.712981
          ],
          [
            17.087633,
            59.713087
          ],
          [
            17.087753,
            59.713098
          ]
        ]
      }
    },
    {
      "type": "Feature",
      "properties": {
        "trailId": "upplandsleden",
        "sectionId": "upplandsleden-etapp-24-harnevi-ip-gansta",
        "officialId": "24",
        "sourceUrl": "https://www.naturkartan.se/sv/uppsala-lan/upplandsleden-etapp-24.gpx",
        "sourceFormat": "gpx",
        "segment": 4
      },
      "geometry": {
        "type": "LineString",
        "coordinates": [
          [
            17.09077,
            59.705925
          ],
          [
            17.09119,
            59.705737
          ],
          [
            17.091713,
            59.705529
          ],
          [
            17.091767,
            59.705271
          ],
          [
            17.091646,
            59.704909
          ],
          [
            17.091539,
            59.704776
          ],
          [
            17.091635,
            59.704503
          ],
          [
            17.091822,
            59.704329
          ],
          [
            17.091822,
            59.703887
          ],
          [
            17.091636,
            59.703398
          ],
          [
            17.091618,
            59.702657
          ],
          [
            17.091452,
            59.702481
          ],
          [
            17.091373,
            59.702237
          ],
          [
            17.09127,
            59.701843
          ],
          [
            17.090988,
            59.701557
          ],
          [
            17.090917,
            59.70137
          ],
          [
            17.091031,
            59.701288
          ],
          [
            17.091178,
            59.70131
          ],
          [
            17.091329,
            59.701372
          ],
          [
            17.091763,
            59.701602
          ],
          [
            17.092044,
            59.701624
          ],
          [
            17.092259,
            59.70157
          ],
          [
            17.092666,
            59.701578
          ],
          [
            17.093206,
            59.701648
          ],
          [
            17.093981,
            59.701645
          ],
          [
            17.094274,
            59.701567
          ],
          [
            17.094716,
            59.701511
          ],
          [
            17.095331,
            59.701557
          ],
          [
            17.09586,
            59.701586
          ],
          [
            17.096423,
            59.701599
          ],
          [
            17.096415,
            59.701592
          ],
          [
            17.096274,
            59.700911
          ],
          [
            17.096215,
            59.7008
          ],
          [
            17.096018,
            59.700718
          ],
          [
            17.095492,
            59.700709
          ],
          [
            17.09159,
            59.699169
          ],
          [
            17.091258,
            59.699172
          ],
          [
            17.090654,
            59.699276
          ],
          [
            17.090376,
            59.699236
          ],
          [
            17.090177,
            59.699099
          ],
          [
            17.090195,
            59.698847
          ],
          [
            17.090069,
            59.698429
          ],
          [
            17.089866,
            59.698193
          ],
          [
            17.089559,
            59.697913
          ],
          [
            17.089506,
            59.697742
          ],
          [
            17.089667,
            59.697383
          ],
          [
            17.090001,
            59.697086
          ],
          [
            17.090133,
            59.696934
          ],
          [
            17.090356,
            59.696666
          ],
          [
            17.090696,
            59.696233
          ],
          [
            17.090956,
            59.69588
          ],
          [
            17.091412,
            59.695626
          ],
          [
            17.091657,
            59.69544
          ],
          [
            17.092053,
            59.695044
          ],
          [
            17.092327,
            59.694567
          ],
          [
            17.092336,
            59.69417
          ],
          [
            17.092382,
            59.693706
          ],
          [
            17.092307,
            59.693403
          ],
          [
            17.092139,
            59.693165
          ],
          [
            17.091957,
            59.692951
          ],
          [
            17.091805,
            59.692697
          ],
          [
            17.091721,
            59.692562
          ],
          [
            17.091749,
            59.692466
          ],
          [
            17.091922,
            59.692432
          ],
          [
            17.092176,
            59.692462
          ],
          [
            17.092591,
            59.692577
          ],
          [
            17.092973,
            59.69263
          ],
          [
            17.093638,
            59.692655
          ],
          [
            17.094194,
            59.692612
          ],
          [
            17.094384,
            59.692495
          ],
          [
            17.094607,
            59.692003
          ],
          [
            17.094791,
            59.691783
          ],
          [
            17.09486,
            59.691547
          ],
          [
            17.095088,
            59.691358
          ],
          [
            17.09516,
            59.691157
          ],
          [
            17.095414,
            59.690917
          ],
          [
            17.095522,
            59.690402
          ],
          [
            17.095377,
            59.689884
          ],
          [
            17.095396,
            59.689741
          ],
          [
            17.095708,
            59.689284
          ],
          [
            17.095769,
            59.689185
          ],
          [
            17.09588,
            59.6891
          ],
          [
            17.095979,
            59.689055
          ],
          [
            17.096055,
            59.689039
          ],
          [
            17.096228,
            59.688992
          ],
          [
            17.096444,
            59.688943
          ],
          [
            17.096301,
            59.688699
          ],
          [
            17.096379,
            59.688424
          ],
          [
            17.096492,
            59.688237
          ],
          [
            17.096396,
            59.688031
          ],
          [
            17.096353,
            59.687844
          ],
          [
            17.096379,
            59.687687
          ],
          [
            17.096587,
            59.687312
          ],
          [
            17.096855,
            59.687168
          ],
          [
            17.096924,
            59.686958
          ],
          [
            17.097094,
            59.686679
          ],
          [
            17.096813,
            59.686469
          ],
          [
            17.096368,
            59.686036
          ],
          [
            17.096189,
            59.685824
          ],
          [
            17.09622,
            59.685627
          ],
          [
            17.096605,
            59.685584
          ],
          [
            17.09685,
            59.685565
          ],
          [
            17.097522,
            59.685433
          ],
          [
            17.097681,
            59.685448
          ],
          [
            17.097889,
            59.685525
          ],
          [
            17.097993,
            59.685556
          ],
          [
            17.098335,
            59.685571
          ],
          [
            17.098366,
            59.685433
          ],
          [
            17.098352,
            59.685243
          ],
          [
            17.098315,
            59.68516
          ],
          [
            17.098364,
            59.685042
          ],
          [
            17.098328,
            59.684851
          ],
          [
            17.098535,
            59.684632
          ],
          [
            17.09867,
            59.684552
          ],
          [
            17.098823,
            59.684394
          ],
          [
            17.098951,
            59.684249
          ],
          [
            17.098945,
            59.684175
          ],
          [
            17.098841,
            59.683941
          ],
          [
            17.098855,
            59.683864
          ],
          [
            17.098874,
            59.683768
          ],
          [
            17.09891,
            59.683685
          ],
          [
            17.099014,
            59.683459
          ],
          [
            17.09902,
            59.68332
          ],
          [
            17.099039,
            59.683206
          ],
          [
            17.099039,
            59.68308
          ],
          [
            17.09902,
            59.682901
          ],
          [
            17.09913,
            59.682821
          ],
          [
            17.099522,
            59.682703
          ],
          [
            17.099607,
            59.682487
          ],
          [
            17.099744,
            59.682462
          ],
          [
            17.099253,
            59.681912
          ],
          [
            17.098078,
            59.6815
          ],
          [
            17.097381,
            59.680837
          ],
          [
            17.096664,
            59.680274
          ],
          [
            17.096087,
            59.679791
          ],
          [
            17.095828,
            59.67954
          ],
          [
            17.095808,
            59.679183
          ],
          [
            17.095918,
            59.678766
          ],
          [
            17.096057,
            59.678389
          ],
          [
            17.096117,
            59.678052
          ],
          [
            17.095948,
            59.677665
          ],
          [
            17.096072,
            59.677275
          ],
          [
            17.095973,
            59.67694
          ],
          [
            17.096114,
            59.6764
          ],
          [
            17.096128,
            59.67591
          ],
          [
            17.096156,
            59.675572
          ],
          [
            17.096234,
            59.675138
          ],
          [
            17.096241,
            59.674645
          ],
          [
            17.096248,
            59.674407
          ],
          [
            17.096269,
            59.674208
          ],
          [
            17.096272,
            59.673828
          ],
          [
            17.096708,
            59.673847
          ],
          [
            17.097156,
            59.673832
          ],
          [
            17.097534,
            59.673862
          ],
          [
            17.097763,
            59.673846
          ],
          [
            17.097775,
            59.673582
          ],
          [
            17.097763,
            59.672941
          ],
          [
            17.097505,
            59.672653
          ],
          [
            17.097563,
            59.672346
          ],
          [
            17.09741,
            59.671813
          ],
          [
            17.097185,
            59.671588
          ],
          [
            17.09713,
            59.671161
          ],
          [
            17.097208,
            59.670832
          ],
          [
            17.097198,
            59.670668
          ],
          [
            17.095593,
            59.669339
          ],
          [
            17.094743,
            59.668604
          ],
          [
            17.093858,
            59.667741
          ],
          [
            17.093403,
            59.667456
          ],
          [
            17.092647,
            59.667083
          ],
          [
            17.092084,
            59.666864
          ],
          [
            17.091073,
            59.666467
          ],
          [
            17.089736,
            59.665818
          ],
          [
            17.089106,
            59.665443
          ],
          [
            17.087866,
            59.664985
          ],
          [
            17.087225,
            59.66466
          ],
          [
            17.086828,
            59.664395
          ],
          [
            17.086251,
            59.663941
          ],
          [
            17.085329,
            59.663164
          ],
          [
            17.084492,
            59.6624
          ],
          [
            17.084344,
            59.662053
          ],
          [
            17.084437,
            59.66151
          ],
          [
            17.084374,
            59.661176
          ],
          [
            17.084113,
            59.66064
          ],
          [
            17.084446,
            59.660519
          ],
          [
            17.085593,
            59.660158
          ],
          [
            17.091709,
            59.658364
          ],
          [
            17.094371,
            59.657665
          ],
          [
            17.098323,
            59.656754
          ],
          [
            17.099404,
            59.656473
          ],
          [
            17.099884,
            59.656265
          ],
          [
            17.100493,
            59.655863
          ],
          [
            17.100186,
            59.655904
          ],
          [
            17.09966,
            59.655834
          ],
          [
            17.099053,
            59.655359
          ],
          [
            17.098951,
            59.65509
          ],
          [
            17.09878,
            59.654821
          ],
          [
            17.098195,
            59.654489
          ],
          [
            17.097835,
            59.654131
          ],
          [
            17.097879,
            59.653929
          ],
          [
            17.098067,
            59.653792
          ],
          [
            17.098351,
            59.653753
          ],
          [
            17.099654,
            59.653709
          ],
          [
            17.100029,
            59.653618
          ],
          [
            17.100218,
            59.653494
          ],
          [
            17.100616,
            59.653102
          ],
          [
            17.101112,
            59.652916
          ],
          [
            17.101334,
            59.65287
          ],
          [
            17.10085,
            59.652114
          ],
          [
            17.100831,
            59.651808
          ],
          [
            17.101039,
            59.65152
          ],
          [
            17.101429,
            59.651235
          ],
          [
            17.10103,
            59.650707
          ],
          [
            17.10017,
            59.649714
          ],
          [
            17.099938,
            59.649347
          ],
          [
            17.099811,
            59.648786
          ],
          [
            17.099789,
            59.648148
          ],
          [
            17.099844,
            59.647843
          ],
          [
            17.100226,
            59.647085
          ],
          [
            17.100225,
            59.647012
          ],
          [
            17.100045,
            59.646767
          ],
          [
            17.099968,
            59.646011
          ],
          [
            17.099842,
            59.645864
          ],
          [
            17.099482,
            59.645646
          ],
          [
            17.099402,
            59.645483
          ],
          [
            17.099351,
            59.645208
          ],
          [
            17.099255,
            59.644808
          ],
          [
            17.099177,
            59.644739
          ],
          [
            17.09892,
            59.64467
          ],
          [
            17.097423,
            59.644638
          ],
          [
            17.096246,
            59.644709
          ],
          [
            17.095576,
            59.644797
          ],
          [
            17.094753,
            59.644973
          ],
          [
            17.094534,
            59.644797
          ],
          [
            17.094394,
            59.644766
          ],
          [
            17.09189,
            59.645099
          ],
          [
            17.090086,
            59.645299
          ],
          [
            17.089787,
            59.645289
          ],
          [
            17.089245,
            59.645362
          ],
          [
            17.089117,
            59.645115
          ]
        ]
      }
    },
    {
      "type": "Feature",
      "properties": {
        "trailId": "upplandsleden",
        "sectionId": "upplandsleden-etapp-24-harnevi-ip-gansta",
        "officialId": "24",
        "sourceUrl": "https://www.naturkartan.se/sv/uppsala-lan/upplandsleden-etapp-24.gpx",
        "sourceFormat": "gpx",
        "segment": 5
      },
      "geometry": {
        "type": "LineString",
        "coordinates": [
          [
            17.089117,
            59.645115
          ],
          [
            17.089067,
            59.645012
          ],
          [
            17.089113,
            59.64489
          ],
          [
            17.088792,
            59.644328
          ],
          [
            17.088821,
            59.644224
          ],
          [
            17.088909,
            59.644162
          ],
          [
            17.088841,
            59.644088
          ],
          [
            17.088607,
            59.644071
          ],
          [
            17.088286,
            59.644115
          ],
          [
            17.087808,
            59.64395
          ],
          [
            17.087862,
            59.643851
          ],
          [
            17.087725,
            59.643747
          ],
          [
            17.087497,
            59.643784
          ],
          [
            17.087397,
            59.643751
          ],
          [
            17.087684,
            59.643601
          ],
          [
            17.087788,
            59.643471
          ],
          [
            17.087882,
            59.642833
          ],
          [
            17.087703,
            59.642558
          ],
          [
            17.08732,
            59.642054
          ],
          [
            17.086911,
            59.641593
          ],
          [
            17.086615,
            59.641356
          ],
          [
            17.086217,
            59.641079
          ],
          [
            17.08572,
            59.640776
          ],
          [
            17.085179,
            59.640457
          ],
          [
            17.084873,
            59.640265
          ],
          [
            17.084936,
            59.63983
          ],
          [
            17.084871,
            59.639688
          ],
          [
            17.084378,
            59.63935
          ],
          [
            17.083736,
            59.638881
          ],
          [
            17.083146,
            59.638448
          ],
          [
            17.082438,
            59.638042
          ],
          [
            17.082252,
            59.637988
          ],
          [
            17.081765,
            59.637978
          ],
          [
            17.081541,
            59.638
          ],
          [
            17.081428,
            59.637998
          ],
          [
            17.080633,
            59.63754
          ],
          [
            17.08165,
            59.637035
          ],
          [
            17.081871,
            59.636953
          ],
          [
            17.082026,
            59.636848
          ],
          [
            17.082815,
            59.636454
          ],
          [
            17.082974,
            59.636405
          ],
          [
            17.08364,
            59.636743
          ],
          [
            17.084232,
            59.636969
          ],
          [
            17.085194,
            59.637275
          ],
          [
            17.085604,
            59.637411
          ],
          [
            17.085808,
            59.63718
          ],
          [
            17.086037,
            59.637026
          ],
          [
            17.086376,
            59.636803
          ],
          [
            17.086937,
            59.636548
          ],
          [
            17.087341,
            59.636367
          ],
          [
            17.087912,
            59.636027
          ],
          [
            17.088127,
            59.635868
          ],
          [
            17.089591,
            59.636548
          ],
          [
            17.090689,
            59.637053
          ],
          [
            17.09087,
            59.637114
          ],
          [
            17.091467,
            59.637261
          ],
          [
            17.094165,
            59.637871
          ],
          [
            17.094471,
            59.637888
          ],
          [
            17.094638,
            59.637848
          ],
          [
            17.094861,
            59.637732
          ],
          [
            17.095369,
            59.637368
          ],
          [
            17.095886,
            59.637078
          ],
          [
            17.096306,
            59.636783
          ],
          [
            17.09646,
            59.636653
          ],
          [
            17.096556,
            59.636551
          ],
          [
            17.09696,
            59.636601
          ],
          [
            17.097049,
            59.636555
          ],
          [
            17.097073,
            59.6365
          ],
          [
            17.096915,
            59.636452
          ],
          [
            17.096761,
            59.636358
          ],
          [
            17.096394,
            59.636235
          ],
          [
            17.096146,
            59.636086
          ],
          [
            17.096051,
            59.63592
          ],
          [
            17.096081,
            59.635837
          ],
          [
            17.096255,
            59.635585
          ],
          [
            17.096302,
            59.635428
          ],
          [
            17.096271,
            59.635278
          ],
          [
            17.096278,
            59.635054
          ],
          [
            17.096379,
            59.634981
          ],
          [
            17.09696,
            59.634815
          ],
          [
            17.09736,
            59.634669
          ],
          [
            17.097825,
            59.634462
          ],
          [
            17.098274,
            59.634209
          ],
          [
            17.098509,
            59.634023
          ],
          [
            17.09875,
            59.633827
          ],
          [
            17.098996,
            59.633698
          ],
          [
            17.099383,
            59.633581
          ],
          [
            17.099743,
            59.633494
          ],
          [
            17.100205,
            59.633442
          ],
          [
            17.10052,
            59.633426
          ],
          [
            17.100646,
            59.633403
          ],
          [
            17.100828,
            59.633278
          ],
          [
            17.100844,
            59.6332
          ],
          [
            17.10073,
            59.633063
          ],
          [
            17.100529,
            59.632896
          ],
          [
            17.100318,
            59.632744
          ],
          [
            17.100311,
            59.63263
          ],
          [
            17.100354,
            59.632503
          ],
          [
            17.100635,
            59.632162
          ],
          [
            17.100665,
            59.631951
          ],
          [
            17.100704,
            59.631572
          ],
          [
            17.100757,
            59.631418
          ],
          [
            17.100929,
            59.631181
          ],
          [
            17.101017,
            59.630965
          ],
          [
            17.101029,
            59.630733
          ],
          [
            17.101125,
            59.630602
          ],
          [
            17.101353,
            59.630435
          ],
          [
            17.101759,
            59.630262
          ],
          [
            17.102345,
            59.630063
          ],
          [
            17.10274,
            59.629861
          ],
          [
            17.102894,
            59.629723
          ],
          [
            17.103118,
            59.629481
          ],
          [
            17.103658,
            59.629073
          ],
          [
            17.103683,
            59.628991
          ],
          [
            17.103659,
            59.628936
          ],
          [
            17.103312,
            59.628757
          ],
          [
            17.102812,
            59.628526
          ],
          [
            17.101908,
            59.628306
          ],
          [
            17.100916,
            59.628073
          ],
          [
            17.100819,
            59.628058
          ],
          [
            17.100653,
            59.628082
          ],
          [
            17.09964,
            59.628557
          ],
          [
            17.099344,
            59.628664
          ],
          [
            17.099202,
            59.628662
          ],
          [
            17.098673,
            59.628646
          ],
          [
            17.098078,
            59.628676
          ],
          [
            17.097875,
            59.628623
          ],
          [
            17.097881,
            59.628369
          ],
          [
            17.097995,
            59.628108
          ],
          [
            17.098275,
            59.627744
          ],
          [
            17.09848,
            59.62742
          ],
          [
            17.098594,
            59.627192
          ],
          [
            17.099222,
            59.626569
          ],
          [
            17.099322,
            59.626219
          ],
          [
            17.099276,
            59.625972
          ],
          [
            17.099153,
            59.625796
          ],
          [
            17.09873,
            59.625552
          ],
          [
            17.098103,
            59.625208
          ],
          [
            17.097456,
            59.62488
          ],
          [
            17.09685,
            59.624498
          ],
          [
            17.096535,
            59.624128
          ],
          [
            17.096471,
            59.623986
          ],
          [
            17.096232,
            59.623926
          ],
          [
            17.096095,
            59.623909
          ],
          [
            17.096012,
            59.623921
          ],
          [
            17.095959,
            59.623936
          ],
          [
            17.095587,
            59.623886
          ]
        ]
      }
    }
  ]
}
