{
  "type": "FeatureCollection",
  "features": [
    {
      "type": "Feature",
      "properties": {
        "trailId": "upplandsleden",
        "sectionId": "upplandsleden-slinga-23-1-torslunda",
        "officialId": "23:1",
        "sourceUrl": "https://www.naturkartan.se/sv/uppsala-lan/upplandsleden-slinga-23-1.gpx",
        "sourceFormat": "gpx",
        "segment": 1
      },
      "geometry": {
        "type": "LineString",
        "coordinates": [
          [
            17.06246,
            59.736443
          ],
          [
            17.062442,
            59.736446
          ]
        ]
      }
    },
    {
      "type": "Feature",
      "properties": {
        "trailId": "upplandsleden",
        "sectionId": "upplandsleden-slinga-23-1-torslunda",
        "officialId": "23:1",
        "sourceUrl": "https://www.naturkartan.se/sv/uppsala-lan/upplandsleden-slinga-23-1.gpx",
        "sourceFormat": "gpx",
        "segment": 2
      },
      "geometry": {
        "type": "LineString",
        "coordinates": [
          [
            17.06246,
            59.736443
          ],
          [
            17.062445,
            59.736446
          ],
          [
            17.060429,
            59.736815
          ],
          [
            17.059202,
            59.737002
          ],
          [
            17.058715,
            59.737107
          ],
          [
            17.058715,
            59.737107
          ],
          [
            17.059372,
            59.73755
          ],
          [
            17.059613,
            59.738024
          ],
          [
            17.06003,
            59.738367
          ],
          [
            17.060236,
            59.738963
          ],
          [
            17.06033,
            59.739111
          ],
          [
            17.061013,
            59.739656
          ],
          [
            17.061065,
            59.739812
          ],
          [
            17.06099,
            59.739963
          ],
          [
            17.060417,
            59.740535
          ],
          [
            17.060033,
            59.741169
          ],
          [
            17.058696,
            59.742637
          ],
          [
            17.057623,
            59.743788
          ],
          [
            17.056481,
            59.744982
          ],
          [
            17.055531,
            59.745687
          ],
          [
            17.055254,
            59.746163
          ],
          [
            17.05445,
            59.74686
          ],
          [
            17.054281,
            59.746877
          ],
          [
            17.053553,
            59.747209
          ],
          [
            17.05301,
            59.747574
          ],
          [
            17.052613,
            59.748016
          ],
          [
            17.052386,
            59.748454
          ],
          [
            17.051844,
            59.749297
          ],
          [
            17.051512,
            59.749409
          ],
          [
            17.05085,
            59.749676
          ],
          [
            17.050292,
            59.750027
          ],
          [
            17.049937,
            59.75046
          ],
          [
            17.049801,
            59.751004
          ],
          [
            17.049807,
            59.751567
          ],
          [
            17.049503,
            59.752363
          ],
          [
            17.054026,
            59.75283
          ],
          [
            17.054599,
            59.75286
          ],
          [
            17.055178,
            59.753036
          ],
          [
            17.058826,
            59.754896
          ],
          [
            17.061217,
            59.755704
          ],
          [
            17.062513,
            59.755926
          ],
          [
            17.063267,
            59.755991
          ],
          [
            17.064448,
            59.755998
          ],
          [
            17.066305,
            59.755908
          ],
          [
            17.06831,
            59.755925
          ],
          [
            17.070482,
            59.755669
          ],
          [
            17.070733,
            59.755685
          ],
          [
            17.071165,
            59.755753
          ],
          [
            17.07188,
            59.755728
          ],
          [
            17.072491,
            59.755812
          ],
          [
            17.073657,
            59.755404
          ],
          [
            17.075274,
            59.754648
          ],
          [
            17.076427,
            59.754109
          ],
          [
            17.076986,
            59.753567
          ],
          [
            17.077759,
            59.753216
          ],
          [
            17.07807,
            59.752924
          ],
          [
            17.078409,
            59.752416
          ],
          [
            17.078682,
            59.75207
          ],
          [
            17.078778,
            59.75178
          ],
          [
            17.079359,
            59.751071
          ],
          [
            17.080054,
            59.750522
          ],
          [
            17.081034,
            59.749957
          ],
          [
            17.081772,
            59.749607
          ],
          [
            17.082748,
            59.748947
          ],
          [
            17.084336,
            59.748372
          ],
          [
            17.084481,
            59.74832
          ],
          [
            17.084898,
            59.748096
          ],
          [
            17.08506,
            59.747661
          ],
          [
            17.085405,
            59.747315
          ],
          [
            17.085895,
            59.747039
          ],
          [
            17.086096,
            59.746694
          ],
          [
            17.086225,
            59.746314
          ],
          [
            17.087201,
            59.745655
          ],
          [
            17.087439,
            59.745327
          ],
          [
            17.087716,
            59.744947
          ],
          [
            17.087943,
            59.744474
          ],
          [
            17.088184,
            59.744237
          ],
          [
            17.088917,
            59.74376
          ],
          [
            17.089448,
            59.743415
          ],
          [
            17.089926,
            59.743028
          ],
          [
            17.090544,
            59.742355
          ],
          [
            17.091204,
            59.741843
          ],
          [
            17.092221,
            59.741327
          ],
          [
            17.092931,
            59.741176
          ],
          [
            17.093384,
            59.740865
          ],
          [
            17.093829,
            59.740355
          ],
          [
            17.093471,
            59.740358
          ],
          [
            17.092571,
            59.740186
          ],
          [
            17.08965,
            59.739565
          ],
          [
            17.089311,
            59.739493
          ],
          [
            17.088827,
            59.739537
          ],
          [
            17.08758,
            59.739676
          ],
          [
            17.086148,
            59.739617
          ],
          [
            17.084601,
            59.739398
          ],
          [
            17.084173,
            59.73942
          ],
          [
            17.083783,
            59.739496
          ],
          [
            17.08041,
            59.741081
          ],
          [
            17.079797,
            59.740943
          ],
          [
            17.077079,
            59.740012
          ],
          [
            17.076502,
            59.739892
          ],
          [
            17.075242,
            59.739651
          ],
          [
            17.073407,
            59.739362
          ],
          [
            17.072322,
            59.739047
          ],
          [
            17.070916,
            59.738745
          ],
          [
            17.069901,
            59.738527
          ],
          [
            17.069001,
            59.738222
          ],
          [
            17.067549,
            59.737658
          ],
          [
            17.066469,
            59.737452
          ],
          [
            17.065494,
            59.73719
          ],
          [
            17.063755,
            59.736593
          ],
          [
            17.062995,
            59.736366
          ],
          [
            17.06246,
            59.736443
          ]
        ]
      }
    },
    {
      "type": "Feature",
      "properties": {
        "trailId": "upplandsleden",
        "sectionId": "upplandsleden-slinga-23-1-torslunda",
        "officialId": "23:1",
        "sourceUrl": "https://www.naturkartan.se/sv/uppsala-lan/upplandsleden-slinga-23-1.gpx",
        "sourceFormat": "gpx",
        "segment": 3
      },
      "geometry": {
        "type": "LineString",
        "coordinates": [
          [
            17.075674,
            59.754407
          ],
          [
            17.075291,
            59.75441
          ],
          [
            17.074733,
            59.754437
          ],
          [
            17.07428,
            59.754459
          ],
          [
            17.073706,
            59.754319
          ],
          [
            17.07387,
            59.754517
          ],
          [
            17.074012,
            59.75474
          ],
          [
            17.074236,
            59.755142
          ]
        ]
      }
    }
  ]
}
