{
  "type": "FeatureCollection",
  "features": [
    {
      "type": "Feature",
      "properties": {
        "trailId": "upplandsleden",
        "sectionId": "upplandsleden-slinga-24-1-as-puss",
        "officialId": "24:1",
        "sourceUrl": "https://www.naturkartan.se/sv/uppsala-lan/upplandsleden-slinga-24-1.gpx",
        "sourceFormat": "gpx",
        "segment": 1
      },
      "geometry": {
        "type": "LineString",
        "coordinates": [
          [
            17.093117,
            59.714018
          ],
          [
            17.091708,
            59.713606
          ],
          [
            17.090847,
            59.713377
          ],
          [
            17.090052,
            59.713297
          ],
          [
            17.087752,
            59.713098
          ],
          [
            17.087873,
            59.712887
          ],
          [
            17.087824,
            59.712552
          ],
          [
            17.087474,
            59.71193
          ],
          [
            17.087476,
            59.71151
          ],
          [
            17.08748,
            59.710732
          ],
          [
            17.08739,
            59.710584
          ],
          [
            17.087119,
            59.71031
          ],
          [
            17.08692,
            59.709836
          ],
          [
            17.087011,
            59.709471
          ],
          [
            17.087339,
            59.708624
          ],
          [
            17.087461,
            59.70831
          ],
          [
            17.087818,
            59.708168
          ],
          [
            17.088189,
            59.708226
          ],
          [
            17.088401,
            59.70823
          ],
          [
            17.088636,
            59.708147
          ],
          [
            17.089591,
            59.70717
          ],
          [
            17.089845,
            59.70691
          ],
          [
            17.090353,
            59.706389
          ],
          [
            17.09055,
            59.706028
          ],
          [
            17.090769,
            59.705926
          ],
          [
            17.092207,
            59.706227
          ],
          [
            17.093619,
            59.706696
          ],
          [
            17.093504,
            59.706884
          ],
          [
            17.09315,
            59.707082
          ],
          [
            17.092609,
            59.707233
          ],
          [
            17.092044,
            59.707449
          ],
          [
            17.091674,
            59.707626
          ],
          [
            17.091354,
            59.707923
          ],
          [
            17.090975,
            59.708193
          ],
          [
            17.090823,
            59.708688
          ],
          [
            17.09064,
            59.708919
          ],
          [
            17.090595,
            59.70934
          ],
          [
            17.090551,
            59.709754
          ],
          [
            17.090337,
            59.710178
          ],
          [
            17.090247,
            59.710543
          ],
          [
            17.090377,
            59.710953
          ],
          [
            17.09078,
            59.71139
          ],
          [
            17.091787,
            59.712159
          ],
          [
            17.092229,
            59.712433
          ],
          [
            17.092779,
            59.712897
          ],
          [
            17.094004,
            59.713755
          ],
          [
            17.093746,
            59.713923
          ],
          [
            17.093425,
            59.713978
          ],
          [
            17.093117,
            59.714018
          ]
        ]
      }
    },
    {
      "type": "Feature",
      "properties": {
        "trailId": "upplandsleden",
        "sectionId": "upplandsleden-slinga-24-1-as-puss",
        "officialId": "24:1",
        "sourceUrl": "https://www.naturkartan.se/sv/uppsala-lan/upplandsleden-slinga-24-1.gpx",
        "sourceFormat": "gpx",
        "segment": 2
      },
      "geometry": {
        "type": "LineString",
        "coordinates": [
          [
            17.093117,
            59.714018
          ],
          [
            17.0939,
            59.714222
          ],
          [
            17.094343,
            59.714407
          ],
          [
            17.094709,
            59.71463
          ],
          [
            17.095543,
            59.715212
          ],
          [
            17.095862,
            59.715381
          ],
          [
            17.096147,
            59.715469
          ],
          [
            17.096363,
            59.71549
          ],
          [
            17.09666,
            59.715466
          ]
        ]
      }
    }
  ]
}
