{
  "type": "FeatureCollection",
  "features": [
    {
      "type": "Feature",
      "properties": {
        "name": "Slinga 11:1: Dammledenslingan",
        "segment": 1,
        "split": 1
      },
      "geometry": {
        "type": "LineString",
        "coordinates": [
          [
            18.1720322680001,
            60.178324591
          ],
          [
            18.1720310310001,
            60.1783245030001
          ],
          [
            18.170571056,
            60.178219749
          ],
          [
            18.1697020940001,
            60.1774064140001
          ],
          [
            18.1688894910001,
            60.177195139
          ],
          [
            18.1678526370001,
            60.177230841
          ],
          [
            18.1671722870001,
            60.177455013
          ],
          [
            18.166675103,
            60.1782385440001
          ],
          [
            18.166757852,
            60.1785479700001
          ],
          [
            18.1667113420001,
            60.1786730680001
          ],
          [
            18.166538345,
            60.1787514440001
          ],
          [
            18.1645107950001,
            60.179236191
          ],
          [
            18.1628706870001,
            60.1796387100001
          ],
          [
            18.162472964,
            60.1798172700001
          ],
          [
            18.161944942,
            60.1798709500001
          ],
          [
            18.1614853180001,
            60.1803692830001
          ],
          [
            18.1607908460001,
            60.1805772440001
          ],
          [
            18.159710143,
            60.1806573860001
          ],
          [
            18.1589316280001,
            60.1808280190001
          ],
          [
            18.157142433,
            60.180950905
          ],
          [
            18.1565735260001,
            60.181278072
          ],
          [
            18.1561902650001,
            60.1814038960001
          ],
          [
            18.1556306350001,
            60.181441287
          ],
          [
            18.155652557,
            60.1815224600001
          ],
          [
            18.155134334,
            60.1820271020001
          ],
          [
            18.1547432740001,
            60.183185091
          ],
          [
            18.153710881,
            60.1842080160001
          ],
          [
            18.1530013470001,
            60.1850548780001
          ],
          [
            18.1523745510001,
            60.185911097
          ],
          [
            18.151350758,
            60.1871275900001
          ],
          [
            18.151007101,
            60.1873618550001
          ],
          [
            18.149018803,
            60.1880875620001
          ],
          [
            18.148418753,
            60.1882566850001
          ],
          [
            18.1473403360001,
            60.1882782970001
          ],
          [
            18.14684891,
            60.1884991310001
          ],
          [
            18.1466193580001,
            60.1890374210001
          ],
          [
            18.1464509680001,
            60.189390018
          ],
          [
            18.145558871,
            60.1896782900001
          ],
          [
            18.1449382400001,
            60.19015346
          ],
          [
            18.1448722260001,
            60.1904870060001
          ],
          [
            18.1448912980001,
            60.19137583
          ],
          [
            18.144753334,
            60.191871774
          ],
          [
            18.144595383,
            60.1920578520001
          ],
          [
            18.144280947,
            60.1922074340001
          ],
          [
            18.1440676330001,
            60.1922728370001
          ],
          [
            18.143284319,
            60.1924896770001
          ],
          [
            18.1426844500001,
            60.1925991310001
          ],
          [
            18.1421461360001,
            60.192802327
          ],
          [
            18.1420894510001,
            60.1929633140001
          ],
          [
            18.141677466,
            60.1932502240001
          ],
          [
            18.1413823940001,
            60.1936875170001
          ],
          [
            18.1408460480001,
            60.1939947990001
          ],
          [
            18.140434161,
            60.1942642760001
          ],
          [
            18.1398140630001,
            60.19436649
          ],
          [
            18.1388285840001,
            60.1944773590001
          ],
          [
            18.1384018470001,
            60.1944256180001
          ],
          [
            18.137824515,
            60.1946441590001
          ],
          [
            18.137354838,
            60.1950601930001
          ],
          [
            18.136915731,
            60.1959096810001
          ],
          [
            18.137298974,
            60.196559311
          ],
          [
            18.1372140210001,
            60.196896807
          ],
          [
            18.136541059,
            60.197182301
          ],
          [
            18.1356574690001,
            60.1977136740001
          ],
          [
            18.1354120780001,
            60.197877373
          ],
          [
            18.1344352470001,
            60.1984029640001
          ],
          [
            18.134176245,
            60.198759161
          ],
          [
            18.1330582160001,
            60.199478448
          ],
          [
            18.1326922380001,
            60.200354164
          ],
          [
            18.1323621820001,
            60.2007283200001
          ],
          [
            18.130632077,
            60.2015540350001
          ],
          [
            18.130854087,
            60.201867985
          ],
          [
            18.130577462,
            60.202228614
          ],
          [
            18.130355969,
            60.203097702
          ],
          [
            18.1302981030001,
            60.2033847550001
          ],
          [
            18.130743872,
            60.204038493
          ],
          [
            18.1306196750001,
            60.204633963
          ],
          [
            18.131232041,
            60.205547827
          ],
          [
            18.132560258,
            60.206246572
          ],
          [
            18.1329092880001,
            60.2065161730001
          ],
          [
            18.133152103,
            60.207217864
          ],
          [
            18.132949507,
            60.207646659
          ],
          [
            18.1316261700001,
            60.209171747
          ],
          [
            18.13097335,
            60.2096447220001
          ],
          [
            18.1310871650001,
            60.2098552140001
          ],
          [
            18.1327183870001,
            60.210210552
          ],
          [
            18.133696889,
            60.2108620550001
          ],
          [
            18.1345496500001,
            60.210998628
          ],
          [
            18.136319669,
            60.2112656570001
          ],
          [
            18.137872735,
            60.2115636560001
          ],
          [
            18.1391136440001,
            60.2113936980001
          ],
          [
            18.139890225,
            60.2113953570001
          ],
          [
            18.1408210440001,
            60.211455689
          ],
          [
            18.1422072410001,
            60.211878287
          ],
          [
            18.143380221,
            60.2120303350001
          ],
          [
            18.1439236440001,
            60.2123155860001
          ],
          [
            18.1441059160001,
            60.212359914
          ],
          [
            18.1452103460001,
            60.2124267560001
          ],
          [
            18.1458692190001,
            60.212671953
          ],
          [
            18.14631036,
            60.212917421
          ],
          [
            18.1473175190001,
            60.2132104
          ],
          [
            18.1477294270001,
            60.213504884
          ],
          [
            18.1490187960001,
            60.214176272
          ],
          [
            18.15003342,
            60.2145726760001
          ],
          [
            18.150331051,
            60.2148476580001
          ],
          [
            18.1510831100001,
            60.2150845210001
          ],
          [
            18.15142650152953,
            60.21562823801267
          ],
          [
            18.1534122860173,
            60.2159916513593
          ],
          [
            18.15475007767159,
            60.2162823791366
          ],
          [
            18.15684037713226,
            60.21656302214458
          ],
          [
            18.15788019,
            60.2161995930001
          ],
          [
            18.1584627720001,
            60.215857086
          ],
          [
            18.159161371,
            60.215804404
          ],
          [
            18.1602875350001,
            60.2159307150001
          ],
          [
            18.1608389610001,
            60.21572065
          ],
          [
            18.1609272180001,
            60.215419523
          ],
          [
            18.1611113240001,
            60.215276563
          ],
          [
            18.162453729,
            60.2149090520001
          ],
          [
            18.164053125,
            60.214622912
          ],
          [
            18.165601484,
            60.2141118810001
          ],
          [
            18.167444807,
            60.2141517150001
          ],
          [
            18.168900997,
            60.213806247
          ],
          [
            18.1703950670001,
            60.2134184990001
          ],
          [
            18.1707856990001,
            60.2133672860001
          ],
          [
            18.171224725,
            60.2130503810001
          ],
          [
            18.1720481,
            60.212958658
          ],
          [
            18.172456202,
            60.2127178050001
          ],
          [
            18.172705062,
            60.212239056
          ],
          [
            18.172814623,
            60.2117025860001
          ],
          [
            18.173531279,
            60.211090508
          ],
          [
            18.173824833,
            60.210935927
          ],
          [
            18.174283283,
            60.210841142
          ],
          [
            18.1752587860001,
            60.210762684
          ],
          [
            18.1754338160001,
            60.2104488510001
          ],
          [
            18.176028048,
            60.2100772420001
          ],
          [
            18.176044452,
            60.2097924120001
          ],
          [
            18.175068238,
            60.209093771
          ],
          [
            18.1738410310001,
            60.2084160810001
          ],
          [
            18.1733478240001,
            60.208072159
          ],
          [
            18.173376841,
            60.2075151810001
          ],
          [
            18.173109529,
            60.2069633580001
          ],
          [
            18.173014359,
            60.206282173
          ],
          [
            18.173221283,
            60.2057456530001
          ],
          [
            18.173316762,
            60.205286142
          ],
          [
            18.1731683810001,
            60.2047523850001
          ],
          [
            18.1730816210001,
            60.204309574
          ],
          [
            18.173316572,
            60.203510206
          ],
          [
            18.1738064630001,
            60.2027132250001
          ],
          [
            18.173985223,
            60.2021082370001
          ],
          [
            18.1743712750001,
            60.200718023
          ],
          [
            18.1747679140001,
            60.200313131
          ],
          [
            18.175589901,
            60.1998250010001
          ],
          [
            18.176114632,
            60.1996129830001
          ],
          [
            18.1766877110001,
            60.199176235
          ],
          [
            18.176647752,
            60.1989146350001
          ],
          [
            18.176161076,
            60.1980748280001
          ],
          [
            18.1758906800001,
            60.1974508700001
          ],
          [
            18.1752255470001,
            60.196719305
          ],
          [
            18.1739783610001,
            60.196248176
          ],
          [
            18.1720208070001,
            60.1954865420001
          ],
          [
            18.1709793310001,
            60.1952870980001
          ],
          [
            18.1701671330001,
            60.1947933610001
          ],
          [
            18.1697560550001,
            60.1944344980001
          ],
          [
            18.1699852450001,
            60.1942124390001
          ],
          [
            18.1704214370001,
            60.194099099
          ],
          [
            18.1704598430001,
            60.193395992
          ],
          [
            18.170697803,
            60.192393038
          ],
          [
            18.1712129490001,
            60.1919859160001
          ],
          [
            18.1712595870001,
            60.1914740660001
          ],
          [
            18.1711176580001,
            60.1912595910001
          ],
          [
            18.17009489424663,
            60.19087451006828
          ],
          [
            18.16859590043239,
            60.1907738247333
          ],
          [
            18.16767983804573,
            60.19037061488348
          ],
          [
            18.16777526121336,
            60.1897076796879
          ],
          [
            18.16855773116785,
            60.18916688542751
          ],
          [
            18.1704661944726,
            60.18904354513796
          ],
          [
            18.17076200627957,
            60.18856519999494
          ],
          [
            18.1697607156789,
            60.18785619768218
          ],
          [
            18.16854884147995,
            60.18725369935581
          ],
          [
            18.16806218333807,
            60.18657053827096
          ],
          [
            18.16852416708861,
            60.18589370738928
          ],
          [
            18.16902347740643,
            60.18536365390497
          ],
          [
            18.17002209804073,
            60.185034882254
          ],
          [
            18.17093974943452,
            60.1847061073112
          ],
          [
            18.17115655830298,
            60.18430455121825
          ],
          [
            18.171319522,
            60.184036356
          ],
          [
            18.17129015073405,
            60.1830329869301
          ],
          [
            18.1708327910001,
            60.1828446640001
          ],
          [
            18.16969798837007,
            60.18246967562257
          ],
          [
            18.1692121729269,
            60.18197311830227
          ],
          [
            18.16967099862291,
            60.18184562264332
          ],
          [
            18.17022428843435,
            60.18180536075357
          ],
          [
            18.17236001,
            60.180741196
          ],
          [
            18.1724529950001,
            60.180573876
          ],
          [
            18.1720277420001,
            60.1800078740001
          ],
          [
            18.1718408200001,
            60.1795333270001
          ],
          [
            18.1720322680001,
            60.178324591
          ]
        ]
      }
    }
  ]
}
