{
  "type": "FeatureCollection",
  "features": [
    {
      "type": "Feature",
      "properties": {
        "trailId": "upplandsleden",
        "sectionId": "upplandsleden-etapp-2-nyby-fjallnora",
        "officialId": "2",
        "sourceUrl": "https://www.naturkartan.se/sv/uppsala-lan/upplandsleden-etapp-2.gpx",
        "sourceFormat": "gpx",
        "segment": 1
      },
      "geometry": {
        "type": "LineString",
        "coordinates": [
          [
            17.753942,
            59.783109
          ],
          [
            17.753943,
            59.783109
          ],
          [
            17.755047,
            59.783989
          ],
          [
            17.755227,
            59.784309
          ],
          [
            17.755673,
            59.784784
          ],
          [
            17.756246,
            59.785629
          ],
          [
            17.756592,
            59.785777
          ],
          [
            17.757086,
            59.785838
          ],
          [
            17.757461,
            59.785973
          ],
          [
            17.757779,
            59.785968
          ],
          [
            17.758218,
            59.78584
          ],
          [
            17.758835,
            59.785945
          ],
          [
            17.759387,
            59.786104
          ],
          [
            17.759395,
            59.786337
          ],
          [
            17.759807,
            59.786905
          ],
          [
            17.760116,
            59.787036
          ],
          [
            17.761065,
            59.78714
          ],
          [
            17.76216,
            59.787105
          ],
          [
            17.763077,
            59.78689
          ],
          [
            17.763652,
            59.786541
          ],
          [
            17.763727,
            59.78633
          ],
          [
            17.763464,
            59.786044
          ],
          [
            17.763174,
            59.785823
          ],
          [
            17.763181,
            59.785287
          ],
          [
            17.763367,
            59.785064
          ],
          [
            17.763964,
            59.784414
          ],
          [
            17.764499,
            59.784046
          ],
          [
            17.764737,
            59.783925
          ],
          [
            17.765632,
            59.78359
          ],
          [
            17.767158,
            59.782664
          ],
          [
            17.768196,
            59.782068
          ],
          [
            17.769075,
            59.781474
          ],
          [
            17.769853,
            59.781202
          ],
          [
            17.770979,
            59.780765
          ],
          [
            17.772112,
            59.780448
          ],
          [
            17.772765,
            59.780058
          ],
          [
            17.773142,
            59.779731
          ],
          [
            17.773519,
            59.779385
          ],
          [
            17.773614,
            59.778964
          ],
          [
            17.773619,
            59.778524
          ],
          [
            17.773769,
            59.77838
          ],
          [
            17.773473,
            59.778074
          ],
          [
            17.773579,
            59.777702
          ],
          [
            17.77368,
            59.777401
          ],
          [
            17.77356,
            59.777051
          ],
          [
            17.773173,
            59.776858
          ],
          [
            17.772917,
            59.776607
          ],
          [
            17.772864,
            59.776352
          ],
          [
            17.773126,
            59.776087
          ],
          [
            17.773548,
            59.775821
          ],
          [
            17.773805,
            59.775476
          ],
          [
            17.773875,
            59.775272
          ],
          [
            17.77394,
            59.774998
          ],
          [
            17.774371,
            59.774875
          ],
          [
            17.774663,
            59.774749
          ],
          [
            17.775572,
            59.774472
          ],
          [
            17.775744,
            59.774686
          ],
          [
            17.778392,
            59.776489
          ],
          [
            17.780326,
            59.777621
          ],
          [
            17.781269,
            59.777994
          ],
          [
            17.782278,
            59.778393
          ],
          [
            17.783638,
            59.779234
          ],
          [
            17.784767,
            59.780859
          ],
          [
            17.785857,
            59.781823
          ],
          [
            17.786342,
            59.782637
          ],
          [
            17.786468,
            59.783436
          ],
          [
            17.787497,
            59.784702
          ],
          [
            17.788308,
            59.785651
          ],
          [
            17.788609,
            59.786228
          ],
          [
            17.788617,
            59.786674
          ],
          [
            17.788313,
            59.787104
          ],
          [
            17.787286,
            59.787699
          ],
          [
            17.786475,
            59.7884
          ],
          [
            17.785584,
            59.789036
          ],
          [
            17.784966,
            59.789586
          ],
          [
            17.78474,
            59.791132
          ],
          [
            17.785893,
            59.792128
          ],
          [
            17.78604,
            59.793449
          ],
          [
            17.7866,
            59.793787
          ],
          [
            17.787609,
            59.793952
          ],
          [
            17.788144,
            59.794081
          ],
          [
            17.788586,
            59.79425
          ],
          [
            17.788959,
            59.794612
          ],
          [
            17.796303,
            59.799565
          ],
          [
            17.79707,
            59.799913
          ],
          [
            17.797793,
            59.800084
          ],
          [
            17.798906,
            59.800169
          ],
          [
            17.800298,
            59.800188
          ],
          [
            17.803271,
            59.800724
          ],
          [
            17.807201,
            59.801608
          ],
          [
            17.807704,
            59.801627
          ],
          [
            17.808298,
            59.801488
          ],
          [
            17.809141,
            59.801165
          ],
          [
            17.810241,
            59.801082
          ],
          [
            17.810553,
            59.801023
          ],
          [
            17.810868,
            59.800697
          ],
          [
            17.811595,
            59.800525
          ],
          [
            17.812164,
            59.800536
          ],
          [
            17.812677,
            59.800487
          ],
          [
            17.814124,
            59.799981
          ],
          [
            17.815628,
            59.799354
          ],
          [
            17.815724,
            59.798972
          ],
          [
            17.816117,
            59.798421
          ],
          [
            17.81674,
            59.798015
          ],
          [
            17.817712,
            59.79766
          ],
          [
            17.818607,
            59.79751
          ],
          [
            17.822917,
            59.797373
          ],
          [
            17.824941,
            59.797609
          ],
          [
            17.825902,
            59.797735
          ],
          [
            17.827679,
            59.797864
          ],
          [
            17.828791,
            59.797993
          ],
          [
            17.829867,
            59.798235
          ],
          [
            17.830755,
            59.798461
          ],
          [
            17.834296,
            59.798527
          ],
          [
            17.835099,
            59.798675
          ],
          [
            17.83565,
            59.798692
          ],
          [
            17.836212,
            59.798677
          ],
          [
            17.836212,
            59.798859
          ],
          [
            17.834974,
            59.80009
          ],
          [
            17.835022,
            59.800312
          ],
          [
            17.835262,
            59.80053
          ],
          [
            17.837324,
            59.801177
          ],
          [
            17.838575,
            59.801585
          ],
          [
            17.839186,
            59.801836
          ],
          [
            17.839984,
            59.801997
          ],
          [
            17.840676,
            59.802153
          ],
          [
            17.842234,
            59.80293
          ],
          [
            17.843071,
            59.803417
          ],
          [
            17.843939,
            59.804246
          ],
          [
            17.845203,
            59.804957
          ],
          [
            17.846032,
            59.805338
          ],
          [
            17.846696,
            59.805346
          ],
          [
            17.848134,
            59.805145
          ],
          [
            17.848681,
            59.805258
          ],
          [
            17.849552,
            59.805953
          ],
          [
            17.851014,
            59.807419
          ],
          [
            17.851894,
            59.808147
          ],
          [
            17.852477,
            59.808578
          ],
          [
            17.853014,
            59.80891
          ],
          [
            17.853304,
            59.809181
          ],
          [
            17.853575,
            59.809367
          ],
          [
            17.854231,
            59.809689
          ],
          [
            17.854583,
            59.810262
          ],
          [
            17.85565,
            59.81051
          ],
          [
            17.856326,
            59.810628
          ],
          [
            17.8576,
            59.811049
          ],
          [
            17.858414,
            59.811202
          ],
          [
            17.859188,
            59.811445
          ],
          [
            17.860471,
            59.811611
          ],
          [
            17.861273,
            59.811839
          ],
          [
            17.86225,
            59.812084
          ],
          [
            17.863319,
            59.812155
          ],
          [
            17.86374,
            59.812254
          ],
          [
            17.864206,
            59.812223
          ],
          [
            17.86504,
            59.812405
          ],
          [
            17.865988,
            59.812659
          ],
          [
            17.866473,
            59.812875
          ],
          [
            17.867133,
            59.812986
          ],
          [
            17.867696,
            59.812929
          ],
          [
            17.86831,
            59.812955
          ],
          [
            17.868804,
            59.812924
          ],
          [
            17.869679,
            59.812801
          ],
          [
            17.870846,
            59.812963
          ],
          [
            17.871814,
            59.812983
          ],
          [
            17.873131,
            59.812801
          ],
          [
            17.874877,
            59.812555
          ],
          [
            17.876031,
            59.812525
          ],
          [
            17.876999,
            59.812557
          ],
          [
            17.877969,
            59.812605
          ],
          [
            17.879066,
            59.812798
          ],
          [
            17.879834,
            59.813012
          ],
          [
            17.880656,
            59.812983
          ],
          [
            17.881052,
            59.812957
          ],
          [
            17.881357,
            59.812731
          ],
          [
            17.882131,
            59.812399
          ],
          [
            17.882725,
            59.812329
          ],
          [
            17.883528,
            59.812465
          ],
          [
            17.884521,
            59.812481
          ],
          [
            17.885968,
            59.81228
          ],
          [
            17.886783,
            59.812405
          ],
          [
            17.887364,
            59.812797
          ],
          [
            17.887709,
            59.813232
          ],
          [
            17.888065,
            59.813732
          ],
          [
            17.888555,
            59.814108
          ],
          [
            17.889778,
            59.814485
          ],
          [
            17.890542,
            59.814548
          ],
          [
            17.891374,
            59.814616
          ],
          [
            17.892183,
            59.814843
          ],
          [
            17.892421,
            59.815109
          ],
          [
            17.892972,
            59.815371
          ],
          [
            17.89342,
            59.815544
          ],
          [
            17.893973,
            59.815618
          ],
          [
            17.894382,
            59.815669
          ],
          [
            17.894793,
            59.81566
          ],
          [
            17.895159,
            59.81565
          ],
          [
            17.895593,
            59.815652
          ],
          [
            17.895759,
            59.815855
          ],
          [
            17.895815,
            59.816069
          ],
          [
            17.895816,
            59.816498
          ],
          [
            17.896107,
            59.816793
          ],
          [
            17.896474,
            59.816929
          ],
          [
            17.896742,
            59.817131
          ],
          [
            17.897109,
            59.817308
          ],
          [
            17.898149,
            59.817412
          ],
          [
            17.899441,
            59.817732
          ],
          [
            17.90047,
            59.818162
          ],
          [
            17.901367,
            59.81844
          ],
          [
            17.902179,
            59.818541
          ],
          [
            17.903241,
            59.818541
          ],
          [
            17.904697,
            59.818479
          ],
          [
            17.905498,
            59.818558
          ],
          [
            17.906375,
            59.818958
          ],
          [
            17.906822,
            59.819278
          ],
          [
            17.907557,
            59.820032
          ],
          [
            17.907906,
            59.819729
          ],
          [
            17.908517,
            59.819431
          ],
          [
            17.90903,
            59.819277
          ],
          [
            17.909502,
            59.81923
          ],
          [
            17.909995,
            59.819222
          ],
          [
            17.910412,
            59.819226
          ],
          [
            17.910562,
            59.819189
          ],
          [
            17.910674,
            59.819081
          ],
          [
            17.910746,
            59.819033
          ],
          [
            17.911722,
            59.818897
          ],
          [
            17.912085,
            59.818971
          ],
          [
            17.912284,
            59.818968
          ],
          [
            17.912871,
            59.81898
          ],
          [
            17.913591,
            59.818878
          ],
          [
            17.914187,
            59.818914
          ],
          [
            17.91475,
            59.818591
          ],
          [
            17.915698,
            59.818352
          ],
          [
            17.917467,
            59.818224
          ],
          [
            17.918135,
            59.818251
          ],
          [
            17.918897,
            59.818437
          ],
          [
            17.918962,
            59.818941
          ],
          [
            17.919309,
            59.819239
          ],
          [
            17.919778,
            59.819269
          ],
          [
            17.920294,
            59.81924
          ],
          [
            17.920698,
            59.819354
          ],
          [
            17.920833,
            59.819592
          ],
          [
            17.920842,
            59.819732
          ],
          [
            17.921149,
            59.820188
          ],
          [
            17.92134,
            59.820369
          ],
          [
            17.921452,
            59.820583
          ],
          [
            17.921627,
            59.820821
          ],
          [
            17.921641,
            59.821041
          ],
          [
            17.921397,
            59.821496
          ],
          [
            17.921187,
            59.821686
          ],
          [
            17.921272,
            59.822166
          ],
          [
            17.921215,
            59.822441
          ],
          [
            17.920732,
            59.82261
          ],
          [
            17.920121,
            59.822707
          ],
          [
            17.919708,
            59.822813
          ],
          [
            17.919335,
            59.82294
          ],
          [
            17.918945,
            59.823067
          ],
          [
            17.918923,
            59.823665
          ],
          [
            17.919366,
            59.82386
          ],
          [
            17.919784,
            59.824375
          ],
          [
            17.919767,
            59.824907
          ],
          [
            17.919859,
            59.825325
          ],
          [
            17.919942,
            59.825614
          ],
          [
            17.919721,
            59.825716
          ],
          [
            17.91898,
            59.82574
          ],
          [
            17.918459,
            59.826084
          ],
          [
            17.918488,
            59.826544
          ],
          [
            17.919118,
            59.826973
          ],
          [
            17.919224,
            59.827233
          ],
          [
            17.918825,
            59.827454
          ],
          [
            17.918563,
            59.827699
          ],
          [
            17.918349,
            59.828103
          ],
          [
            17.917399,
            59.828644
          ],
          [
            17.917143,
            59.8293
          ],
          [
            17.917229,
            59.829478
          ],
          [
            17.917686,
            59.829672
          ],
          [
            17.917769,
            59.829798
          ],
          [
            17.917651,
            59.830285
          ],
          [
            17.917991,
            59.830504
          ],
          [
            17.918578,
            59.830462
          ],
          [
            17.919221,
            59.830552
          ],
          [
            17.919682,
            59.830925
          ],
          [
            17.919584,
            59.831509
          ],
          [
            17.919989,
            59.832287
          ],
          [
            17.919752,
            59.833287
          ],
          [
            17.919447,
            59.833797
          ],
          [
            17.91796,
            59.834479
          ],
          [
            17.918917,
            59.83487
          ],
          [
            17.918382,
            59.83618
          ],
          [
            17.917738,
            59.836527
          ],
          [
            17.917101,
            59.837021
          ],
          [
            17.916286,
            59.836758
          ]
        ]
      }
    }
  ]
}
