{
  "type": "FeatureCollection",
  "features": [
    {
      "type": "Feature",
      "properties": {
        "name": "Etapp 10: Kolarmoraån to Gimo / Gimo herrgård",
        "segment": 1,
        "split": 1
      },
      "geometry": {
        "type": "LineString",
        "coordinates": [
          [
            18.3489054830001,
            60.0377144670001
          ],
          [
            18.348905651,
            60.037714533
          ],
          [
            18.3491938870001,
            60.0378273150001
          ],
          [
            18.3497089460001,
            60.0378225700001
          ],
          [
            18.3504963770001,
            60.0380438610001
          ],
          [
            18.350930305,
            60.038715058
          ],
          [
            18.3514123340001,
            60.039368395
          ],
          [
            18.351660455,
            60.040011027
          ],
          [
            18.351775395,
            60.0409961440001
          ],
          [
            18.352382496,
            60.041390396
          ],
          [
            18.3524312110001,
            60.042014463
          ],
          [
            18.352709073,
            60.0422794620001
          ],
          [
            18.353654342,
            60.0426143660001
          ],
          [
            18.3545338710001,
            60.04275842
          ],
          [
            18.3553316150001,
            60.0425884000001
          ],
          [
            18.355946594,
            60.042256627
          ],
          [
            18.357059249,
            60.0419122010001
          ],
          [
            18.3578943550001,
            60.041782813
          ],
          [
            18.358419595,
            60.0418776120001
          ],
          [
            18.358625654,
            60.042274902
          ],
          [
            18.358973392,
            60.042505218
          ],
          [
            18.360150123,
            60.0424575650001
          ],
          [
            18.3611249850001,
            60.0425575510001
          ],
          [
            18.3616061330001,
            60.0430361630001
          ],
          [
            18.362041696,
            60.043066674
          ],
          [
            18.3627207440001,
            60.042874672
          ],
          [
            18.3634964830001,
            60.042488851
          ],
          [
            18.36390055,
            60.0425367970001
          ],
          [
            18.3645056980001,
            60.042762651
          ],
          [
            18.3664630970001,
            60.0430372340001
          ],
          [
            18.367507419,
            60.0430022890001
          ],
          [
            18.368413098,
            60.0429126330001
          ],
          [
            18.3696807800001,
            60.0431922810001
          ],
          [
            18.3703396400001,
            60.043291944
          ],
          [
            18.3711517070001,
            60.043262896
          ],
          [
            18.37182547,
            60.0433455320001
          ],
          [
            18.371727385,
            60.0440975210001
          ],
          [
            18.3716951160001,
            60.044545301
          ],
          [
            18.3719973930001,
            60.0450300410001
          ],
          [
            18.372414706,
            60.0450443450001
          ],
          [
            18.3738454970001,
            60.0455986260001
          ],
          [
            18.374546841,
            60.0456777640001
          ],
          [
            18.3750386,
            60.046299414
          ],
          [
            18.3756584280001,
            60.0467543710001
          ],
          [
            18.375860308,
            60.0475199470001
          ],
          [
            18.376656053,
            60.0480574910001
          ],
          [
            18.3776098340001,
            60.0482685860001
          ],
          [
            18.379213819,
            60.0480112440001
          ],
          [
            18.3808837050001,
            60.0480801470001
          ],
          [
            18.381741533,
            60.048246056
          ],
          [
            18.3823137100001,
            60.0484726760001
          ],
          [
            18.382940209,
            60.0490762980001
          ],
          [
            18.3833878570001,
            60.049376974
          ],
          [
            18.3829789230001,
            60.0499323930001
          ],
          [
            18.3828730990001,
            60.050037489
          ],
          [
            18.3823597820001,
            60.050547271
          ],
          [
            18.381133049,
            60.0510778650001
          ],
          [
            18.3806700600001,
            60.0514308250001
          ],
          [
            18.3801517220001,
            60.0518933560001
          ],
          [
            18.379580737,
            60.052071423
          ],
          [
            18.379648673,
            60.052289516
          ],
          [
            18.3795239660001,
            60.0525874780001
          ],
          [
            18.3796983670001,
            60.0528284470001
          ],
          [
            18.379806639,
            60.0538864420001
          ],
          [
            18.3808354810001,
            60.0541845820001
          ],
          [
            18.3811484940001,
            60.0543269840001
          ],
          [
            18.381030259,
            60.0547869370001
          ],
          [
            18.3807650630001,
            60.0552845880001
          ],
          [
            18.380956664,
            60.055704087
          ],
          [
            18.3812164210001,
            60.0562727930001
          ],
          [
            18.3803090270001,
            60.056681494
          ],
          [
            18.3799195920001,
            60.05694105
          ],
          [
            18.3797768500001,
            60.0574086240001
          ],
          [
            18.379261904,
            60.0578314480001
          ],
          [
            18.379193278,
            60.058299107
          ],
          [
            18.3795310290001,
            60.058997644
          ],
          [
            18.379790111,
            60.05941532
          ],
          [
            18.3794954560001,
            60.0596951740001
          ],
          [
            18.3786574340001,
            60.0602180280001
          ],
          [
            18.3782075410001,
            60.061107264
          ],
          [
            18.3776043290001,
            60.0615553120001
          ],
          [
            18.377459196,
            60.0618746490001
          ],
          [
            18.3770777290001,
            60.0621012350001
          ],
          [
            18.376535889,
            60.0621733230001
          ],
          [
            18.3763421620001,
            60.062394587
          ],
          [
            18.376699141,
            60.0627931280001
          ],
          [
            18.3773427230001,
            60.062892408
          ],
          [
            18.3776588210001,
            60.0632261800001
          ],
          [
            18.3777174900001,
            60.0634742720001
          ],
          [
            18.3777266930001,
            60.063929176
          ],
          [
            18.377524839,
            60.06407356
          ],
          [
            18.377491083,
            60.0642543600001
          ],
          [
            18.377568869,
            60.064485823
          ],
          [
            18.377523786,
            60.064742591
          ],
          [
            18.377971034,
            60.065336302
          ],
          [
            18.377934081,
            60.0658467050001
          ],
          [
            18.377638895,
            60.0664487060001
          ],
          [
            18.3781868000001,
            60.0671539890001
          ],
          [
            18.377990541,
            60.0674443450001
          ],
          [
            18.384036421,
            60.068585547
          ],
          [
            18.384559587,
            60.068779146
          ],
          [
            18.3857286530001,
            60.0698351390001
          ],
          [
            18.3858308430001,
            60.070135693
          ],
          [
            18.3863622470001,
            60.0705619730001
          ],
          [
            18.386802407,
            60.0710262580001
          ],
          [
            18.38710356,
            60.0715267990001
          ],
          [
            18.3862475410001,
            60.07222642
          ],
          [
            18.38608884842884,
            60.07275074596217
          ],
          [
            18.38624966767253,
            60.07319202294892
          ],
          [
            18.38609156199254,
            60.07373835714245
          ],
          [
            18.3859557701544,
            60.07394159006287
          ],
          [
            18.3853975148198,
            60.07412976757567
          ],
          [
            18.38509575517992,
            60.07413729465398
          ],
          [
            18.38492978737722,
            60.07461149711671
          ],
          [
            18.3853521770001,
            60.0748619990001
          ],
          [
            18.3854270110001,
            60.075127588
          ],
          [
            18.3851098570001,
            60.075667024
          ],
          [
            18.3846279200001,
            60.07625009
          ],
          [
            18.383979531,
            60.0764992160001
          ],
          [
            18.3834604660001,
            60.0767740680001
          ],
          [
            18.382935629,
            60.0768766740001
          ],
          [
            18.382439064,
            60.077139055
          ],
          [
            18.382149429,
            60.0776942740001
          ],
          [
            18.3818730600001,
            60.077884721
          ],
          [
            18.3812802970001,
            60.0779329920001
          ],
          [
            18.3808143430001,
            60.0780711940001
          ],
          [
            18.380561206,
            60.0782253620001
          ],
          [
            18.380209855,
            60.078604952
          ],
          [
            18.3797535840001,
            60.078738485
          ],
          [
            18.3790611270001,
            60.0788278950001
          ],
          [
            18.3786618190001,
            60.078998239
          ],
          [
            18.378683129,
            60.0793965410001
          ],
          [
            18.378950386,
            60.0799154600001
          ],
          [
            18.378624965,
            60.080497205
          ],
          [
            18.3786227530001,
            60.080824212
          ],
          [
            18.378819864,
            60.0811223440001
          ],
          [
            18.3793452940001,
            60.0814893610001
          ],
          [
            18.3793936530001,
            60.081612959
          ],
          [
            18.3791592910001,
            60.081880512
          ],
          [
            18.379057417,
            60.0821973760001
          ],
          [
            18.378270577,
            60.0826136040001
          ],
          [
            18.3780745920001,
            60.082869826
          ],
          [
            18.3776755690001,
            60.083600743
          ],
          [
            18.3769153000001,
            60.08426344
          ],
          [
            18.3767346530001,
            60.084720221
          ],
          [
            18.376734562,
            60.0847204550001
          ]
        ]
      }
    },
    {
      "type": "Feature",
      "properties": {
        "name": "Etapp 10: Kolarmoraån to Gimo / Gimo herrgård",
        "segment": 2,
        "split": 1
      },
      "geometry": {
        "type": "LineString",
        "coordinates": [
          [
            18.3767347160001,
            60.0847202190001
          ],
          [
            18.376734562,
            60.0847204550001
          ]
        ]
      }
    },
    {
      "type": "Feature",
      "properties": {
        "name": "Etapp 10: Kolarmoraån to Gimo / Gimo herrgård",
        "segment": 3,
        "split": 1
      },
      "geometry": {
        "type": "LineString",
        "coordinates": [
          [
            18.376734562,
            60.0847204550001
          ],
          [
            18.3765565880001,
            60.084990632
          ],
          [
            18.3755527430001,
            60.0857351430001
          ],
          [
            18.374803811,
            60.0859052610001
          ],
          [
            18.374260479,
            60.0859601880001
          ],
          [
            18.3735738930001,
            60.085845529
          ],
          [
            18.3720364390001,
            60.085984775
          ],
          [
            18.371175857,
            60.0859602150001
          ],
          [
            18.370135256,
            60.086141309
          ],
          [
            18.3696738140001,
            60.086283854
          ],
          [
            18.3688684000001,
            60.086554053
          ],
          [
            18.36879561,
            60.086656965
          ],
          [
            18.3689539050001,
            60.0871582140001
          ],
          [
            18.3690486840001,
            60.087503552
          ],
          [
            18.3688403630001,
            60.088376759
          ],
          [
            18.370108886,
            60.0884454800001
          ],
          [
            18.3706797530001,
            60.0886746480001
          ],
          [
            18.3712544470001,
            60.0891741930001
          ],
          [
            18.371653496,
            60.0898179110001
          ],
          [
            18.372078374,
            60.0905976930001
          ],
          [
            18.3724842200001,
            60.0910747900001
          ],
          [
            18.373207912,
            60.0914011070001
          ],
          [
            18.3740382010001,
            60.0916926160001
          ],
          [
            18.3758746030001,
            60.092453575
          ],
          [
            18.37646798,
            60.0931339300001
          ],
          [
            18.3763380730001,
            60.093957592
          ],
          [
            18.376425904,
            60.094466578
          ],
          [
            18.3761875170001,
            60.0945796680001
          ],
          [
            18.3755339040001,
            60.094706332
          ],
          [
            18.3745131580001,
            60.0948512830001
          ],
          [
            18.373591365,
            60.0949164210001
          ],
          [
            18.3727916730001,
            60.0948952140001
          ],
          [
            18.3725806540001,
            60.0950432660001
          ],
          [
            18.3711539450001,
            60.0955254940001
          ],
          [
            18.369801265,
            60.0970817740001
          ],
          [
            18.369109173,
            60.0975898350001
          ],
          [
            18.3680648490001,
            60.1000685490001
          ],
          [
            18.367697644,
            60.1003781000001
          ],
          [
            18.365321453,
            60.1009104890001
          ],
          [
            18.363476394,
            60.1014782820001
          ],
          [
            18.363238205,
            60.102060957
          ],
          [
            18.364233525,
            60.103064031
          ],
          [
            18.365011484,
            60.1035703210001
          ],
          [
            18.3657910280001,
            60.104309685
          ],
          [
            18.365940591,
            60.1049733500001
          ],
          [
            18.366115397,
            60.105282942
          ],
          [
            18.364678961,
            60.1060279110001
          ],
          [
            18.36427616,
            60.1068644430001
          ],
          [
            18.3634712610001,
            60.1073783100001
          ],
          [
            18.361984858,
            60.1075736380001
          ],
          [
            18.3608837510001,
            60.10786913
          ],
          [
            18.3595497030001,
            60.1080991970001
          ],
          [
            18.3590466820001,
            60.108771811
          ],
          [
            18.357517425,
            60.1094823710001
          ],
          [
            18.3565249160001,
            60.109792901
          ],
          [
            18.35638369,
            60.11004318
          ],
          [
            18.3565970940001,
            60.110852154
          ],
          [
            18.356329082,
            60.111195992
          ],
          [
            18.355900988,
            60.1114943480001
          ],
          [
            18.3559188080001,
            60.111909649
          ],
          [
            18.3568384060001,
            60.1125193940001
          ],
          [
            18.356910085,
            60.1127553530001
          ],
          [
            18.3564035200001,
            60.114563435
          ],
          [
            18.3566336670001,
            60.1150688170001
          ],
          [
            18.3564211400001,
            60.115320905
          ],
          [
            18.3561619970001,
            60.115583093
          ],
          [
            18.3561722640001,
            60.116034611
          ],
          [
            18.3561366230001,
            60.1163862380001
          ],
          [
            18.3563321440001,
            60.1167854990001
          ],
          [
            18.3568564720001,
            60.1170587770001
          ],
          [
            18.356856512,
            60.117058797
          ]
        ]
      }
    },
    {
      "type": "Feature",
      "properties": {
        "name": "Etapp 10: Kolarmoraån to Gimo / Gimo herrgård",
        "segment": 4,
        "split": 1
      },
      "geometry": {
        "type": "LineString",
        "coordinates": [
          [
            18.356856512,
            60.117058797
          ],
          [
            18.3568566070001,
            60.117058775
          ]
        ]
      }
    },
    {
      "type": "Feature",
      "properties": {
        "name": "Etapp 10: Kolarmoraån to Gimo / Gimo herrgård",
        "segment": 5,
        "split": 1
      },
      "geometry": {
        "type": "LineString",
        "coordinates": [
          [
            18.356856512,
            60.117058797
          ],
          [
            18.356348647,
            60.117180386
          ],
          [
            18.3564024120001,
            60.1173573560001
          ],
          [
            18.3560721690001,
            60.1177402370001
          ],
          [
            18.3564450050001,
            60.1186012360001
          ],
          [
            18.357093143,
            60.118992383
          ],
          [
            18.3577384720001,
            60.1195971970001
          ],
          [
            18.358703997,
            60.1210052970001
          ],
          [
            18.359181504,
            60.1212487830001
          ],
          [
            18.3593785150001,
            60.1217787800001
          ],
          [
            18.359304872,
            60.122458319
          ],
          [
            18.35934509,
            60.1228526040001
          ],
          [
            18.359037777,
            60.1231100750001
          ],
          [
            18.3586764880001,
            60.123422417
          ],
          [
            18.358755887,
            60.1239672900001
          ],
          [
            18.35837889,
            60.1244761960001
          ],
          [
            18.357705998,
            60.12482914
          ],
          [
            18.356855646,
            60.125136056
          ],
          [
            18.356616776,
            60.1254809500001
          ],
          [
            18.356432088,
            60.126240581
          ],
          [
            18.3562026650001,
            60.1265614580001
          ],
          [
            18.3545739220001,
            60.1272982690001
          ],
          [
            18.353933654,
            60.127680087
          ],
          [
            18.353642736,
            60.1282165170001
          ],
          [
            18.353867098,
            60.1287814950001
          ],
          [
            18.3545292010001,
            60.1291986510001
          ],
          [
            18.354404379,
            60.129909904
          ],
          [
            18.354445749,
            60.1300428550001
          ],
          [
            18.355610015,
            60.1303333800001
          ],
          [
            18.356099932,
            60.1304636190001
          ],
          [
            18.3563720920001,
            60.130795547
          ],
          [
            18.3564280860001,
            60.1311752980001
          ],
          [
            18.356743583,
            60.131517289
          ],
          [
            18.356984733,
            60.1317786700001
          ],
          [
            18.357626254,
            60.1319347790001
          ],
          [
            18.358817863,
            60.131934254
          ],
          [
            18.3598544070001,
            60.1322399320001
          ],
          [
            18.359854522,
            60.132239966
          ],
          [
            18.359853209,
            60.132242331
          ],
          [
            18.358522027,
            60.1346405450001
          ],
          [
            18.3575420930001,
            60.1350815270001
          ],
          [
            18.356738034,
            60.1358449840001
          ],
          [
            18.3568152130001,
            60.136716267
          ],
          [
            18.3579016850001,
            60.136935985
          ],
          [
            18.3578861420001,
            60.137885592
          ],
          [
            18.357952809,
            60.1384184200001
          ],
          [
            18.357839363,
            60.1388809170001
          ],
          [
            18.357644295,
            60.139121155
          ],
          [
            18.357489065,
            60.1397019580001
          ],
          [
            18.3573554340001,
            60.1398120740001
          ],
          [
            18.356339809,
            60.140004305
          ],
          [
            18.355228739,
            60.140598986
          ],
          [
            18.354852964,
            60.140701247
          ],
          [
            18.3543587020001,
            60.140763711
          ],
          [
            18.353409479,
            60.140641509
          ],
          [
            18.352534481,
            60.140688675
          ],
          [
            18.3508751740001,
            60.140687905
          ],
          [
            18.350518111,
            60.1406022990001
          ],
          [
            18.3500592410001,
            60.1403305000001
          ],
          [
            18.348447998,
            60.139536686
          ],
          [
            18.3480634130001,
            60.1389900200001
          ],
          [
            18.347584976,
            60.1386454600001
          ],
          [
            18.346582848,
            60.1382142790001
          ],
          [
            18.346091619,
            60.1378843050001
          ],
          [
            18.3449831290001,
            60.1378837990001
          ],
          [
            18.344364865,
            60.137821504
          ],
          [
            18.343598813,
            60.138054319
          ],
          [
            18.342861821,
            60.138177184
          ],
          [
            18.341900093,
            60.1383682980001
          ],
          [
            18.3409285580001,
            60.138378565
          ],
          [
            18.3403262030001,
            60.13871477
          ],
          [
            18.3394189400001,
            60.1387947360001
          ],
          [
            18.338716285,
            60.1387768010001
          ],
          [
            18.337915616,
            60.138540747
          ],
          [
            18.3376417220001,
            60.1379122530001
          ],
          [
            18.336155993,
            60.1373647950001
          ],
          [
            18.335708066,
            60.137390354
          ],
          [
            18.3353102220001,
            60.137557315
          ],
          [
            18.334570947,
            60.1380840400001
          ],
          [
            18.334198087,
            60.1381560030001
          ],
          [
            18.333432064,
            60.1380282360001
          ],
          [
            18.3328067790001,
            60.1378343920001
          ],
          [
            18.3319731730001,
            60.1373703260001
          ],
          [
            18.3313389980001,
            60.1373220950001
          ],
          [
            18.3300842040001,
            60.1371145250001
          ],
          [
            18.3294603530001,
            60.1363528950001
          ],
          [
            18.328615568,
            60.1360602880001
          ],
          [
            18.3280134280001,
            60.135904237
          ],
          [
            18.327699595,
            60.1359121300001
          ],
          [
            18.3272510200001,
            60.1360018760001
          ],
          [
            18.326816108,
            60.136226809
          ],
          [
            18.3260072300001,
            60.1362186120001
          ],
          [
            18.3253026990001,
            60.136464582
          ],
          [
            18.3246365360001,
            60.136524121
          ],
          [
            18.324013874,
            60.1365896980001
          ],
          [
            18.322755832,
            60.136878091
          ],
          [
            18.322356395,
            60.1368881220001
          ],
          [
            18.3216309040001,
            60.1367850720001
          ],
          [
            18.320863294,
            60.1366188760001
          ],
          [
            18.3206083960001,
            60.1362186810001
          ],
          [
            18.3202022400001,
            60.1357366830001
          ],
          [
            18.319538146,
            60.1356748810001
          ],
          [
            18.3189053870001,
            60.1358063560001
          ],
          [
            18.3186567370001,
            60.136010851
          ],
          [
            18.3182330020001,
            60.1360887490001
          ],
          [
            18.317758097,
            60.1361760510001
          ],
          [
            18.316646927,
            60.1364321710001
          ],
          [
            18.316057519,
            60.136762199
          ],
          [
            18.315683456,
            60.136805843
          ],
          [
            18.31560445,
            60.1371573480001
          ],
          [
            18.3144631770001,
            60.137185941
          ],
          [
            18.314000998,
            60.1372831150001
          ],
          [
            18.3123625580001,
            60.1373455410001
          ],
          [
            18.3119717270001,
            60.1375122530001
          ],
          [
            18.3114946540001,
            60.1378879850001
          ],
          [
            18.310917215,
            60.1380596590001
          ],
          [
            18.310475211,
            60.138090698
          ],
          [
            18.309799743,
            60.137673598
          ],
          [
            18.308758192,
            60.137271658
          ],
          [
            18.3081683140001,
            60.137379138
          ],
          [
            18.3058030930001,
            60.1380374350001
          ],
          [
            18.3049221470001,
            60.138095105
          ],
          [
            18.3037747610001,
            60.1385084410001
          ],
          [
            18.302847851,
            60.1386604840001
          ],
          [
            18.301818472,
            60.138675306
          ],
          [
            18.3014433760001,
            60.1386887180001
          ],
          [
            18.3007891330001,
            60.1379557430001
          ],
          [
            18.2999766560001,
            60.1375551530001
          ],
          [
            18.2990807370001,
            60.1373207020001
          ],
          [
            18.298238498,
            60.1371861120001
          ],
          [
            18.2967832210001,
            60.136728851
          ],
          [
            18.2963238580001,
            60.136711764
          ],
          [
            18.295716122,
            60.136783967
          ],
          [
            18.2947253560001,
            60.1367444420001
          ],
          [
            18.294084356,
            60.137000223
          ],
          [
            18.29325801,
            60.1371590250001
          ],
          [
            18.2922108180001,
            60.137413343
          ],
          [
            18.2916764890001,
            60.1376477630001
          ],
          [
            18.2910024080001,
            60.1376288640001
          ],
          [
            18.290486641,
            60.137762954
          ],
          [
            18.2888507930001,
            60.1387233250001
          ],
          [
            18.2883180630001,
            60.1390330520001
          ],
          [
            18.287842622,
            60.139198529
          ],
          [
            18.2878425600001,
            60.1391985500001
          ],
          [
            18.2868343490001,
            60.139170505
          ],
          [
            18.285652733,
            60.139432292
          ],
          [
            18.2848518750001,
            60.1393188700001
          ],
          [
            18.2838924180001,
            60.1393070180001
          ],
          [
            18.2833287880001,
            60.1391862200001
          ],
          [
            18.2820272170001,
            60.1388896440001
          ],
          [
            18.280775966,
            60.1389634700001
          ],
          [
            18.2781630330001,
            60.1388641670001
          ],
          [
            18.2758480530001,
            60.139099823
          ],
          [
            18.2734123580001,
            60.1394882170001
          ]
        ]
      }
    },
    {
      "type": "Feature",
      "properties": {
        "name": "Etapp 10: Kolarmoraån to Gimo / Gimo herrgård",
        "segment": 5,
        "split": 2
      },
      "geometry": {
        "type": "LineString",
        "coordinates": [
          [
            18.265366374,
            60.1500629700001
          ],
          [
            18.264412045,
            60.150037522
          ],
          [
            18.262875979,
            60.150066027
          ],
          [
            18.261820792,
            60.1498854450001
          ],
          [
            18.260868164,
            60.1499266760001
          ],
          [
            18.259994493,
            60.150053606
          ],
          [
            18.258351897,
            60.1502679490001
          ],
          [
            18.2572858120001,
            60.150539232
          ],
          [
            18.2563166370001,
            60.1507387460001
          ],
          [
            18.254360959,
            60.1509426690001
          ],
          [
            18.2525350400001,
            60.1509524470001
          ],
          [
            18.2508039060001,
            60.151067014
          ],
          [
            18.248860054,
            60.1513078630001
          ],
          [
            18.247515881,
            60.1514283980001
          ],
          [
            18.24580728,
            60.151627751
          ],
          [
            18.2436968310001,
            60.1516905770001
          ],
          [
            18.242213985,
            60.1517897570001
          ],
          [
            18.240186781,
            60.1521180140001
          ],
          [
            18.2370858260001,
            60.1525933290001
          ],
          [
            18.234206724,
            60.1530702800001
          ],
          [
            18.2331567460001,
            60.1531601260001
          ],
          [
            18.230687192,
            60.1535589970001
          ],
          [
            18.228566106,
            60.1539854600001
          ],
          [
            18.2260454280001,
            60.153961321
          ],
          [
            18.2243595570001,
            60.154498129
          ],
          [
            18.224146541,
            60.154690234
          ],
          [
            18.2219622380001,
            60.155527771
          ],
          [
            18.221852523,
            60.155636229
          ],
          [
            18.2218640640001,
            60.1561923080001
          ],
          [
            18.2206559410001,
            60.1567258630001
          ],
          [
            18.219736175,
            60.1573318360001
          ],
          [
            18.217782079,
            60.1581282930001
          ],
          [
            18.2175435450001,
            60.158469333
          ],
          [
            18.216558962,
            60.1588641650001
          ],
          [
            18.215820722,
            60.159217342
          ],
          [
            18.215350281,
            60.1592359010001
          ],
          [
            18.2148760310001,
            60.1590690990001
          ],
          [
            18.214320329,
            60.1586546240001
          ],
          [
            18.212303902,
            60.1583754600001
          ],
          [
            18.2107325430001,
            60.1581046220001
          ],
          [
            18.2082135430001,
            60.1577399720001
          ],
          [
            18.207442721,
            60.157466207
          ],
          [
            18.2064336000001,
            60.1566561180001
          ],
          [
            18.2060540990001,
            60.1565838460001
          ],
          [
            18.205623545,
            60.1566400720001
          ],
          [
            18.204201362,
            60.1570240080001
          ],
          [
            18.204074962,
            60.157793956
          ],
          [
            18.2040913600001,
            60.158538816
          ],
          [
            18.203754121,
            60.158896483
          ],
          [
            18.2026758640001,
            60.1592863430001
          ],
          [
            18.2026163810001,
            60.15985127
          ],
          [
            18.201882306,
            60.1613564190001
          ],
          [
            18.2006273000001,
            60.1632723070001
          ],
          [
            18.2004437410001,
            60.164069334
          ],
          [
            18.199975495,
            60.1649936430001
          ],
          [
            18.20013494,
            60.165925014
          ],
          [
            18.198999929,
            60.1669773450001
          ],
          [
            18.19898922,
            60.167196136
          ],
          [
            18.1991993520001,
            60.167810597
          ],
          [
            18.198578974,
            60.1688826320001
          ],
          [
            18.1983937590001,
            60.1692261270001
          ],
          [
            18.197702583,
            60.1692176390001
          ],
          [
            18.1950808622789,
            60.1689861650434
          ],
          [
            18.1950946403271,
            60.170015165088
          ],
          [
            18.1952695487042,
            60.1709826243989
          ],
          [
            18.1948287909502,
            60.1717864694538
          ],
          [
            18.1946425085732,
            60.1720371130354
          ],
          [
            18.1944030091963,
            60.1729276988309
          ],
          [
            18.1935087580981,
            60.1737375834977
          ],
          [
            18.192614507,
            60.1742913150001
          ],
          [
            18.1907106932788,
            60.1762569815993
          ],
          [
            18.1893062356729,
            60.1762027512891
          ],
          [
            18.1890612489517,
            60.1764546521683
          ],
          [
            18.1889575519466,
            60.1767279666337
          ],
          [
            18.1882619732805,
            60.1767258942336
          ],
          [
            18.1880858453243,
            60.177151713959
          ],
          [
            18.1869678130846,
            60.1773646217515
          ],
          [
            18.1867950350629,
            60.1775564448195
          ],
          [
            18.186708646052,
            60.1786340885441
          ]
        ]
      }
    },
    {
      "type": "Feature",
      "properties": {
        "name": "Etapp 10: Kolarmoraån to Gimo / Gimo herrgård",
        "segment": 5,
        "split": 3
      },
      "geometry": {
        "type": "LineString",
        "coordinates": [
          [
            18.1763657689294,
            60.1783619160552
          ],
          [
            18.1720310400001,
            60.1783031610976
          ]
        ]
      }
    }
  ]
}
