{
  "type": "FeatureCollection",
  "features": [
    {
      "type": "Feature",
      "properties": {
        "name": "Slinga 12:2: Floranslingan",
        "segment": 1,
        "split": 1
      },
      "geometry": {
        "type": "LineString",
        "coordinates": [
          [
            17.8457485470001,
            60.291502613
          ],
          [
            17.8457574480001,
            60.29145492
          ],
          [
            17.846834425,
            60.2909540250001
          ],
          [
            17.848294181,
            60.29039499
          ],
          [
            17.849414246,
            60.290545954
          ],
          [
            17.8504212940001,
            60.2904063940001
          ],
          [
            17.851227271,
            60.2906101610001
          ],
          [
            17.851916487,
            60.2905430490001
          ],
          [
            17.852622749,
            60.2900346330001
          ],
          [
            17.852324874,
            60.2897486410001
          ],
          [
            17.851815308,
            60.288846757
          ],
          [
            17.8518548210001,
            60.287870556
          ],
          [
            17.851872787,
            60.2874266360001
          ],
          [
            17.8516507470001,
            60.2870368980001
          ],
          [
            17.8522654410001,
            60.2865280670001
          ],
          [
            17.8538893940001,
            60.286075054
          ],
          [
            17.854307802,
            60.285561397
          ],
          [
            17.853994498,
            60.2852319770001
          ],
          [
            17.852642325,
            60.2846715160001
          ],
          [
            17.8522133160001,
            60.283689274
          ],
          [
            17.852472419,
            60.283227524
          ],
          [
            17.8522934700001,
            60.282796116
          ],
          [
            17.8523570450001,
            60.2822465990001
          ],
          [
            17.85202243,
            60.2823011040001
          ],
          [
            17.850864149,
            60.2826061420001
          ],
          [
            17.8497591130001,
            60.2827947760001
          ],
          [
            17.84876696,
            60.282658166
          ],
          [
            17.847641529,
            60.2826478700001
          ],
          [
            17.846612839,
            60.2825739420001
          ],
          [
            17.845644669,
            60.2832241680001
          ],
          [
            17.8412588860001,
            60.28423737
          ],
          [
            17.8394085310001,
            60.2841336000001
          ],
          [
            17.839780966,
            60.2844370860001
          ],
          [
            17.839835817,
            60.284744087
          ],
          [
            17.839473792,
            60.285156435
          ],
          [
            17.839538638,
            60.2854648460001
          ],
          [
            17.8400512210001,
            60.286007194
          ],
          [
            17.840025585,
            60.2866871260001
          ],
          [
            17.839586929,
            60.287078224
          ],
          [
            17.8385870280001,
            60.2872606970001
          ],
          [
            17.838341312,
            60.287518092
          ],
          [
            17.8377108100001,
            60.2879419400001
          ],
          [
            17.8372828710001,
            60.288650343
          ],
          [
            17.836791068,
            60.289001039
          ],
          [
            17.8363348940001,
            60.2896390770001
          ],
          [
            17.835131049,
            60.289869964
          ],
          [
            17.834387997,
            60.2905757150001
          ],
          [
            17.8340873960001,
            60.291177465
          ],
          [
            17.8337896780001,
            60.2913238990001
          ],
          [
            17.8325085660001,
            60.291519328
          ],
          [
            17.8319786740001,
            60.2917547560001
          ]
        ]
      }
    },
    {
      "type": "Feature",
      "properties": {
        "name": "Slinga 12:2: Floranslingan",
        "segment": 2,
        "split": 1
      },
      "geometry": {
        "type": "LineString",
        "coordinates": [
          [
            17.8319786740001,
            60.2917547560001
          ],
          [
            17.8325239820001,
            60.29183112
          ],
          [
            17.832775243,
            60.2918257600001
          ],
          [
            17.833843981,
            60.2919279110001
          ],
          [
            17.8343480640001,
            60.2920881460001
          ],
          [
            17.834793566,
            60.2921838620001
          ],
          [
            17.8356163180001,
            60.292199177
          ],
          [
            17.8364747610001,
            60.2921676880001
          ],
          [
            17.8378006070001,
            60.2921788190001
          ],
          [
            17.8392012420001,
            60.292135724
          ],
          [
            17.840130132,
            60.2920763990001
          ],
          [
            17.8410263220001,
            60.292019156
          ],
          [
            17.842193109,
            60.292032256
          ],
          [
            17.8439675320001,
            60.291869305
          ],
          [
            17.844483606,
            60.2917859070001
          ],
          [
            17.8457485470001,
            60.291502613
          ]
        ]
      }
    },
    {
      "type": "Feature",
      "properties": {
        "name": "Slinga 12:2: Floranslingan",
        "segment": 3,
        "split": 1
      },
      "geometry": {
        "type": "LineString",
        "coordinates": [
          [
            17.8319786740001,
            60.2917547560001
          ],
          [
            17.8327583580001,
            60.2926684930001
          ],
          [
            17.832668525,
            60.2928781790001
          ],
          [
            17.83285785,
            60.2944430790001
          ],
          [
            17.8337599450001,
            60.2949189830001
          ],
          [
            17.8345129710001,
            60.2953521470001
          ],
          [
            17.835833527,
            60.2960219240001
          ],
          [
            17.8364716660001,
            60.297360053
          ],
          [
            17.8362554790001,
            60.2983550600001
          ],
          [
            17.837152093,
            60.2983715940001
          ],
          [
            17.8377040730001,
            60.2988780910001
          ],
          [
            17.837196432,
            60.2997500590001
          ],
          [
            17.836708347,
            60.301553853
          ],
          [
            17.836166398,
            60.3025775070001
          ],
          [
            17.835923899,
            60.3030869560001
          ],
          [
            17.8360052360001,
            60.3038661750001
          ],
          [
            17.836549771,
            60.30522233
          ],
          [
            17.8366366120001,
            60.3052870760001
          ],
          [
            17.8371877330001,
            60.3056979250001
          ],
          [
            17.8377674620001,
            60.3060849
          ],
          [
            17.838557151,
            60.306829113
          ],
          [
            17.839179174,
            60.3073633480001
          ],
          [
            17.840197364,
            60.3079117280001
          ],
          [
            17.8411520670001,
            60.3085768440001
          ],
          [
            17.841637684,
            60.3090515910001
          ],
          [
            17.842197239,
            60.3090643400001
          ],
          [
            17.8451214240001,
            60.3081775470001
          ],
          [
            17.846379652,
            60.307835121
          ],
          [
            17.8472263220001,
            60.3075904520001
          ],
          [
            17.849346919,
            60.3072668500001
          ],
          [
            17.8508421060001,
            60.3071064000001
          ],
          [
            17.8514683020001,
            60.3071999310001
          ],
          [
            17.8531083720001,
            60.3082059060001
          ],
          [
            17.854442958,
            60.309004482
          ],
          [
            17.855454837,
            60.309310721
          ],
          [
            17.856550241,
            60.3094732960001
          ],
          [
            17.857929948,
            60.3093622660001
          ],
          [
            17.8587600620001,
            60.309140063
          ],
          [
            17.860128119,
            60.3085969260001
          ],
          [
            17.862023934,
            60.3083118970001
          ],
          [
            17.8632737180001,
            60.3080532600001
          ],
          [
            17.864225866,
            60.307942557
          ],
          [
            17.8647411530001,
            60.3078485460001
          ],
          [
            17.8649756880001,
            60.307408465
          ],
          [
            17.864861234,
            60.30708645
          ],
          [
            17.864705928,
            60.3067902760001
          ],
          [
            17.865257252,
            60.3059531470001
          ],
          [
            17.866284551,
            60.3052871260001
          ],
          [
            17.8675200770001,
            60.3047897760001
          ],
          [
            17.8676133030001,
            60.3045417260001
          ],
          [
            17.8676575510001,
            60.304062958
          ],
          [
            17.867832171,
            60.30392369
          ],
          [
            17.868216949,
            60.303558804
          ],
          [
            17.8689775170001,
            60.302466032
          ],
          [
            17.868663318,
            60.3017662820001
          ],
          [
            17.8681197540001,
            60.3009757250001
          ],
          [
            17.8659008880001,
            60.299433298
          ],
          [
            17.8650690320001,
            60.2982074330001
          ],
          [
            17.864292757,
            60.2972921960001
          ],
          [
            17.8632243210001,
            60.2967632300001
          ],
          [
            17.861733466,
            60.2964744490001
          ],
          [
            17.8612365820001,
            60.295968122
          ],
          [
            17.86027143,
            60.2956109450001
          ],
          [
            17.8589227750001,
            60.295468832
          ],
          [
            17.857865101,
            60.2956126440001
          ],
          [
            17.8569297170001,
            60.295433281
          ],
          [
            17.856241443,
            60.295120039
          ],
          [
            17.8551815120001,
            60.2949930720001
          ],
          [
            17.8543852580001,
            60.2950886360001
          ],
          [
            17.853376246,
            60.2955453430001
          ],
          [
            17.8523317610001,
            60.295760333
          ],
          [
            17.851325198,
            60.2955992330001
          ],
          [
            17.8504474380001,
            60.2951589620001
          ],
          [
            17.849627916,
            60.2949148230001
          ],
          [
            17.8481143720001,
            60.294930896
          ],
          [
            17.8468147340001,
            60.2939208350001
          ],
          [
            17.8468595100001,
            60.293388883
          ],
          [
            17.8465116150001,
            60.2928579160001
          ],
          [
            17.845698651,
            60.2917699650001
          ],
          [
            17.8457485470001,
            60.291502613
          ]
        ]
      }
    }
  ]
}
