{
  "type": "FeatureCollection",
  "features": [
    {
      "type": "Feature",
      "properties": {
        "name": "Etapp 20: Nora kyrka / Tärnsjö to Östa / Ingbo källor",
        "segment": 1,
        "split": 1
      },
      "geometry": {
        "type": "LineString",
        "coordinates": [
          [
            16.920996737999985,
            60.15498186200006
          ],
          [
            16.91744528800007,
            60.15431394900003
          ],
          [
            16.91659365500004,
            60.15419928100005
          ],
          [
            16.91590993600005,
            60.15414276700005
          ],
          [
            16.91459436300011,
            60.15423265600003
          ],
          [
            16.91301513400003,
            60.15432473500005
          ],
          [
            16.91148642100006,
            60.15435064100006
          ],
          [
            16.90998451200005,
            60.15438945400007
          ],
          [
            16.90861618100007,
            60.15447972400005
          ],
          [
            16.90795925800012,
            60.15455091800004
          ],
          [
            16.90740383600007,
            60.15450295000005
          ],
          [
            16.90637516600009,
            60.15449834900005
          ],
          [
            16.90597617900005,
            60.15439648900008
          ],
          [
            16.90524809900012,
            60.15391611400008
          ],
          [
            16.90492470900006,
            60.15370845400008
          ],
          [
            16.90442867299998,
            60.15306839300007
          ],
          [
            16.90397698400011,
            60.15296696500008
          ],
          [
            16.90373226300005,
            60.15274550400005
          ],
          [
            16.90371956000013,
            60.15236436400005
          ],
          [
            16.90394543900004,
            60.15202068600007
          ],
          [
            16.90430531700008,
            60.15174163000006
          ],
          [
            16.90429699100002,
            60.15149191800003
          ],
          [
            16.90410456500013,
            60.15125687700004
          ],
          [
            16.90390498500005,
            60.15125497800005
          ],
          [
            16.90335488300002,
            60.15129634900006
          ],
          [
            16.90252213999997,
            60.15135897100004
          ],
          [
            16.90208852800004,
            60.15144024300008
          ],
          [
            16.90120333000004,
            60.15198122000004
          ],
          [
            16.90102145500009,
            60.15209236700008
          ],
          [
            16.9007050140001,
            60.15208539800005
          ],
          [
            16.89388563300008,
            60.15154156400007
          ],
          [
            16.89367226000013,
            60.15157181500007
          ],
          [
            16.89316213400002,
            60.15170424800004
          ],
          [
            16.89286167199998,
            60.15178225000005
          ],
          [
            16.89257544100008,
            60.15211517800003
          ],
          [
            16.89270967400012,
            60.15228507600006
          ],
          [
            16.892698204999988,
            60.15237066800006
          ],
          [
            16.892817917,
            60.15253355900006
          ],
          [
            16.89285119400006,
            60.15267578400005
          ],
          [
            16.89290923400006,
            60.15292384600008
          ],
          [
            16.89303699200013,
            60.15310887900006
          ],
          [
            16.89331482000011,
            60.15329897200007
          ],
          [
            16.89365003900002,
            60.15349571800004
          ],
          [
            16.89374047700005,
            60.15363747300006
          ],
          [
            16.89347510800008,
            60.15382489900003
          ],
          [
            16.89312259300004,
            60.15397028800004
          ],
          [
            16.89288485600002,
            60.15412898500006
          ],
          [
            16.892734259000008,
            60.15432971800004
          ],
          [
            16.89269962000003,
            60.15457937300005
          ],
          [
            16.89261694100003,
            60.15467267400004
          ],
          [
            16.89246070100012,
            60.15470245500006
          ],
          [
            16.89226394299999,
            60.15480381600008
          ],
          [
            16.89200955800004,
            60.15489139900006
          ],
          [
            16.89159728599998,
            60.15495890100004
          ],
          [
            16.89132860800009,
            60.15504660000005
          ],
          [
            16.89105758200003,
            60.15506306900005
          ],
          [
            16.89087088300005,
            60.15503609800004
          ],
          [
            16.89064366399998,
            60.15508070700008
          ],
          [
            16.890445989,
            60.15511951400003
          ],
          [
            16.89031618400008,
            60.15511901100007
          ],
          [
            16.88982027900011,
            60.15525131500004
          ],
          [
            16.88822877000007,
            60.15553506600003
          ],
          [
            16.88780323500009,
            60.15561093000008
          ],
          [
            16.88744869800007,
            60.15571955400003
          ],
          [
            16.88704952800003,
            60.15575131000003
          ],
          [
            16.886776156,
            60.15569654100005
          ],
          [
            16.886429701,
            60.15559249300003
          ],
          [
            16.88629455400007,
            60.15539409800004
          ],
          [
            16.88622263900004,
            60.15538043400005
          ],
          [
            16.88592443000005,
            60.15543986300003
          ],
          [
            16.88557610400005,
            60.15550927900006
          ],
          [
            16.88550018500007,
            60.15557869200006
          ],
          [
            16.885232653,
            60.15570199400008
          ],
          [
            16.88473508600009,
            60.15578441800005
          ],
          [
            16.88452064900002,
            60.15581994000007
          ],
          [
            16.88433801100007,
            60.15588027300004
          ],
          [
            16.88397890500005,
            60.15582619500003
          ],
          [
            16.88353546100006,
            60.15581555100005
          ],
          [
            16.88310397700002,
            60.15573356000004
          ],
          [
            16.88251205200004,
            60.15555312200007
          ],
          [
            16.8822647070001,
            60.15541975900004
          ],
          [
            16.88207213700002,
            60.15531592700006
          ],
          [
            16.88164444600011,
            60.15524667200003
          ],
          [
            16.881407072,
            60.15520823400004
          ],
          [
            16.88098829800003,
            60.15528762000008
          ],
          [
            16.8803803620001,
            60.15549204600006
          ],
          [
            16.87998281299997,
            60.15557364100005
          ],
          [
            16.87969771799999,
            60.15559732600008
          ],
          [
            16.87943016600002,
            60.15572061600005
          ],
          [
            16.8790736630001,
            60.15588489200007
          ],
          [
            16.87899925700003,
            60.15609459900003
          ],
          [
            16.87913540700004,
            60.15632505500008
          ],
          [
            16.87925892700002,
            60.15653412700004
          ],
          [
            16.87918895500002,
            60.15665236500007
          ],
          [
            16.87897576600005,
            60.15668971500003
          ],
          [
            16.878579359000014,
            60.15680692200004
          ],
          [
            16.87844086400003,
            60.15694341500006
          ],
          [
            16.87824428199997,
            60.15705187900005
          ],
          [
            16.87789097000007,
            60.15717585900006
          ],
          [
            16.877724124,
            60.15731970600007
          ],
          [
            16.87744133199999,
            60.15741461600004
          ],
          [
            16.87718457000005,
            60.15743094100003
          ],
          [
            16.87701586499998,
            60.15751780200003
          ],
          [
            16.87656158499999,
            60.15761409600003
          ],
          [
            16.87631864700006,
            60.15761605800003
          ],
          [
            16.87608822100003,
            60.15761791800003
          ],
          [
            16.875734361000013,
            60.15767064800008
          ],
          [
            16.87530425900013,
            60.15763137000005
          ],
          [
            16.87427072800006,
            60.15749720700006
          ],
          [
            16.87414304000004,
            60.15752673500003
          ],
          [
            16.87312290199998,
            60.15780569800006
          ],
          [
            16.87294082000005,
            60.15792116100005
          ],
          [
            16.8727015720001,
            60.15803708400006
          ],
          [
            16.87253354500012,
            60.15814531000007
          ],
          [
            16.872522484,
            60.15824514600007
          ],
          [
            16.87255544800007,
            60.15838025400006
          ],
          [
            16.87260044499999,
            60.15856466500003
          ],
          [
            16.87289544400005,
            60.15872663500005
          ],
          [
            16.872926796,
            60.15881188100008
          ],
          [
            16.87280256300005,
            60.15894825400005
          ],
          [
            16.87241855100001,
            60.15900834300004
          ],
          [
            16.87212427100008,
            60.15901427300008
          ],
          [
            16.87182692600004,
            60.15910216200007
          ],
          [
            16.87141458100007,
            60.15922404200006
          ],
          [
            16.87120526100011,
            60.15932803000004
          ],
          [
            16.87107595099997,
            60.15930769500005
          ],
          [
            16.87045613300006,
            60.15914880200006
          ],
          [
            16.86990473900005,
            60.15900744500004
          ],
          [
            16.869704254,
            60.15888409300004
          ],
          [
            16.86928429500006,
            60.15871646700003
          ],
          [
            16.86863637500005,
            60.15857204000008
          ],
          [
            16.86804838300009,
            60.15851262900003
          ],
          [
            16.86785028300005,
            60.15849261200003
          ],
          [
            16.86753621000003,
            60.15858798000005
          ],
          [
            16.86728487100004,
            60.15866429900007
          ],
          [
            16.86692468600006,
            60.15868550000005
          ],
          [
            16.86628709800004,
            60.15886159900003
          ],
          [
            16.8661911910001,
            60.15899061300007
          ],
          [
            16.86603073400011,
            60.15920645400007
          ],
          [
            16.86593939700003,
            60.15932931500004
          ],
          [
            16.86588037900003,
            60.15954883700005
          ],
          [
            16.86569826000004,
            60.15966429100007
          ],
          [
            16.86549305700009,
            60.15995092500003
          ],
          [
            16.86514745700003,
            60.16031705400007
          ],
          [
            16.86486964100004,
            60.16056864400008
          ],
          [
            16.86446067600002,
            60.16074290700004
          ],
          [
            16.86418936000007,
            60.16075219800007
          ],
          [
            16.86379147800005,
            60.16082662200006
          ],
          [
            16.86342492300003,
            60.16098629400005
          ],
          [
            16.86212080700011,
            60.16115343700005
          ],
          [
            16.861777115,
            60.16113480100006
          ],
          [
            16.86113123600012,
            60.16105444500005
          ],
          [
            16.86061581200011,
            60.16103004700005
          ],
          [
            16.860068383,
            60.16100413300006
          ],
          [
            16.85975533100009,
            60.16094426800004
          ],
          [
            16.85941506000006,
            60.16103247100006
          ],
          [
            16.85928597600002,
            60.16101924700007
          ],
          [
            16.85898311100004,
            60.16093615500006
          ],
          [
            16.85869362900007,
            60.16082445600006
          ],
          [
            16.85831976200006,
            60.16075617700005
          ],
          [
            16.85790349800004,
            60.16068015200005
          ],
          [
            16.85760676400002,
            60.16081170900003
          ],
          [
            16.85736425599998,
            60.16082788300008
          ],
          [
            16.857093846999987,
            60.16086565100005
          ],
          [
            16.85667276499998,
            60.16092446400006
          ],
          [
            16.85622385900001,
            60.16092954500004
          ],
          [
            16.85593938200009,
            60.16097454900006
          ],
          [
            16.8555850350001,
            60.16106997700007
          ],
          [
            16.85534683900005,
            60.16122148500006
          ],
          [
            16.85542261199998,
            60.16135625700008
          ],
          [
            16.85541127200008,
            60.16144897000004
          ],
          [
            16.85523840300004,
            60.16140758900008
          ],
          [
            16.85488648199998,
            60.16132334600007
          ],
          [
            16.85467851400006,
            60.16133364700005
          ],
          [
            16.854544669000006,
            60.16117083400007
          ],
          [
            16.85453786400012,
            60.16095714200003
          ],
          [
            16.85469008300004,
            60.16079919200007
          ],
          [
            16.85507210600008,
            60.16067504700004
          ],
          [
            16.85520844100006,
            60.16046734700006
          ],
          [
            16.85514174200011,
            60.16016863300007
          ],
          [
            16.854875644999993,
            60.15989287000008
          ],
          [
            16.854602290999992,
            60.15983803300003
          ],
          [
            16.85433415600005,
            60.15994702700004
          ],
          [
            16.85419736200004,
            60.16014047900006
          ],
          [
            16.85408002000008,
            60.16030642300007
          ],
          [
            16.85379151899997,
            60.16041443200004
          ],
          [
            16.85340751400008,
            60.16055819300004
          ],
          [
            16.853173105,
            60.16074706100005
          ],
          [
            16.85297573499997,
            60.16083411900007
          ],
          [
            16.85283553400006,
            60.16092072400005
          ],
          [
            16.85242265200009,
            60.16097385700004
          ],
          [
            16.85196259300005,
            60.16103306200006
          ],
          [
            16.85177087800002,
            60.16115712200008
          ],
          [
            16.85133280000002,
            60.16131732400004
          ],
          [
            16.85100566300002,
            60.16136977700006
          ],
          [
            16.85076134000008,
            60.16132895400006
          ],
          [
            16.85054072100002,
            60.16129209100006
          ],
          [
            16.85006328500003,
            60.16140570200008
          ],
          [
            16.84976314900007,
            60.16140806600004
          ],
          [
            16.84929557000009,
            60.16153999500006
          ],
          [
            16.84902898100006,
            60.16169883800006
          ],
          [
            16.848780970000007,
            60.16199290800006
          ],
          [
            16.84832721900011,
            60.16211047300004
          ],
          [
            16.84784274100002,
            60.16216059400006
          ],
          [
            16.84764151900004,
            60.16212655100003
          ],
          [
            16.847284167,
            60.16206609300008
          ],
          [
            16.84705304800013,
            60.16205280100007
          ],
          [
            16.84678779700005,
            60.16225437900005
          ],
          [
            16.84662146300002,
            60.16241955600003
          ],
          [
            16.84639477600012,
            60.16264466700005
          ],
          [
            16.84612887200001,
            60.16266566600007
          ],
          [
            16.84572890200002,
            60.16267592800006
          ],
          [
            16.84516743800009,
            60.16255208400008
          ],
          [
            16.84471007100001,
            60.16255566900003
          ],
          [
            16.84454058100005,
            60.16262112100003
          ],
          [
            16.84428196500005,
            60.16258039800005
          ],
          [
            16.84398249100013,
            60.16260411700006
          ],
          [
            16.843493845000012,
            60.16252244500004
          ],
          [
            16.84336229400003,
            60.16243085100007
          ],
          [
            16.84315883199997,
            60.16232557200004
          ],
          [
            16.8431554660001,
            60.16221872500006
          ],
          [
            16.84295424700008,
            60.16218467500005
          ],
          [
            16.84261586499997,
            60.16212741300006
          ],
          [
            16.84253482999998,
            60.16203121000007
          ],
          [
            16.84261632300013,
            60.16189520100005
          ],
          [
            16.84272842100006,
            60.16182307600008
          ],
          [
            16.8426549400001,
            60.16175952700007
          ],
          [
            16.84245238100004,
            60.16168273800008
          ],
          [
            16.84226501100011,
            60.16163432900004
          ],
          [
            16.84206559200004,
            60.16165726300005
          ],
          [
            16.841749144999994,
            60.16159561200004
          ],
          [
            16.84151755400012,
            60.16150479800007
          ],
          [
            16.84140030499998,
            60.16141309200003
          ],
          [
            16.84148180200009,
            60.16127708400006
          ],
          [
            16.84147732100007,
            60.16113462200008
          ],
          [
            16.841162896000014,
            60.16113707800008
          ]
        ]
      }
    },
    {
      "type": "Feature",
      "properties": {
        "name": "Etapp 20: Nora kyrka / Tärnsjö to Östa / Ingbo källor",
        "segment": 2,
        "split": 1
      },
      "geometry": {
        "type": "LineString",
        "coordinates": [
          [
            16.82710470500001,
            60.15845947400004
          ],
          [
            16.82716008700004,
            60.15828561500007
          ],
          [
            16.82709832700004,
            60.15809159900004
          ],
          [
            16.82694512300009,
            60.15794459600005
          ],
          [
            16.82692195300001,
            60.15779659100008
          ],
          [
            16.82682103399998,
            60.15753804700006
          ],
          [
            16.82661181700007,
            60.15738221300006
          ],
          [
            16.82634773600012,
            60.15725458600008
          ],
          [
            16.82628856500003,
            60.15714390300008
          ],
          [
            16.82608776699999,
            60.15676829500006
          ],
          [
            16.8257555350001,
            60.15673123900007
          ],
          [
            16.82543891400007,
            60.15669592300003
          ],
          [
            16.82528770099998,
            60.15662370000007
          ],
          [
            16.82509707300005,
            60.15646772000008
          ],
          [
            16.824965324999994,
            60.15641316500006
          ],
          [
            16.82499789100007,
            60.15626473000003
          ],
          [
            16.82490157699999,
            60.15615433300007
          ],
          [
            16.8247301020001,
            60.15601673000003
          ],
          [
            16.82461349300002,
            60.15585091900004
          ],
          [
            16.82461034300013,
            60.15574906700004
          ],
          [
            16.824423732000014,
            60.15572271700006
          ],
          [
            16.82382217100007,
            60.15549580000004
          ],
          [
            16.82348610400004,
            60.15544281200005
          ],
          [
            16.82320433300004,
            60.15534309900005
          ],
          [
            16.82297743000004,
            60.15521517900004
          ],
          [
            16.82273366900006,
            60.15514295800006
          ],
          [
            16.82251942000005,
            60.15507947900005
          ],
          [
            16.82237360300007,
            60.15491418200003
          ],
          [
            16.82236788800003,
            60.15472899700006
          ],
          [
            16.82265793600004,
            60.15449523600006
          ],
          [
            16.82265507800003,
            60.15440264300008
          ],
          [
            16.82246304700004,
            60.15420036300003
          ],
          [
            16.82240389599997,
            60.15408967900004
          ],
          [
            16.82221443700007,
            60.15397073300005
          ],
          [
            16.82197126000005,
            60.15391702900007
          ],
          [
            16.82182038200006,
            60.15384409300003
          ],
          [
            16.82144661300003,
            60.15377286500006
          ],
          [
            16.8211277150001,
            60.15367343200006
          ],
          [
            16.82108400300012,
            60.15346075300005
          ],
          [
            16.82087569500004,
            60.15333268800003
          ],
          [
            16.82077940300007,
            60.15322228700006
          ],
          [
            16.82083198700002,
            60.15312000800003
          ],
          [
            16.8212148990001,
            60.15288554000006
          ],
          [
            16.82126548300005,
            60.15271844500006
          ],
          [
            16.821236064,
            60.15236673500004
          ],
          [
            16.8212136090001,
            60.15209825800008
          ],
          [
            16.8213686680001,
            60.15184707600008
          ],
          [
            16.821787566000012,
            60.15157528300006
          ],
          [
            16.8220234580001,
            60.15142222700007
          ],
          [
            16.82202155000004,
            60.15099956800003
          ],
          [
            16.82209579300002,
            60.15079781000003
          ],
          [
            16.82240168200008,
            60.15059286400003
          ],
          [
            16.82311562000007,
            60.15048571200003
          ],
          [
            16.82388168800003,
            60.15043866900004
          ],
          [
            16.82488141900012,
            60.15042489900003
          ],
          [
            16.82590418400002,
            60.15038647300008
          ],
          [
            16.82644607100008,
            60.15025734300008
          ],
          [
            16.82720335800013,
            60.15005224400005
          ],
          [
            16.82761551400006,
            60.15000397700004
          ],
          [
            16.82839953200005,
            60.14984108300007
          ],
          [
            16.82951918100002,
            60.14946064500003
          ],
          [
            16.82975828200006,
            60.14937218100005
          ],
          [
            16.83032722300004,
            60.14929132500004
          ],
          [
            16.83075969000004,
            60.14916977100006
          ],
          [
            16.83166290100007,
            60.14873756000003
          ],
          [
            16.83243908899999,
            60.14843484200003
          ],
          [
            16.83264498300002,
            60.14840766100008
          ],
          [
            16.832850322000013,
            60.14843768200006
          ]
        ]
      }
    },
    {
      "type": "Feature",
      "properties": {
        "name": "Etapp 20: Nora kyrka / Tärnsjö to Östa / Ingbo källor",
        "segment": 3,
        "split": 1
      },
      "geometry": {
        "type": "LineString",
        "coordinates": [
          [
            16.82710470500001,
            60.15845947400004
          ],
          [
            16.8268281600001,
            60.15849094600003
          ],
          [
            16.82643043799999,
            60.15857238100006
          ],
          [
            16.82622904000004,
            60.15853118300004
          ],
          [
            16.82558681600005,
            60.15847200200005
          ],
          [
            16.82538696300003,
            60.15848066300003
          ],
          [
            16.8251196220001,
            60.15861809000006
          ],
          [
            16.82490635800013,
            60.15865535400008
          ],
          [
            16.82471969300013,
            60.15862829000008
          ],
          [
            16.82459217500013,
            60.15866489300004
          ],
          [
            16.82436660200005,
            60.15876637400004
          ],
          [
            16.82405241600009,
            60.15877591200007
          ],
          [
            16.82386773300004,
            60.15881295400004
          ],
          [
            16.82347462200005,
            60.15904396700006
          ],
          [
            16.823253884,
            60.15930215400004
          ],
          [
            16.82324531500012,
            60.15948746400005
          ],
          [
            16.82323773799999,
            60.15965127200008
          ],
          [
            16.82312351200005,
            60.15970926800003
          ],
          [
            16.82299528500005,
            60.15977437300006
          ],
          [
            16.82278733400005,
            60.15993271600007
          ],
          [
            16.82256196499998,
            60.16004131700004
          ],
          [
            16.82239662100005,
            60.16024207900006
          ],
          [
            16.82224610599997,
            60.16042483500007
          ],
          [
            16.82178074700005,
            60.16066716400007
          ],
          [
            16.82128953300003,
            60.16096304400003
          ],
          [
            16.82117980800012,
            60.16111350500006
          ],
          [
            16.82102457200006,
            60.16117881600007
          ],
          [
            16.82075389800002,
            60.16120938800003
          ],
          [
            16.82057213600001,
            60.16122991700007
          ],
          [
            16.82030049500008,
            60.16134110400003
          ],
          [
            16.82003025800009,
            60.16138592100003
          ],
          [
            16.81987457900004,
            60.16143698500008
          ],
          [
            16.81953112400004,
            60.16142536200005
          ],
          [
            16.81931720800003,
            60.16141812300003
          ],
          [
            16.81923208300009,
            60.16146327300004
          ],
          [
            16.8192052500001,
            60.16152047600008
          ],
          [
            16.81888375900007,
            60.16175805100005
          ],
          [
            16.81878962700011,
            60.16195114000004
          ],
          [
            16.818837325999993,
            60.16210752100005
          ],
          [
            16.81904158600003,
            60.16224133100008
          ],
          [
            16.81918933500003,
            60.16239694700005
          ],
          [
            16.81916316000002,
            60.16247552000004
          ],
          [
            16.81911315399998,
            60.16262563400005
          ],
          [
            16.81877314999997,
            60.16280980300007
          ],
          [
            16.8186774830001,
            60.16295303100003
          ],
          [
            16.818397538,
            60.16314753800003
          ],
          [
            16.81804327600003,
            60.16324999000005
          ],
          [
            16.81748540700005,
            60.16323999900004
          ],
          [
            16.817043195999986,
            60.16327187100006
          ],
          [
            16.81676061200005,
            60.16338089800007
          ],
          [
            16.81653542000004,
            60.16349661200007
          ],
          [
            16.8163310760001,
            60.16382591000007
          ],
          [
            16.81612432400004,
            60.16407685300004
          ],
          [
            16.81579885300005,
            60.16418620500008
          ],
          [
            16.81548417600004,
            60.16418147600007
          ],
          [
            16.81531156200003,
            60.16414716600008
          ],
          [
            16.81511320000004,
            60.16420567500006
          ],
          [
            16.81471297899998,
            60.16420872100008
          ],
          [
            16.81446956900004,
            60.16421057300005
          ],
          [
            16.81412934400009,
            60.16429153300004
          ],
          [
            16.81381597600011,
            60.16432954000004
          ],
          [
            16.81354417900002,
            60.16432448100005
          ],
          [
            16.81322558000011,
            60.16419153100003
          ],
          [
            16.81301515000007,
            60.16413613100008
          ],
          [
            16.81285269299997,
            60.16396637100007
          ],
          [
            16.81253344700008,
            60.16381205000005
          ],
          [
            16.812155071000007,
            60.16359405400004
          ],
          [
            16.81199218500001,
            60.16341004500003
          ],
          [
            16.81167527399998,
            60.16286384100005
          ],
          [
            16.8113436430001,
            60.16229224600005
          ],
          [
            16.81130364700005,
            60.16212256600005
          ]
        ]
      }
    },
    {
      "type": "Feature",
      "properties": {
        "name": "Etapp 20: Nora kyrka / Tärnsjö to Östa / Ingbo källor",
        "segment": 4,
        "split": 1
      },
      "geometry": {
        "type": "LineString",
        "coordinates": [
          [
            16.841162896000014,
            60.16113707800008
          ],
          [
            16.84117886500007,
            60.16104999400005
          ],
          [
            16.84121351400006,
            60.16086103900005
          ],
          [
            16.84174357699999,
            60.16064077200008
          ],
          [
            16.84188369399999,
            60.16050474000008
          ],
          [
            16.84189636300005,
            60.16033372100003
          ],
          [
            16.841960900999993,
            60.16009033000006
          ],
          [
            16.84222308000005,
            60.15981840700005
          ],
          [
            16.84249034900006,
            60.15970836800005
          ],
          [
            16.842848688,
            60.15962460300005
          ],
          [
            16.84309564400007,
            60.15944275500004
          ],
          [
            16.84335695900006,
            60.15914384900003
          ],
          [
            16.84354325900006,
            60.15875557100003
          ],
          [
            16.843772726,
            60.15859185000005
          ],
          [
            16.84420124000007,
            60.15844456100007
          ],
          [
            16.84488321100002,
            60.15832227200008
          ],
          [
            16.84547638000004,
            60.15824565500003
          ],
          [
            16.84610307700007,
            60.15808781100003
          ],
          [
            16.8463929080001,
            60.15812152000007
          ],
          [
            16.84653583500005,
            60.15807541800007
          ],
          [
            16.84673317700003,
            60.15803788500006
          ],
          [
            16.84698663800009,
            60.15806288200008
          ],
          [
            16.84720173900007,
            60.15801621400004
          ],
          [
            16.84767980700008,
            60.15772459200008
          ],
          [
            16.84835947500005,
            60.15753033700008
          ],
          [
            16.84873610299996,
            60.15745540700004
          ],
          [
            16.84908845500013,
            60.15738530700003
          ],
          [
            16.84934215900012,
            60.15721674700006
          ],
          [
            16.84980415100006,
            60.15698821400008
          ],
          [
            16.85005760600006,
            60.15701320500006
          ],
          [
            16.85052957400012,
            60.15709944500003
          ],
          [
            16.85103877100005,
            60.15722137300003
          ],
          [
            16.85124152599997,
            60.15735471100004
          ],
          [
            16.85147733500003,
            60.15750978600005
          ]
        ]
      }
    },
    {
      "type": "Feature",
      "properties": {
        "name": "Etapp 20: Nora kyrka / Tärnsjö to Östa / Ingbo källor",
        "segment": 5,
        "split": 1
      },
      "geometry": {
        "type": "LineString",
        "coordinates": [
          [
            16.841162896000014,
            60.16113707800008
          ],
          [
            16.84066110599997,
            60.16109112200007
          ],
          [
            16.8403609720001,
            60.16109346400003
          ],
          [
            16.840002528000014,
            60.16109626100007
          ],
          [
            16.839821003,
            60.16119742400008
          ],
          [
            16.83970733800004,
            60.16121968500005
          ],
          [
            16.83950523600004,
            60.16115713800008
          ],
          [
            16.83926226900007,
            60.16115903200006
          ],
          [
            16.83913118300006,
            60.16108168000005
          ],
          [
            16.83867338900006,
            60.16107099800007
          ],
          [
            16.83851773900005,
            60.16112208400006
          ],
          [
            16.838278124,
            60.16123082300004
          ],
          [
            16.83817718600005,
            60.16120310900004
          ],
          [
            16.83797642600007,
            60.16118329800008
          ],
          [
            16.83792819100006,
            60.16101267800008
          ],
          [
            16.837937796000006,
            60.16086298200008
          ],
          [
            16.83789090100004,
            60.16073510000007
          ],
          [
            16.83795789700002,
            60.16059208200005
          ],
          [
            16.83811175900007,
            60.16048401200004
          ],
          [
            16.83806575700009,
            60.16038462300003
          ],
          [
            16.83800022600008,
            60.16024304100006
          ],
          [
            16.837827714000014,
            60.16008723400006
          ],
          [
            16.83766961200013,
            60.16005996500007
          ],
          [
            16.83742665400007,
            60.16006185500004
          ],
          [
            16.83711446899997,
            60.16013553300007
          ],
          [
            16.8367719150001,
            60.16015244700003
          ],
          [
            16.83654433400011,
            60.16016368300006
          ],
          [
            16.83639721000009,
            60.16005561200006
          ],
          [
            16.83626434999996,
            60.15992127400006
          ],
          [
            16.83608482900013,
            60.15966617500004
          ],
          [
            16.8357659620001,
            60.15952615700007
          ],
          [
            16.83557616400003,
            60.15939938400004
          ],
          [
            16.83529033700006,
            60.15940160400004
          ],
          [
            16.83500606899997,
            60.15945368500007
          ],
          [
            16.83477629200002,
            60.15941984400007
          ],
          [
            16.834547853,
            60.15942874200005
          ],
          [
            16.83400856000003,
            60.15955404800007
          ],
          [
            16.83325844800004,
            60.15979498200005
          ],
          [
            16.83256216000007,
            60.15992862300004
          ],
          [
            16.83216554500007,
            60.16004569100005
          ],
          [
            16.83195694200003,
            60.16023255100004
          ],
          [
            16.83175343900007,
            60.16058324200003
          ],
          [
            16.8316972770001,
            60.16068002300005
          ],
          [
            16.831790232999992,
            60.16084657500005
          ],
          [
            16.83167833800007,
            60.16092581400005
          ],
          [
            16.83152112500011,
            60.16092703000004
          ],
          [
            16.83140479200006,
            60.16086380700006
          ],
          [
            16.83126546100004,
            60.16078808400005
          ],
          [
            16.83110066800009,
            60.16073791300005
          ],
          [
            16.83095353600004,
            60.16060367900008
          ],
          [
            16.83094865800012,
            60.16044697100006
          ],
          [
            16.830731840999988,
            60.16037027400006
          ],
          [
            16.83045941199998,
            60.16034388100007
          ],
          [
            16.83010169300007,
            60.16030922300007
          ],
          [
            16.82990425399998,
            60.16029009500005
          ],
          [
            16.829840655,
            60.16021329000006
          ],
          [
            16.82987932300011,
            60.16007761900005
          ],
          [
            16.83001603600007,
            60.15987706900006
          ],
          [
            16.83013984500008,
            60.15969544700005
          ],
          [
            16.8303642410001,
            60.15958226100008
          ],
          [
            16.83037587300009,
            60.15949667400008
          ],
          [
            16.83027384000002,
            60.15943333900003
          ],
          [
            16.83024149000005,
            60.15931246700006
          ],
          [
            16.83006489900004,
            60.15914996000004
          ],
          [
            16.82994778700004,
            60.15904218800006
          ],
          [
            16.82990082800006,
            60.15893035900007
          ],
          [
            16.82975326600013,
            60.15878187700008
          ],
          [
            16.82964724900012,
            60.15859032700007
          ],
          [
            16.82945858700009,
            60.15849916100007
          ],
          [
            16.82920179200005,
            60.15851539300007
          ],
          [
            16.82896194299997,
            60.15861699200008
          ],
          [
            16.82860157100004,
            60.15852002500003
          ],
          [
            16.82824296900003,
            60.15848004300005
          ],
          [
            16.82787184400013,
            60.15849715400003
          ],
          [
            16.82772325800011,
            60.15850400400006
          ],
          [
            16.82729821600003,
            60.15843745100005
          ],
          [
            16.82710470500001,
            60.15845947400004
          ]
        ]
      }
    },
    {
      "type": "Feature",
      "properties": {
        "name": "Etapp 20: Nora kyrka / Tärnsjö to Östa / Ingbo källor",
        "segment": 6,
        "split": 1
      },
      "geometry": {
        "type": "LineString",
        "coordinates": [
          [
            16.81130364700005,
            60.16212256600005
          ],
          [
            16.81106611900009,
            60.16219257800003
          ],
          [
            16.81090654800005,
            60.16256889100003
          ],
          [
            16.81087962800007,
            60.16280779700003
          ],
          [
            16.81047906000003,
            60.16313478600006
          ],
          [
            16.80989515500005,
            60.16361142100004
          ],
          [
            16.80967425900008,
            60.16366943700007
          ],
          [
            16.808823287,
            60.16381227900007
          ],
          [
            16.80658542800006,
            60.16447709500005
          ],
          [
            16.80530961300008,
            60.16485608100004
          ],
          [
            16.80478647600012,
            60.16495101500004
          ],
          [
            16.80204514900004,
            60.16594349800005
          ],
          [
            16.80150659300011,
            60.16623739600004
          ],
          [
            16.799780004000013,
            60.16684710400006
          ],
          [
            16.79964986000005,
            60.16706973100008
          ],
          [
            16.79881109300004,
            60.16762161900004
          ],
          [
            16.79793398000004,
            60.16803738800007
          ],
          [
            16.79746890700005,
            60.16850122000005
          ],
          [
            16.7970737820001,
            60.16901567800005
          ],
          [
            16.79708148000009,
            60.16927137200008
          ],
          [
            16.79695438600004,
            60.16959627400007
          ],
          [
            16.79671558400003,
            60.17075746600005
          ],
          [
            16.79655273000003,
            60.17103148500007
          ],
          [
            16.79625558400005,
            60.17139175700004
          ],
          [
            16.79630518400006,
            60.17190289000007
          ],
          [
            16.79665501800002,
            60.17215602800007
          ],
          [
            16.79665963600007,
            60.17230944500005
          ],
          [
            16.79649831300003,
            60.17263460200007
          ],
          [
            16.79647282000008,
            60.17292464400003
          ],
          [
            16.796512678,
            60.17311189700007
          ],
          [
            16.79638505000003,
            60.17341975300008
          ],
          [
            16.79659650000008,
            60.17362277400008
          ],
          [
            16.79671653000003,
            60.17373801900004
          ],
          [
            16.79660009200006,
            60.17374209900004
          ]
        ]
      }
    }
  ]
}
