{
  "type": "FeatureCollection",
  "features": [
    {
      "type": "Feature",
      "properties": {
        "name": "Etapp 1:1: Knivsta to Lunsentorpet",
        "segment": 1,
        "split": 1
      },
      "geometry": {
        "type": "LineString",
        "coordinates": [
          [
            17.784948899,
            59.7260848290001
          ],
          [
            17.783859534,
            59.7259400030001
          ],
          [
            17.7832433430001,
            59.7258965930001
          ],
          [
            17.7821663450001,
            59.7255919180001
          ],
          [
            17.781801348,
            59.725787563
          ],
          [
            17.7815659580001,
            59.7257140570001
          ],
          [
            17.780758435,
            59.725369776
          ],
          [
            17.7802168160001,
            59.7253916270001
          ],
          [
            17.7796626000001,
            59.725660421
          ],
          [
            17.778017052,
            59.725835934
          ],
          [
            17.7772514800001,
            59.726203851
          ],
          [
            17.7772983755238,
            59.7266473466554
          ],
          [
            17.7771733286651,
            59.72671478405323
          ],
          [
            17.7771496566186,
            59.72680659851275
          ],
          [
            17.77700476376501,
            59.72688288873101
          ],
          [
            17.77686953043525,
            59.72691535260086
          ],
          [
            17.77676957264927,
            59.72698677300383
          ],
          [
            17.77672127503143,
            59.72699975851503
          ],
          [
            17.77660697066932,
            59.7270687439599
          ],
          [
            17.77638963138901,
            59.72710120764935
          ],
          [
            17.77623644540455,
            59.72706306198344
          ],
          [
            17.77615331176298,
            59.72703342688857
          ],
          [
            17.77606224090235,
            59.72704490455169
          ],
          [
            17.77605541058719,
            59.72706097327389
          ],
          [
            17.77600304484156,
            59.72706958151488
          ],
          [
            17.7759882458266,
            59.72708794575433
          ],
          [
            17.77585391630512,
            59.72710344057364
          ],
          [
            17.77579944338299,
            59.72711885741558
          ],
          [
            17.77578670289049,
            59.72713136482167
          ],
          [
            17.77576926853186,
            59.72713677342847
          ],
          [
            17.77574646975515,
            59.72716043607232
          ],
          [
            17.77569352560306,
            59.72717685506007
          ],
          [
            17.77563988142464,
            59.72721201094012
          ],
          [
            17.7756365286628,
            59.72723770175182
          ],
          [
            17.77559685778158,
            59.72726427494285
          ],
          [
            17.77557034909432,
            59.7272735922455
          ],
          [
            17.7754880520454,
            59.7273572008186
          ],
          [
            17.77543706363838,
            59.72745300663811
          ],
          [
            17.77541388708951,
            59.72754725437161
          ],
          [
            17.77540226054768,
            59.72756947811826
          ],
          [
            17.77534340481205,
            59.72764142752368
          ],
          [
            17.77537049940113,
            59.72767599883477
          ],
          [
            17.77534869198394,
            59.72772385219855
          ],
          [
            17.77528530709554,
            59.72774180760848
          ],
          [
            17.7751495646927,
            59.72774322196548
          ],
          [
            17.77500524979578,
            59.72776256427591
          ],
          [
            17.77493035613807,
            59.72775924519172
          ],
          [
            17.77483900233543,
            59.72774389442242
          ],
          [
            17.77481620355803,
            59.72774795080358
          ],
          [
            17.77469013973558,
            59.7277300351177
          ],
          [
            17.77463247224168,
            59.72771752793548
          ],
          [
            17.77460296794106,
            59.72770062633003
          ],
          [
            17.77448651578342,
            59.72768910410875
          ],
          [
            17.77444494154926,
            59.72768166740289
          ],
          [
            17.77442080166836,
            59.72768876608222
          ],
          [
            17.77436313417445,
            59.72768065330561
          ],
          [
            17.77429406729226,
            59.72766273758407
          ],
          [
            17.77420216209038,
            59.72765695780487
          ],
          [
            17.77412773078993,
            59.72764783092222
          ],
          [
            17.77402178353432,
            59.7276691269773
          ],
          [
            17.77396210438837,
            59.7276735213994
          ],
          [
            17.77390242523666,
            59.72767318336702
          ],
          [
            17.77374377427327,
            59.72771165599957
          ],
          [
            17.77364319143581,
            59.72772314908792
          ],
          [
            17.77352651534392,
            59.72771233206348
          ],
          [
            17.7735043871192,
            59.72772889563083
          ],
          [
            17.77344604907324,
            59.72774005068197
          ],
          [
            17.77338771102728,
            59.72774444509503
          ],
          [
            17.77331059751864,
            59.72774748738058
          ],
          [
            17.77326634106788,
            59.72774376903163
          ],
          [
            17.77324133195063,
            59.72772964681258
          ],
          [
            17.77316757120229,
            59.72773978776797
          ],
          [
            17.77312943547699,
            59.72775303394812
          ],
          [
            17.77305500417557,
            59.7277652030867
          ],
          [
            17.77300203054773,
            59.72778751316071
          ],
          [
            17.77297252624874,
            59.72778751316071
          ],
          [
            17.77291150599305,
            59.72780576684679
          ],
          [
            17.7728396176654,
            59.7277882735161
          ],
          [
            17.7728074311581,
            59.72779942854748
          ],
          [
            17.77274305814123,
            59.72781092160628
          ],
          [
            17.77269410782566,
            59.72780078067331
          ],
          [
            17.77263244249463,
            59.72781387586568
          ],
          [
            17.77250235535652,
            59.727840580308
          ],
          [
            17.77248357989382,
            59.72786255230125
          ],
          [
            17.77245340504271,
            59.7278699889726
          ],
          [
            17.77241250135532,
            59.7278699889726
          ],
          [
            17.77238484051449,
            59.72786025860754
          ],
          [
            17.7723318668867,
            59.72786194876031
          ],
          [
            17.77224402454087,
            59.72789507573881
          ],
          [
            17.77220513251055,
            59.72790724482519
          ],
          [
            17.77209985580947,
            59.72791839981664
          ],
          [
            17.7720502349419,
            59.72793124495439
          ],
          [
            17.77203682389575,
            59.7279400337296
          ],
          [
            17.77200262573064,
            59.72795085068077
          ],
          [
            17.77197178032748,
            59.72796910427735
          ],
          [
            17.77186236496175,
            59.72797255436834
          ],
          [
            17.77185431833374,
            59.72798573751399
          ],
          [
            17.77178994531755,
            59.72800094882851
          ],
          [
            17.77169539744941,
            59.72800534320788
          ],
          [
            17.7716243189135,
            59.72800230094592
          ],
          [
            17.77157212679006,
            59.72802089255063
          ],
          [
            17.77151714150833,
            59.72801616014488
          ],
          [
            17.77148495499978,
            59.72803170947506
          ],
          [
            17.77145612125449,
            59.72801852634751
          ],
          [
            17.77137164721205,
            59.72801577237294
          ],
          [
            17.77127709934481,
            59.72795898345123
          ],
          [
            17.77116787921557,
            59.72795053271207
          ],
          [
            17.77108942460276,
            59.72791537760841
          ],
          [
            17.77108607183996,
            59.72785757442497
          ],
          [
            17.77102796449279,
            59.72776986129605
          ],
          [
            17.77099961141704,
            59.7276489911921
          ],
          [
            17.77097128320764,
            59.72758772402869
          ],
          [
            17.77093708504327,
            59.72756270955301
          ],
          [
            17.77095049608874,
            59.72752045532869
          ],
          [
            17.77089520673476,
            59.72748442126107
          ],
          [
            17.77082144598643,
            59.72740734933464
          ],
          [
            17.77080688191839,
            59.72738309205991
          ],
          [
            17.77069959355867,
            59.72733948546474
          ],
          [
            17.77060504569158,
            59.72732123152443
          ],
          [
            17.77048032297398,
            59.72729520274004
          ],
          [
            17.77040723277449,
            59.72730196346529
          ],
          [
            17.7702862780001,
            59.7273226400001
          ],
          [
            17.7695883050001,
            59.727456454
          ],
          [
            17.768933334,
            59.727397701
          ],
          [
            17.76834208,
            59.7270364040001
          ],
          [
            17.767350564,
            59.727256842
          ],
          [
            17.766613567,
            59.727651687
          ],
          [
            17.7656318030001,
            59.7279515880001
          ],
          [
            17.7651029460001,
            59.7281043130001
          ],
          [
            17.7646688530001,
            59.7280383690001
          ],
          [
            17.76416312,
            59.727973492
          ],
          [
            17.7636723210001,
            59.7279560200001
          ],
          [
            17.763300595,
            59.728098646
          ],
          [
            17.7632306130001,
            59.7283575590001
          ],
          [
            17.762806046,
            59.7284624380001
          ],
          [
            17.7624710360001,
            59.728769017
          ],
          [
            17.7622315470001,
            59.72907136
          ],
          [
            17.762234193,
            59.7293620130001
          ],
          [
            17.762302843,
            59.7296077450001
          ],
          [
            17.762446469,
            59.7297426910001
          ],
          [
            17.7625421790001,
            59.730185669
          ],
          [
            17.7615044180001,
            59.7308122790001
          ],
          [
            17.760438561,
            59.7311571480001
          ],
          [
            17.759228294,
            59.731819451
          ],
          [
            17.7584717230001,
            59.732547937
          ],
          [
            17.757694859,
            59.732993762
          ],
          [
            17.7566831490001,
            59.7333377950001
          ],
          [
            17.7562422460001,
            59.7332996590001
          ],
          [
            17.7558605400001,
            59.732733124
          ],
          [
            17.755505505,
            59.7322311770001
          ],
          [
            17.7555837140001,
            59.7317090920001
          ],
          [
            17.7553794740001,
            59.731465369
          ],
          [
            17.7522531310001,
            59.7307428170001
          ],
          [
            17.7516432890001,
            59.7307119590001
          ],
          [
            17.748922039,
            59.7301353550001
          ],
          [
            17.748564823,
            59.7298750190001
          ],
          [
            17.7480750300001,
            59.729106034
          ],
          [
            17.7470326480001,
            59.727983635
          ],
          [
            17.7465285450001,
            59.727716914
          ],
          [
            17.744520714,
            59.7276662780001
          ],
          [
            17.7427448660001,
            59.7275397140001
          ],
          [
            17.741977485,
            59.727413943
          ],
          [
            17.734566846,
            59.7282771810001
          ],
          [
            17.734075177,
            59.7283115610001
          ],
          [
            17.7337075800001,
            59.7280564960001
          ],
          [
            17.732089574,
            59.728244733
          ],
          [
            17.731439376,
            59.7282679750001
          ],
          [
            17.7282901830001,
            59.72779318
          ],
          [
            17.728013633,
            59.7279411650001
          ],
          [
            17.7288036960001,
            59.7283880620001
          ],
          [
            17.7289698720001,
            59.7287565300001
          ],
          [
            17.7285767590001,
            59.729475123
          ],
          [
            17.7282555280001,
            59.7297455130001
          ],
          [
            17.72834194721625,
            59.73096790549974
          ],
          [
            17.72892619746065,
            59.73096490042104
          ],
          [
            17.72943890685937,
            59.73134053316565
          ],
          [
            17.72993373104563,
            59.73154788063303
          ],
          [
            17.73056567518853,
            59.73169512660479
          ],
          [
            17.7308458768363,
            59.73172517672324
          ],
          [
            17.7309889585292,
            59.73180931691195
          ],
          [
            17.73101280547712,
            59.73186040192294
          ],
          [
            17.73115588716792,
            59.73201816396454
          ],
          [
            17.7309769660001,
            59.732030867
          ],
          [
            17.73072962295905,
            59.7320782635943
          ],
          [
            17.73046134478483,
            59.73209328848463
          ],
          [
            17.72987113280325,
            59.73223452212574
          ],
          [
            17.72949256249115,
            59.73228861144716
          ],
          [
            17.72936587557621,
            59.73226983044253
          ],
          [
            17.72906778871683,
            59.73230964615954
          ],
          [
            17.72899326700127,
            59.73235472049907
          ],
          [
            17.72870710361639,
            59.73234946182916
          ],
          [
            17.72861171582107,
            59.73224654198233
          ],
          [
            17.72839113154535,
            59.73219996501331
          ],
          [
            17.7282377260001,
            59.7324072500001
          ],
          [
            17.7281220110001,
            59.7327060260001
          ],
          [
            17.7277776170001,
            59.7329889820001
          ],
          [
            17.7274182350001,
            59.733142522
          ],
          [
            17.7267490070001,
            59.733101295
          ],
          [
            17.726135676,
            59.7329776240001
          ],
          [
            17.7251779380001,
            59.732838578
          ],
          [
            17.7246886840001,
            59.7327641030001
          ],
          [
            17.723830743,
            59.732603182
          ],
          [
            17.723057659,
            59.7325124390001
          ],
          [
            17.7222257550001,
            59.7324531570001
          ],
          [
            17.721755538,
            59.7323579870001
          ],
          [
            17.721036622,
            59.7321542110001
          ],
          [
            17.720806949,
            59.732024923
          ],
          [
            17.720381784,
            59.7320107130001
          ],
          [
            17.720016026,
            59.7319752330001
          ],
          [
            17.71977995,
            59.731733805
          ],
          [
            17.719629879,
            59.731582949
          ],
          [
            17.7178861350001,
            59.7318328010001
          ],
          [
            17.717799262,
            59.7318689920001
          ],
          [
            17.717461983,
            59.731971773
          ],
          [
            17.717196288,
            59.732487647
          ],
          [
            17.716908271,
            59.7328777540001
          ],
          [
            17.7161938890001,
            59.733592452
          ],
          [
            17.7155554450001,
            59.7341929400001
          ],
          [
            17.7152533010001,
            59.7345646320001
          ],
          [
            17.71522803,
            59.7348302720001
          ],
          [
            17.715291084,
            59.7352272640001
          ],
          [
            17.7151434950001,
            59.735474276
          ],
          [
            17.714813588,
            59.735713735
          ],
          [
            17.7142309020001,
            59.7357732140001
          ],
          [
            17.713906657,
            59.7357575180001
          ],
          [
            17.713794214,
            59.7359121920001
          ],
          [
            17.712539183,
            59.7387157710001
          ],
          [
            17.712162692,
            59.739557862
          ],
          [
            17.711906539,
            59.7396738080001
          ],
          [
            17.7113319040001,
            59.7398759960001
          ],
          [
            17.7110025050001,
            59.740125639
          ],
          [
            17.710536953,
            59.7404690800001
          ],
          [
            17.7097365940001,
            59.74094925
          ],
          [
            17.709725037,
            59.7412235840001
          ],
          [
            17.710206104,
            59.7417594240001
          ],
          [
            17.710070047,
            59.742210318
          ],
          [
            17.7101959660001,
            59.7426472120001
          ],
          [
            17.710398038,
            59.7430013800001
          ],
          [
            17.7107013330001,
            59.743358162
          ],
          [
            17.7107069860001,
            59.7437417040001
          ],
          [
            17.7106277570001,
            59.7443386940001
          ],
          [
            17.71080744,
            59.7446544150001
          ],
          [
            17.7111926380001,
            59.7451712120001
          ],
          [
            17.7113700110001,
            59.7454461550001
          ],
          [
            17.7110372280001,
            59.7466459290001
          ],
          [
            17.710978229,
            59.746973272
          ],
          [
            17.7107640290001,
            59.747074323
          ],
          [
            17.7106355620001,
            59.747317787
          ],
          [
            17.710606871,
            59.7477230490001
          ],
          [
            17.710623882,
            59.74779463
          ],
          [
            17.710872114,
            59.7478367400001
          ],
          [
            17.7111820160001,
            59.7478257170001
          ],
          [
            17.7117116950001,
            59.7478115060001
          ],
          [
            17.712616285,
            59.7477918550001
          ],
          [
            17.7131407630001,
            59.7478036170001
          ],
          [
            17.7130404060001,
            59.7480213210001
          ],
          [
            17.712756508,
            59.7484173720001
          ],
          [
            17.711772185,
            59.75057753
          ],
          [
            17.7117608410001,
            59.750735746
          ],
          [
            17.71175412,
            59.7508543820001
          ],
          [
            17.711644724,
            59.7509818580001
          ],
          [
            17.7114821920001,
            59.7512251380001
          ],
          [
            17.711290725,
            59.7514616870001
          ],
          [
            17.7110093650001,
            59.752021154
          ],
          [
            17.7106655810001,
            59.752775582
          ],
          [
            17.710231128,
            59.75372901
          ],
          [
            17.7099247640001,
            59.754231417
          ],
          [
            17.7097577450001,
            59.7542915880001
          ],
          [
            17.7095690200001,
            59.754346728
          ],
          [
            17.709388222,
            59.754414313
          ],
          [
            17.7091676150001,
            59.754471768
          ],
          [
            17.7090506970001,
            59.754536515
          ],
          [
            17.7089641750001,
            59.754575629
          ],
          [
            17.708788785,
            59.7546161820001
          ],
          [
            17.7085956130001,
            59.7546570210001
          ],
          [
            17.708364179,
            59.7547685220001
          ],
          [
            17.7081258630001,
            59.7548837300001
          ],
          [
            17.707851783,
            59.7551090470001
          ],
          [
            17.707681264,
            59.755226743
          ],
          [
            17.7075891720001,
            59.755346758
          ],
          [
            17.7075330380001,
            59.7554159120001
          ],
          [
            17.707412323,
            59.7554771270001
          ],
          [
            17.706830112,
            59.7556140610001
          ],
          [
            17.706562028,
            59.755652517
          ],
          [
            17.706353368,
            59.7556738600001
          ],
          [
            17.706204223,
            59.755735536
          ],
          [
            17.706071466,
            59.755775397
          ],
          [
            17.7058151240001,
            59.755774155
          ],
          [
            17.7056587880001,
            59.7557784940001
          ],
          [
            17.7055621540001,
            59.7558267480001
          ],
          [
            17.7054954580001,
            59.755897857
          ],
          [
            17.7053971580001,
            59.7560323380001
          ],
          [
            17.7052306790001,
            59.7562146050001
          ],
          [
            17.7051316340001,
            59.7562808640001
          ],
          [
            17.7049863740001,
            59.756347856
          ],
          [
            17.704893542,
            59.7563996480001
          ],
          [
            17.7047942070001,
            59.756517984
          ],
          [
            17.704700825,
            59.756673929
          ],
          [
            17.7046277550001,
            59.756813384
          ],
          [
            17.7044989570001,
            59.7569160290001
          ],
          [
            17.7043666740001,
            59.7569630660001
          ],
          [
            17.704260843,
            59.757034812
          ],
          [
            17.704209042,
            59.757116468
          ],
          [
            17.7041322350001,
            59.7571967180001
          ],
          [
            17.7039759490001,
            59.7572585170001
          ],
          [
            17.703742231,
            59.7573341230001
          ],
          [
            17.7036094360001,
            59.757429653
          ],
          [
            17.703473635,
            59.757534209
          ],
          [
            17.7032877260001,
            59.7576341860001
          ],
          [
            17.7031309290001,
            59.7577444630001
          ],
          [
            17.703171857,
            59.757885668
          ],
          [
            17.703295998,
            59.757991411
          ],
          [
            17.703465502,
            59.75802639
          ],
          [
            17.7036920080001,
            59.758062227
          ],
          [
            17.703858418,
            59.7581044300001
          ],
          [
            17.70399277,
            59.7582028250001
          ],
          [
            17.70401529,
            59.7582778810001
          ],
          [
            17.703975057,
            59.758373705
          ],
          [
            17.703938221,
            59.758523349
          ],
          [
            17.7039785440001,
            59.75859812
          ],
          [
            17.704125515,
            59.758671162
          ],
          [
            17.7043142900001,
            59.758729171
          ],
          [
            17.704534878,
            59.75872739
          ],
          [
            17.7047832420001,
            59.758714393
          ],
          [
            17.70486713,
            59.758732991
          ],
          [
            17.7049493070001,
            59.7587512090001
          ],
          [
            17.7050279370001,
            59.758812801
          ],
          [
            17.705020158,
            59.7589152840001
          ],
          [
            17.7049230360001,
            59.7590120250001
          ],
          [
            17.7047452410001,
            59.7591280390001
          ],
          [
            17.704638361,
            59.7592393130001
          ],
          [
            17.7042403990001,
            59.7596462070001
          ],
          [
            17.7040811420001,
            59.7598301630001
          ],
          [
            17.703946639,
            59.7600119160001
          ],
          [
            17.7038980540001,
            59.7600881220001
          ],
          [
            17.7037390990001,
            59.7601643290001
          ],
          [
            17.7035418200001,
            59.7602537060001
          ],
          [
            17.703375979,
            59.7603336110001
          ],
          [
            17.7032370740001,
            59.7604453970001
          ],
          [
            17.7031303010001,
            59.760558464
          ],
          [
            17.703066291,
            59.7606726390001
          ],
          [
            17.7029235910001,
            59.7607808930001
          ],
          [
            17.7027717440001,
            59.760856974
          ],
          [
            17.702624021,
            59.76094197
          ],
          [
            17.702498092,
            59.7610337930001
          ],
          [
            17.7023564660001,
            59.7611025260001
          ],
          [
            17.7020062060001,
            59.7612533480001
          ],
          [
            17.70193795,
            59.761487372
          ],
          [
            17.7016513360001,
            59.7616634330001
          ],
          [
            17.7013097620001,
            59.7617228220001
          ],
          [
            17.701079086,
            59.7617911930001
          ],
          [
            17.700877105,
            59.7618626990001
          ],
          [
            17.70052904,
            59.7618755040001
          ],
          [
            17.700314083,
            59.761853837
          ],
          [
            17.6998138890001,
            59.7618881170001
          ],
          [
            17.6996269250001,
            59.761945643
          ],
          [
            17.6993631560001,
            59.7620865260001
          ],
          [
            17.6989434450001,
            59.7623530280001
          ],
          [
            17.6982762530001,
            59.762568258
          ],
          [
            17.697777394,
            59.7628770210001
          ],
          [
            17.697274651,
            59.7631172960001
          ],
          [
            17.697051956,
            59.763504331
          ],
          [
            17.696942518,
            59.7639719860001
          ],
          [
            17.6966825930001,
            59.7641813490001
          ],
          [
            17.695842329,
            59.764460743
          ],
          [
            17.6955653340001,
            59.7646086610001
          ],
          [
            17.6951471090001,
            59.764902546
          ],
          [
            17.6948856190001,
            59.765084511
          ],
          [
            17.6947139040001,
            59.765251962
          ],
          [
            17.694619266,
            59.7653324990001
          ],
          [
            17.6945049840001,
            59.7654402920001
          ],
          [
            17.6944222080001,
            59.765482928
          ],
          [
            17.694231541,
            59.765565017
          ],
          [
            17.6940665490001,
            59.765659256
          ],
          [
            17.6940410280001,
            59.765751218
          ],
          [
            17.694037517,
            59.7657638750001
          ],
          [
            17.694109761,
            59.7658938050001
          ],
          [
            17.694232777,
            59.765981616
          ],
          [
            17.6943910130001,
            59.766063467
          ],
          [
            17.6945058860001,
            59.7661352430001
          ],
          [
            17.69459134,
            59.7662488
          ],
          [
            17.694702266,
            59.7663709230001
          ],
          [
            17.694890199,
            59.7664720490001
          ],
          [
            17.6952945370001,
            59.766560713
          ],
          [
            17.6955487360001,
            59.7667199690001
          ],
          [
            17.696042193,
            59.766795124
          ],
          [
            17.696102189,
            59.7670612950001
          ],
          [
            17.696025385,
            59.7671990010001
          ],
          [
            17.6959160070001,
            59.767328267
          ],
          [
            17.6958359770001,
            59.7674714240001
          ],
          [
            17.69578317,
            59.767594392
          ],
          [
            17.6957610850001,
            59.767752767
          ],
          [
            17.6957274700001,
            59.7678413
          ],
          [
            17.6955776730001,
            59.7678940050001
          ],
          [
            17.695297472,
            59.767911085
          ],
          [
            17.6951289840001,
            59.767949715
          ],
          [
            17.695110397,
            59.768050578
          ],
          [
            17.695211276,
            59.768126169
          ],
          [
            17.695316048,
            59.768207085
          ],
          [
            17.695309772,
            59.7682772260001
          ],
          [
            17.695347092,
            59.7683610240001
          ],
          [
            17.69553002,
            59.768438882
          ],
          [
            17.695760091,
            59.7685303550001
          ],
          [
            17.695897904,
            59.768626898
          ],
          [
            17.6963933920001,
            59.7688056810001
          ],
          [
            17.696597384,
            59.7688221380001
          ],
          [
            17.6967034890001,
            59.768867121
          ],
          [
            17.69678557,
            59.768926858
          ],
          [
            17.6971002800001,
            59.76916514
          ],
          [
            17.696971414,
            59.7692776310001
          ],
          [
            17.696879779,
            59.7693491370001
          ],
          [
            17.696715176,
            59.769393096
          ],
          [
            17.6965152360001,
            59.7694412130001
          ],
          [
            17.696368309,
            59.769483092
          ],
          [
            17.6963546850001,
            59.769549753
          ],
          [
            17.6964130150001,
            59.769627824
          ],
          [
            17.696563994,
            59.7696505330001
          ],
          [
            17.6967493010001,
            59.7696529310001
          ],
          [
            17.6969882180001,
            59.7696580560001
          ],
          [
            17.697106606,
            59.7696723110001
          ],
          [
            17.697181471,
            59.7697303690001
          ],
          [
            17.697190908,
            59.7698235990001
          ],
          [
            17.6971123630001,
            59.7698769460001
          ],
          [
            17.6969561200001,
            59.7699405160001
          ],
          [
            17.696825108,
            59.770009068
          ],
          [
            17.6967726,
            59.770079953
          ],
          [
            17.6967335620001,
            59.7701955100001
          ],
          [
            17.696750434,
            59.7702940020001
          ],
          [
            17.6968411130001,
            59.7703769460001
          ],
          [
            17.6969950360001,
            59.7704462950001
          ],
          [
            17.6971799600001,
            59.770498989
          ],
          [
            17.6975237740001,
            59.770473689
          ],
          [
            17.697813556,
            59.7704384880001
          ],
          [
            17.698018455,
            59.770469301
          ],
          [
            17.6981447100001,
            59.770551659
          ],
          [
            17.698378024,
            59.7707508240001
          ],
          [
            17.6986085680001,
            59.770962604
          ],
          [
            17.698731098,
            59.771098898
          ],
          [
            17.698793495,
            59.7712415570001
          ],
          [
            17.698834205,
            59.7713791730001
          ],
          [
            17.6988879390001,
            59.7715542830001
          ],
          [
            17.698988953,
            59.7717448060001
          ],
          [
            17.6991517660001,
            59.7718984190001
          ],
          [
            17.699307832,
            59.772001844
          ],
          [
            17.6994313330001,
            59.772096822
          ],
          [
            17.699490559,
            59.77218925
          ],
          [
            17.6995710220001,
            59.772279531
          ],
          [
            17.6996763960001,
            59.7723694160001
          ],
          [
            17.699768732,
            59.772421803
          ],
          [
            17.699884935,
            59.772457628
          ],
          [
            17.7000472740001,
            59.772490927
          ],
          [
            17.7002628800001,
            59.7725215670001
          ],
          [
            17.700432004,
            59.772549364
          ],
          [
            17.7006165970001,
            59.7725966680001
          ],
          [
            17.700802886,
            59.772670872
          ],
          [
            17.700915486,
            59.7727624350001
          ],
          [
            17.700948919,
            59.772840913
          ],
          [
            17.700956623,
            59.7729629030001
          ],
          [
            17.700952722,
            59.7730707110001
          ],
          [
            17.70095341,
            59.773194613
          ],
          [
            17.700977749,
            59.7732983720001
          ],
          [
            17.7009866180001,
            59.773382628
          ],
          [
            17.7009748150001,
            59.773477991
          ],
          [
            17.7010113590001,
            59.773549239
          ],
          [
            17.701406773,
            59.7739468990001
          ],
          [
            17.701528473,
            59.7740131740001
          ],
          [
            17.701715182,
            59.7740370940001
          ],
          [
            17.701941741,
            59.774015472
          ],
          [
            17.7024079610001,
            59.7739540680001
          ],
          [
            17.703080007,
            59.773824683
          ],
          [
            17.703682262,
            59.7737179750001
          ],
          [
            17.704092842,
            59.7736017980001
          ],
          [
            17.704521984,
            59.7734996440001
          ],
          [
            17.7050371140001,
            59.773490494
          ],
          [
            17.7052910670001,
            59.7736393260001
          ],
          [
            17.7054895670001,
            59.7738018730001
          ],
          [
            17.7055555320001,
            59.773831328
          ],
          [
            17.7057404880001,
            59.773884008
          ],
          [
            17.705892614,
            59.773924648
          ],
          [
            17.7060829480001,
            59.774005963
          ],
          [
            17.7062575770001,
            59.77406419
          ],
          [
            17.706464995,
            59.7741344660001
          ],
          [
            17.7066506360001,
            59.7741979
          ],
          [
            17.7068201870001,
            59.7742885320001
          ],
          [
            17.706931519,
            59.7744160220001
          ],
          [
            17.7070844110001,
            59.774524888
          ],
          [
            17.707304948,
            59.7745769870001
          ],
          [
            17.7075465300001,
            59.774567684
          ],
          [
            17.7078069610001,
            59.7745185740001
          ],
          [
            17.70803447,
            59.774455619
          ],
          [
            17.7083013490001,
            59.774395628
          ],
          [
            17.708536311,
            59.774337954
          ],
          [
            17.7086581450001,
            59.774237203
          ],
          [
            17.7087176320001,
            59.7740512820001
          ],
          [
            17.7086514370001,
            59.7739334440001
          ],
          [
            17.7088834200001,
            59.773710754
          ],
          [
            17.709392473,
            59.773580011
          ],
          [
            17.7101801580001,
            59.773568604
          ],
          [
            17.7105612,
            59.7735767930001
          ],
          [
            17.7111874770001,
            59.773595136
          ],
          [
            17.7117410620001,
            59.7736556570001
          ],
          [
            17.7120648980001,
            59.773707867
          ],
          [
            17.712406503,
            59.7737597810001
          ],
          [
            17.7126351080001,
            59.773770439
          ],
          [
            17.712876303,
            59.773811408
          ],
          [
            17.7132422280001,
            59.7739096220001
          ],
          [
            17.7135686670001,
            59.774003092
          ],
          [
            17.7138132050001,
            59.774040418
          ],
          [
            17.714163097,
            59.774054484
          ],
          [
            17.7144215620001,
            59.7740305310001
          ],
          [
            17.7147054440001,
            59.7739576750001
          ],
          [
            17.7149397190001,
            59.773889221
          ],
          [
            17.715040155,
            59.7738444830001
          ],
          [
            17.715147256,
            59.7737924630001
          ],
          [
            17.7152976320001,
            59.773748718
          ],
          [
            17.7155701840001,
            59.7737227320001
          ],
          [
            17.7158185380001,
            59.773707926
          ],
          [
            17.715928522,
            59.773645071
          ],
          [
            17.715964041,
            59.7735313700001
          ],
          [
            17.716161758,
            59.7733359970001
          ],
          [
            17.716367554,
            59.773268005
          ],
          [
            17.716653561,
            59.77322924
          ],
          [
            17.7168554050001,
            59.773267253
          ],
          [
            17.717022346,
            59.7733166160001
          ],
          [
            17.717229123,
            59.7733760990001
          ],
          [
            17.717357991,
            59.773386568
          ],
          [
            17.717539321,
            59.7733818240001
          ],
          [
            17.7177177650001,
            59.7733879000001
          ],
          [
            17.717937054,
            59.773420247
          ],
          [
            17.7180564,
            59.773448832
          ],
          [
            17.7182097120001,
            59.773451724
          ],
          [
            17.71840288,
            59.7734090750001
          ],
          [
            17.7188118450001,
            59.7732318120001
          ],
          [
            17.7191673340001,
            59.773053631
          ],
          [
            17.719189924,
            59.772923387
          ],
          [
            17.7196254830001,
            59.772779143
          ],
          [
            17.719726536,
            59.7725045490001
          ],
          [
            17.719497759,
            59.7720412800001
          ],
          [
            17.7197932470001,
            59.7717160450001
          ],
          [
            17.721499884,
            59.7711438150001
          ],
          [
            17.721818967,
            59.7711357730001
          ],
          [
            17.721928163,
            59.771163019
          ]
        ]
      }
    }
  ]
}
