{
  "type": "FeatureCollection",
  "features": [
    {
      "type": "Feature",
      "properties": {
        "name": "Etapp 26: Boglösa to Lillkyrka",
        "segment": 1,
        "split": 1
      },
      "geometry": {
        "type": "LineString",
        "coordinates": [
          [
            17.1642247240001,
            59.5879078520001
          ],
          [
            17.1644028270001,
            59.587874238
          ],
          [
            17.1648208120001,
            59.5875624020001
          ],
          [
            17.164847357,
            59.5872267510001
          ],
          [
            17.16562407,
            59.5866089190001
          ],
          [
            17.1666593520001,
            59.585426956
          ],
          [
            17.1684360400001,
            59.583789993
          ],
          [
            17.168771631,
            59.5836645470001
          ],
          [
            17.1737054130001,
            59.582779773
          ],
          [
            17.174000501,
            59.5826445750001
          ],
          [
            17.1740490440001,
            59.582359506
          ],
          [
            17.173937273,
            59.5817417710001
          ],
          [
            17.1734766450001,
            59.5813572530001
          ],
          [
            17.1737057280001,
            59.5812037160001
          ],
          [
            17.1737094540001,
            59.580825749
          ],
          [
            17.17384781,
            59.5804280580001
          ],
          [
            17.1734194520001,
            59.5802530120001
          ],
          [
            17.173190941,
            59.580026
          ],
          [
            17.1729239310001,
            59.579327172
          ],
          [
            17.172643667,
            59.5790273440001
          ],
          [
            17.172575012,
            59.578712631
          ],
          [
            17.172289903,
            59.5779972070001
          ],
          [
            17.171975079,
            59.5774747900001
          ],
          [
            17.1712298410001,
            59.5768169070001
          ],
          [
            17.170732049,
            59.576290391
          ],
          [
            17.170746637,
            59.5758623340001
          ],
          [
            17.1699829180001,
            59.574698502
          ],
          [
            17.169656145,
            59.5744258380001
          ],
          [
            17.169620724,
            59.5743123410001
          ],
          [
            17.1700751610001,
            59.5739482960001
          ],
          [
            17.16996541,
            59.573771858
          ],
          [
            17.1696604740001,
            59.573620046
          ],
          [
            17.169348353,
            59.5734861390001
          ],
          [
            17.1693346230001,
            59.5733616270001
          ],
          [
            17.169677828,
            59.5732347250001
          ],
          [
            17.1701575320001,
            59.573186338
          ],
          [
            17.170654009,
            59.5728976830001
          ],
          [
            17.170762091,
            59.5727363080001
          ],
          [
            17.1708458570001,
            59.572447115
          ],
          [
            17.170827328,
            59.5719894580001
          ],
          [
            17.170868765,
            59.5717017480001
          ],
          [
            17.170899223,
            59.571397646
          ],
          [
            17.171161152,
            59.5711708790001
          ],
          [
            17.171392472,
            59.5710529580001
          ],
          [
            17.1715743290001,
            59.570821773
          ],
          [
            17.172067876,
            59.570421206
          ],
          [
            17.172523534,
            59.5702855150001
          ],
          [
            17.172927298,
            59.5700666220001
          ],
          [
            17.173161636,
            59.5699026930001
          ],
          [
            17.173271116,
            59.5696741630001
          ],
          [
            17.174023726,
            59.5691411560001
          ],
          [
            17.1748312980001,
            59.5688068790001
          ],
          [
            17.1759522890001,
            59.5684579460001
          ],
          [
            17.1766498210001,
            59.568241883
          ],
          [
            17.1775639200001,
            59.56781334
          ],
          [
            17.17820512,
            59.567612167
          ],
          [
            17.1786547180001,
            59.5673560860001
          ],
          [
            17.1796455460001,
            59.5667588480001
          ],
          [
            17.1801194490001,
            59.5667225070001
          ],
          [
            17.180322049,
            59.566680853
          ],
          [
            17.1805156030001,
            59.5665233190001
          ],
          [
            17.18083016,
            59.5663897320001
          ],
          [
            17.1812829880001,
            59.5660042820001
          ],
          [
            17.1815774990001,
            59.5657783360001
          ],
          [
            17.1820186320001,
            59.565863677
          ],
          [
            17.1823546900001,
            59.5656743770001
          ],
          [
            17.1826506960001,
            59.56542532
          ],
          [
            17.183805224,
            59.5645932100001
          ],
          [
            17.1846443530001,
            59.5643153870001
          ],
          [
            17.1850415210001,
            59.56437293
          ],
          [
            17.1852830890001,
            59.564197769
          ],
          [
            17.1854265760001,
            59.563810339
          ],
          [
            17.1861063490001,
            59.5636309610001
          ],
          [
            17.1862999250001,
            59.5634107180001
          ],
          [
            17.1866664140001,
            59.5632120760001
          ],
          [
            17.187007717,
            59.563188139
          ],
          [
            17.1874934690001,
            59.5627490480001
          ],
          [
            17.187580622,
            59.5625764640001
          ],
          [
            17.1881460650001,
            59.562196236
          ],
          [
            17.1886027530001,
            59.5620887760001
          ],
          [
            17.1891726440001,
            59.561993681
          ],
          [
            17.1897644330001,
            59.562019434
          ],
          [
            17.190533127,
            59.561956658
          ],
          [
            17.190801644,
            59.561980686
          ],
          [
            17.1916061320001,
            59.5622524300001
          ],
          [
            17.192114084,
            59.5620994970001
          ],
          [
            17.192930119,
            59.5616935040001
          ],
          [
            17.1940614110001,
            59.561334265
          ],
          [
            17.19553054,
            59.5610244160001
          ],
          [
            17.196517011,
            59.560883812
          ],
          [
            17.196917296,
            59.560744454
          ],
          [
            17.1977028700001,
            59.560510225
          ],
          [
            17.19824799,
            59.5602515080001
          ],
          [
            17.199364975,
            59.5594983190001
          ],
          [
            17.2003961390001,
            59.5591529910001
          ],
          [
            17.200899497,
            59.5591160060001
          ],
          [
            17.2012156810001,
            59.559224773
          ],
          [
            17.2017971970001,
            59.5590937760001
          ],
          [
            17.202088229,
            59.5592540440001
          ],
          [
            17.2020739980001,
            59.5594598970001
          ],
          [
            17.2023092430001,
            59.559619937
          ],
          [
            17.2031188870001,
            59.5599699580001
          ],
          [
            17.2033840710001,
            59.560158013
          ],
          [
            17.204033773,
            59.5604251570001
          ],
          [
            17.2059318780001,
            59.5615197750001
          ],
          [
            17.2063786590001,
            59.5614765930001
          ],
          [
            17.208244989,
            59.5603684340001
          ],
          [
            17.2100414770001,
            59.5594824670001
          ],
          [
            17.210213401,
            59.559072766
          ],
          [
            17.210819476,
            59.5589202890001
          ],
          [
            17.2116259680001,
            59.5585786670001
          ],
          [
            17.2124185390001,
            59.5585769240001
          ],
          [
            17.212767823,
            59.5586377990001
          ],
          [
            17.213188541,
            59.558802067
          ],
          [
            17.2135647050001,
            59.5589147320001
          ],
          [
            17.214094457,
            59.558943361
          ],
          [
            17.214269841,
            59.558663837
          ],
          [
            17.214662812,
            59.558612877
          ],
          [
            17.2153080430001,
            59.5587479910001
          ],
          [
            17.215901059,
            59.559069654
          ],
          [
            17.2162785360001,
            59.558614048
          ],
          [
            17.2163387590001,
            59.558418051
          ],
          [
            17.2166171970001,
            59.5584229230001
          ],
          [
            17.217155597,
            59.5582783250001
          ],
          [
            17.2179620100001,
            59.5578978140001
          ],
          [
            17.218392996,
            59.557784154
          ],
          [
            17.2184774310001,
            59.5574430610001
          ],
          [
            17.218614012,
            59.557383703
          ],
          [
            17.2191395420001,
            59.5573640970001
          ],
          [
            17.219236553,
            59.5570237590001
          ],
          [
            17.2193875580001,
            59.5567027320001
          ],
          [
            17.220231788,
            59.5561369710001
          ],
          [
            17.2207117040001,
            59.556171609
          ],
          [
            17.221186764,
            59.555833944
          ],
          [
            17.221802381,
            59.555668231
          ],
          [
            17.222561882,
            59.555256033
          ],
          [
            17.2238883950001,
            59.55497145
          ],
          [
            17.224869976,
            59.5546820340001
          ],
          [
            17.2257048290001,
            59.5545608800001
          ],
          [
            17.227656558,
            59.554335151
          ],
          [
            17.228457298,
            59.5543357780001
          ],
          [
            17.2289311690001,
            59.5544917070001
          ],
          [
            17.229129342,
            59.5548749280001
          ],
          [
            17.229342988,
            59.5549838210001
          ],
          [
            17.229754621,
            59.5550481130001
          ],
          [
            17.2300212270001,
            59.5550435700001
          ],
          [
            17.2303822850001,
            59.554980373
          ],
          [
            17.230653499,
            59.5548331420001
          ],
          [
            17.2308223630001,
            59.554571465
          ],
          [
            17.2309227490001,
            59.5544357090001
          ],
          [
            17.231093845,
            59.5542991820001
          ],
          [
            17.231520077,
            59.5541464350001
          ],
          [
            17.232249945,
            59.5541214
          ],
          [
            17.2328193070001,
            59.5542151770001
          ],
          [
            17.233626799,
            59.5540584650001
          ],
          [
            17.2338564230001,
            59.55397709
          ],
          [
            17.2354093060001,
            59.5547377300001
          ],
          [
            17.2373880320001,
            59.5557663500001
          ],
          [
            17.237878833,
            59.55596474
          ],
          [
            17.238519739,
            59.5560963880001
          ],
          [
            17.239871088,
            59.55613744
          ],
          [
            17.2404651730001,
            59.5561985750001
          ],
          [
            17.2426523500001,
            59.5565986920001
          ],
          [
            17.2432698,
            59.5567566170001
          ],
          [
            17.2438036940001,
            59.5569685090001
          ],
          [
            17.244070128,
            59.5571620540001
          ],
          [
            17.2442766130001,
            59.5574536290001
          ],
          [
            17.2446401780001,
            59.5573618780001
          ],
          [
            17.245348963,
            59.5571999800001
          ],
          [
            17.2457622790001,
            59.5572168570001
          ],
          [
            17.247552516,
            59.557494364
          ]
        ]
      }
    }
  ]
}
