{
  "type": "FeatureCollection",
  "features": [
    {
      "type": "Feature",
      "properties": {
        "name": "Etapp 20:3: Huddunge to Siggeforasjön",
        "segment": 1,
        "split": 1
      },
      "geometry": {
        "type": "LineString",
        "coordinates": [
          [
            16.97848810530658,
            60.04857872522155
          ],
          [
            16.97235820990454,
            60.0465172742602
          ],
          [
            16.97687790878967,
            60.0445058797979
          ],
          [
            16.98234518122578,
            60.04248687842664
          ],
          [
            16.98519308519644,
            60.04124908176712
          ],
          [
            16.98554321765738,
            60.04056800484332
          ],
          [
            16.98514152186476,
            60.03954317676272
          ],
          [
            16.98359210892784,
            60.03666941294077
          ],
          [
            16.98299546856811,
            60.03558889379329
          ],
          [
            16.98289968152309,
            60.03414490407715
          ],
          [
            16.98328354852649,
            60.03351096946238
          ],
          [
            16.98472906211938,
            60.03292160083794
          ],
          [
            16.98755004977394,
            60.03241997430061
          ],
          [
            16.98902728029674,
            60.03214512427272
          ],
          [
            16.99172656924401,
            60.03245126603952
          ],
          [
            16.99327371657691,
            60.03260468722451
          ],
          [
            16.99421659978182,
            60.03220974154942
          ],
          [
            16.9977240129061,
            60.03183799117264
          ],
          [
            16.99961952651987,
            60.03086988920148
          ],
          [
            17.00194137231725,
            60.03015392100386
          ],
          [
            17.00247319459217,
            60.02948370451
          ],
          [
            17.00591795250645,
            60.02891612315389
          ],
          [
            17.00916390581858,
            60.02864220123706
          ],
          [
            17.00988680828763,
            60.02989895455948
          ],
          [
            17.01383309336197,
            60.03058463748019
          ],
          [
            17.01640675754038,
            60.02972753160557
          ],
          [
            17.01898042171996,
            60.02989895455948
          ],
          [
            17.02138250828628,
            60.02921325740803
          ],
          [
            17.02429932768894,
            60.03041321808388
          ],
          [
            17.02635825903212,
            60.0298132431937
          ],
          [
            17.02910350082271,
            60.02972753160557
          ],
          [
            17.03270663067278,
            60.02861326072738
          ],
          [
            17.03493713962814,
            60.02861326072738
          ],
          [
            17.03596660529968,
            60.02775610371177
          ],
          [
            17.03819711425382,
            60.0273275168652
          ],
          [
            17.03931970939507,
            60.02770628865102
          ],
          [
            17.04026338626122,
            60.02834915946681
          ],
          [
            17.04112127432069,
            60.02843487463034
          ],
          [
            17.04137864073829,
            60.02800629658825
          ],
          [
            17.04275126163296,
            60.02830630180151
          ],
          [
            17.04481019297617,
            60.02843487463034
          ],
          [
            17.0450675593938,
            60.02924915759587
          ],
          [
            17.04841332282618,
            60.02894916094326
          ],
          [
            17.04978594372207,
            60.02864916156682
          ],
          [
            17.05090119819914,
            60.02890630405622
          ],
          [
            17.05167329745314,
            60.02886344711357
          ],
          [
            17.05484748327345,
            60.03229182686468
          ],
          [
            17.05561958252741,
            60.03276320125968
          ],
          [
            17.05845061312348,
            60.0322489743134
          ],
          [
            17.06111006610854,
            60.03250608878704
          ],
          [
            17.06256847580994,
            60.03233467936036
          ],
          [
            17.06745843774914,
            60.03173473936289
          ],
          [
            17.06814474819774,
            60.03130620412318
          ],
          [
            17.06874526983839,
            60.03053482668381
          ],
          [
            17.0702036795397,
            60.03096337192932
          ],
          [
            17.07191945565981,
            60.03122049640808
          ],
          [
            17.07509364148012,
            60.03019198648551
          ],
          [
            17.0790399265544,
            60.02950629541581
          ],
          [
            17.08032675864365,
            60.03049197185379
          ],
          [
            17.08564566461263,
            60.02907773127089
          ],
          [
            17.08667513028425,
            60.02856344695917
          ],
          [
            17.08864827282198,
            60.02860630429095
          ],
          [
            17.09036404894093,
            60.0279634384782
          ],
          [
            17.09045148384016,
            60.02706422769555
          ],
          [
            17.09182410473599,
            60.02680707087072
          ],
          [
            17.09388303607921,
            60.02642133188044
          ],
          [
            17.09525565697388,
            60.02642133188044
          ],
          [
            17.09602775622784,
            60.02582128450129
          ],
          [
            17.09791510995899,
            60.0253069495038
          ],
          [
            17.09894457563053,
            60.02556411800325
          ],
          [
            17.09997404130218,
            60.02517836450346
          ],
          [
            17.09868720921298,
            60.02436398121679
          ],
          [
            17.09894457563053,
            60.02402107698649
          ],
          [
            17.09980246369005,
            60.02363530547476
          ],
          [
            17.10023140771975,
            60.02290661366592
          ],
          [
            17.10297664951031,
            60.02222077140399
          ],
          [
            17.10555031368875,
            60.0224350986397
          ],
          [
            17.10632241294275,
            60.02209217439523
          ],
          [
            17.10726608980892,
            60.02204930861475
          ],
          [
            17.10898186592786,
            60.02119198132476
          ],
          [
            17.11052606443462,
            60.02140631523204
          ],
          [
            17.11129816368867,
            60.02127771505459
          ],
          [
            17.11215605174812,
            60.02072044183603
          ],
          [
            17.11318551741974,
            60.02050610348093
          ],
          [
            17.11472971592653,
            60.01964873616092
          ],
          [
            17.11472971592653,
            60.01887708655784
          ],
          [
            17.11550181518055,
            60.01797680591963
          ],
          [
            17.11713180249407,
            60.0174623488316
          ],
          [
            17.11781811294139,
            60.01759096385408
          ],
          [
            17.11996283309006,
            60.0174623488316
          ],
          [
            17.121678609209,
            60.01686213877628
          ],
          [
            17.12330859652249,
            60.01737660520507
          ],
          [
            17.12502437264143,
            60.01759096385408
          ],
          [
            17.12897065771574,
            60.01669064818711
          ],
          [
            17.13000012338736,
            60.01660490255921
          ],
          [
            17.13051485622375,
            60.01634766434049
          ],
          [
            17.13300273159552,
            60.0159189295278
          ],
          [
            17.13343167562519,
            60.01626191782265
          ],
          [
            17.13600533980483,
            60.0159189295278
          ],
          [
            17.13719019040136,
            60.01549018915159
          ],
          [
            17.13959227696881,
            60.01527581687995
          ],
          [
            17.14208015234058,
            60.01557593767083
          ],
          [
            17.14345277323642,
            60.01673352091493
          ],
          [
            17.14576907099726,
            60.0172051172822
          ],
          [
            17.14650040817432,
            60.01705933806389
          ],
          [
            17.1474499463252,
            60.01698464435313
          ],
          [
            17.14832746019047,
            60.01519987592818
          ],
          [
            17.1486001015945,
            60.01287475246428
          ],
          [
            17.14902904562422,
            60.01201718719793
          ],
          [
            17.14971535607154,
            60.01167415486358
          ],
          [
            17.15057324413101,
            60.01017334655475
          ],
          [
            17.15005851129578,
            60.00961588611872
          ],
          [
            17.15078695918399,
            60.00833533853455
          ],
          [
            17.15087274798944,
            60.00752054020856
          ],
          [
            17.15224536888527,
            60.00456136691849
          ],
          [
            17.15336062336243,
            60.00310312617566
          ],
          [
            17.15507639948137,
            60.00293156421441
          ],
          [
            17.15631442685932,
            60.00300023608523
          ],
          [
            17.15729669657105,
            60.00291320730847
          ],
          [
            17.15876388423931,
            60.0018501944798
          ],
          [
            17.15941044151779,
            60.00153314895226
          ],
          [
            17.16005215022724,
            60.00113010989304
          ],
          [
            17.16058310546003,
            60.00060312979028
          ],
          [
            17.16200055795426,
            59.99939705179432
          ],
          [
            17.16254002560021,
            59.99842774444713
          ],
          [
            17.16424906132343,
            59.996557787939
          ],
          [
            17.16553143658138,
            59.99633805820892
          ],
          [
            17.16639228695846,
            59.99525102326976
          ],
          [
            17.16696711844145,
            59.994398659768
          ],
          [
            17.16813942109374,
            59.99351838101015
          ],
          [
            17.16855796612094,
            59.99285144022764
          ],
          [
            17.17183917995115,
            59.99128064306453
          ],
          [
            17.17188382723609,
            59.99000422946887
          ],
          [
            17.17059787909574,
            59.98875856616485
          ],
          [
            17.17257102163344,
            59.98858692980428
          ],
          [
            17.17248523282683,
            59.98794328552415
          ],
          [
            17.17370167135888,
            59.98752508571943
          ],
          [
            17.17321637658756,
            59.98731268851228
          ],
          [
            17.17418696613021,
            59.98670583183846
          ],
          [
            17.17467226090156,
            59.98615965131836
          ],
          [
            17.17394431874499,
            59.98546174087031
          ],
          [
            17.1748542464415,
            59.98503691861046
          ],
          [
            17.17527887936669,
            59.98458174585252
          ],
          [
            17.175642850445,
            59.98406587582664
          ],
          [
            17.17509689382678,
            59.98394449347552
          ],
          [
            17.17461159905545,
            59.98358034375195
          ],
          [
            17.17394431874499,
            59.98345895962035
          ],
          [
            17.17455093720935,
            59.98257891135606
          ],
          [
            17.17000129872582,
            59.98263960509064
          ],
          [
            17.16545166024235,
            59.9813346652665
          ],
          [
            17.16150864022404,
            59.98021176889384
          ],
          [
            17.15526047003971,
            59.98078839611264
          ],
          [
            17.15077149340311,
            59.98087944159786
          ],
          [
            17.14767773923441,
            59.98072769898391
          ],
          [
            17.14767773923441,
            59.98006002321955
          ],
          [
            17.147010458924,
            59.97963513163103
          ],
          [
            17.14525126537703,
            59.97948338331366
          ],
          [
            17.14324942444398,
            59.97948338331366
          ],
          [
            17.14227883490136,
            59.97948338331366
          ],
          [
            17.14070162689353,
            59.97924058455919
          ],
          [
            17.13960971365785,
            59.97917988459224
          ],
          [
            17.13845713857529,
            59.97893708361158
          ],
          [
            17.13742588718571,
            59.9783907748955
          ],
          [
            17.13548470809957,
            59.97869428085073
          ],
          [
            17.13348286716655,
            59.97875498170797
          ],
          [
            17.13239095393087,
            59.97893708361158
          ],
          [
            17.13051043669091,
            59.97896743383174
          ],
          [
            17.12917587606913,
            59.97887638308862
          ],
          [
            17.12796263914046,
            59.97848182697416
          ],
          [
            17.12699204959779,
            59.97814796812821
          ],
          [
            17.12655432645141,
            59.97845147631318
          ]
        ]
      }
    }
  ]
}
