{
  "type": "FeatureCollection",
  "features": [
    {
      "type": "Feature",
      "properties": {
        "name": "Etapp 18: Gysinge to Skekarsbo",
        "segment": 1,
        "split": 1
      },
      "geometry": {
        "type": "LineString",
        "coordinates": [
          [
            16.8852940480001,
            60.289036422
          ],
          [
            16.8844382740001,
            60.2883439560001
          ],
          [
            16.8840093630001,
            60.285126554
          ],
          [
            16.8831989380001,
            60.2838353460001
          ],
          [
            16.88401314,
            60.2836137720001
          ],
          [
            16.8855109890001,
            60.2830754390001
          ],
          [
            16.886414206,
            60.2829446910001
          ],
          [
            16.8867608610001,
            60.2828486570001
          ],
          [
            16.8867418310001,
            60.2821338190001
          ],
          [
            16.887429976,
            60.2817719880001
          ],
          [
            16.888950729,
            60.281640333
          ],
          [
            16.8898262270001,
            60.2816423670001
          ],
          [
            16.8908716410001,
            60.281555041
          ],
          [
            16.8916321300001,
            60.2813341180001
          ],
          [
            16.8925079100001,
            60.280836252
          ],
          [
            16.89309798,
            60.280443877
          ],
          [
            16.893741812,
            60.2802246040001
          ],
          [
            16.894548494,
            60.280046473
          ],
          [
            16.8955741510001,
            60.2796188940001
          ],
          [
            16.896311278,
            60.2794997010001
          ],
          [
            16.897345802,
            60.2794776810001
          ],
          [
            16.8976568410001,
            60.27930661
          ],
          [
            16.897436414,
            60.2790272190001
          ],
          [
            16.897360496,
            60.2787240290001
          ],
          [
            16.897454143,
            60.2785777990001
          ],
          [
            16.8976819100001,
            60.2784803640001
          ],
          [
            16.898544803,
            60.2781112260001
          ],
          [
            16.899283918,
            60.2781821660001
          ],
          [
            16.8997561690001,
            60.2782274910001
          ],
          [
            16.900098499,
            60.278141535
          ],
          [
            16.900785672,
            60.278167925
          ],
          [
            16.9012882720001,
            60.2780303270001
          ],
          [
            16.901828844,
            60.278044321
          ],
          [
            16.9021175580001,
            60.2782430350001
          ],
          [
            16.9029618530001,
            60.278462769
          ],
          [
            16.9027083130001,
            60.278618539
          ],
          [
            16.9024554340001,
            60.2787739010001
          ],
          [
            16.902481961,
            60.2789912590001
          ],
          [
            16.902688276,
            60.2792780890001
          ],
          [
            16.9030262040001,
            60.2795702780001
          ],
          [
            16.9036078730001,
            60.2796633660001
          ],
          [
            16.904968528,
            60.2798811110001
          ],
          [
            16.9055300530001,
            60.2798531400001
          ],
          [
            16.9062255240001,
            60.2797707130001
          ],
          [
            16.906567109,
            60.2798744790001
          ],
          [
            16.906970131,
            60.2802816390001
          ],
          [
            16.9073505660001,
            60.280188777
          ],
          [
            16.907423766,
            60.2798042220001
          ],
          [
            16.9071576590001,
            60.27924296
          ],
          [
            16.907293306,
            60.279067141
          ],
          [
            16.907595858,
            60.278751275
          ],
          [
            16.9074420850001,
            60.278615835
          ],
          [
            16.9069704140001,
            60.2782821100001
          ],
          [
            16.906836105,
            60.2779797630001
          ],
          [
            16.906836985,
            60.2777442990001
          ],
          [
            16.907138264,
            60.2774067180001
          ],
          [
            16.9077306260001,
            60.277057712
          ],
          [
            16.90810814,
            60.2767769910001
          ],
          [
            16.9090099340001,
            60.2764814880001
          ],
          [
            16.90949241,
            60.2762499680001
          ],
          [
            16.909882787,
            60.2759400780001
          ],
          [
            16.909870124,
            60.2757229200001
          ],
          [
            16.9097144730001,
            60.2753049680001
          ],
          [
            16.909766878,
            60.274952848
          ],
          [
            16.909590522,
            60.274680087
          ],
          [
            16.909472695,
            60.2741601660001
          ],
          [
            16.9099082610001,
            60.273625042
          ],
          [
            16.910118429,
            60.2734771250001
          ],
          [
            16.910591069,
            60.2731444730001
          ],
          [
            16.911154872,
            60.2729913090001
          ],
          [
            16.911453216,
            60.2729102580001
          ],
          [
            16.911504852,
            60.2727399520001
          ],
          [
            16.911552778,
            60.2725818850001
          ],
          [
            16.9118993910001,
            60.2722525020001
          ],
          [
            16.911886296,
            60.2720281050001
          ],
          [
            16.9114700120001,
            60.271642887
          ],
          [
            16.911302107,
            60.2714875090001
          ],
          [
            16.911344351,
            60.271238994
          ],
          [
            16.9113851230001,
            60.2709991240001
          ],
          [
            16.911334429,
            60.2708189460001
          ],
          [
            16.9113521730001,
            60.2706230840001
          ],
          [
            16.9113766410001,
            60.2703529820001
          ],
          [
            16.9113264140001,
            60.2701815300001
          ],
          [
            16.9111416200001,
            60.2700139400001
          ],
          [
            16.910920504,
            60.2699736540001
          ],
          [
            16.910548797,
            60.270102163
          ],
          [
            16.910173259,
            60.2702319950001
          ],
          [
            16.909587865,
            60.270130475
          ],
          [
            16.908990816,
            60.2701463060001
          ],
          [
            16.9086222430001,
            60.270156076
          ],
          [
            16.908386755,
            60.2701033650001
          ],
          [
            16.9086633270001,
            60.269977844
          ],
          [
            16.9104296600001,
            60.268989796
          ],
          [
            16.911430314,
            60.268556361
          ],
          [
            16.9159109980001,
            60.266815642
          ],
          [
            16.913612653,
            60.265325541
          ],
          [
            16.913519873,
            60.2649078430001
          ],
          [
            16.913052103,
            60.264314346
          ],
          [
            16.9131052390001,
            60.2640530990001
          ],
          [
            16.913683539,
            60.2638069340001
          ],
          [
            16.9143450040001,
            60.2634236640001
          ],
          [
            16.9142855710001,
            60.263186691
          ],
          [
            16.912412363,
            60.2627267010001
          ],
          [
            16.911638669,
            60.2627491690001
          ],
          [
            16.9113026580001,
            60.2624595500001
          ],
          [
            16.910952455,
            60.2623173630001
          ],
          [
            16.910513483,
            60.26182537
          ],
          [
            16.9098383600001,
            60.2613877360001
          ],
          [
            16.909486198,
            60.2612115980001
          ],
          [
            16.9094235100001,
            60.2609180430001
          ],
          [
            16.9093108210001,
            60.260718582
          ],
          [
            16.9090575140001,
            60.260504272
          ],
          [
            16.908386249,
            60.2599363360001
          ],
          [
            16.908535777,
            60.2597643070001
          ],
          [
            16.909051652,
            60.2596209870001
          ],
          [
            16.9091107420001,
            60.2594615840001
          ],
          [
            16.9087246300001,
            60.2590934030001
          ],
          [
            16.9083724990001,
            60.2589172610001
          ],
          [
            16.9076444340001,
            60.258939051
          ],
          [
            16.9066282250001,
            60.259100878
          ],
          [
            16.9063757500001,
            60.2590705280001
          ],
          [
            16.9059632830001,
            60.2586404290001
          ],
          [
            16.9057690070001,
            60.25804298
          ],
          [
            16.9055944720001,
            60.2577850050001
          ],
          [
            16.9041822060001,
            60.25770327
          ],
          [
            16.903687323,
            60.2575179130001
          ],
          [
            16.903221377,
            60.2573433900001
          ],
          [
            16.903128098,
            60.2569143680001
          ],
          [
            16.9030959070001,
            60.2563598930001
          ],
          [
            16.9027866680001,
            60.2560105360001
          ],
          [
            16.901691376,
            60.2553267750001
          ],
          [
            16.9018695990001,
            60.2552562700001
          ],
          [
            16.902347558,
            60.2548530380001
          ],
          [
            16.902312641,
            60.254644021
          ],
          [
            16.902361164,
            60.2545329820001
          ],
          [
            16.9020718270001,
            60.2542194970001
          ],
          [
            16.901718908,
            60.253837113
          ],
          [
            16.901378483,
            60.2534682560001
          ],
          [
            16.900569107,
            60.253264668
          ],
          [
            16.899291916,
            60.2528525910001
          ],
          [
            16.8990290090001,
            60.252641173
          ],
          [
            16.8987556290001,
            60.252248701
          ],
          [
            16.8987556070001,
            60.252248668
          ]
        ]
      }
    },
    {
      "type": "Feature",
      "properties": {
        "name": "Etapp 18: Gysinge to Skekarsbo",
        "segment": 2,
        "split": 1
      },
      "geometry": {
        "type": "LineString",
        "coordinates": [
          [
            16.8886413280001,
            60.252698782
          ],
          [
            16.888727256,
            60.2525156340001
          ],
          [
            16.8892189630001,
            60.252441408
          ],
          [
            16.8902129410001,
            60.2522913540001
          ],
          [
            16.89083486,
            60.252407073
          ],
          [
            16.891312341,
            60.2523889450001
          ],
          [
            16.8921821060001,
            60.2524558260001
          ],
          [
            16.8927513140001,
            60.2524477090001
          ],
          [
            16.893248294,
            60.2523726700001
          ],
          [
            16.894173406,
            60.252608627
          ],
          [
            16.8944993540001,
            60.2527285520001
          ],
          [
            16.8964548220001,
            60.2526553270001
          ],
          [
            16.896882837,
            60.2525699340001
          ],
          [
            16.8976232130001,
            60.2527632050001
          ],
          [
            16.8980792360001,
            60.2527680100001
          ],
          [
            16.898368673,
            60.2526506190001
          ],
          [
            16.8987556070001,
            60.252248668
          ]
        ]
      }
    },
    {
      "type": "Feature",
      "properties": {
        "name": "Etapp 18: Gysinge to Skekarsbo",
        "segment": 3,
        "split": 1
      },
      "geometry": {
        "type": "LineString",
        "coordinates": [
          [
            16.8987556070001,
            60.252248668
          ],
          [
            16.8992777460001,
            60.2518221970001
          ],
          [
            16.899769458,
            60.251656606
          ],
          [
            16.9001981070001,
            60.2515825200001
          ],
          [
            16.9004139780001,
            60.251375575
          ],
          [
            16.901006587,
            60.251378414
          ],
          [
            16.9011353180001,
            60.251240667
          ],
          [
            16.9007377780001,
            60.251065156
          ],
          [
            16.900400816,
            60.2508159700001
          ],
          [
            16.9002819780001,
            60.250091774
          ],
          [
            16.8998778760001,
            60.247628933
          ],
          [
            16.8998074350001,
            60.2471995820001
          ],
          [
            16.90080162,
            60.245877281
          ]
        ]
      }
    },
    {
      "type": "Feature",
      "properties": {
        "name": "Etapp 18: Gysinge to Skekarsbo",
        "segment": 4,
        "split": 1
      },
      "geometry": {
        "type": "LineString",
        "coordinates": [
          [
            16.8980663530001,
            60.247428348
          ],
          [
            16.8982799180001,
            60.2471818010001
          ],
          [
            16.8990029700001,
            60.246684471
          ],
          [
            16.8996108700001,
            60.2461661360001
          ],
          [
            16.9003964560001,
            60.2459623600001
          ],
          [
            16.90080162,
            60.245877281
          ]
        ]
      }
    },
    {
      "type": "Feature",
      "properties": {
        "name": "Etapp 18: Gysinge to Skekarsbo",
        "segment": 5,
        "split": 1
      },
      "geometry": {
        "type": "LineString",
        "coordinates": [
          [
            16.90080162,
            60.245877281
          ],
          [
            16.9030772150001,
            60.242690585
          ],
          [
            16.902915698,
            60.2422625410001
          ]
        ]
      }
    },
    {
      "type": "Feature",
      "properties": {
        "name": "Etapp 18: Gysinge to Skekarsbo",
        "segment": 5,
        "split": 2
      },
      "geometry": {
        "type": "LineString",
        "coordinates": [
          [
            16.8996448790001,
            60.2392798980001
          ],
          [
            16.898686215,
            60.2388519340001
          ],
          [
            16.8977483690001,
            60.2383896900001
          ],
          [
            16.896305022,
            60.2370626200001
          ],
          [
            16.8959531940001,
            60.236886444
          ],
          [
            16.894415918,
            60.236296837
          ],
          [
            16.892709143,
            60.2358185350001
          ],
          [
            16.8923065160001,
            60.235658748
          ],
          [
            16.891700488,
            60.235418235
          ],
          [
            16.8892283780001,
            60.2346097270001
          ],
          [
            16.887636731,
            60.234258647
          ],
          [
            16.8863818980001,
            60.2338234850001
          ],
          [
            16.8856608660001,
            60.2331655460001
          ],
          [
            16.8846551030001,
            60.2327041780001
          ],
          [
            16.885021782,
            60.2319515040001
          ],
          [
            16.8852584240001,
            60.2317103130001
          ],
          [
            16.885245422,
            60.2314839920001
          ],
          [
            16.885668312,
            60.2309173840001
          ],
          [
            16.8856403500001,
            60.230430798
          ],
          [
            16.8854966800001,
            60.2303082620001
          ],
          [
            16.884523507,
            60.2300163080001
          ],
          [
            16.884077561,
            60.229784812
          ],
          [
            16.8830140550001,
            60.229505455
          ],
          [
            16.881758816,
            60.229058931
          ],
          [
            16.881320038,
            60.2289519020001
          ],
          [
            16.881177688,
            60.2288519940001
          ],
          [
            16.880811866,
            60.228232876
          ],
          [
            16.880983775,
            60.227852462
          ],
          [
            16.881246463,
            60.2272711520001
          ],
          [
            16.880851373,
            60.2263367620001
          ],
          [
            16.881120537,
            60.2258686110001
          ],
          [
            16.8809359420001,
            60.2258259280001
          ],
          [
            16.880368489,
            60.225856623
          ],
          [
            16.879448699,
            60.226096161
          ],
          [
            16.877861274,
            60.226605625
          ],
          [
            16.875549769,
            60.226796877
          ],
          [
            16.8750479600001,
            60.22678132
          ],
          [
            16.874512415,
            60.2265737100001
          ],
          [
            16.873900871,
            60.226231268
          ],
          [
            16.8731547770001,
            60.2259247000001
          ],
          [
            16.872498255,
            60.2254762800001
          ],
          [
            16.871913081,
            60.2251700620001
          ],
          [
            16.870467083,
            60.2249273240001
          ],
          [
            16.8692987730001,
            60.224802599
          ],
          [
            16.868960096,
            60.2247395900001
          ],
          [
            16.8675735520001,
            60.2246794400001
          ],
          [
            16.8667772420001,
            60.2230851040001
          ],
          [
            16.866766506,
            60.2227527000001
          ],
          [
            16.8669913460001,
            60.2223234150001
          ],
          [
            16.866929044,
            60.2218726770001
          ],
          [
            16.866770524,
            60.2213989580001
          ],
          [
            16.8659514980001,
            60.2211680090001
          ],
          [
            16.864750669,
            60.2209401010001
          ],
          [
            16.8642233810001,
            60.2208730580001
          ],
          [
            16.8647746690001,
            60.220203681
          ],
          [
            16.864814742,
            60.219965868
          ],
          [
            16.8640927440001,
            60.219781632
          ],
          [
            16.8633783970001,
            60.2198348250001
          ],
          [
            16.8624700940001,
            60.2197945600001
          ],
          [
            16.861511014,
            60.2196596950001
          ],
          [
            16.860655016,
            60.2197614980001
          ],
          [
            16.860180051,
            60.2198365200001
          ],
          [
            16.8598898920001,
            60.2197200780001
          ],
          [
            16.859323955,
            60.2198657170001
          ],
          [
            16.8590316030001,
            60.219750639
          ],
          [
            16.857544084,
            60.2191650950001
          ],
          [
            16.857092971,
            60.2188397860001
          ],
          [
            16.8566043420001,
            60.2184874160001
          ],
          [
            16.855654429,
            60.2186374290001
          ],
          [
            16.854887821,
            60.2185484930001
          ],
          [
            16.8540803110001,
            60.2186736190001
          ],
          [
            16.852938729,
            60.218801376
          ],
          [
            16.8526008800001,
            60.2186852940001
          ],
          [
            16.852306976,
            60.2184501190001
          ],
          [
            16.8518774660001,
            60.2184535050001
          ],
          [
            16.851071459,
            60.2186260990001
          ],
          [
            16.8500737930001,
            60.218776447
          ],
          [
            16.8497033190001,
            60.2191356000001
          ],
          [
            16.848758631,
            60.2194517660001
          ],
          [
            16.8482776160001,
            60.219336798
          ],
          [
            16.8478928070001,
            60.219244824
          ],
          [
            16.848126157,
            60.219076746
          ],
          [
            16.848511215,
            60.217672517
          ],
          [
            16.848889224,
            60.2175508010001
          ],
          [
            16.8491702790001,
            60.2173823470001
          ],
          [
            16.8494377550001,
            60.216786514
          ],
          [
            16.8495286720001,
            60.2166433030001
          ],
          [
            16.8503406770001,
            60.2166606650001
          ],
          [
            16.8506754770001,
            60.2166817790001
          ],
          [
            16.851101188,
            60.2165596800001
          ],
          [
            16.851971497,
            60.2169090620001
          ],
          [
            16.8531031780001,
            60.2164726510001
          ],
          [
            16.853915938,
            60.2165137340001
          ],
          [
            16.854436317,
            60.216367129
          ],
          [
            16.8550468230001,
            60.216053564
          ],
          [
            16.855030144,
            60.215531211
          ],
          [
            16.85491727,
            60.2149858700001
          ],
          [
            16.8544154630001,
            60.2142179850001
          ],
          [
            16.8541420500001,
            60.2142127220001
          ],
          [
            16.8537019780001,
            60.2142948680001
          ],
          [
            16.8534527950001,
            60.213964344
          ],
          [
            16.8527711450001,
            60.2135422360001
          ],
          [
            16.8523386740001,
            60.2134506510001
          ],
          [
            16.851469965,
            60.2131487570001
          ],
          [
            16.850892915,
            60.212706466
          ],
          [
            16.8507901800001,
            60.212408483
          ]
        ]
      }
    }
  ]
}
