{
  "type": "FeatureCollection",
  "features": [
    {
      "type": "Feature",
      "properties": {
        "trailId": "upplandsleden",
        "sectionId": "upplandsleden-etapp-17-alvkarleby-langhall",
        "officialId": "17",
        "sourceUrl": "https://www.naturkartan.se/sv/uppsala-lan/upplandsleden-etapp-17.gpx",
        "sourceFormat": "gpx",
        "segment": 1
      },
      "geometry": {
        "type": "LineString",
        "coordinates": [
          [
            17.437954,
            60.565413
          ],
          [
            17.436707,
            60.566127
          ],
          [
            17.435981,
            60.567038
          ],
          [
            17.435914,
            60.567634
          ],
          [
            17.436217,
            60.568384
          ],
          [
            17.433479,
            60.568776
          ],
          [
            17.432525,
            60.569152
          ],
          [
            17.432436,
            60.569743
          ],
          [
            17.431803,
            60.57096
          ],
          [
            17.431279,
            60.571123
          ],
          [
            17.429977,
            60.571339
          ],
          [
            17.428799,
            60.571859
          ],
          [
            17.428729,
            60.572082
          ],
          [
            17.428334,
            60.572224
          ],
          [
            17.427546,
            60.572155
          ],
          [
            17.426847,
            60.572094
          ],
          [
            17.426508,
            60.572215
          ],
          [
            17.425177,
            60.573209
          ],
          [
            17.424656,
            60.573493
          ],
          [
            17.424025,
            60.573684
          ],
          [
            17.423714,
            60.573865
          ],
          [
            17.423491,
            60.574197
          ],
          [
            17.423023,
            60.574344
          ],
          [
            17.422695,
            60.575152
          ],
          [
            17.422509,
            60.575567
          ],
          [
            17.422233,
            60.575808
          ],
          [
            17.421898,
            60.576302
          ],
          [
            17.421693,
            60.576332
          ],
          [
            17.420031,
            60.576176
          ],
          [
            17.419667,
            60.576235
          ],
          [
            17.419311,
            60.576502
          ],
          [
            17.418453,
            60.576434
          ],
          [
            17.418031,
            60.576503
          ],
          [
            17.415099,
            60.577119
          ],
          [
            17.412614,
            60.577715
          ],
          [
            17.411253,
            60.577994
          ],
          [
            17.410871,
            60.578027
          ],
          [
            17.410318,
            60.578061
          ],
          [
            17.409264,
            60.577966
          ],
          [
            17.408566,
            60.577918
          ],
          [
            17.407655,
            60.5783
          ],
          [
            17.40718,
            60.578449
          ],
          [
            17.406663,
            60.578555
          ],
          [
            17.406101,
            60.578291
          ],
          [
            17.405492,
            60.578092
          ],
          [
            17.404828,
            60.578075
          ],
          [
            17.404349,
            60.57785
          ],
          [
            17.40261,
            60.57783
          ],
          [
            17.401513,
            60.577825
          ],
          [
            17.400841,
            60.577711
          ],
          [
            17.400022,
            60.577768
          ],
          [
            17.399336,
            60.578336
          ],
          [
            17.397737,
            60.578782
          ],
          [
            17.397283,
            60.578846
          ],
          [
            17.396545,
            60.57892
          ],
          [
            17.395588,
            60.578943
          ],
          [
            17.394835,
            60.578821
          ],
          [
            17.394376,
            60.579111
          ],
          [
            17.393511,
            60.57926
          ],
          [
            17.392403,
            60.579451
          ],
          [
            17.391679,
            60.579531
          ],
          [
            17.390914,
            60.579451
          ],
          [
            17.390499,
            60.579425
          ],
          [
            17.390124,
            60.57939
          ],
          [
            17.389779,
            60.579351
          ],
          [
            17.389615,
            60.579368
          ],
          [
            17.389324,
            60.579348
          ],
          [
            17.389104,
            60.579395
          ],
          [
            17.388853,
            60.579431
          ],
          [
            17.388525,
            60.579494
          ],
          [
            17.388249,
            60.579551
          ],
          [
            17.387957,
            60.579598
          ],
          [
            17.387708,
            60.579634
          ],
          [
            17.387204,
            60.579674
          ],
          [
            17.386543,
            60.579587
          ],
          [
            17.385736,
            60.579357
          ],
          [
            17.384687,
            60.579414
          ],
          [
            17.383919,
            60.57973
          ],
          [
            17.383542,
            60.580246
          ],
          [
            17.382365,
            60.580682
          ],
          [
            17.381269,
            60.580732
          ],
          [
            17.380376,
            60.581015
          ],
          [
            17.379902,
            60.58098
          ],
          [
            17.378608,
            60.580574
          ],
          [
            17.377196,
            60.580325
          ],
          [
            17.376069,
            60.580483
          ],
          [
            17.375737,
            60.580495
          ],
          [
            17.375585,
            60.580674
          ],
          [
            17.375522,
            60.580975
          ],
          [
            17.375532,
            60.581333
          ],
          [
            17.375896,
            60.58186
          ],
          [
            17.376198,
            60.582337
          ],
          [
            17.37663,
            60.582571
          ],
          [
            17.377579,
            60.583255
          ],
          [
            17.377632,
            60.583377
          ],
          [
            17.377524,
            60.583677
          ],
          [
            17.377518,
            60.584089
          ],
          [
            17.377366,
            60.584509
          ],
          [
            17.377106,
            60.584829
          ],
          [
            17.376463,
            60.585359
          ],
          [
            17.37552,
            60.586179
          ],
          [
            17.375202,
            60.586533
          ],
          [
            17.374486,
            60.586919
          ],
          [
            17.374042,
            60.586988
          ],
          [
            17.373155,
            60.587137
          ],
          [
            17.372874,
            60.587308
          ],
          [
            17.372786,
            60.5876
          ],
          [
            17.372145,
            60.587939
          ],
          [
            17.371408,
            60.588036
          ],
          [
            17.370805,
            60.58826
          ],
          [
            17.370685,
            60.588522
          ],
          [
            17.370781,
            60.588992
          ],
          [
            17.370525,
            60.589059
          ],
          [
            17.369365,
            60.588911
          ],
          [
            17.367527,
            60.588989
          ],
          [
            17.366995,
            60.588907
          ],
          [
            17.366518,
            60.58874
          ],
          [
            17.365584,
            60.588745
          ],
          [
            17.364312,
            60.588497
          ],
          [
            17.363575,
            60.588114
          ],
          [
            17.363138,
            60.587901
          ],
          [
            17.362399,
            60.587785
          ],
          [
            17.361666,
            60.587817
          ],
          [
            17.36036,
            60.588199
          ],
          [
            17.359827,
            60.588173
          ],
          [
            17.359084,
            60.588178
          ],
          [
            17.35858,
            60.588286
          ],
          [
            17.358238,
            60.588368
          ],
          [
            17.35758,
            60.588372
          ],
          [
            17.356755,
            60.588539
          ],
          [
            17.356222,
            60.588663
          ],
          [
            17.355454,
            60.588715
          ],
          [
            17.354321,
            60.588727
          ],
          [
            17.352845,
            60.588875
          ],
          [
            17.351857,
            60.589136
          ],
          [
            17.350659,
            60.589714
          ],
          [
            17.350729,
            60.590032
          ],
          [
            17.348067,
            60.589371
          ]
        ]
      }
    }
  ]
}
