{
  "type": "FeatureCollection",
  "features": [
    {
      "type": "Feature",
      "properties": {
        "trailId": "upplandsleden",
        "sectionId": "upplandsleden-slinga-21-1-ramsmossjoarna",
        "officialId": "21:1",
        "sourceUrl": "https://www.naturkartan.se/sv/uppsala-lan/upplandsleden-slinga-21-1.gpx",
        "sourceFormat": "gpx",
        "segment": 1
      },
      "geometry": {
        "type": "LineString",
        "coordinates": [
          [
            17.131147,
            59.975805
          ],
          [
            17.131379,
            59.975428
          ],
          [
            17.131701,
            59.975139
          ],
          [
            17.132229,
            59.97459
          ],
          [
            17.13185,
            59.97379
          ],
          [
            17.132023,
            59.973602
          ],
          [
            17.132712,
            59.973705
          ],
          [
            17.133036,
            59.973657
          ],
          [
            17.133266,
            59.973468
          ],
          [
            17.132937,
            59.972561
          ],
          [
            17.131815,
            59.971926
          ],
          [
            17.131495,
            59.97114
          ],
          [
            17.131779,
            59.970918
          ],
          [
            17.132389,
            59.97061
          ],
          [
            17.132852,
            59.969863
          ],
          [
            17.133046,
            59.96909
          ],
          [
            17.133304,
            59.968762
          ],
          [
            17.134939,
            59.967858
          ],
          [
            17.135924,
            59.967475
          ],
          [
            17.13684,
            59.96669
          ],
          [
            17.137495,
            59.965755
          ],
          [
            17.138087,
            59.965343
          ],
          [
            17.138546,
            59.965226
          ],
          [
            17.139385,
            59.964777
          ],
          [
            17.139723,
            59.964294
          ],
          [
            17.139732,
            59.963885
          ],
          [
            17.140103,
            59.96371
          ],
          [
            17.140332,
            59.963365
          ],
          [
            17.14051,
            59.963262
          ],
          [
            17.140997,
            59.963104
          ],
          [
            17.141351,
            59.962474
          ],
          [
            17.141759,
            59.96235
          ],
          [
            17.142642,
            59.96292
          ],
          [
            17.143275,
            59.962918
          ],
          [
            17.144081,
            59.962855
          ],
          [
            17.145308,
            59.963127
          ],
          [
            17.146029,
            59.96302
          ],
          [
            17.146241,
            59.963048
          ],
          [
            17.146477,
            59.963123
          ],
          [
            17.146594,
            59.963245
          ],
          [
            17.146703,
            59.963414
          ],
          [
            17.146783,
            59.963666
          ],
          [
            17.146514,
            59.964344
          ],
          [
            17.146345,
            59.965039
          ],
          [
            17.146653,
            59.965394
          ],
          [
            17.146836,
            59.965804
          ],
          [
            17.146986,
            59.966414
          ],
          [
            17.147138,
            59.966741
          ],
          [
            17.147747,
            59.966923
          ],
          [
            17.148223,
            59.967243
          ],
          [
            17.148227,
            59.967529
          ],
          [
            17.148054,
            59.96771
          ],
          [
            17.148086,
            59.967987
          ],
          [
            17.14793,
            59.968863
          ],
          [
            17.147569,
            59.969225
          ],
          [
            17.146578,
            59.969734
          ],
          [
            17.146177,
            59.969904
          ],
          [
            17.145815,
            59.970024
          ],
          [
            17.145246,
            59.9709
          ],
          [
            17.14521,
            59.972554
          ],
          [
            17.144824,
            59.973405
          ],
          [
            17.144355,
            59.973623
          ],
          [
            17.143858,
            59.973756
          ],
          [
            17.144167,
            59.974671
          ],
          [
            17.143408,
            59.974819
          ],
          [
            17.142287,
            59.974895
          ],
          [
            17.1412,
            59.975204
          ],
          [
            17.140219,
            59.975218
          ],
          [
            17.139717,
            59.97515
          ],
          [
            17.138953,
            59.975211
          ],
          [
            17.138275,
            59.975287
          ],
          [
            17.135781,
            59.975213
          ],
          [
            17.134053,
            59.97527
          ],
          [
            17.133478,
            59.975353
          ],
          [
            17.132968,
            59.975539
          ],
          [
            17.132482,
            59.975871
          ],
          [
            17.13236,
            59.975953
          ],
          [
            17.131925,
            59.976034
          ],
          [
            17.131442,
            59.975983
          ],
          [
            17.131147,
            59.975805
          ]
        ]
      }
    },
    {
      "type": "Feature",
      "properties": {
        "trailId": "upplandsleden",
        "sectionId": "upplandsleden-slinga-21-1-ramsmossjoarna",
        "officialId": "21:1",
        "sourceUrl": "https://www.naturkartan.se/sv/uppsala-lan/upplandsleden-slinga-21-1.gpx",
        "sourceFormat": "gpx",
        "segment": 2
      },
      "geometry": {
        "type": "LineString",
        "coordinates": [
          [
            17.131147,
            59.975805
          ],
          [
            17.130088,
            59.975929
          ],
          [
            17.12858,
            59.975918
          ],
          [
            17.127908,
            59.976093
          ],
          [
            17.126779,
            59.978268
          ],
          [
            17.126786,
            59.978268
          ]
        ]
      }
    }
  ]
}
