{
  "type": "FeatureCollection",
  "features": [
    {
      "type": "Feature",
      "properties": {
        "trailId": "upplandsleden",
        "sectionId": "upplandsleden-slinga-3-1-borgardal",
        "officialId": "3:1",
        "sourceUrl": "https://www.naturkartan.se/sv/uppsala-lan/upplandsleden-slinga-3-1.gpx",
        "sourceFormat": "gpx",
        "segment": 1
      },
      "geometry": {
        "type": "LineString",
        "coordinates": [
          [
            17.94055,
            59.854887
          ],
          [
            17.940611,
            59.854892
          ]
        ]
      }
    },
    {
      "type": "Feature",
      "properties": {
        "trailId": "upplandsleden",
        "sectionId": "upplandsleden-slinga-3-1-borgardal",
        "officialId": "3:1",
        "sourceUrl": "https://www.naturkartan.se/sv/uppsala-lan/upplandsleden-slinga-3-1.gpx",
        "sourceFormat": "gpx",
        "segment": 2
      },
      "geometry": {
        "type": "LineString",
        "coordinates": [
          [
            17.940611,
            59.854892
          ],
          [
            17.940611,
            59.854892
          ],
          [
            17.940726,
            59.854969
          ],
          [
            17.940892,
            59.855101
          ],
          [
            17.940939,
            59.855259
          ],
          [
            17.940786,
            59.855723
          ],
          [
            17.940584,
            59.855989
          ],
          [
            17.940116,
            59.856272
          ],
          [
            17.939763,
            59.856626
          ],
          [
            17.939742,
            59.856871
          ],
          [
            17.939902,
            59.8571
          ],
          [
            17.940058,
            59.857257
          ],
          [
            17.940147,
            59.8575
          ],
          [
            17.940154,
            59.857805
          ],
          [
            17.940052,
            59.858109
          ],
          [
            17.939926,
            59.858227
          ],
          [
            17.939759,
            59.858462
          ],
          [
            17.939656,
            59.858751
          ],
          [
            17.939732,
            59.858994
          ],
          [
            17.939693,
            59.859148
          ],
          [
            17.93969,
            59.859282
          ],
          [
            17.93992,
            59.859462
          ],
          [
            17.940087,
            59.859789
          ],
          [
            17.940221,
            59.859989
          ],
          [
            17.94036,
            59.860066
          ],
          [
            17.940767,
            59.860169
          ],
          [
            17.941009,
            59.860337
          ],
          [
            17.941321,
            59.860466
          ],
          [
            17.941898,
            59.860561
          ],
          [
            17.942098,
            59.860643
          ],
          [
            17.942264,
            59.860873
          ],
          [
            17.942386,
            59.86105
          ],
          [
            17.942682,
            59.861261
          ],
          [
            17.943036,
            59.861416
          ],
          [
            17.943403,
            59.861432
          ],
          [
            17.943796,
            59.861398
          ],
          [
            17.944749,
            59.861447
          ],
          [
            17.944646,
            59.860763
          ],
          [
            17.94452,
            59.860501
          ],
          [
            17.944378,
            59.860318
          ],
          [
            17.944384,
            59.860286
          ],
          [
            17.944412,
            59.860265
          ],
          [
            17.944451,
            59.860252
          ],
          [
            17.944584,
            59.860251
          ],
          [
            17.94471,
            59.860259
          ],
          [
            17.944812,
            59.860306
          ],
          [
            17.944897,
            59.860331
          ],
          [
            17.94502,
            59.860352
          ],
          [
            17.945109,
            59.860362
          ],
          [
            17.94517,
            59.860361
          ],
          [
            17.945272,
            59.860355
          ],
          [
            17.945343,
            59.860363
          ],
          [
            17.945445,
            59.860352
          ],
          [
            17.945519,
            59.860337
          ],
          [
            17.945589,
            59.860336
          ],
          [
            17.945658,
            59.860318
          ],
          [
            17.945678,
            59.860276
          ],
          [
            17.945648,
            59.860239
          ],
          [
            17.945575,
            59.86019
          ],
          [
            17.945525,
            59.86014
          ],
          [
            17.945521,
            59.860088
          ],
          [
            17.94558,
            59.86005
          ],
          [
            17.945647,
            59.860008
          ],
          [
            17.945657,
            59.859947
          ],
          [
            17.945603,
            59.859813
          ],
          [
            17.94564,
            59.859675
          ],
          [
            17.945633,
            59.859567
          ],
          [
            17.945701,
            59.859462
          ],
          [
            17.945697,
            59.859408
          ],
          [
            17.945694,
            59.859358
          ],
          [
            17.945639,
            59.859305
          ],
          [
            17.945509,
            59.859237
          ],
          [
            17.945426,
            59.859184
          ],
          [
            17.945367,
            59.859138
          ],
          [
            17.945269,
            59.859065
          ],
          [
            17.945068,
            59.859038
          ],
          [
            17.944861,
            59.859002
          ],
          [
            17.944755,
            59.858922
          ],
          [
            17.944693,
            59.858804
          ],
          [
            17.944687,
            59.858684
          ],
          [
            17.944656,
            59.858531
          ],
          [
            17.944684,
            59.858465
          ],
          [
            17.944694,
            59.858401
          ],
          [
            17.944716,
            59.858312
          ],
          [
            17.944703,
            59.858251
          ],
          [
            17.944641,
            59.858224
          ],
          [
            17.944513,
            59.858207
          ],
          [
            17.944367,
            59.858186
          ],
          [
            17.944313,
            59.85814
          ],
          [
            17.944238,
            59.858061
          ],
          [
            17.944234,
            59.858002
          ],
          [
            17.944221,
            59.85794
          ],
          [
            17.944105,
            59.857834
          ],
          [
            17.943783,
            59.857734
          ],
          [
            17.94356,
            59.857763
          ],
          [
            17.943404,
            59.857864
          ],
          [
            17.943273,
            59.857945
          ],
          [
            17.943174,
            59.85799
          ],
          [
            17.943017,
            59.85805
          ],
          [
            17.942807,
            59.858102
          ],
          [
            17.942573,
            59.858069
          ],
          [
            17.942376,
            59.85806
          ],
          [
            17.942217,
            59.85799
          ],
          [
            17.942185,
            59.857865
          ],
          [
            17.942043,
            59.857724
          ],
          [
            17.941828,
            59.857463
          ],
          [
            17.94185,
            59.857392
          ],
          [
            17.94194,
            59.857295
          ],
          [
            17.942093,
            59.857184
          ],
          [
            17.942225,
            59.85712
          ],
          [
            17.942585,
            59.857034
          ],
          [
            17.942789,
            59.857028
          ],
          [
            17.94303,
            59.856997
          ],
          [
            17.943142,
            59.856923
          ],
          [
            17.943367,
            59.856635
          ],
          [
            17.943582,
            59.856491
          ],
          [
            17.943792,
            59.856392
          ],
          [
            17.944085,
            59.856193
          ],
          [
            17.944227,
            59.855888
          ],
          [
            17.944229,
            59.855634
          ],
          [
            17.944132,
            59.855523
          ],
          [
            17.94403,
            59.855475
          ],
          [
            17.943687,
            59.855458
          ],
          [
            17.943417,
            59.855457
          ],
          [
            17.943274,
            59.855469
          ],
          [
            17.94296,
            59.855347
          ],
          [
            17.942646,
            59.855076
          ],
          [
            17.942477,
            59.854957
          ],
          [
            17.942231,
            59.854911
          ],
          [
            17.94207,
            59.854907
          ],
          [
            17.942018,
            59.854867
          ],
          [
            17.941838,
            59.854804
          ],
          [
            17.941679,
            59.85476
          ],
          [
            17.941581,
            59.854758
          ],
          [
            17.941394,
            59.854751
          ],
          [
            17.941217,
            59.854726
          ],
          [
            17.941109,
            59.854722
          ],
          [
            17.94102,
            59.854739
          ],
          [
            17.9409,
            59.854777
          ],
          [
            17.940817,
            59.854785
          ],
          [
            17.940766,
            59.854789
          ],
          [
            17.940748,
            59.85481
          ],
          [
            17.940715,
            59.854826
          ],
          [
            17.94065,
            59.854855
          ],
          [
            17.940611,
            59.854892
          ]
        ]
      }
    },
    {
      "type": "Feature",
      "properties": {
        "trailId": "upplandsleden",
        "sectionId": "upplandsleden-slinga-3-1-borgardal",
        "officialId": "3:1",
        "sourceUrl": "https://www.naturkartan.se/sv/uppsala-lan/upplandsleden-slinga-3-1.gpx",
        "sourceFormat": "gpx",
        "segment": 3
      },
      "geometry": {
        "type": "LineString",
        "coordinates": [
          [
            17.940611,
            59.854892
          ],
          [
            17.940611,
            59.854892
          ]
        ]
      }
    }
  ]
}
