{
  "type": "FeatureCollection",
  "features": [
    {
      "type": "Feature",
      "properties": {
        "trailId": "upplandsleden",
        "sectionId": "upplandsleden-etapp-27-lillkyrka-veckholm",
        "officialId": "27",
        "sourceUrl": "https://www.naturkartan.se/sv/uppsala-lan/upplandsleden-etapp-27.gpx",
        "sourceFormat": "gpx",
        "segment": 1
      },
      "geometry": {
        "type": "LineString",
        "coordinates": [
          [
            17.257213,
            59.547756
          ],
          [
            17.257622,
            59.548199
          ],
          [
            17.257768,
            59.54872
          ],
          [
            17.257739,
            59.548735
          ],
          [
            17.257692,
            59.54878
          ],
          [
            17.257596,
            59.548849
          ],
          [
            17.257571,
            59.54886
          ],
          [
            17.257523,
            59.548883
          ],
          [
            17.257455,
            59.548923
          ],
          [
            17.257367,
            59.548992
          ],
          [
            17.257346,
            59.549015
          ],
          [
            17.257331,
            59.549036
          ],
          [
            17.257314,
            59.549081
          ],
          [
            17.257307,
            59.549148
          ],
          [
            17.257312,
            59.549179
          ],
          [
            17.257323,
            59.549213
          ],
          [
            17.257369,
            59.549268
          ],
          [
            17.257381,
            59.549288
          ],
          [
            17.257312,
            59.54937
          ],
          [
            17.257309,
            59.549373
          ],
          [
            17.257187,
            59.549523
          ],
          [
            17.257029,
            59.549713
          ],
          [
            17.257014,
            59.549718
          ],
          [
            17.256948,
            59.549728
          ],
          [
            17.256889,
            59.549739
          ],
          [
            17.256886,
            59.54974
          ],
          [
            17.256789,
            59.549769
          ],
          [
            17.256745,
            59.549788
          ],
          [
            17.256734,
            59.549793
          ],
          [
            17.256725,
            59.5498
          ],
          [
            17.25671,
            59.549812
          ],
          [
            17.256709,
            59.549815
          ],
          [
            17.256701,
            59.549839
          ],
          [
            17.256712,
            59.549866
          ],
          [
            17.256739,
            59.549892
          ],
          [
            17.256758,
            59.549903
          ],
          [
            17.256791,
            59.549921
          ],
          [
            17.256867,
            59.549945
          ],
          [
            17.256918,
            59.549958
          ],
          [
            17.25696,
            59.54997
          ],
          [
            17.257035,
            59.550001
          ],
          [
            17.257144,
            59.550056
          ],
          [
            17.257227,
            59.550093
          ],
          [
            17.257278,
            59.550112
          ],
          [
            17.257335,
            59.550132
          ],
          [
            17.25737,
            59.550152
          ],
          [
            17.257389,
            59.550167
          ],
          [
            17.257428,
            59.550206
          ],
          [
            17.257533,
            59.5503
          ],
          [
            17.257624,
            59.550354
          ],
          [
            17.257703,
            59.550399
          ],
          [
            17.257861,
            59.550485
          ],
          [
            17.257941,
            59.55052
          ],
          [
            17.257999,
            59.550542
          ],
          [
            17.258146,
            59.550593
          ],
          [
            17.258207,
            59.550609
          ],
          [
            17.25829,
            59.550628
          ],
          [
            17.258419,
            59.550657
          ],
          [
            17.258565,
            59.550686
          ],
          [
            17.258656,
            59.550696
          ],
          [
            17.258768,
            59.550702
          ],
          [
            17.258969,
            59.550707
          ],
          [
            17.25907,
            59.550713
          ],
          [
            17.259096,
            59.550719
          ],
          [
            17.259112,
            59.550725
          ],
          [
            17.259132,
            59.550737
          ],
          [
            17.259137,
            59.550747
          ],
          [
            17.259141,
            59.550767
          ],
          [
            17.259134,
            59.550809
          ],
          [
            17.259106,
            59.550877
          ],
          [
            17.259096,
            59.550923
          ],
          [
            17.259094,
            59.550944
          ],
          [
            17.259102,
            59.550975
          ],
          [
            17.259135,
            59.551004
          ],
          [
            17.259169,
            59.551024
          ],
          [
            17.259201,
            59.551042
          ],
          [
            17.259243,
            59.551077
          ],
          [
            17.259258,
            59.551107
          ],
          [
            17.259262,
            59.551115
          ],
          [
            17.259267,
            59.551142
          ],
          [
            17.259272,
            59.551163
          ],
          [
            17.259295,
            59.551204
          ],
          [
            17.259342,
            59.55126
          ],
          [
            17.25936,
            59.551293
          ],
          [
            17.259372,
            59.551342
          ],
          [
            17.259387,
            59.551447
          ],
          [
            17.259417,
            59.551512
          ],
          [
            17.259438,
            59.551548
          ],
          [
            17.259504,
            59.551612
          ],
          [
            17.259571,
            59.551683
          ],
          [
            17.259608,
            59.551725
          ],
          [
            17.259661,
            59.551815
          ],
          [
            17.259678,
            59.551887
          ],
          [
            17.259682,
            59.551915
          ],
          [
            17.259678,
            59.551981
          ],
          [
            17.259666,
            59.552017
          ],
          [
            17.25966,
            59.552026
          ],
          [
            17.259656,
            59.552036
          ],
          [
            17.259627,
            59.552087
          ],
          [
            17.259564,
            59.55218
          ],
          [
            17.259511,
            59.552244
          ],
          [
            17.259486,
            59.552276
          ],
          [
            17.259448,
            59.552347
          ],
          [
            17.259417,
            59.552424
          ],
          [
            17.259383,
            59.552504
          ],
          [
            17.259361,
            59.552545
          ],
          [
            17.259329,
            59.5526
          ],
          [
            17.259289,
            59.552655
          ],
          [
            17.259279,
            59.55267
          ],
          [
            17.259277,
            59.552698
          ],
          [
            17.25928,
            59.552716
          ],
          [
            17.259284,
            59.552746
          ],
          [
            17.259317,
            59.552813
          ],
          [
            17.259342,
            59.55285
          ],
          [
            17.259345,
            59.552855
          ],
          [
            17.259361,
            59.552879
          ],
          [
            17.259405,
            59.552948
          ],
          [
            17.259428,
            59.552987
          ],
          [
            17.259454,
            59.553038
          ],
          [
            17.259481,
            59.553129
          ],
          [
            17.259485,
            59.55317
          ],
          [
            17.259495,
            59.553196
          ],
          [
            17.259525,
            59.553218
          ],
          [
            17.259579,
            59.553247
          ],
          [
            17.259634,
            59.553278
          ],
          [
            17.259656,
            59.553297
          ],
          [
            17.259662,
            59.553304
          ],
          [
            17.259661,
            59.55332
          ],
          [
            17.259648,
            59.553335
          ],
          [
            17.259626,
            59.55335
          ],
          [
            17.259612,
            59.553356
          ],
          [
            17.259585,
            59.553364
          ],
          [
            17.259519,
            59.553373
          ],
          [
            17.259489,
            59.553377
          ],
          [
            17.259427,
            59.553384
          ],
          [
            17.259338,
            59.553396
          ],
          [
            17.259297,
            59.553408
          ],
          [
            17.25927,
            59.55348
          ],
          [
            17.259246,
            59.553487
          ],
          [
            17.259199,
            59.55351
          ],
          [
            17.259183,
            59.553527
          ],
          [
            17.259138,
            59.553572
          ],
          [
            17.259091,
            59.55363
          ],
          [
            17.259075,
            59.553648
          ],
          [
            17.259066,
            59.553658
          ],
          [
            17.259009,
            59.553714
          ],
          [
            17.258971,
            59.553737
          ],
          [
            17.258946,
            59.553748
          ],
          [
            17.258854,
            59.553778
          ],
          [
            17.258797,
            59.55379
          ],
          [
            17.258753,
            59.553796
          ],
          [
            17.258663,
            59.553797
          ],
          [
            17.258614,
            59.553793
          ],
          [
            17.258556,
            59.553777
          ],
          [
            17.258451,
            59.55374
          ],
          [
            17.258384,
            59.553723
          ],
          [
            17.258289,
            59.5537
          ],
          [
            17.258114,
            59.553661
          ],
          [
            17.257952,
            59.553629
          ],
          [
            17.257797,
            59.553602
          ],
          [
            17.25775,
            59.553596
          ],
          [
            17.257642,
            59.55358
          ],
          [
            17.257483,
            59.55356
          ],
          [
            17.257313,
            59.553542
          ],
          [
            17.257126,
            59.553522
          ],
          [
            17.257024,
            59.553512
          ],
          [
            17.256963,
            59.553507
          ],
          [
            17.256839,
            59.553505
          ],
          [
            17.256714,
            59.553513
          ],
          [
            17.25659,
            59.553529
          ],
          [
            17.256413,
            59.553567
          ],
          [
            17.25626,
            59.55362
          ],
          [
            17.256175,
            59.55366
          ],
          [
            17.25614,
            59.553682
          ],
          [
            17.256096,
            59.553714
          ],
          [
            17.25604,
            59.55377
          ],
          [
            17.256007,
            59.553789
          ],
          [
            17.255958,
            59.553808
          ],
          [
            17.255918,
            59.553815
          ],
          [
            17.255894,
            59.553816
          ],
          [
            17.255817,
            59.553819
          ],
          [
            17.255627,
            59.55384
          ],
          [
            17.25557,
            59.553852
          ],
          [
            17.255551,
            59.553858
          ],
          [
            17.255518,
            59.553873
          ],
          [
            17.255477,
            59.5539
          ],
          [
            17.255418,
            59.553964
          ],
          [
            17.255381,
            59.553999
          ],
          [
            17.25535,
            59.554022
          ],
          [
            17.255285,
            59.554067
          ],
          [
            17.255257,
            59.554092
          ],
          [
            17.255246,
            59.554103
          ],
          [
            17.255243,
            59.554125
          ],
          [
            17.255256,
            59.554158
          ],
          [
            17.25526,
            59.55418
          ],
          [
            17.255251,
            59.554221
          ],
          [
            17.255215,
            59.554284
          ],
          [
            17.255203,
            59.554316
          ],
          [
            17.25519,
            59.554356
          ],
          [
            17.255142,
            59.554441
          ],
          [
            17.255116,
            59.554483
          ],
          [
            17.255094,
            59.554521
          ],
          [
            17.255049,
            59.554601
          ],
          [
            17.255021,
            59.554648
          ],
          [
            17.254999,
            59.554676
          ],
          [
            17.25495,
            59.554713
          ],
          [
            17.2549,
            59.554741
          ],
          [
            17.25485,
            59.554778
          ],
          [
            17.254827,
            59.554807
          ],
          [
            17.254813,
            59.554824
          ],
          [
            17.254775,
            59.55485
          ],
          [
            17.254706,
            59.554877
          ],
          [
            17.254609,
            59.554898
          ],
          [
            17.254551,
            59.55491
          ],
          [
            17.254542,
            59.554914
          ],
          [
            17.254526,
            59.55492
          ],
          [
            17.254519,
            59.554926
          ],
          [
            17.254485,
            59.554969
          ],
          [
            17.254419,
            59.555052
          ],
          [
            17.254363,
            59.555138
          ],
          [
            17.254321,
            59.555234
          ],
          [
            17.254307,
            59.55529
          ],
          [
            17.254304,
            59.555329
          ],
          [
            17.254274,
            59.555386
          ],
          [
            17.254261,
            59.555426
          ],
          [
            17.254246,
            59.555477
          ],
          [
            17.254224,
            59.555561
          ],
          [
            17.254217,
            59.555606
          ],
          [
            17.254214,
            59.555621
          ],
          [
            17.254214,
            59.555637
          ],
          [
            17.254213,
            59.555654
          ],
          [
            17.254226,
            59.555684
          ],
          [
            17.254247,
            59.555712
          ],
          [
            17.254264,
            59.555742
          ],
          [
            17.254267,
            59.55576
          ],
          [
            17.25426,
            59.55579
          ],
          [
            17.254243,
            59.555828
          ],
          [
            17.254245,
            59.555854
          ],
          [
            17.254256,
            59.555869
          ],
          [
            17.254282,
            59.55589
          ],
          [
            17.254325,
            59.555914
          ],
          [
            17.254349,
            59.555934
          ],
          [
            17.254357,
            59.555947
          ],
          [
            17.254366,
            59.555973
          ],
          [
            17.254374,
            59.556023
          ],
          [
            17.254381,
            59.556044
          ],
          [
            17.254382,
            59.556046
          ],
          [
            17.25439,
            59.556063
          ],
          [
            17.254422,
            59.556093
          ],
          [
            17.25445,
            59.556107
          ],
          [
            17.254474,
            59.556115
          ],
          [
            17.254527,
            59.556125
          ],
          [
            17.25458,
            59.556134
          ],
          [
            17.254628,
            59.556152
          ],
          [
            17.254648,
            59.556169
          ],
          [
            17.254688,
            59.556214
          ],
          [
            17.254724,
            59.556281
          ],
          [
            17.254742,
            59.556307
          ],
          [
            17.254768,
            59.556339
          ],
          [
            17.254852,
            59.556402
          ],
          [
            17.254918,
            59.556438
          ],
          [
            17.254947,
            59.556448
          ],
          [
            17.254953,
            59.55645
          ],
          [
            17.255028,
            59.556475
          ],
          [
            17.255115,
            59.556495
          ],
          [
            17.255211,
            59.556514
          ],
          [
            17.255359,
            59.556544
          ],
          [
            17.25546,
            59.556563
          ],
          [
            17.255542,
            59.556578
          ],
          [
            17.255688,
            59.556609
          ],
          [
            17.255764,
            59.556629
          ],
          [
            17.255805,
            59.556641
          ],
          [
            17.255891,
            59.556675
          ],
          [
            17.255922,
            59.556694
          ],
          [
            17.255855,
            59.556794
          ],
          [
            17.255812,
            59.556829
          ],
          [
            17.255758,
            59.556863
          ],
          [
            17.25565,
            59.556929
          ],
          [
            17.255542,
            59.556991
          ],
          [
            17.255435,
            59.55705
          ],
          [
            17.255383,
            59.557078
          ],
          [
            17.255316,
            59.557112
          ],
          [
            17.255191,
            59.557173
          ],
          [
            17.255133,
            59.5572
          ],
          [
            17.255081,
            59.557225
          ],
          [
            17.25498,
            59.557275
          ],
          [
            17.254839,
            59.557347
          ],
          [
            17.254664,
            59.557442
          ],
          [
            17.254501,
            59.557536
          ],
          [
            17.254421,
            59.557585
          ],
          [
            17.254353,
            59.557623
          ],
          [
            17.254208,
            59.557695
          ],
          [
            17.254115,
            59.557737
          ],
          [
            17.254053,
            59.557764
          ],
          [
            17.25391,
            59.557818
          ],
          [
            17.253753,
            59.557869
          ],
          [
            17.253589,
            59.557914
          ],
          [
            17.253507,
            59.557933
          ],
          [
            17.253452,
            59.557945
          ],
          [
            17.253299,
            59.557974
          ],
          [
            17.253129,
            59.558006
          ],
          [
            17.252979,
            59.558035
          ],
          [
            17.252925,
            59.558047
          ],
          [
            17.252838,
            59.558068
          ],
          [
            17.252619,
            59.558115
          ],
          [
            17.252431,
            59.558141
          ],
          [
            17.2523,
            59.558149
          ],
          [
            17.252167,
            59.558147
          ],
          [
            17.252036,
            59.558133
          ],
          [
            17.251972,
            59.558119
          ],
          [
            17.251954,
            59.558115
          ],
          [
            17.251947,
            59.558114
          ],
          [
            17.251921,
            59.558109
          ],
          [
            17.25186,
            59.558097
          ],
          [
            17.251726,
            59.55807
          ],
          [
            17.251583,
            59.558042
          ],
          [
            17.251441,
            59.558012
          ],
          [
            17.251243,
            59.55797
          ],
          [
            17.251056,
            59.557926
          ],
          [
            17.251021,
            59.557914
          ],
          [
            17.250998,
            59.557903
          ],
          [
            17.250964,
            59.557879
          ],
          [
            17.250929,
            59.55784
          ],
          [
            17.250913,
            59.557816
          ],
          [
            17.250893,
            59.557772
          ],
          [
            17.250871,
            59.557701
          ],
          [
            17.250848,
            59.557673
          ],
          [
            17.250825,
            59.557658
          ],
          [
            17.25081,
            59.557652
          ],
          [
            17.250694,
            59.557617
          ],
          [
            17.250493,
            59.557569
          ],
          [
            17.250388,
            59.557548
          ],
          [
            17.250277,
            59.557524
          ],
          [
            17.250104,
            59.557479
          ],
          [
            17.249997,
            59.557452
          ],
          [
            17.249927,
            59.557436
          ],
          [
            17.249805,
            59.557423
          ],
          [
            17.249746,
            59.557423
          ],
          [
            17.249722,
            59.557424
          ],
          [
            17.249685,
            59.557432
          ],
          [
            17.249643,
            59.557453
          ],
          [
            17.249597,
            59.557492
          ],
          [
            17.249554,
            59.557519
          ],
          [
            17.249515,
            59.557534
          ],
          [
            17.24949,
            59.557539
          ],
          [
            17.249468,
            59.557542
          ],
          [
            17.249419,
            59.557543
          ],
          [
            17.249342,
            59.557534
          ],
          [
            17.249299,
            59.557527
          ],
          [
            17.249253,
            59.55752
          ],
          [
            17.249106,
            59.557503
          ],
          [
            17.24891,
            59.55748
          ],
          [
            17.248688,
            59.557453
          ],
          [
            17.248573,
            59.557437
          ],
          [
            17.248451,
            59.557419
          ],
          [
            17.24824,
            59.557387
          ],
          [
            17.248222,
            59.557385
          ],
          [
            17.247957,
            59.557376
          ],
          [
            17.247776,
            59.557409
          ],
          [
            17.247642,
            59.557446
          ],
          [
            17.247553,
            59.557494
          ]
        ]
      }
    },
    {
      "type": "Feature",
      "properties": {
        "trailId": "upplandsleden",
        "sectionId": "upplandsleden-etapp-27-lillkyrka-veckholm",
        "officialId": "27",
        "sourceUrl": "https://www.naturkartan.se/sv/uppsala-lan/upplandsleden-etapp-27.gpx",
        "sourceFormat": "gpx",
        "segment": 2
      },
      "geometry": {
        "type": "LineString",
        "coordinates": [
          [
            17.322364,
            59.521636
          ],
          [
            17.320529,
            59.521585
          ],
          [
            17.317652,
            59.521189
          ],
          [
            17.309033,
            59.521653
          ],
          [
            17.30586,
            59.522123
          ],
          [
            17.305622,
            59.522277
          ],
          [
            17.305554,
            59.522545
          ],
          [
            17.305437,
            59.522832
          ],
          [
            17.305124,
            59.523059
          ],
          [
            17.304889,
            59.523118
          ],
          [
            17.30391,
            59.523103
          ],
          [
            17.30354,
            59.523063
          ],
          [
            17.302943,
            59.522795
          ],
          [
            17.302441,
            59.522702
          ],
          [
            17.301818,
            59.522706
          ],
          [
            17.301273,
            59.522908
          ],
          [
            17.300915,
            59.523105
          ],
          [
            17.300726,
            59.523442
          ],
          [
            17.300285,
            59.523819
          ],
          [
            17.299696,
            59.524336
          ],
          [
            17.299124,
            59.524482
          ],
          [
            17.298862,
            59.524463
          ],
          [
            17.297354,
            59.524667
          ],
          [
            17.296246,
            59.525226
          ],
          [
            17.295081,
            59.525569
          ],
          [
            17.294497,
            59.52534
          ],
          [
            17.293678,
            59.524969
          ],
          [
            17.29342,
            59.524629
          ],
          [
            17.292968,
            59.524323
          ],
          [
            17.292368,
            59.523972
          ],
          [
            17.291864,
            59.523931
          ],
          [
            17.29154,
            59.523967
          ],
          [
            17.291086,
            59.524111
          ],
          [
            17.288197,
            59.523302
          ],
          [
            17.287481,
            59.522853
          ],
          [
            17.286965,
            59.522796
          ],
          [
            17.286136,
            59.52283
          ],
          [
            17.285598,
            59.523153
          ],
          [
            17.28488,
            59.5236
          ],
          [
            17.28498,
            59.523866
          ],
          [
            17.285312,
            59.524132
          ],
          [
            17.285384,
            59.524432
          ],
          [
            17.285691,
            59.524669
          ],
          [
            17.286045,
            59.524834
          ],
          [
            17.286048,
            59.525031
          ],
          [
            17.285898,
            59.525507
          ],
          [
            17.285704,
            59.52597
          ],
          [
            17.284751,
            59.526215
          ],
          [
            17.284078,
            59.526312
          ],
          [
            17.283429,
            59.526524
          ],
          [
            17.28311,
            59.526674
          ],
          [
            17.282757,
            59.52679
          ],
          [
            17.28382,
            59.527129
          ],
          [
            17.284193,
            59.527345
          ],
          [
            17.284559,
            59.52744
          ],
          [
            17.285386,
            59.527454
          ],
          [
            17.286207,
            59.527478
          ],
          [
            17.286452,
            59.527563
          ],
          [
            17.286581,
            59.52769
          ],
          [
            17.286575,
            59.527881
          ],
          [
            17.286218,
            59.528149
          ],
          [
            17.28527,
            59.530082
          ],
          [
            17.285109,
            59.530173
          ],
          [
            17.284588,
            59.530037
          ],
          [
            17.283737,
            59.529966
          ],
          [
            17.28303,
            59.529969
          ],
          [
            17.282465,
            59.529893
          ],
          [
            17.282078,
            59.529777
          ],
          [
            17.281141,
            59.529829
          ],
          [
            17.280422,
            59.529991
          ],
          [
            17.279926,
            59.530128
          ],
          [
            17.279292,
            59.53031
          ],
          [
            17.278147,
            59.530815
          ],
          [
            17.277975,
            59.531175
          ],
          [
            17.278703,
            59.531553
          ],
          [
            17.279371,
            59.53182
          ],
          [
            17.279407,
            59.53215
          ],
          [
            17.279143,
            59.532666
          ],
          [
            17.278764,
            59.532829
          ],
          [
            17.278666,
            59.53305
          ],
          [
            17.278587,
            59.533581
          ],
          [
            17.278425,
            59.533891
          ],
          [
            17.278319,
            59.533985
          ],
          [
            17.278025,
            59.534227
          ],
          [
            17.277741,
            59.53478
          ],
          [
            17.277564,
            59.535075
          ],
          [
            17.277076,
            59.53554
          ],
          [
            17.276918,
            59.535892
          ],
          [
            17.276419,
            59.5362
          ],
          [
            17.276268,
            59.53646
          ],
          [
            17.276414,
            59.537377
          ],
          [
            17.276305,
            59.537849
          ],
          [
            17.276176,
            59.538222
          ],
          [
            17.276244,
            59.538407
          ],
          [
            17.276714,
            59.53864
          ],
          [
            17.277482,
            59.53882
          ],
          [
            17.277597,
            59.53917
          ],
          [
            17.27647,
            59.539458
          ],
          [
            17.276238,
            59.539472
          ],
          [
            17.275254,
            59.539509
          ],
          [
            17.273628,
            59.540206
          ],
          [
            17.273159,
            59.540336
          ],
          [
            17.272337,
            59.540642
          ],
          [
            17.271904,
            59.541498
          ],
          [
            17.271612,
            59.54173
          ],
          [
            17.271074,
            59.542525
          ],
          [
            17.270184,
            59.542441
          ],
          [
            17.269753,
            59.542719
          ],
          [
            17.269475,
            59.54276
          ],
          [
            17.26895,
            59.542633
          ],
          [
            17.26851,
            59.542406
          ],
          [
            17.268294,
            59.541903
          ],
          [
            17.268158,
            59.541763
          ],
          [
            17.26754,
            59.541553
          ],
          [
            17.266638,
            59.541537
          ],
          [
            17.266447,
            59.541481
          ],
          [
            17.266143,
            59.541242
          ],
          [
            17.265956,
            59.541174
          ],
          [
            17.265424,
            59.541197
          ],
          [
            17.264681,
            59.541424
          ],
          [
            17.264087,
            59.541798
          ],
          [
            17.263479,
            59.542343
          ],
          [
            17.263277,
            59.542689
          ],
          [
            17.26251,
            59.542973
          ],
          [
            17.262044,
            59.543322
          ],
          [
            17.261721,
            59.543771
          ],
          [
            17.262182,
            59.544148
          ],
          [
            17.261838,
            59.544992
          ],
          [
            17.262169,
            59.545632
          ],
          [
            17.261755,
            59.546166
          ],
          [
            17.260597,
            59.546493
          ],
          [
            17.259699,
            59.546915
          ],
          [
            17.25939,
            59.547134
          ],
          [
            17.259071,
            59.547824
          ],
          [
            17.258991,
            59.548002
          ],
          [
            17.258581,
            59.548253
          ],
          [
            17.258169,
            59.548438
          ],
          [
            17.257761,
            59.548696
          ]
        ]
      }
    }
  ]
}
