{
  "type": "FeatureCollection",
  "features": [
    {
      "type": "Feature",
      "properties": {
        "id": "bohusleden-stage-21-flotemarkson-porsas",
        "trailSystemId": "bohusleden",
        "sectionId": "bohusleden-stage-21-flotemarkson-porsas",
        "name": "Flötemarksön - Porsås",
        "part": 1,
        "source": "candidate-normalized-geojson"
      },
      "geometry": {
        "type": "LineString",
        "coordinates": [
          [
            11.666513,
            58.791817
          ],
          [
            11.666247,
            58.79201
          ],
          [
            11.665823,
            58.79223
          ],
          [
            11.665129,
            58.792557
          ],
          [
            11.66464,
            58.792994
          ],
          [
            11.664062,
            58.793342
          ],
          [
            11.663315,
            58.793789
          ],
          [
            11.662923,
            58.794213
          ],
          [
            11.662447,
            58.794665
          ],
          [
            11.662132,
            58.794862
          ],
          [
            11.661837,
            58.795014
          ],
          [
            11.660779,
            58.795609
          ],
          [
            11.660176,
            58.795825
          ],
          [
            11.659733,
            58.795816
          ],
          [
            11.658999,
            58.795728
          ],
          [
            11.658375,
            58.79569
          ],
          [
            11.657988,
            58.795617
          ],
          [
            11.65756,
            58.795472
          ],
          [
            11.657175,
            58.795162
          ],
          [
            11.656926,
            58.795039
          ],
          [
            11.656651,
            58.794858
          ],
          [
            11.6565,
            58.794757
          ],
          [
            11.656403,
            58.794656
          ],
          [
            11.65621,
            58.794605
          ],
          [
            11.656128,
            58.794519
          ],
          [
            11.655963,
            58.794317
          ],
          [
            11.655743,
            58.794122
          ],
          [
            11.655579,
            58.793891
          ],
          [
            11.655413,
            58.793884
          ],
          [
            11.655322,
            58.793888
          ],
          [
            11.654839,
            58.794016
          ],
          [
            11.65469,
            58.794047
          ],
          [
            11.654565,
            58.794133
          ],
          [
            11.654494,
            58.79427
          ],
          [
            11.654716,
            58.794278
          ],
          [
            11.654868,
            58.794343
          ],
          [
            11.655061,
            58.794458
          ],
          [
            11.655212,
            58.794595
          ],
          [
            11.65539,
            58.79479
          ],
          [
            11.655513,
            58.795014
          ],
          [
            11.6558,
            58.795432
          ],
          [
            11.655964,
            58.795648
          ],
          [
            11.656239,
            58.795879
          ],
          [
            11.656651,
            58.796261
          ],
          [
            11.656895,
            58.796816
          ],
          [
            11.656893,
            58.796974
          ],
          [
            11.656794,
            58.797197
          ],
          [
            11.657414,
            58.797594
          ],
          [
            11.658049,
            58.797855
          ],
          [
            11.658478,
            58.797971
          ],
          [
            11.659031,
            58.798095
          ],
          [
            11.659567,
            58.798543
          ],
          [
            11.659705,
            58.798644
          ],
          [
            11.65994,
            58.798695
          ],
          [
            11.660411,
            58.798746
          ],
          [
            11.660577,
            58.798847
          ],
          [
            11.661116,
            58.798993
          ],
          [
            11.661557,
            58.799195
          ],
          [
            11.662524,
            58.799572
          ],
          [
            11.662869,
            58.799746
          ],
          [
            11.66309,
            58.799847
          ],
          [
            11.663339,
            58.799905
          ],
          [
            11.663602,
            58.799942
          ],
          [
            11.663862,
            58.800259
          ],
          [
            11.664289,
            58.800613
          ],
          [
            11.664563,
            58.800894
          ],
          [
            11.665102,
            58.801104
          ],
          [
            11.66553,
            58.801249
          ],
          [
            11.666029,
            58.801344
          ],
          [
            11.666384,
            58.801445
          ],
          [
            11.666737,
            58.801645
          ],
          [
            11.667022,
            58.801754
          ],
          [
            11.667173,
            58.801923
          ],
          [
            11.666457,
            58.802388
          ],
          [
            11.666113,
            58.802504
          ],
          [
            11.665899,
            58.802547
          ],
          [
            11.66572,
            58.802675
          ],
          [
            11.665672,
            58.802761
          ],
          [
            11.665754,
            58.802829
          ],
          [
            11.666063,
            58.802731
          ],
          [
            11.666193,
            58.802744
          ],
          [
            11.666299,
            58.802837
          ],
          [
            11.667087,
            58.803404
          ],
          [
            11.667571,
            58.803524
          ],
          [
            11.667806,
            58.803583
          ],
          [
            11.66795,
            58.803665
          ],
          [
            11.66815,
            58.803776
          ],
          [
            11.668208,
            58.803948
          ],
          [
            11.668301,
            58.804096
          ],
          [
            11.66843,
            58.804213
          ],
          [
            11.668785,
            58.804319
          ],
          [
            11.669164,
            58.804344
          ],
          [
            11.669639,
            58.804192
          ],
          [
            11.670019,
            58.804186
          ],
          [
            11.670491,
            58.804384
          ],
          [
            11.670786,
            58.804428
          ],
          [
            11.671356,
            58.804356
          ],
          [
            11.671805,
            58.804425
          ],
          [
            11.67222,
            58.804475
          ],
          [
            11.673589,
            58.805038
          ],
          [
            11.674142,
            58.805173
          ],
          [
            11.674405,
            58.805187
          ],
          [
            11.674606,
            58.805305
          ],
          [
            11.67506,
            58.805414
          ],
          [
            11.675256,
            58.805399
          ],
          [
            11.675412,
            58.805264
          ],
          [
            11.676015,
            58.805345
          ],
          [
            11.676582,
            58.805605
          ],
          [
            11.677042,
            58.805827
          ],
          [
            11.677644,
            58.806056
          ],
          [
            11.678294,
            58.806187
          ],
          [
            11.678933,
            58.806373
          ],
          [
            11.679276,
            58.806442
          ],
          [
            11.679583,
            58.806584
          ],
          [
            11.680138,
            58.806794
          ],
          [
            11.681107,
            58.806993
          ],
          [
            11.681451,
            58.807031
          ],
          [
            11.68196,
            58.807014
          ],
          [
            11.683106,
            58.807453
          ],
          [
            11.683293,
            58.807675
          ],
          [
            11.683304,
            58.807853
          ],
          [
            11.683278,
            58.808106
          ],
          [
            11.683371,
            58.808315
          ],
          [
            11.683571,
            58.808407
          ],
          [
            11.683761,
            58.80842
          ],
          [
            11.684899,
            58.808386
          ],
          [
            11.686583,
            58.808181
          ],
          [
            11.687991,
            58.808437
          ],
          [
            11.688785,
            58.808451
          ],
          [
            11.689283,
            58.808391
          ],
          [
            11.689699,
            58.808269
          ],
          [
            11.690151,
            58.808104
          ],
          [
            11.690208,
            58.808362
          ],
          [
            11.690325,
            58.808559
          ],
          [
            11.690606,
            58.808861
          ],
          [
            11.691212,
            58.809372
          ],
          [
            11.691753,
            58.809827
          ],
          [
            11.692371,
            58.810347
          ]
        ]
      }
    }
  ]
}
