{
  "type": "FeatureCollection",
  "features": [
    {
      "type": "Feature",
      "properties": {
        "id": "bohusleden-stage-23-nornas-vassbotten",
        "trailSystemId": "bohusleden",
        "sectionId": "bohusleden-stage-23-nornas-vassbotten",
        "name": "Nornäs - Vassbotten",
        "part": 1,
        "source": "candidate-normalized-geojson"
      },
      "geometry": {
        "type": "LineString",
        "coordinates": [
          [
            11.668606,
            58.888056
          ],
          [
            11.668713,
            58.888088
          ],
          [
            11.668796,
            58.888178
          ],
          [
            11.668801,
            58.888271
          ],
          [
            11.668768,
            58.8884
          ],
          [
            11.668714,
            58.888487
          ],
          [
            11.668618,
            58.888629
          ],
          [
            11.668563,
            58.888779
          ],
          [
            11.668532,
            58.888895
          ],
          [
            11.668427,
            58.889017
          ],
          [
            11.667962,
            58.889309
          ],
          [
            11.667687,
            58.889562
          ],
          [
            11.667372,
            58.889898
          ],
          [
            11.667239,
            58.89001
          ],
          [
            11.667078,
            58.890116
          ],
          [
            11.666953,
            58.890336
          ],
          [
            11.666839,
            58.890477
          ],
          [
            11.666697,
            58.890535
          ],
          [
            11.666138,
            58.890768
          ],
          [
            11.66591,
            58.890924
          ],
          [
            11.665673,
            58.891133
          ],
          [
            11.665217,
            58.891478
          ],
          [
            11.664818,
            58.891775
          ],
          [
            11.664495,
            58.892023
          ],
          [
            11.664181,
            58.892261
          ],
          [
            11.664012,
            58.89229
          ],
          [
            11.663889,
            58.892319
          ],
          [
            11.663652,
            58.892474
          ],
          [
            11.663452,
            58.892606
          ],
          [
            11.663309,
            58.892776
          ],
          [
            11.663249,
            58.893093
          ],
          [
            11.663084,
            58.893268
          ],
          [
            11.662863,
            58.893369
          ],
          [
            11.662463,
            58.893525
          ],
          [
            11.662282,
            58.893686
          ],
          [
            11.662045,
            58.893817
          ],
          [
            11.661752,
            58.893855
          ],
          [
            11.661545,
            58.893865
          ],
          [
            11.661271,
            58.893859
          ],
          [
            11.661028,
            58.893903
          ],
          [
            11.660875,
            58.893956
          ],
          [
            11.660637,
            58.89414
          ],
          [
            11.660512,
            58.89434
          ],
          [
            11.660256,
            58.894578
          ],
          [
            11.660037,
            58.894744
          ],
          [
            11.659837,
            58.894914
          ],
          [
            11.659703,
            58.895177
          ],
          [
            11.659598,
            58.895294
          ],
          [
            11.659408,
            58.89544
          ],
          [
            11.659241,
            58.895756
          ],
          [
            11.659076,
            58.896068
          ],
          [
            11.658814,
            58.896424
          ],
          [
            11.65844,
            58.897033
          ],
          [
            11.658228,
            58.897462
          ],
          [
            11.657943,
            58.897681
          ],
          [
            11.657573,
            58.897885
          ],
          [
            11.657268,
            58.898279
          ],
          [
            11.657058,
            58.898484
          ],
          [
            11.656858,
            58.898669
          ],
          [
            11.656706,
            58.898797
          ],
          [
            11.656555,
            58.898839
          ],
          [
            11.656224,
            58.898892
          ],
          [
            11.655258,
            58.899372
          ],
          [
            11.654745,
            58.899722
          ],
          [
            11.654307,
            58.900175
          ],
          [
            11.653897,
            58.900627
          ],
          [
            11.653857,
            58.900783
          ],
          [
            11.653686,
            58.900929
          ],
          [
            11.653515,
            58.901002
          ],
          [
            11.6532,
            58.901094
          ],
          [
            11.65291,
            58.901201
          ],
          [
            11.652729,
            58.901351
          ],
          [
            11.652623,
            58.9016
          ],
          [
            11.652574,
            58.9018
          ],
          [
            11.652449,
            58.902014
          ],
          [
            11.65238,
            58.902273
          ],
          [
            11.652332,
            58.90239
          ],
          [
            11.651757,
            58.902548
          ],
          [
            11.65138,
            58.902644
          ],
          [
            11.651169,
            58.902704
          ],
          [
            11.65097,
            58.902757
          ],
          [
            11.650555,
            58.90279
          ],
          [
            11.650158,
            58.902857
          ],
          [
            11.649884,
            58.902895
          ],
          [
            11.649602,
            58.902807
          ],
          [
            11.649395,
            58.902772
          ],
          [
            11.649084,
            58.902825
          ],
          [
            11.648942,
            58.902771
          ],
          [
            11.648773,
            58.902731
          ],
          [
            11.648661,
            58.902727
          ],
          [
            11.648424,
            58.902799
          ],
          [
            11.648319,
            58.902838
          ],
          [
            11.648008,
            58.902846
          ],
          [
            11.647725,
            58.902831
          ],
          [
            11.647386,
            58.902791
          ],
          [
            11.646906,
            58.902761
          ],
          [
            11.646537,
            58.902784
          ],
          [
            11.645632,
            58.90284
          ],
          [
            11.645462,
            58.9028
          ],
          [
            11.645198,
            58.90278
          ],
          [
            11.644999,
            58.902843
          ],
          [
            11.644839,
            58.902891
          ],
          [
            11.644677,
            58.903018
          ],
          [
            11.644525,
            58.903149
          ],
          [
            11.644439,
            58.903217
          ],
          [
            11.644325,
            58.903359
          ],
          [
            11.644201,
            58.903422
          ],
          [
            11.644012,
            58.903494
          ],
          [
            11.643731,
            58.903557
          ],
          [
            11.643605,
            58.903601
          ],
          [
            11.643332,
            58.903571
          ],
          [
            11.64304,
            58.903584
          ],
          [
            11.642728,
            58.903642
          ],
          [
            11.642501,
            58.903681
          ],
          [
            11.642133,
            58.90367
          ],
          [
            11.641936,
            58.903581
          ],
          [
            11.641985,
            58.903381
          ],
          [
            11.641835,
            58.903337
          ],
          [
            11.641515,
            58.903307
          ],
          [
            11.641373,
            58.903355
          ],
          [
            11.641287,
            58.903428
          ],
          [
            11.641183,
            58.903487
          ],
          [
            11.640852,
            58.90351
          ],
          [
            11.640513,
            58.903475
          ],
          [
            11.640184,
            58.903425
          ],
          [
            11.63976,
            58.903356
          ],
          [
            11.639506,
            58.903253
          ],
          [
            11.639233,
            58.903242
          ],
          [
            11.638979,
            58.903173
          ],
          [
            11.638773,
            58.903055
          ],
          [
            11.638737,
            58.902909
          ],
          [
            11.638749,
            58.902636
          ],
          [
            11.638619,
            58.902459
          ],
          [
            11.638459,
            58.902371
          ],
          [
            11.63829,
            58.902293
          ],
          [
            11.638026,
            58.902277
          ],
          [
            11.637743,
            58.902281
          ],
          [
            11.637452,
            58.902149
          ],
          [
            11.637247,
            58.901968
          ],
          [
            11.637089,
            58.901743
          ],
          [
            11.636753,
            58.90142
          ],
          [
            11.636631,
            58.901327
          ],
          [
            11.636452,
            58.901351
          ],
          [
            11.636262,
            58.901443
          ],
          [
            11.635978,
            58.901588
          ],
          [
            11.635816,
            58.901686
          ],
          [
            11.635692,
            58.901832
          ],
          [
            11.635511,
            58.901968
          ],
          [
            11.635427,
            58.901948
          ],
          [
            11.635257,
            58.901952
          ],
          [
            11.635172,
            58.901991
          ],
          [
            11.63509,
            58.902037
          ],
          [
            11.63501,
            58.902079
          ],
          [
            11.634794,
            58.902073
          ],
          [
            11.634567,
            58.902121
          ],
          [
            11.633846,
            58.90249
          ],
          [
            11.633713,
            58.902617
          ],
          [
            11.633655,
            58.902704
          ],
          [
            11.633503,
            58.902777
          ],
          [
            11.633324,
            58.902772
          ],
          [
            11.633079,
            58.902795
          ],
          [
            11.632607,
            58.902867
          ],
          [
            11.632339,
            58.902955
          ],
          [
            11.631957,
            58.903096
          ],
          [
            11.631565,
            58.90325
          ],
          [
            11.631387,
            58.903356
          ],
          [
            11.631243,
            58.9034
          ],
          [
            11.631268,
            58.903584
          ],
          [
            11.631126,
            58.903712
          ],
          [
            11.631021,
            58.903829
          ],
          [
            11.630954,
            58.903999
          ],
          [
            11.631075,
            58.904122
          ],
          [
            11.631441,
            58.904299
          ],
          [
            11.631249,
            58.904576
          ],
          [
            11.63121,
            58.904674
          ],
          [
            11.631266,
            58.904737
          ],
          [
            11.631388,
            58.904845
          ],
          [
            11.631424,
            58.904957
          ],
          [
            11.631282,
            58.905035
          ],
          [
            11.631149,
            58.905113
          ],
          [
            11.63097,
            58.905132
          ],
          [
            11.630802,
            58.90498
          ],
          [
            11.63068,
            58.904897
          ],
          [
            11.630351,
            58.904759
          ],
          [
            11.630149,
            58.9047
          ],
          [
            11.629856,
            58.904682
          ],
          [
            11.629595,
            58.904683
          ],
          [
            11.629324,
            58.904693
          ],
          [
            11.629133,
            58.904757
          ],
          [
            11.628819,
            58.904908
          ],
          [
            11.628147,
            58.905156
          ],
          [
            11.627932,
            58.905216
          ],
          [
            11.627696,
            58.90523
          ],
          [
            11.627205,
            58.905218
          ],
          [
            11.626867,
            58.905134
          ],
          [
            11.626513,
            58.904979
          ],
          [
            11.62529,
            58.904463
          ],
          [
            11.625181,
            58.904352
          ],
          [
            11.62516,
            58.904243
          ],
          [
            11.625234,
            58.904057
          ],
          [
            11.625358,
            58.903899
          ],
          [
            11.625825,
            58.903483
          ],
          [
            11.625877,
            58.903341
          ],
          [
            11.625806,
            58.903213
          ],
          [
            11.625663,
            58.9031
          ],
          [
            11.625451,
            58.902985
          ],
          [
            11.624915,
            58.902824
          ],
          [
            11.624732,
            58.90283
          ],
          [
            11.624534,
            58.902844
          ],
          [
            11.624223,
            58.902848
          ],
          [
            11.623497,
            58.902758
          ],
          [
            11.623121,
            58.902674
          ],
          [
            11.622735,
            58.902575
          ],
          [
            11.621777,
            58.902255
          ],
          [
            11.621147,
            58.902039
          ],
          [
            11.620076,
            58.90166
          ],
          [
            11.61972,
            58.901517
          ],
          [
            11.619383,
            58.901287
          ],
          [
            11.61896,
            58.901105
          ],
          [
            11.618632,
            58.900884
          ],
          [
            11.618267,
            58.900688
          ],
          [
            11.617562,
            58.900452
          ],
          [
            11.617111,
            58.900299
          ],
          [
            11.616556,
            58.90019
          ],
          [
            11.615934,
            58.900125
          ],
          [
            11.615482,
            58.900119
          ],
          [
            11.614917,
            58.900063
          ],
          [
            11.614436,
            58.900008
          ],
          [
            11.613901,
            58.899846
          ],
          [
            11.613337,
            58.899639
          ],
          [
            11.613187,
            58.899551
          ],
          [
            11.613141,
            58.899428
          ],
          [
            11.613305,
            58.899141
          ],
          [
            11.613495,
            58.899
          ],
          [
            11.613553,
            58.898869
          ],
          [
            11.613513,
            58.89876
          ],
          [
            11.613317,
            58.898655
          ],
          [
            11.612652,
            58.898441
          ],
          [
            11.611215,
            58.897939
          ],
          [
            11.610893,
            58.897875
          ],
          [
            11.610343,
            58.89783
          ],
          [
            11.610193,
            58.897771
          ],
          [
            11.609749,
            58.897424
          ],
          [
            11.609564,
            58.897373
          ],
          [
            11.609223,
            58.897328
          ],
          [
            11.60877,
            58.897366
          ],
          [
            11.60812,
            58.897344
          ],
          [
            11.607629,
            58.897333
          ],
          [
            11.607092,
            58.897336
          ],
          [
            11.606499,
            58.897193
          ],
          [
            11.606086,
            58.897055
          ],
          [
            11.605786,
            58.896898
          ],
          [
            11.605166,
            58.896691
          ],
          [
            11.604895,
            58.896505
          ],
          [
            11.604634,
            58.896192
          ],
          [
            11.604392,
            58.895981
          ],
          [
            11.604213,
            58.895903
          ],
          [
            11.604006,
            58.895882
          ],
          [
            11.603614,
            58.895839
          ],
          [
            11.603523,
            58.895728
          ],
          [
            11.603493,
            58.895403
          ],
          [
            11.603516,
            58.895215
          ],
          [
            11.603536,
            58.895054
          ],
          [
            11.603559,
            58.894866
          ],
          [
            11.603703,
            58.894538
          ],
          [
            11.603626,
            58.894455
          ],
          [
            11.60351,
            58.894406
          ],
          [
            11.603356,
            58.894392
          ],
          [
            11.603207,
            58.894333
          ],
          [
            11.603115,
            58.894231
          ],
          [
            11.602493,
            58.893914
          ],
          [
            11.60229,
            58.893872
          ],
          [
            11.602037,
            58.89381
          ],
          [
            11.601275,
            58.89365
          ],
          [
            11.601115,
            58.893537
          ],
          [
            11.601028,
            58.893399
          ],
          [
            11.60096,
            58.893244
          ],
          [
            11.600928,
            58.893081
          ],
          [
            11.600929,
            58.892641
          ],
          [
            11.600889,
            58.892541
          ],
          [
            11.600792,
            58.892484
          ],
          [
            11.600643,
            58.892425
          ],
          [
            11.60024,
            58.892169
          ],
          [
            11.600054,
            58.892127
          ],
          [
            11.599486,
            58.892082
          ],
          [
            11.598869,
            58.892017
          ],
          [
            11.598357,
            58.891946
          ],
          [
            11.598329,
            58.891892
          ],
          [
            11.598014,
            58.891054
          ],
          [
            11.597816,
            58.890967
          ],
          [
            11.597171,
            58.89056
          ],
          [
            11.596888,
            58.890317
          ],
          [
            11.596596,
            58.889867
          ],
          [
            11.596387,
            58.889725
          ],
          [
            11.595908,
            58.889386
          ],
          [
            11.595439,
            58.889101
          ],
          [
            11.595284,
            58.888943
          ],
          [
            11.595215,
            58.888797
          ],
          [
            11.595182,
            58.888643
          ],
          [
            11.59515,
            58.888336
          ],
          [
            11.595079,
            58.888208
          ],
          [
            11.594912,
            58.888149
          ],
          [
            11.594671,
            58.888132
          ],
          [
            11.594441,
            58.888162
          ],
          [
            11.594223,
            58.888274
          ],
          [
            11.593975,
            58.888463
          ],
          [
            11.593729,
            58.888584
          ],
          [
            11.593643,
            58.888706
          ],
          [
            11.59351,
            58.88875
          ],
          [
            11.593246,
            58.888798
          ],
          [
            11.593142,
            58.888758
          ],
          [
            11.593115,
            58.88868
          ],
          [
            11.593154,
            58.888573
          ],
          [
            11.593108,
            58.888451
          ],
          [
            11.593034,
            58.888377
          ],
          [
            11.592959,
            58.888323
          ],
          [
            11.592846,
            58.888323
          ],
          [
            11.592667,
            58.888332
          ],
          [
            11.592532,
            58.888358
          ],
          [
            11.591552,
            58.888704
          ],
          [
            11.591028,
            58.888942
          ],
          [
            11.590459,
            58.889252
          ],
          [
            11.590242,
            58.889291
          ],
          [
            11.590034,
            58.88931
          ],
          [
            11.589855,
            58.889299
          ],
          [
            11.589498,
            58.88921
          ],
          [
            11.589132,
            58.889092
          ],
          [
            11.588878,
            58.889003
          ],
          [
            11.588634,
            58.888895
          ],
          [
            11.588446,
            58.888851
          ],
          [
            11.588288,
            58.88884
          ],
          [
            11.58818,
            58.888872
          ],
          [
            11.588014,
            58.888948
          ],
          [
            11.587907,
            58.888971
          ],
          [
            11.587718,
            58.889034
          ],
          [
            11.587496,
            58.889033
          ],
          [
            11.587344,
            58.889001
          ],
          [
            11.587195,
            58.888942
          ],
          [
            11.586853,
            58.88876
          ],
          [
            11.58666,
            58.888628
          ],
          [
            11.586519,
            58.888507
          ],
          [
            11.586243,
            58.888345
          ],
          [
            11.58598,
            58.888229
          ],
          [
            11.585374,
            58.888074
          ],
          [
            11.585083,
            58.888037
          ],
          [
            11.584706,
            58.887998
          ],
          [
            11.584519,
            58.887965
          ],
          [
            11.58431,
            58.887823
          ],
          [
            11.583946,
            58.887533
          ],
          [
            11.583647,
            58.887424
          ],
          [
            11.583347,
            58.887324
          ],
          [
            11.582796,
            58.887144
          ],
          [
            11.582285,
            58.886921
          ],
          [
            11.581599,
            58.88671
          ],
          [
            11.581479,
            58.886697
          ],
          [
            11.581273,
            58.886672
          ],
          [
            11.580979,
            58.886663
          ],
          [
            11.58062,
            58.886615
          ],
          [
            11.580371,
            58.886526
          ],
          [
            11.580017,
            58.886298
          ],
          [
            11.580126,
            58.886189
          ],
          [
            11.580392,
            58.8861
          ],
          [
            11.580477,
            58.885995
          ],
          [
            11.580451,
            58.885829
          ],
          [
            11.58031,
            58.885755
          ],
          [
            11.580105,
            58.885709
          ],
          [
            11.579705,
            58.885579
          ],
          [
            11.578845,
            58.885228
          ],
          [
            11.578608,
            58.885175
          ],
          [
            11.578445,
            58.885089
          ],
          [
            11.578251,
            58.884974
          ],
          [
            11.578018,
            58.884886
          ],
          [
            11.577811,
            58.884879
          ],
          [
            11.57714,
            58.88483
          ],
          [
            11.57625,
            58.88472
          ],
          [
            11.575745,
            58.884596
          ],
          [
            11.575513,
            58.884498
          ],
          [
            11.57521,
            58.884281
          ],
          [
            11.575172,
            58.884163
          ],
          [
            11.575088,
            58.883999
          ],
          [
            11.574966,
            58.88386
          ],
          [
            11.574824,
            58.883747
          ],
          [
            11.574623,
            58.883687
          ],
          [
            11.57338,
            58.883425
          ],
          [
            11.573279,
            58.883564
          ],
          [
            11.573245,
            58.883657
          ],
          [
            11.573529,
            58.88396
          ],
          [
            11.573808,
            58.884273
          ],
          [
            11.574087,
            58.884523
          ],
          [
            11.574264,
            58.884719
          ],
          [
            11.574346,
            58.88491
          ],
          [
            11.574249,
            58.885202
          ],
          [
            11.574132,
            58.885451
          ],
          [
            11.57397,
            58.885655
          ],
          [
            11.573957,
            58.885899
          ],
          [
            11.573223,
            58.886604
          ],
          [
            11.572842,
            58.886852
          ],
          [
            11.572745,
            58.886911
          ],
          [
            11.571992,
            58.886845
          ],
          [
            11.5718,
            58.886747
          ],
          [
            11.571524,
            58.886558
          ],
          [
            11.571313,
            58.886453
          ],
          [
            11.571187,
            58.886362
          ],
          [
            11.571104,
            58.886225
          ],
          [
            11.570945,
            58.886137
          ],
          [
            11.570753,
            58.886014
          ],
          [
            11.570585,
            58.885921
          ],
          [
            11.570412,
            58.885776
          ],
          [
            11.570206,
            58.88571
          ],
          [
            11.570017,
            58.885719
          ],
          [
            11.569804,
            58.885755
          ],
          [
            11.569276,
            58.885787
          ],
          [
            11.569096,
            58.885826
          ],
          [
            11.568939,
            58.885974
          ],
          [
            11.568811,
            58.886049
          ],
          [
            11.568686,
            58.886249
          ],
          [
            11.568629,
            58.8863
          ],
          [
            11.568411,
            58.886384
          ],
          [
            11.568193,
            58.886484
          ],
          [
            11.567834,
            58.886531
          ],
          [
            11.567663,
            58.886597
          ],
          [
            11.567454,
            58.886764
          ],
          [
            11.56699,
            58.886941
          ],
          [
            11.566875,
            58.887033
          ],
          [
            11.566686,
            58.887143
          ],
          [
            11.566525,
            58.887182
          ],
          [
            11.566336,
            58.887239
          ],
          [
            11.565594,
            58.887322
          ],
          [
            11.565131,
            58.887415
          ],
          [
            11.564796,
            58.887468
          ],
          [
            11.564503,
            58.887523
          ],
          [
            11.564323,
            58.887574
          ],
          [
            11.564199,
            58.887664
          ],
          [
            11.563826,
            58.88777
          ],
          [
            11.563357,
            58.887914
          ],
          [
            11.563211,
            58.887921
          ],
          [
            11.563037,
            58.88793
          ],
          [
            11.562871,
            58.887966
          ],
          [
            11.56271,
            58.888049
          ],
          [
            11.56252,
            58.888185
          ],
          [
            11.562419,
            58.888234
          ],
          [
            11.562155,
            58.888303
          ],
          [
            11.561935,
            58.888362
          ],
          [
            11.561772,
            58.88841
          ],
          [
            11.561602,
            58.888467
          ],
          [
            11.561083,
            58.888456
          ],
          [
            11.560819,
            58.888501
          ],
          [
            11.560066,
            58.88875
          ],
          [
            11.558746,
            58.889136
          ],
          [
            11.557595,
            58.889588
          ],
          [
            11.55713,
            58.889801
          ],
          [
            11.556616,
            58.890195
          ],
          [
            11.556379,
            58.890333
          ],
          [
            11.556094,
            58.890435
          ],
          [
            11.555891,
            58.890461
          ],
          [
            11.555646,
            58.890465
          ],
          [
            11.555241,
            58.890429
          ],
          [
            11.554191,
            58.890348
          ],
          [
            11.553513,
            58.890333
          ],
          [
            11.552334,
            58.890336
          ],
          [
            11.551557,
            58.890304
          ],
          [
            11.551118,
            58.890276
          ],
          [
            11.550837,
            58.890207
          ],
          [
            11.550546,
            58.890113
          ],
          [
            11.550348,
            58.890063
          ],
          [
            11.550174,
            58.89007
          ],
          [
            11.549928,
            58.890128
          ],
          [
            11.549842,
            58.890198
          ],
          [
            11.549794,
            58.890279
          ],
          [
            11.549788,
            58.890376
          ],
          [
            11.549834,
            58.890813
          ],
          [
            11.549824,
            58.890908
          ],
          [
            11.54967,
            58.8911
          ],
          [
            11.549509,
            58.89118
          ],
          [
            11.548265,
            58.891632
          ],
          [
            11.547248,
            58.892087
          ],
          [
            11.546622,
            58.891644
          ],
          [
            11.546272,
            58.891442
          ],
          [
            11.545935,
            58.891241
          ],
          [
            11.545551,
            58.890988
          ],
          [
            11.54536,
            58.890851
          ],
          [
            11.545114,
            58.890587
          ],
          [
            11.544887,
            58.890237
          ],
          [
            11.544702,
            58.889973
          ],
          [
            11.544376,
            58.889349
          ],
          [
            11.544318,
            58.88911
          ],
          [
            11.54433,
            58.888849
          ],
          [
            11.544373,
            58.888449
          ],
          [
            11.544385,
            58.888303
          ],
          [
            11.544308,
            58.888044
          ],
          [
            11.544192,
            58.887931
          ],
          [
            11.54391,
            58.887806
          ],
          [
            11.543173,
            58.88764
          ],
          [
            11.542298,
            58.887451
          ],
          [
            11.542112,
            58.887297
          ],
          [
            11.542024,
            58.887189
          ],
          [
            11.541646,
            58.886892
          ],
          [
            11.541089,
            58.886559
          ],
          [
            11.540772,
            58.886338
          ],
          [
            11.54052,
            58.886122
          ],
          [
            11.540116,
            58.885699
          ],
          [
            11.540009,
            58.885572
          ],
          [
            11.539954,
            58.885466
          ],
          [
            11.539984,
            58.885352
          ],
          [
            11.540076,
            58.88515
          ],
          [
            11.540297,
            58.884821
          ],
          [
            11.540442,
            58.884541
          ],
          [
            11.540575,
            58.884132
          ],
          [
            11.540821,
            58.883679
          ],
          [
            11.541082,
            58.883189
          ],
          [
            11.541241,
            58.882963
          ],
          [
            11.541308,
            58.882861
          ],
          [
            11.541406,
            58.882583
          ],
          [
            11.541394,
            58.88239
          ],
          [
            11.541345,
            58.882207
          ],
          [
            11.541296,
            58.882011
          ],
          [
            11.541266,
            58.881767
          ],
          [
            11.541388,
            58.881475
          ],
          [
            11.541632,
            58.881178
          ],
          [
            11.54271,
            58.879872
          ],
          [
            11.542936,
            58.879497
          ],
          [
            11.543096,
            58.879175
          ],
          [
            11.543064,
            58.879116
          ],
          [
            11.542885,
            58.879055
          ],
          [
            11.54225,
            58.879023
          ],
          [
            11.541275,
            58.878978
          ],
          [
            11.540649,
            58.878915
          ],
          [
            11.540298,
            58.878714
          ],
          [
            11.540168,
            58.878572
          ],
          [
            11.539506,
            58.877979
          ],
          [
            11.538787,
            58.87714
          ],
          [
            11.538648,
            58.876966
          ],
          [
            11.538546,
            58.876848
          ],
          [
            11.538514,
            58.876812
          ],
          [
            11.537853,
            58.876897
          ],
          [
            11.537442,
            58.876969
          ],
          [
            11.536978,
            58.877096
          ],
          [
            11.536605,
            58.87719
          ],
          [
            11.536378,
            58.877211
          ],
          [
            11.53612,
            58.877214
          ],
          [
            11.535876,
            58.877166
          ],
          [
            11.535598,
            58.877054
          ],
          [
            11.535213,
            58.876842
          ],
          [
            11.534808,
            58.876572
          ],
          [
            11.534552,
            58.876426
          ],
          [
            11.534413,
            58.8764
          ],
          [
            11.534255,
            58.876248
          ],
          [
            11.53396,
            58.875855
          ],
          [
            11.533788,
            58.875427
          ],
          [
            11.533793,
            58.875212
          ]
        ]
      }
    }
  ]
}
