{
  "type": "FeatureCollection",
  "features": [
    {
      "type": "Feature",
      "properties": {
        "id": "bohusleden-stage-26-krokstrand-hogstad",
        "trailSystemId": "bohusleden",
        "sectionId": "bohusleden-stage-26-krokstrand-hogstad",
        "name": "Krokstrand - Högstad",
        "part": 1,
        "source": "candidate-normalized-geojson"
      },
      "geometry": {
        "type": "LineString",
        "coordinates": [
          [
            11.422291,
            59.006333
          ],
          [
            11.422179,
            59.006361
          ],
          [
            11.422047,
            59.006372
          ],
          [
            11.421897,
            59.006372
          ],
          [
            11.421786,
            59.006398
          ],
          [
            11.421666,
            59.006452
          ],
          [
            11.421547,
            59.006536
          ],
          [
            11.421432,
            59.006608
          ],
          [
            11.421348,
            59.006633
          ],
          [
            11.421212,
            59.006635
          ],
          [
            11.42103,
            59.006611
          ],
          [
            11.42088,
            59.006598
          ],
          [
            11.420644,
            59.006594
          ],
          [
            11.420482,
            59.006579
          ],
          [
            11.420406,
            59.006585
          ],
          [
            11.420344,
            59.006606
          ],
          [
            11.420306,
            59.006618
          ],
          [
            11.420012,
            59.006767
          ],
          [
            11.419728,
            59.006899
          ],
          [
            11.419637,
            59.006918
          ],
          [
            11.41952,
            59.006924
          ],
          [
            11.419234,
            59.006867
          ],
          [
            11.418964,
            59.006808
          ],
          [
            11.418862,
            59.006809
          ],
          [
            11.418736,
            59.006821
          ],
          [
            11.418543,
            59.00686
          ],
          [
            11.41844,
            59.006873
          ],
          [
            11.418209,
            59.006867
          ],
          [
            11.418044,
            59.006864
          ],
          [
            11.41793,
            59.006883
          ],
          [
            11.417803,
            59.006923
          ],
          [
            11.417703,
            59.006958
          ],
          [
            11.417589,
            59.006978
          ],
          [
            11.417452,
            59.006968
          ],
          [
            11.41732,
            59.006985
          ],
          [
            11.417219,
            59.006995
          ],
          [
            11.417113,
            59.006979
          ],
          [
            11.417001,
            59.006944
          ],
          [
            11.416839,
            59.00691
          ],
          [
            11.416747,
            59.006896
          ],
          [
            11.416553,
            59.006859
          ],
          [
            11.416482,
            59.006875
          ],
          [
            11.416318,
            59.006943
          ],
          [
            11.416053,
            59.00698
          ],
          [
            11.415878,
            59.006984
          ],
          [
            11.41557,
            59.00694
          ],
          [
            11.415195,
            59.006867
          ],
          [
            11.415042,
            59.006826
          ],
          [
            11.414871,
            59.006795
          ],
          [
            11.41468,
            59.006789
          ],
          [
            11.414472,
            59.006784
          ],
          [
            11.414229,
            59.006777
          ],
          [
            11.413991,
            59.006725
          ],
          [
            11.413705,
            59.006627
          ],
          [
            11.413339,
            59.006464
          ],
          [
            11.413154,
            59.006405
          ],
          [
            11.412881,
            59.006353
          ],
          [
            11.412551,
            59.006344
          ],
          [
            11.412331,
            59.006454
          ],
          [
            11.412169,
            59.006504
          ],
          [
            11.41201,
            59.006526
          ],
          [
            11.411837,
            59.006521
          ],
          [
            11.411764,
            59.006546
          ],
          [
            11.411706,
            59.006608
          ],
          [
            11.41168,
            59.006688
          ],
          [
            11.41162,
            59.006758
          ],
          [
            11.411478,
            59.00679
          ],
          [
            11.411216,
            59.006801
          ],
          [
            11.410952,
            59.00682
          ],
          [
            11.410656,
            59.00683
          ],
          [
            11.410477,
            59.00687
          ],
          [
            11.410329,
            59.006956
          ],
          [
            11.410027,
            59.007181
          ],
          [
            11.409589,
            59.007546
          ],
          [
            11.409452,
            59.007686
          ],
          [
            11.409406,
            59.007792
          ],
          [
            11.409412,
            59.0079
          ],
          [
            11.409408,
            59.008107
          ],
          [
            11.409386,
            59.008322
          ],
          [
            11.409277,
            59.008534
          ],
          [
            11.409114,
            59.008755
          ],
          [
            11.408929,
            59.008857
          ],
          [
            11.40873,
            59.008932
          ],
          [
            11.408569,
            59.008973
          ],
          [
            11.408383,
            59.009093
          ],
          [
            11.408082,
            59.00931
          ],
          [
            11.407734,
            59.009641
          ],
          [
            11.407269,
            59.010087
          ],
          [
            11.407052,
            59.010332
          ],
          [
            11.406807,
            59.010676
          ],
          [
            11.406567,
            59.010974
          ],
          [
            11.406316,
            59.01121
          ],
          [
            11.406021,
            59.011372
          ],
          [
            11.405746,
            59.011509
          ],
          [
            11.405327,
            59.011676
          ],
          [
            11.405076,
            59.01175
          ],
          [
            11.404504,
            59.011896
          ],
          [
            11.403912,
            59.012059
          ],
          [
            11.403463,
            59.012191
          ],
          [
            11.403038,
            59.012259
          ],
          [
            11.402731,
            59.012206
          ],
          [
            11.402373,
            59.012133
          ],
          [
            11.401818,
            59.011938
          ],
          [
            11.401385,
            59.011755
          ],
          [
            11.401173,
            59.011614
          ],
          [
            11.401053,
            59.011431
          ],
          [
            11.401037,
            59.011251
          ],
          [
            11.400993,
            59.011178
          ],
          [
            11.400859,
            59.011129
          ],
          [
            11.400814,
            59.011056
          ],
          [
            11.400805,
            59.010975
          ],
          [
            11.400781,
            59.010876
          ],
          [
            11.400687,
            59.010774
          ],
          [
            11.400534,
            59.010572
          ],
          [
            11.40033,
            59.01036
          ],
          [
            11.400083,
            59.010227
          ],
          [
            11.399812,
            59.010148
          ],
          [
            11.399731,
            59.010092
          ],
          [
            11.399727,
            59.009966
          ],
          [
            11.399723,
            59.00984
          ],
          [
            11.399668,
            59.009704
          ],
          [
            11.399559,
            59.009575
          ],
          [
            11.399447,
            59.009482
          ],
          [
            11.399453,
            59.009428
          ],
          [
            11.399464,
            59.00932
          ],
          [
            11.399439,
            59.00923
          ],
          [
            11.39935,
            59.009084
          ],
          [
            11.399005,
            59.008715
          ],
          [
            11.398749,
            59.008339
          ],
          [
            11.398441,
            59.007953
          ],
          [
            11.398307,
            59.007734
          ],
          [
            11.398267,
            59.007625
          ],
          [
            11.39824,
            59.007543
          ],
          [
            11.398146,
            59.007442
          ],
          [
            11.398035,
            59.007178
          ],
          [
            11.397894,
            59.007022
          ],
          [
            11.397729,
            59.006936
          ],
          [
            11.39751,
            59.006867
          ],
          [
            11.397278,
            59.006762
          ],
          [
            11.397111,
            59.006694
          ],
          [
            11.397036,
            59.006575
          ],
          [
            11.397014,
            59.006458
          ],
          [
            11.39701,
            59.006323
          ],
          [
            11.396972,
            59.006187
          ],
          [
            11.39687,
            59.006005
          ],
          [
            11.39667,
            59.005756
          ],
          [
            11.396371,
            59.005452
          ],
          [
            11.396189,
            59.005357
          ],
          [
            11.396056,
            59.005299
          ],
          [
            11.395867,
            59.005276
          ],
          [
            11.395713,
            59.005253
          ],
          [
            11.395612,
            59.005215
          ],
          [
            11.39548,
            59.005148
          ],
          [
            11.395298,
            59.005062
          ],
          [
            11.395202,
            59.004979
          ],
          [
            11.395192,
            59.004906
          ],
          [
            11.395235,
            59.004827
          ],
          [
            11.395276,
            59.004774
          ],
          [
            11.395265,
            59.004711
          ],
          [
            11.395238,
            59.004638
          ],
          [
            11.39521,
            59.004575
          ],
          [
            11.395233,
            59.004512
          ],
          [
            11.395293,
            59.004442
          ],
          [
            11.395373,
            59.004345
          ],
          [
            11.395435,
            59.004248
          ],
          [
            11.395448,
            59.004123
          ],
          [
            11.395372,
            59.004022
          ],
          [
            11.395228,
            59.003901
          ],
          [
            11.395121,
            59.003763
          ],
          [
            11.395098,
            59.003646
          ],
          [
            11.395188,
            59.003451
          ],
          [
            11.395262,
            59.003246
          ],
          [
            11.395289,
            59.003157
          ],
          [
            11.39528,
            59.003076
          ],
          [
            11.395216,
            59.00302
          ],
          [
            11.395147,
            59.00301
          ],
          [
            11.395043,
            59.003007
          ],
          [
            11.394852,
            59.003001
          ],
          [
            11.394613,
            59.002959
          ],
          [
            11.393985,
            59.002645
          ],
          [
            11.393819,
            59.002568
          ],
          [
            11.393809,
            59.002496
          ],
          [
            11.39373,
            59.002422
          ],
          [
            11.393647,
            59.002383
          ],
          [
            11.393548,
            59.002327
          ],
          [
            11.393524,
            59.002227
          ],
          [
            11.393482,
            59.002127
          ],
          [
            11.393374,
            59.001998
          ],
          [
            11.393277,
            59.001924
          ],
          [
            11.393142,
            59.001884
          ],
          [
            11.39292,
            59.001842
          ],
          [
            11.392599,
            59.001752
          ],
          [
            11.39211,
            59.001604
          ],
          [
            11.391876,
            59.001516
          ],
          [
            11.391703,
            59.001502
          ],
          [
            11.391533,
            59.001462
          ],
          [
            11.391285,
            59.001338
          ],
          [
            11.390943,
            59.001113
          ],
          [
            11.390632,
            59.000763
          ],
          [
            11.390467,
            59.000515
          ],
          [
            11.390206,
            59.000346
          ],
          [
            11.38962,
            59.000123
          ],
          [
            11.388769,
            58.999947
          ],
          [
            11.388237,
            58.999869
          ],
          [
            11.387775,
            58.999802
          ],
          [
            11.387585,
            58.999788
          ],
          [
            11.387446,
            58.999784
          ],
          [
            11.387109,
            58.999985
          ],
          [
            11.385987,
            59.000155
          ],
          [
            11.385486,
            59.000162
          ],
          [
            11.385169,
            59.000022
          ],
          [
            11.385193,
            58.999808
          ],
          [
            11.385004,
            58.999735
          ],
          [
            11.384908,
            58.999687
          ],
          [
            11.384158,
            58.999277
          ],
          [
            11.383767,
            58.998692
          ],
          [
            11.382641,
            58.998813
          ],
          [
            11.380556,
            58.999105
          ],
          [
            11.380363,
            58.999127
          ],
          [
            11.380245,
            58.999087
          ],
          [
            11.380096,
            58.998996
          ],
          [
            11.380138,
            58.998888
          ],
          [
            11.380273,
            58.998657
          ],
          [
            11.38049,
            58.998369
          ],
          [
            11.380797,
            58.998029
          ],
          [
            11.381228,
            58.997608
          ],
          [
            11.381805,
            58.997044
          ],
          [
            11.382439,
            58.996423
          ],
          [
            11.382947,
            58.995932
          ],
          [
            11.383185,
            58.995702
          ],
          [
            11.38423,
            58.994689
          ],
          [
            11.384575,
            58.994355
          ],
          [
            11.385217,
            58.99373
          ],
          [
            11.385482,
            58.993481
          ],
          [
            11.385588,
            58.993363
          ],
          [
            11.385704,
            58.993262
          ],
          [
            11.385878,
            58.993099
          ],
          [
            11.386264,
            58.992822
          ],
          [
            11.386658,
            58.992548
          ],
          [
            11.387003,
            58.992319
          ],
          [
            11.387246,
            58.992137
          ],
          [
            11.387414,
            58.991978
          ],
          [
            11.387706,
            58.991674
          ],
          [
            11.388039,
            58.991312
          ],
          [
            11.387834,
            58.991151
          ],
          [
            11.387726,
            58.991048
          ],
          [
            11.387597,
            58.990972
          ],
          [
            11.387407,
            58.990956
          ],
          [
            11.387063,
            58.990926
          ],
          [
            11.386737,
            58.990887
          ],
          [
            11.386536,
            58.990826
          ],
          [
            11.386435,
            58.990669
          ],
          [
            11.38641,
            58.990471
          ],
          [
            11.386412,
            58.990327
          ],
          [
            11.38634,
            58.990216
          ],
          [
            11.386125,
            58.990128
          ],
          [
            11.38589,
            58.990065
          ],
          [
            11.385747,
            58.989961
          ],
          [
            11.385682,
            58.989797
          ],
          [
            11.385584,
            58.989497
          ],
          [
            11.385544,
            58.989271
          ],
          [
            11.385482,
            58.989089
          ],
          [
            11.385474,
            58.988891
          ],
          [
            11.385421,
            58.988637
          ],
          [
            11.385299,
            58.988255
          ],
          [
            11.385182,
            58.987963
          ],
          [
            11.385063,
            58.98768
          ],
          [
            11.385002,
            58.987489
          ],
          [
            11.384817,
            58.987312
          ],
          [
            11.384464,
            58.987083
          ],
          [
            11.384405,
            58.987009
          ],
          [
            11.384438,
            58.986894
          ],
          [
            11.384496,
            58.986725
          ],
          [
            11.38453,
            58.986474
          ],
          [
            11.384505,
            58.986267
          ],
          [
            11.384402,
            58.986128
          ],
          [
            11.384208,
            58.985887
          ],
          [
            11.384114,
            58.985686
          ],
          [
            11.384081,
            58.985541
          ],
          [
            11.383965,
            58.985366
          ],
          [
            11.383823,
            58.985262
          ],
          [
            11.383596,
            58.985137
          ],
          [
            11.383491,
            58.985008
          ],
          [
            11.383316,
            58.984884
          ],
          [
            11.383149,
            58.984708
          ],
          [
            11.38302,
            58.984496
          ],
          [
            11.383046,
            58.984308
          ],
          [
            11.382982,
            58.984135
          ],
          [
            11.382863,
            58.983987
          ],
          [
            11.382751,
            58.983911
          ],
          [
            11.382517,
            58.983714
          ],
          [
            11.382242,
            58.983425
          ],
          [
            11.381977,
            58.9832
          ],
          [
            11.381759,
            58.983003
          ],
          [
            11.381563,
            58.982781
          ],
          [
            11.381452,
            58.98257
          ],
          [
            11.38133,
            58.98244
          ],
          [
            11.381136,
            58.982334
          ],
          [
            11.380858,
            58.982198
          ],
          [
            11.380554,
            58.981998
          ],
          [
            11.380332,
            58.981837
          ],
          [
            11.380115,
            58.981641
          ],
          [
            11.37989,
            58.981372
          ],
          [
            11.379646,
            58.981111
          ],
          [
            11.379315,
            58.980731
          ],
          [
            11.379037,
            58.980469
          ],
          [
            11.378794,
            58.9802
          ],
          [
            11.378555,
            58.980038
          ],
          [
            11.378393,
            58.979952
          ],
          [
            11.378046,
            58.979813
          ],
          [
            11.377563,
            58.979643
          ],
          [
            11.377318,
            58.979526
          ],
          [
            11.376994,
            58.979344
          ],
          [
            11.3767,
            58.979198
          ],
          [
            11.376577,
            58.979077
          ],
          [
            11.376365,
            58.978845
          ],
          [
            11.376139,
            58.978585
          ],
          [
            11.375965,
            58.978453
          ],
          [
            11.375638,
            58.978297
          ],
          [
            11.375366,
            58.978116
          ],
          [
            11.375147,
            58.977938
          ],
          [
            11.374898,
            58.977713
          ],
          [
            11.374665,
            58.977488
          ],
          [
            11.374632,
            58.977497
          ],
          [
            11.374393,
            58.977587
          ],
          [
            11.374187,
            58.977696
          ],
          [
            11.373988,
            58.977843
          ],
          [
            11.373986,
            58.977844
          ],
          [
            11.37369,
            58.977996
          ],
          [
            11.37329,
            58.978154
          ],
          [
            11.372928,
            58.978203
          ],
          [
            11.372427,
            58.978151
          ],
          [
            11.372174,
            58.978095
          ],
          [
            11.371863,
            58.977932
          ],
          [
            11.371479,
            58.977679
          ],
          [
            11.370956,
            58.977403
          ],
          [
            11.370735,
            58.977335
          ],
          [
            11.3704,
            58.977285
          ],
          [
            11.37013,
            58.977145
          ],
          [
            11.370013,
            58.976952
          ],
          [
            11.369989,
            58.976816
          ],
          [
            11.369986,
            58.976797
          ],
          [
            11.369948,
            58.976562
          ],
          [
            11.369879,
            58.976451
          ],
          [
            11.369787,
            58.976339
          ],
          [
            11.369719,
            58.976267
          ],
          [
            11.369554,
            58.976197
          ],
          [
            11.369486,
            58.976177
          ],
          [
            11.369345,
            58.976136
          ],
          [
            11.369094,
            58.976031
          ],
          [
            11.368719,
            58.975859
          ],
          [
            11.368392,
            58.975716
          ],
          [
            11.368156,
            58.975596
          ],
          [
            11.368065,
            58.975502
          ],
          [
            11.367947,
            58.975348
          ],
          [
            11.367856,
            58.975158
          ],
          [
            11.36774,
            58.974928
          ],
          [
            11.367707,
            58.974644
          ],
          [
            11.367718,
            58.974317
          ],
          [
            11.367679,
            58.973899
          ],
          [
            11.36778,
            58.973614
          ],
          [
            11.367886,
            58.973419
          ],
          [
            11.367961,
            58.973316
          ],
          [
            11.36806,
            58.97319
          ],
          [
            11.36819,
            58.973072
          ],
          [
            11.368342,
            58.972943
          ],
          [
            11.368485,
            58.972849
          ],
          [
            11.368551,
            58.972777
          ],
          [
            11.368585,
            58.972683
          ],
          [
            11.368594,
            58.972502
          ],
          [
            11.368587,
            58.972285
          ],
          [
            11.368656,
            58.972088
          ],
          [
            11.368673,
            58.971945
          ],
          [
            11.368568,
            58.971798
          ],
          [
            11.368362,
            58.971611
          ],
          [
            11.368199,
            58.971505
          ],
          [
            11.368063,
            58.971429
          ],
          [
            11.367897,
            58.971354
          ],
          [
            11.367678,
            58.97129
          ],
          [
            11.367339,
            58.971221
          ],
          [
            11.36692,
            58.971142
          ],
          [
            11.366511,
            58.971091
          ],
          [
            11.366092,
            58.971021
          ],
          [
            11.365644,
            58.970929
          ],
          [
            11.365237,
            58.970847
          ],
          [
            11.3649,
            58.970848
          ],
          [
            11.364597,
            58.970884
          ],
          [
            11.36437,
            58.970899
          ],
          [
            11.364141,
            58.970824
          ],
          [
            11.363904,
            58.970773
          ],
          [
            11.363734,
            58.970766
          ],
          [
            11.363553,
            58.970785
          ],
          [
            11.363415,
            58.970826
          ],
          [
            11.363272,
            58.97086
          ],
          [
            11.363103,
            58.970865
          ],
          [
            11.362944,
            58.970871
          ],
          [
            11.362755,
            58.970908
          ],
          [
            11.362585,
            58.970942
          ],
          [
            11.362401,
            58.970965
          ],
          [
            11.362212,
            58.97095
          ],
          [
            11.362011,
            58.97094
          ],
          [
            11.361673,
            58.97098
          ],
          [
            11.361178,
            58.971012
          ],
          [
            11.360791,
            58.97099
          ],
          [
            11.36035,
            58.971022
          ],
          [
            11.36005,
            58.971066
          ],
          [
            11.359295,
            58.971039
          ],
          [
            11.358714,
            58.971004
          ],
          [
            11.358308,
            58.971009
          ],
          [
            11.358063,
            58.971007
          ],
          [
            11.358352,
            58.97056
          ],
          [
            11.358642,
            58.970197
          ],
          [
            11.35872,
            58.970096
          ],
          [
            11.358783,
            58.970039
          ],
          [
            11.358902,
            58.969979
          ],
          [
            11.35913,
            58.969907
          ],
          [
            11.359408,
            58.969854
          ],
          [
            11.359731,
            58.969809
          ],
          [
            11.359957,
            58.969797
          ],
          [
            11.360124,
            58.969804
          ],
          [
            11.360247,
            58.969807
          ],
          [
            11.360322,
            58.969747
          ],
          [
            11.360284,
            58.96963
          ],
          [
            11.360192,
            58.96945
          ],
          [
            11.360118,
            58.969258
          ],
          [
            11.359969,
            58.969048
          ],
          [
            11.359865,
            58.968915
          ],
          [
            11.359808,
            58.968757
          ],
          [
            11.359788,
            58.96854
          ],
          [
            11.359768,
            58.968355
          ],
          [
            11.359758,
            58.968229
          ],
          [
            11.359711,
            58.968085
          ],
          [
            11.359654,
            58.967891
          ],
          [
            11.359628,
            58.967658
          ],
          [
            11.359633,
            58.967486
          ],
          [
            11.359681,
            58.967329
          ],
          [
            11.359789,
            58.967247
          ],
          [
            11.359908,
            58.967181
          ],
          [
            11.359977,
            58.967143
          ],
          [
            11.360121,
            58.96706
          ],
          [
            11.360254,
            58.966908
          ],
          [
            11.360315,
            58.966789
          ],
          [
            11.360348,
            58.966671
          ],
          [
            11.360308,
            58.966529
          ],
          [
            11.360195,
            58.966399
          ],
          [
            11.360077,
            58.966269
          ],
          [
            11.360016,
            58.966137
          ],
          [
            11.359905,
            58.965972
          ],
          [
            11.359787,
            58.965858
          ],
          [
            11.359594,
            58.965745
          ],
          [
            11.359364,
            58.965647
          ],
          [
            11.359089,
            58.965496
          ],
          [
            11.358718,
            58.965288
          ],
          [
            11.358332,
            58.965084
          ],
          [
            11.358093,
            58.964933
          ],
          [
            11.357912,
            58.96485
          ],
          [
            11.357599,
            58.964778
          ],
          [
            11.357295,
            58.964727
          ],
          [
            11.356971,
            58.96471
          ],
          [
            11.356676,
            58.96472
          ],
          [
            11.356384,
            58.964757
          ],
          [
            11.356188,
            58.96483
          ],
          [
            11.356006,
            58.964965
          ],
          [
            11.355802,
            58.965151
          ],
          [
            11.35554,
            58.965319
          ],
          [
            11.355268,
            58.965431
          ],
          [
            11.35494,
            58.965508
          ],
          [
            11.354673,
            58.965537
          ],
          [
            11.354415,
            58.965526
          ],
          [
            11.354267,
            58.965541
          ],
          [
            11.354086,
            58.965574
          ],
          [
            11.353887,
            58.965569
          ],
          [
            11.353774,
            58.965518
          ],
          [
            11.353617,
            58.965446
          ],
          [
            11.353498,
            58.965332
          ],
          [
            11.353401,
            58.965232
          ],
          [
            11.353078,
            58.965145
          ],
          [
            11.352947,
            58.965093
          ],
          [
            11.352841,
            58.965043
          ],
          [
            11.352872,
            58.964956
          ],
          [
            11.352855,
            58.964903
          ],
          [
            11.352768,
            58.964855
          ],
          [
            11.352571,
            58.964817
          ],
          [
            11.352129,
            58.964693
          ],
          [
            11.351629,
            58.964525
          ],
          [
            11.351126,
            58.964377
          ],
          [
            11.350813,
            58.964307
          ],
          [
            11.350355,
            58.964295
          ],
          [
            11.350056,
            58.964361
          ],
          [
            11.349852,
            58.964489
          ],
          [
            11.349712,
            58.964569
          ],
          [
            11.349467,
            58.964684
          ],
          [
            11.349058,
            58.96478
          ],
          [
            11.348603,
            58.964937
          ],
          [
            11.348416,
            58.965037
          ],
          [
            11.348333,
            58.965029
          ],
          [
            11.348098,
            58.964991
          ],
          [
            11.3478,
            58.964956
          ],
          [
            11.347463,
            58.964907
          ],
          [
            11.347022,
            58.964847
          ],
          [
            11.346709,
            58.964789
          ],
          [
            11.346524,
            58.964739
          ],
          [
            11.346345,
            58.964695
          ],
          [
            11.345964,
            58.964624
          ],
          [
            11.345316,
            58.964487
          ],
          [
            11.344386,
            58.964273
          ],
          [
            11.343783,
            58.964128
          ],
          [
            11.343381,
            58.964014
          ],
          [
            11.342946,
            58.963883
          ],
          [
            11.342536,
            58.963748
          ],
          [
            11.341742,
            58.963478
          ],
          [
            11.341091,
            58.96327
          ],
          [
            11.34055,
            58.963107
          ],
          [
            11.340058,
            58.962965
          ],
          [
            11.339508,
            58.962848
          ],
          [
            11.339052,
            58.962762
          ],
          [
            11.338718,
            58.962727
          ],
          [
            11.338215,
            58.962672
          ],
          [
            11.337615,
            58.962623
          ],
          [
            11.336936,
            58.962585
          ],
          [
            11.336538,
            58.96258
          ],
          [
            11.336122,
            58.962614
          ],
          [
            11.335758,
            58.962669
          ],
          [
            11.335201,
            58.962757
          ],
          [
            11.334485,
            58.962872
          ],
          [
            11.334083,
            58.962943
          ],
          [
            11.333839,
            58.962956
          ],
          [
            11.333649,
            58.962905
          ],
          [
            11.333376,
            58.962767
          ],
          [
            11.332913,
            58.962543
          ],
          [
            11.3325,
            58.96234
          ],
          [
            11.33219,
            58.962191
          ],
          [
            11.331653,
            58.961949
          ],
          [
            11.331295,
            58.961799
          ],
          [
            11.330806,
            58.961612
          ],
          [
            11.330459,
            58.961487
          ],
          [
            11.329927,
            58.961326
          ],
          [
            11.32935,
            58.961134
          ],
          [
            11.32892,
            58.960964
          ],
          [
            11.32859,
            58.96082
          ],
          [
            11.328254,
            58.96067
          ],
          [
            11.327955,
            58.960505
          ],
          [
            11.327554,
            58.960269
          ],
          [
            11.327099,
            58.960002
          ],
          [
            11.326753,
            58.959786
          ],
          [
            11.32631,
            58.959524
          ],
          [
            11.32616,
            58.959469
          ],
          [
            11.326019,
            58.959431
          ],
          [
            11.325711,
            58.959407
          ],
          [
            11.325453,
            58.959422
          ],
          [
            11.32535,
            58.95944
          ],
          [
            11.325246,
            58.959458
          ],
          [
            11.324898,
            58.95957
          ],
          [
            11.322846,
            58.960239
          ],
          [
            11.321988,
            58.960501
          ],
          [
            11.321666,
            58.960561
          ],
          [
            11.321142,
            58.960591
          ],
          [
            11.32076,
            58.960577
          ],
          [
            11.32037,
            58.960543
          ],
          [
            11.320114,
            58.960504
          ],
          [
            11.319572,
            58.960415
          ],
          [
            11.318884,
            58.960298
          ],
          [
            11.318373,
            58.960217
          ],
          [
            11.318,
            58.96018
          ],
          [
            11.317597,
            58.960168
          ],
          [
            11.317065,
            58.960206
          ],
          [
            11.316842,
            58.960238
          ],
          [
            11.316421,
            58.9603
          ],
          [
            11.316022,
            58.96038
          ],
          [
            11.315711,
            58.960456
          ],
          [
            11.315543,
            58.960536
          ],
          [
            11.315374,
            58.960482
          ],
          [
            11.315092,
            58.960393
          ],
          [
            11.314683,
            58.960228
          ],
          [
            11.314295,
            58.960029
          ],
          [
            11.313865,
            58.959818
          ],
          [
            11.313494,
            58.959646
          ],
          [
            11.313245,
            58.959494
          ],
          [
            11.31305,
            58.959321
          ],
          [
            11.312883,
            58.959141
          ],
          [
            11.312724,
            58.959012
          ],
          [
            11.312373,
            58.958778
          ],
          [
            11.31195,
            58.958458
          ],
          [
            11.311437,
            58.958032
          ],
          [
            11.31091,
            58.957588
          ],
          [
            11.310639,
            58.957346
          ],
          [
            11.31045,
            58.957145
          ],
          [
            11.310289,
            58.956972
          ],
          [
            11.310193,
            58.956911
          ],
          [
            11.310016,
            58.956798
          ],
          [
            11.309656,
            58.956605
          ],
          [
            11.309211,
            58.956389
          ],
          [
            11.308861,
            58.956261
          ],
          [
            11.308587,
            58.956147
          ],
          [
            11.308303,
            58.956012
          ],
          [
            11.308064,
            58.955875
          ],
          [
            11.307884,
            58.955727
          ],
          [
            11.307726,
            58.955486
          ],
          [
            11.307681,
            58.955312
          ],
          [
            11.307675,
            58.95512
          ],
          [
            11.307656,
            58.95492
          ],
          [
            11.307578,
            58.954754
          ],
          [
            11.307409,
            58.954557
          ],
          [
            11.307236,
            58.954414
          ],
          [
            11.307006,
            58.954255
          ],
          [
            11.306751,
            58.954064
          ],
          [
            11.306538,
            58.953927
          ],
          [
            11.306302,
            58.953814
          ],
          [
            11.305975,
            58.953707
          ],
          [
            11.305531,
            58.953568
          ],
          [
            11.305269,
            58.953497
          ],
          [
            11.305116,
            58.953475
          ],
          [
            11.304891,
            58.953448
          ],
          [
            11.304547,
            58.953458
          ],
          [
            11.304216,
            58.953503
          ],
          [
            11.303888,
            58.953521
          ],
          [
            11.303821,
            58.953506
          ],
          [
            11.303689,
            58.953467
          ],
          [
            11.30342,
            58.95336
          ],
          [
            11.303216,
            58.953286
          ],
          [
            11.303039,
            58.953217
          ],
          [
            11.302946,
            58.953133
          ],
          [
            11.30291,
            58.953033
          ],
          [
            11.302904,
            58.952892
          ],
          [
            11.3029,
            58.952691
          ],
          [
            11.302859,
            58.952544
          ],
          [
            11.302796,
            58.952423
          ],
          [
            11.302721,
            58.952301
          ],
          [
            11.302473,
            58.951922
          ],
          [
            11.302371,
            58.951745
          ]
        ]
      }
    }
  ]
}
