{
  "type": "FeatureCollection",
  "features": [
    {
      "type": "Feature",
      "properties": {
        "id": "bohusleden-stage-12-vassbovik-glimmingen",
        "trailSystemId": "bohusleden",
        "sectionId": "bohusleden-stage-12-vassbovik-glimmingen",
        "name": "Vassbovik - Glimmingen",
        "part": 1,
        "source": "candidate-normalized-geojson"
      },
      "geometry": {
        "type": "LineString",
        "coordinates": [
          [
            12.00697,
            58.272828
          ],
          [
            12.007192,
            58.272868
          ],
          [
            12.007373,
            58.272907
          ],
          [
            12.007998,
            58.273049
          ],
          [
            12.008552,
            58.273174
          ],
          [
            12.008903,
            58.273256
          ],
          [
            12.009019,
            58.273281
          ],
          [
            12.009122,
            58.273292
          ],
          [
            12.009205,
            58.273284
          ],
          [
            12.009282,
            58.27327
          ],
          [
            12.009359,
            58.273221
          ],
          [
            12.009564,
            58.273018
          ],
          [
            12.009671,
            58.272912
          ],
          [
            12.009746,
            58.272815
          ],
          [
            12.009782,
            58.272746
          ],
          [
            12.009794,
            58.272681
          ],
          [
            12.009798,
            58.272605
          ],
          [
            12.009798,
            58.272559
          ],
          [
            12.009801,
            58.272363
          ],
          [
            12.009803,
            58.272184
          ],
          [
            12.009798,
            58.272028
          ],
          [
            12.009808,
            58.271946
          ],
          [
            12.009835,
            58.271875
          ],
          [
            12.009876,
            58.271816
          ],
          [
            12.00994,
            58.271754
          ],
          [
            12.010044,
            58.271704
          ],
          [
            12.010239,
            58.271635
          ],
          [
            12.010358,
            58.271601
          ],
          [
            12.010481,
            58.271579
          ],
          [
            12.010627,
            58.271558
          ],
          [
            12.010824,
            58.271537
          ],
          [
            12.010986,
            58.27151
          ],
          [
            12.011188,
            58.271475
          ],
          [
            12.011286,
            58.271457
          ],
          [
            12.011393,
            58.271426
          ],
          [
            12.011489,
            58.271398
          ],
          [
            12.01173,
            58.271313
          ],
          [
            12.011903,
            58.271255
          ],
          [
            12.012038,
            58.271216
          ],
          [
            12.012166,
            58.271182
          ],
          [
            12.012282,
            58.271155
          ],
          [
            12.012368,
            58.271137
          ],
          [
            12.012403,
            58.271129
          ],
          [
            12.012566,
            58.271098
          ],
          [
            12.012709,
            58.27108
          ],
          [
            12.012832,
            58.271074
          ],
          [
            12.01297,
            58.271076
          ],
          [
            12.013108,
            58.271087
          ],
          [
            12.013264,
            58.271107
          ],
          [
            12.013544,
            58.271154
          ],
          [
            12.013694,
            58.271171
          ],
          [
            12.013785,
            58.271177
          ],
          [
            12.013912,
            58.271175
          ],
          [
            12.014081,
            58.271165
          ],
          [
            12.014252,
            58.271141
          ],
          [
            12.01444,
            58.271106
          ],
          [
            12.014604,
            58.271063
          ],
          [
            12.014802,
            58.271015
          ],
          [
            12.015231,
            58.270881
          ],
          [
            12.015458,
            58.270809
          ],
          [
            12.015598,
            58.270764
          ],
          [
            12.015916,
            58.270663
          ],
          [
            12.016196,
            58.270574
          ],
          [
            12.016509,
            58.270468
          ],
          [
            12.016714,
            58.27041
          ],
          [
            12.016992,
            58.27036
          ],
          [
            12.017136,
            58.270353
          ],
          [
            12.017266,
            58.270361
          ],
          [
            12.017394,
            58.270376
          ],
          [
            12.017525,
            58.270399
          ],
          [
            12.017679,
            58.270432
          ],
          [
            12.01784,
            58.270467
          ],
          [
            12.018421,
            58.270594
          ],
          [
            12.018757,
            58.27066
          ],
          [
            12.018923,
            58.270688
          ],
          [
            12.019123,
            58.270714
          ],
          [
            12.019282,
            58.270732
          ],
          [
            12.019496,
            58.270752
          ],
          [
            12.019689,
            58.270761
          ],
          [
            12.019929,
            58.27077
          ],
          [
            12.020125,
            58.270769
          ],
          [
            12.020373,
            58.270759
          ],
          [
            12.020401,
            58.270757
          ],
          [
            12.020729,
            58.270744
          ],
          [
            12.020914,
            58.270732
          ],
          [
            12.021169,
            58.270701
          ],
          [
            12.021381,
            58.270665
          ],
          [
            12.021932,
            58.270557
          ],
          [
            12.022063,
            58.270524
          ],
          [
            12.022208,
            58.27048
          ],
          [
            12.022436,
            58.270394
          ],
          [
            12.022623,
            58.270336
          ],
          [
            12.022746,
            58.270319
          ],
          [
            12.022939,
            58.270306
          ],
          [
            12.023239,
            58.270298
          ],
          [
            12.023627,
            58.270294
          ],
          [
            12.024378,
            58.270285
          ],
          [
            12.024557,
            58.270273
          ],
          [
            12.024706,
            58.270259
          ],
          [
            12.024952,
            58.27025
          ],
          [
            12.025111,
            58.270246
          ],
          [
            12.025324,
            58.270262
          ],
          [
            12.02556,
            58.27027
          ],
          [
            12.025817,
            58.270283
          ],
          [
            12.026048,
            58.27029
          ],
          [
            12.026233,
            58.270306
          ],
          [
            12.026358,
            58.270324
          ],
          [
            12.026477,
            58.270347
          ],
          [
            12.026603,
            58.270382
          ],
          [
            12.026753,
            58.270432
          ],
          [
            12.026916,
            58.270471
          ],
          [
            12.027066,
            58.2705
          ],
          [
            12.027237,
            58.270523
          ],
          [
            12.027595,
            58.270553
          ],
          [
            12.027742,
            58.270569
          ],
          [
            12.027879,
            58.270587
          ],
          [
            12.027968,
            58.270609
          ],
          [
            12.02812,
            58.270659
          ],
          [
            12.028327,
            58.270749
          ],
          [
            12.02843,
            58.270788
          ],
          [
            12.028536,
            58.270818
          ],
          [
            12.02869,
            58.270858
          ],
          [
            12.02889,
            58.2709
          ],
          [
            12.029361,
            58.271034
          ],
          [
            12.029765,
            58.271175
          ],
          [
            12.029925,
            58.271227
          ],
          [
            12.030794,
            58.271479
          ],
          [
            12.031496,
            58.271676
          ],
          [
            12.032073,
            58.271849
          ],
          [
            12.032514,
            58.271996
          ],
          [
            12.03287,
            58.272108
          ],
          [
            12.033061,
            58.272167
          ],
          [
            12.033169,
            58.27219
          ],
          [
            12.03329,
            58.272212
          ],
          [
            12.033575,
            58.272244
          ],
          [
            12.033991,
            58.272288
          ],
          [
            12.034509,
            58.272346
          ],
          [
            12.034833,
            58.272382
          ],
          [
            12.035081,
            58.272406
          ],
          [
            12.03521,
            58.272411
          ],
          [
            12.035394,
            58.272412
          ],
          [
            12.035536,
            58.272409
          ],
          [
            12.035611,
            58.272408
          ],
          [
            12.035733,
            58.272406
          ],
          [
            12.035859,
            58.272404
          ],
          [
            12.035924,
            58.272403
          ],
          [
            12.036029,
            58.272405
          ],
          [
            12.036088,
            58.272406
          ],
          [
            12.036219,
            58.272411
          ],
          [
            12.036379,
            58.272433
          ],
          [
            12.036507,
            58.272463
          ],
          [
            12.036655,
            58.272506
          ],
          [
            12.037069,
            58.272651
          ],
          [
            12.037199,
            58.272691
          ],
          [
            12.037379,
            58.272719
          ],
          [
            12.037577,
            58.272746
          ],
          [
            12.037707,
            58.272776
          ],
          [
            12.037859,
            58.272826
          ],
          [
            12.037957,
            58.272858
          ],
          [
            12.038163,
            58.272924
          ],
          [
            12.038528,
            58.273044
          ],
          [
            12.038951,
            58.273174
          ],
          [
            12.039292,
            58.273277
          ],
          [
            12.039373,
            58.273302
          ],
          [
            12.039475,
            58.273334
          ],
          [
            12.03957,
            58.273363
          ],
          [
            12.039696,
            58.27341
          ],
          [
            12.039897,
            58.273533
          ],
          [
            12.040001,
            58.273615
          ],
          [
            12.040106,
            58.273695
          ],
          [
            12.040219,
            58.273761
          ],
          [
            12.040332,
            58.273817
          ],
          [
            12.040494,
            58.273881
          ],
          [
            12.040626,
            58.273932
          ],
          [
            12.040854,
            58.274014
          ],
          [
            12.041011,
            58.274081
          ],
          [
            12.041162,
            58.274159
          ],
          [
            12.041283,
            58.274239
          ],
          [
            12.0415,
            58.274376
          ],
          [
            12.041597,
            58.274461
          ],
          [
            12.041691,
            58.274583
          ],
          [
            12.041718,
            58.274727
          ],
          [
            12.041704,
            58.274843
          ],
          [
            12.041704,
            58.274976
          ],
          [
            12.041759,
            58.275143
          ],
          [
            12.041806,
            58.275249
          ],
          [
            12.041897,
            58.275408
          ],
          [
            12.04198,
            58.275524
          ],
          [
            12.042101,
            58.275631
          ],
          [
            12.042293,
            58.275822
          ],
          [
            12.042489,
            58.276014
          ],
          [
            12.042596,
            58.27612
          ],
          [
            12.042693,
            58.276228
          ],
          [
            12.042746,
            58.276308
          ],
          [
            12.042787,
            58.276413
          ],
          [
            12.042825,
            58.276556
          ],
          [
            12.042835,
            58.276695
          ],
          [
            12.042791,
            58.277016
          ],
          [
            12.042764,
            58.277126
          ],
          [
            12.04273,
            58.277201
          ],
          [
            12.042669,
            58.277281
          ],
          [
            12.04252,
            58.27744
          ],
          [
            12.042442,
            58.277531
          ],
          [
            12.042387,
            58.277608
          ],
          [
            12.04236,
            58.277668
          ],
          [
            12.042343,
            58.277741
          ],
          [
            12.042345,
            58.277807
          ],
          [
            12.042358,
            58.277938
          ],
          [
            12.042349,
            58.278046
          ],
          [
            12.042323,
            58.278251
          ],
          [
            12.042276,
            58.278598
          ],
          [
            12.042235,
            58.27885
          ],
          [
            12.042222,
            58.278951
          ],
          [
            12.042259,
            58.279016
          ],
          [
            12.04235,
            58.279094
          ],
          [
            12.042412,
            58.27915
          ],
          [
            12.042489,
            58.279205
          ],
          [
            12.042583,
            58.279279
          ],
          [
            12.042643,
            58.279341
          ],
          [
            12.042693,
            58.27943
          ],
          [
            12.042771,
            58.279557
          ],
          [
            12.042836,
            58.27964
          ],
          [
            12.042899,
            58.279695
          ],
          [
            12.042887,
            58.279828
          ],
          [
            12.042916,
            58.279951
          ],
          [
            12.042958,
            58.280051
          ],
          [
            12.043024,
            58.280264
          ],
          [
            12.043051,
            58.280579
          ],
          [
            12.043052,
            58.280716
          ],
          [
            12.043038,
            58.280808
          ],
          [
            12.043039,
            58.280902
          ],
          [
            12.043062,
            58.280975
          ],
          [
            12.043111,
            58.281115
          ],
          [
            12.04318,
            58.281286
          ],
          [
            12.043257,
            58.281604
          ],
          [
            12.04332,
            58.281763
          ],
          [
            12.043336,
            58.281847
          ],
          [
            12.043322,
            58.281952
          ],
          [
            12.043278,
            58.282054
          ],
          [
            12.043139,
            58.282317
          ],
          [
            12.043014,
            58.282606
          ],
          [
            12.042978,
            58.282686
          ],
          [
            12.042942,
            58.282741
          ],
          [
            12.043233,
            58.282805
          ],
          [
            12.04382,
            58.282903
          ],
          [
            12.04399,
            58.282908
          ],
          [
            12.04411,
            58.282903
          ],
          [
            12.044518,
            58.282753
          ],
          [
            12.044875,
            58.282601
          ],
          [
            12.045499,
            58.282502
          ],
          [
            12.046033,
            58.282454
          ],
          [
            12.046181,
            58.282504
          ],
          [
            12.046331,
            58.282535
          ],
          [
            12.046941,
            58.282417
          ],
          [
            12.047336,
            58.282384
          ],
          [
            12.047841,
            58.282452
          ],
          [
            12.048166,
            58.282444
          ],
          [
            12.048509,
            58.282426
          ],
          [
            12.048874,
            58.282365
          ],
          [
            12.049051,
            58.282469
          ],
          [
            12.049173,
            58.282607
          ],
          [
            12.048806,
            58.282857
          ],
          [
            12.048284,
            58.283121
          ],
          [
            12.047927,
            58.283273
          ],
          [
            12.047867,
            58.283361
          ],
          [
            12.047989,
            58.283993
          ],
          [
            12.048059,
            58.284139
          ],
          [
            12.048214,
            58.284287
          ],
          [
            12.04824,
            58.284369
          ],
          [
            12.048229,
            58.284501
          ],
          [
            12.048139,
            58.284596
          ],
          [
            12.048068,
            58.284691
          ],
          [
            12.048018,
            58.284776
          ],
          [
            12.048018,
            58.284871
          ],
          [
            12.048079,
            58.28494
          ],
          [
            12.048121,
            58.285022
          ],
          [
            12.048149,
            58.28514
          ],
          [
            12.048159,
            58.285236
          ],
          [
            12.04833,
            58.285331
          ],
          [
            12.048541,
            58.285357
          ],
          [
            12.048772,
            58.285328
          ],
          [
            12.048912,
            58.285283
          ],
          [
            12.049042,
            58.285277
          ],
          [
            12.049112,
            58.285346
          ],
          [
            12.049133,
            58.285431
          ],
          [
            12.049153,
            58.285536
          ],
          [
            12.049183,
            58.285621
          ],
          [
            12.049293,
            58.285711
          ],
          [
            12.049384,
            58.285806
          ],
          [
            12.049434,
            58.285901
          ],
          [
            12.049444,
            58.286022
          ],
          [
            12.049435,
            58.286149
          ],
          [
            12.049465,
            58.286286
          ],
          [
            12.049465,
            58.286397
          ],
          [
            12.049435,
            58.286582
          ],
          [
            12.049375,
            58.286746
          ],
          [
            12.049265,
            58.286836
          ],
          [
            12.049045,
            58.286889
          ],
          [
            12.04896,
            58.286969
          ],
          [
            12.048645,
            58.287211
          ],
          [
            12.048594,
            58.287372
          ],
          [
            12.048552,
            58.287451
          ],
          [
            12.048649,
            58.287661
          ],
          [
            12.04876,
            58.287745
          ],
          [
            12.04916,
            58.288161
          ],
          [
            12.049296,
            58.288174
          ],
          [
            12.049519,
            58.288559
          ],
          [
            12.049608,
            58.288478
          ],
          [
            12.04972,
            58.288443
          ],
          [
            12.049826,
            58.288443
          ],
          [
            12.049934,
            58.288457
          ],
          [
            12.050018,
            58.288468
          ],
          [
            12.050137,
            58.288521
          ],
          [
            12.050271,
            58.288612
          ],
          [
            12.050393,
            58.288715
          ],
          [
            12.050491,
            58.288866
          ],
          [
            12.050606,
            58.288963
          ],
          [
            12.050652,
            58.289022
          ],
          [
            12.050639,
            58.289096
          ],
          [
            12.050539,
            58.289189
          ],
          [
            12.050432,
            58.289294
          ],
          [
            12.050322,
            58.289392
          ],
          [
            12.050261,
            58.289524
          ],
          [
            12.05018,
            58.289639
          ],
          [
            12.050146,
            58.289748
          ],
          [
            12.050147,
            58.289863
          ],
          [
            12.050163,
            58.290007
          ],
          [
            12.050177,
            58.290151
          ],
          [
            12.050262,
            58.290367
          ],
          [
            12.050298,
            58.290479
          ],
          [
            12.050327,
            58.290576
          ],
          [
            12.050378,
            58.29071
          ],
          [
            12.050441,
            58.290868
          ],
          [
            12.050437,
            58.291071
          ],
          [
            12.050464,
            58.291186
          ],
          [
            12.050511,
            58.291268
          ],
          [
            12.050625,
            58.291336
          ],
          [
            12.050846,
            58.291394
          ],
          [
            12.051043,
            58.291455
          ],
          [
            12.051241,
            58.291488
          ],
          [
            12.051371,
            58.291516
          ],
          [
            12.051527,
            58.291572
          ],
          [
            12.051667,
            58.291631
          ],
          [
            12.051741,
            58.291681
          ],
          [
            12.051872,
            58.291769
          ],
          [
            12.052034,
            58.291846
          ],
          [
            12.052146,
            58.291893
          ],
          [
            12.052256,
            58.291922
          ],
          [
            12.052417,
            58.291972
          ],
          [
            12.05252,
            58.292017
          ],
          [
            12.052631,
            58.29208
          ],
          [
            12.052689,
            58.292147
          ],
          [
            12.052743,
            58.292221
          ],
          [
            12.052778,
            58.292301
          ],
          [
            12.052802,
            58.292356
          ],
          [
            12.052811,
            58.292442
          ],
          [
            12.052793,
            58.292565
          ],
          [
            12.052748,
            58.292695
          ],
          [
            12.052676,
            58.292791
          ],
          [
            12.052588,
            58.292875
          ],
          [
            12.052371,
            58.293043
          ],
          [
            12.052316,
            58.293098
          ],
          [
            12.052247,
            58.29317
          ],
          [
            12.052216,
            58.293291
          ],
          [
            12.052192,
            58.293393
          ],
          [
            12.052153,
            58.293478
          ],
          [
            12.052105,
            58.293563
          ],
          [
            12.052074,
            58.29366
          ],
          [
            12.052083,
            58.293748
          ],
          [
            12.052117,
            58.293813
          ],
          [
            12.052191,
            58.293864
          ],
          [
            12.052364,
            58.293935
          ],
          [
            12.05256,
            58.294044
          ],
          [
            12.052764,
            58.294167
          ],
          [
            12.05286,
            58.29426
          ],
          [
            12.052913,
            58.294411
          ],
          [
            12.052912,
            58.294551
          ],
          [
            12.05299,
            58.294747
          ],
          [
            12.05314,
            58.295005
          ],
          [
            12.053315,
            58.295257
          ],
          [
            12.053378,
            58.295361
          ],
          [
            12.053536,
            58.295485
          ],
          [
            12.053699,
            58.295596
          ],
          [
            12.053742,
            58.295662
          ],
          [
            12.053889,
            58.295811
          ],
          [
            12.054038,
            58.295917
          ],
          [
            12.054355,
            58.296168
          ],
          [
            12.054352,
            58.296252
          ],
          [
            12.054254,
            58.296423
          ],
          [
            12.054126,
            58.296551
          ],
          [
            12.053982,
            58.296758
          ],
          [
            12.053843,
            58.296952
          ],
          [
            12.053722,
            58.297105
          ],
          [
            12.053652,
            58.297268
          ],
          [
            12.053632,
            58.297452
          ],
          [
            12.053679,
            58.297596
          ],
          [
            12.053747,
            58.297663
          ],
          [
            12.053726,
            58.297754
          ],
          [
            12.05366,
            58.297805
          ],
          [
            12.053468,
            58.297869
          ],
          [
            12.053292,
            58.297935
          ],
          [
            12.053142,
            58.298024
          ],
          [
            12.053017,
            58.298121
          ],
          [
            12.052962,
            58.298178
          ],
          [
            12.052938,
            58.298202
          ],
          [
            12.052869,
            58.29829
          ],
          [
            12.052833,
            58.298349
          ],
          [
            12.052778,
            58.298396
          ],
          [
            12.052694,
            58.298421
          ],
          [
            12.05263,
            58.298539
          ],
          [
            12.052578,
            58.298665
          ],
          [
            12.052449,
            58.298841
          ],
          [
            12.052371,
            58.299023
          ],
          [
            12.052271,
            58.299169
          ],
          [
            12.052207,
            58.299241
          ],
          [
            12.051894,
            58.29958
          ],
          [
            12.052179,
            58.299637
          ],
          [
            12.053051,
            58.2998
          ],
          [
            12.053719,
            58.299918
          ],
          [
            12.053615,
            58.300058
          ],
          [
            12.053535,
            58.300187
          ],
          [
            12.053444,
            58.300459
          ],
          [
            12.053414,
            58.300553
          ],
          [
            12.053345,
            58.30075
          ],
          [
            12.053291,
            58.300905
          ],
          [
            12.053203,
            58.301218
          ],
          [
            12.053121,
            58.301519
          ],
          [
            12.053035,
            58.301764
          ],
          [
            12.052982,
            58.30191
          ],
          [
            12.052886,
            58.302048
          ],
          [
            12.052818,
            58.302153
          ],
          [
            12.052763,
            58.302261
          ],
          [
            12.052673,
            58.302399
          ],
          [
            12.05246,
            58.302655
          ],
          [
            12.052222,
            58.302968
          ],
          [
            12.052132,
            58.303094
          ],
          [
            12.052012,
            58.303232
          ],
          [
            12.051929,
            58.303335
          ],
          [
            12.051875,
            58.303437
          ],
          [
            12.05185,
            58.303573
          ],
          [
            12.051805,
            58.30372
          ],
          [
            12.051735,
            58.303825
          ],
          [
            12.051714,
            58.303854
          ],
          [
            12.051644,
            58.303924
          ],
          [
            12.051592,
            58.304002
          ],
          [
            12.051559,
            58.304067
          ],
          [
            12.051541,
            58.304154
          ],
          [
            12.051532,
            58.304278
          ],
          [
            12.051506,
            58.304449
          ],
          [
            12.051494,
            58.304558
          ],
          [
            12.051483,
            58.304623
          ],
          [
            12.051419,
            58.30474
          ],
          [
            12.051264,
            58.304975
          ],
          [
            12.051181,
            58.305084
          ],
          [
            12.051104,
            58.305186
          ],
          [
            12.050981,
            58.305348
          ],
          [
            12.050891,
            58.305449
          ],
          [
            12.050961,
            58.305505
          ],
          [
            12.051055,
            58.305596
          ],
          [
            12.051143,
            58.305686
          ],
          [
            12.051231,
            58.305771
          ],
          [
            12.051308,
            58.305874
          ],
          [
            12.051357,
            58.305965
          ],
          [
            12.051368,
            58.306072
          ],
          [
            12.051377,
            58.306185
          ],
          [
            12.051351,
            58.306347
          ],
          [
            12.051346,
            58.306453
          ],
          [
            12.051358,
            58.306529
          ],
          [
            12.051375,
            58.306628
          ],
          [
            12.051369,
            58.306709
          ],
          [
            12.051364,
            58.306814
          ],
          [
            12.05137,
            58.306935
          ],
          [
            12.051395,
            58.30703
          ],
          [
            12.051444,
            58.307167
          ],
          [
            12.051495,
            58.30731
          ],
          [
            12.051515,
            58.307448
          ],
          [
            12.05153,
            58.307579
          ],
          [
            12.051533,
            58.307721
          ],
          [
            12.051513,
            58.307874
          ],
          [
            12.051468,
            58.307953
          ],
          [
            12.051388,
            58.308084
          ],
          [
            12.051269,
            58.308193
          ],
          [
            12.051124,
            58.308284
          ],
          [
            12.051022,
            58.308341
          ],
          [
            12.050991,
            58.308392
          ],
          [
            12.050977,
            58.308452
          ],
          [
            12.050968,
            58.308494
          ],
          [
            12.050977,
            58.308597
          ],
          [
            12.050963,
            58.308699
          ],
          [
            12.050895,
            58.308793
          ],
          [
            12.050784,
            58.308907
          ],
          [
            12.050608,
            58.309035
          ],
          [
            12.050429,
            58.309127
          ],
          [
            12.050284,
            58.30917
          ],
          [
            12.050071,
            58.309215
          ],
          [
            12.049881,
            58.309266
          ],
          [
            12.049775,
            58.309314
          ],
          [
            12.049637,
            58.309401
          ],
          [
            12.04952,
            58.309537
          ],
          [
            12.049406,
            58.309694
          ],
          [
            12.04931,
            58.309887
          ],
          [
            12.049217,
            58.310016
          ],
          [
            12.049123,
            58.31014
          ],
          [
            12.049021,
            58.31024
          ],
          [
            12.048879,
            58.310402
          ],
          [
            12.048842,
            58.310463
          ],
          [
            12.048811,
            58.310526
          ],
          [
            12.048808,
            58.310607
          ],
          [
            12.04882,
            58.310761
          ],
          [
            12.048874,
            58.310994
          ],
          [
            12.048925,
            58.3112
          ],
          [
            12.048986,
            58.311458
          ],
          [
            12.04898,
            58.311568
          ],
          [
            12.048912,
            58.31185
          ],
          [
            12.048827,
            58.312149
          ],
          [
            12.048751,
            58.312406
          ],
          [
            12.048674,
            58.312529
          ],
          [
            12.048606,
            58.312635
          ],
          [
            12.048566,
            58.312735
          ],
          [
            12.04855,
            58.312836
          ],
          [
            12.048531,
            58.313021
          ],
          [
            12.048505,
            58.313178
          ],
          [
            12.048494,
            58.313395
          ],
          [
            12.048446,
            58.313558
          ],
          [
            12.048377,
            58.313675
          ],
          [
            12.048236,
            58.313856
          ],
          [
            12.048113,
            58.313976
          ],
          [
            12.047972,
            58.314101
          ],
          [
            12.047821,
            58.31423
          ],
          [
            12.047656,
            58.314356
          ],
          [
            12.047534,
            58.314486
          ],
          [
            12.047483,
            58.31458
          ],
          [
            12.047452,
            58.314664
          ],
          [
            12.047444,
            58.314787
          ],
          [
            12.047461,
            58.31487
          ],
          [
            12.047512,
            58.314956
          ],
          [
            12.047563,
            58.315012
          ],
          [
            12.047686,
            58.315145
          ],
          [
            12.047817,
            58.315288
          ],
          [
            12.047854,
            58.315364
          ],
          [
            12.047922,
            58.315549
          ],
          [
            12.048016,
            58.315777
          ],
          [
            12.048045,
            58.315944
          ],
          [
            12.048077,
            58.316085
          ],
          [
            12.048099,
            58.316212
          ],
          [
            12.048145,
            58.316309
          ],
          [
            12.048228,
            58.316415
          ],
          [
            12.048288,
            58.316496
          ],
          [
            12.048319,
            58.316584
          ],
          [
            12.048345,
            58.316655
          ],
          [
            12.048453,
            58.31674
          ],
          [
            12.048635,
            58.316877
          ],
          [
            12.048769,
            58.316984
          ],
          [
            12.048843,
            58.317058
          ],
          [
            12.048891,
            58.317139
          ],
          [
            12.048945,
            58.317202
          ],
          [
            12.04905,
            58.31728
          ],
          [
            12.049113,
            58.317339
          ],
          [
            12.04911,
            58.31739
          ],
          [
            12.049059,
            58.317519
          ],
          [
            12.048926,
            58.317684
          ],
          [
            12.048838,
            58.317887
          ],
          [
            12.048708,
            58.318206
          ],
          [
            12.048586,
            58.318379
          ],
          [
            12.048467,
            58.31853
          ],
          [
            12.048333,
            58.318605
          ],
          [
            12.048404,
            58.318732
          ],
          [
            12.048487,
            58.318848
          ],
          [
            12.04876,
            58.319266
          ],
          [
            12.048963,
            58.319576
          ],
          [
            12.049154,
            58.319866
          ],
          [
            12.049356,
            58.320199
          ],
          [
            12.04949,
            58.320422
          ],
          [
            12.049641,
            58.320578
          ],
          [
            12.0498,
            58.320729
          ],
          [
            12.049934,
            58.320835
          ],
          [
            12.049996,
            58.320862
          ],
          [
            12.049871,
            58.320913
          ],
          [
            12.049712,
            58.321018
          ],
          [
            12.049533,
            58.321113
          ],
          [
            12.049397,
            58.321122
          ],
          [
            12.049485,
            58.321199
          ],
          [
            12.049539,
            58.321238
          ],
          [
            12.049647,
            58.321317
          ],
          [
            12.049753,
            58.321381
          ],
          [
            12.049875,
            58.321454
          ],
          [
            12.050006,
            58.321513
          ],
          [
            12.05014,
            58.321571
          ],
          [
            12.050291,
            58.321635
          ],
          [
            12.050345,
            58.321672
          ],
          [
            12.050606,
            58.321841
          ],
          [
            12.050749,
            58.321946
          ],
          [
            12.05082,
            58.322015
          ],
          [
            12.050888,
            58.322143
          ],
          [
            12.050934,
            58.322242
          ],
          [
            12.050937,
            58.322295
          ],
          [
            12.050943,
            58.322552
          ],
          [
            12.050957,
            58.322698
          ],
          [
            12.050997,
            58.322818
          ],
          [
            12.051066,
            58.322927
          ],
          [
            12.051157,
            58.322986
          ],
          [
            12.051236,
            58.323041
          ],
          [
            12.051382,
            58.323132
          ],
          [
            12.051507,
            58.323202
          ],
          [
            12.051601,
            58.323243
          ],
          [
            12.051689,
            58.323352
          ],
          [
            12.051732,
            58.323482
          ],
          [
            12.051812,
            58.3237
          ],
          [
            12.05186,
            58.323842
          ],
          [
            12.052213,
            58.324062
          ],
          [
            12.052481,
            58.324228
          ],
          [
            12.052697,
            58.324361
          ],
          [
            12.053013,
            58.324557
          ],
          [
            12.053158,
            58.324651
          ],
          [
            12.053335,
            58.32476
          ],
          [
            12.053761,
            58.325032
          ],
          [
            12.053978,
            58.325164
          ],
          [
            12.054177,
            58.325292
          ],
          [
            12.054336,
            58.325357
          ],
          [
            12.054564,
            58.325448
          ],
          [
            12.054732,
            58.325518
          ],
          [
            12.055105,
            58.325765
          ],
          [
            12.055153,
            58.325795
          ],
          [
            12.05521,
            58.32585
          ],
          [
            12.055347,
            58.325999
          ],
          [
            12.055364,
            58.326044
          ],
          [
            12.055378,
            58.326098
          ],
          [
            12.055378,
            58.326154
          ],
          [
            12.055219,
            58.326285
          ],
          [
            12.055154,
            58.326453
          ],
          [
            12.055163,
            58.326561
          ],
          [
            12.055174,
            58.326674
          ],
          [
            12.055118,
            58.326771
          ],
          [
            12.05503,
            58.326926
          ],
          [
            12.054953,
            58.327123
          ],
          [
            12.054851,
            58.327255
          ],
          [
            12.054692,
            58.327481
          ],
          [
            12.054496,
            58.327683
          ],
          [
            12.054258,
            58.327904
          ],
          [
            12.054119,
            58.328031
          ],
          [
            12.054019,
            58.328202
          ],
          [
            12.053934,
            58.328341
          ],
          [
            12.053773,
            58.328489
          ],
          [
            12.053605,
            58.328654
          ],
          [
            12.053534,
            58.328685
          ],
          [
            12.05338,
            58.328745
          ],
          [
            12.053122,
            58.328822
          ],
          [
            12.052872,
            58.328892
          ],
          [
            12.052772,
            58.328913
          ],
          [
            12.052462,
            58.32898
          ],
          [
            12.052181,
            58.329042
          ],
          [
            12.051916,
            58.32909
          ],
          [
            12.051726,
            58.329132
          ],
          [
            12.051581,
            58.32916
          ],
          [
            12.051294,
            58.32927
          ],
          [
            12.051163,
            58.329338
          ],
          [
            12.051061,
            58.329406
          ],
          [
            12.050956,
            58.32949
          ],
          [
            12.050862,
            58.329591
          ],
          [
            12.050612,
            58.329868
          ],
          [
            12.050476,
            58.330001
          ],
          [
            12.050263,
            58.330159
          ],
          [
            12.050041,
            58.330334
          ],
          [
            12.049925,
            58.330424
          ],
          [
            12.049831,
            58.330528
          ],
          [
            12.049703,
            58.330694
          ],
          [
            12.049468,
            58.330944
          ],
          [
            12.049271,
            58.331101
          ],
          [
            12.049098,
            58.331247
          ],
          [
            12.049036,
            58.331294
          ],
          [
            12.048942,
            58.331357
          ],
          [
            12.04876,
            58.331434
          ],
          [
            12.048683,
            58.331479
          ],
          [
            12.048555,
            58.331571
          ],
          [
            12.048484,
            58.331582
          ],
          [
            12.048229,
            58.331618
          ],
          [
            12.048007,
            58.331661
          ],
          [
            12.047882,
            58.331723
          ],
          [
            12.047666,
            58.331778
          ],
          [
            12.047427,
            58.331831
          ],
          [
            12.04727,
            58.331857
          ],
          [
            12.047174,
            58.33187
          ],
          [
            12.047003,
            58.33188
          ],
          [
            12.046847,
            58.331888
          ],
          [
            12.046571,
            58.331904
          ],
          [
            12.04642,
            58.331933
          ],
          [
            12.046352,
            58.331951
          ],
          [
            12.046201,
            58.332006
          ],
          [
            12.045965,
            58.332126
          ],
          [
            12.04567,
            58.332272
          ],
          [
            12.045434,
            58.332425
          ],
          [
            12.045272,
            58.332528
          ],
          [
            12.045167,
            58.332627
          ],
          [
            12.045118,
            58.332695
          ],
          [
            12.0451,
            58.332801
          ],
          [
            12.045072,
            58.332962
          ],
          [
            12.045058,
            58.333045
          ],
          [
            12.045045,
            58.333119
          ],
          [
            12.04504,
            58.333272
          ],
          [
            12.045025,
            58.333391
          ],
          [
            12.045009,
            58.333523
          ],
          [
            12.044918,
            58.333626
          ],
          [
            12.044869,
            58.333658
          ],
          [
            12.04473,
            58.333748
          ],
          [
            12.044577,
            58.33383
          ],
          [
            12.044432,
            58.333905
          ],
          [
            12.044207,
            58.334017
          ],
          [
            12.044059,
            58.334082
          ],
          [
            12.043954,
            58.334119
          ],
          [
            12.043724,
            58.334198
          ],
          [
            12.043539,
            58.33426
          ],
          [
            12.043303,
            58.334348
          ],
          [
            12.043116,
            58.334425
          ],
          [
            12.043002,
            58.334498
          ],
          [
            12.042928,
            58.334538
          ],
          [
            12.042769,
            58.334625
          ],
          [
            12.042738,
            58.334646
          ],
          [
            12.042721,
            58.334673
          ],
          [
            12.042624,
            58.334683
          ],
          [
            12.042507,
            58.334712
          ],
          [
            12.042348,
            58.334733
          ],
          [
            12.042166,
            58.334758
          ],
          [
            12.042081,
            58.334764
          ],
          [
            12.041904,
            58.334769
          ],
          [
            12.041651,
            58.334787
          ],
          [
            12.041452,
            58.334799
          ],
          [
            12.041162,
            58.334814
          ],
          [
            12.040952,
            58.334848
          ],
          [
            12.040781,
            58.334901
          ],
          [
            12.040528,
            58.335004
          ],
          [
            12.040386,
            58.335089
          ],
          [
            12.040176,
            58.335238
          ],
          [
            12.040127,
            58.335303
          ],
          [
            12.040112,
            58.335339
          ],
          [
            12.040094,
            58.335397
          ],
          [
            12.040054,
            58.335522
          ],
          [
            12.040037,
            58.335568
          ],
          [
            12.040039,
            58.335631
          ],
          [
            12.040045,
            58.335817
          ],
          [
            12.04004,
            58.335954
          ],
          [
            12.039995,
            58.336101
          ],
          [
            12.039955,
            58.336191
          ],
          [
            12.039892,
            58.336256
          ],
          [
            12.039736,
            58.336388
          ],
          [
            12.039537,
            58.336571
          ],
          [
            12.039406,
            58.336658
          ],
          [
            12.039082,
            58.336867
          ],
          [
            12.038878,
            58.337002
          ],
          [
            12.038605,
            58.337141
          ],
          [
            12.038326,
            58.337282
          ],
          [
            12.038242,
            58.337364
          ],
          [
            12.038212,
            58.337449
          ],
          [
            12.038184,
            58.337525
          ],
          [
            12.038156,
            58.337635
          ],
          [
            12.038131,
            58.337747
          ],
          [
            12.038057,
            58.337831
          ],
          [
            12.03798,
            58.337864
          ],
          [
            12.037789,
            58.337934
          ],
          [
            12.037559,
            58.338009
          ],
          [
            12.037303,
            58.338094
          ],
          [
            12.03699,
            58.338211
          ],
          [
            12.036791,
            58.338293
          ],
          [
            12.036598,
            58.338382
          ],
          [
            12.036479,
            58.338452
          ],
          [
            12.036441,
            58.338477
          ],
          [
            12.036416,
            58.338539
          ],
          [
            12.036427,
            58.338598
          ],
          [
            12.036445,
            58.338699
          ],
          [
            12.036422,
            58.338756
          ],
          [
            12.036334,
            58.338845
          ],
          [
            12.03618,
            58.33891
          ],
          [
            12.036089,
            58.33895
          ],
          [
            12.035996,
            58.339002
          ],
          [
            12.035851,
            58.339125
          ],
          [
            12.035774,
            58.33917
          ],
          [
            12.035629,
            58.339224
          ],
          [
            12.035507,
            58.339279
          ],
          [
            12.035468,
            58.339312
          ],
          [
            12.03545,
            58.339356
          ],
          [
            12.035478,
            58.33946
          ],
          [
            12.035481,
            58.339534
          ],
          [
            12.035485,
            58.339614
          ],
          [
            12.035464,
            58.339666
          ],
          [
            12.035399,
            58.339822
          ],
          [
            12.035365,
            58.339903
          ],
          [
            12.035357,
            58.339942
          ],
          [
            12.035348,
            58.340062
          ],
          [
            12.03536,
            58.340174
          ],
          [
            12.035382,
            58.340304
          ],
          [
            12.03536,
            58.340404
          ],
          [
            12.035269,
            58.340497
          ],
          [
            12.035195,
            58.340549
          ],
          [
            12.035093,
            58.340624
          ],
          [
            12.03499,
            58.340753
          ],
          [
            12.034854,
            58.34092
          ],
          [
            12.034797,
            58.341033
          ],
          [
            12.034789,
            58.341136
          ],
          [
            12.034809,
            58.341212
          ],
          [
            12.034832,
            58.341332
          ],
          [
            12.034823,
            58.341459
          ],
          [
            12.034795,
            58.341562
          ],
          [
            12.034724,
            58.341648
          ],
          [
            12.034653,
            58.341674
          ],
          [
            12.034496,
            58.341739
          ],
          [
            12.034388,
            58.341787
          ],
          [
            12.034232,
            58.341889
          ],
          [
            12.03409,
            58.34199
          ],
          [
            12.033965,
            58.34205
          ],
          [
            12.033865,
            58.342073
          ],
          [
            12.033731,
            58.342082
          ],
          [
            12.033552,
            58.342098
          ],
          [
            12.033419,
            58.342115
          ],
          [
            12.033316,
            58.34214
          ],
          [
            12.033091,
            58.342203
          ],
          [
            12.03287,
            58.342267
          ],
          [
            12.032747,
            58.342308
          ],
          [
            12.032446,
            58.342441
          ],
          [
            12.032213,
            58.342549
          ],
          [
            12.032036,
            58.342639
          ],
          [
            12.031928,
            58.342709
          ],
          [
            12.031857,
            58.342787
          ],
          [
            12.03178,
            58.342864
          ],
          [
            12.031727,
            58.342948
          ],
          [
            12.031707,
            58.343029
          ],
          [
            12.031525,
            58.343052
          ],
          [
            12.031306,
            58.343082
          ],
          [
            12.03083,
            58.343149
          ],
          [
            12.030572,
            58.343177
          ],
          [
            12.030393,
            58.343186
          ],
          [
            12.030236,
            58.343189
          ],
          [
            12.030077,
            58.343182
          ],
          [
            12.029926,
            58.343175
          ],
          [
            12.029781,
            58.343167
          ],
          [
            12.029656,
            58.343169
          ],
          [
            12.029536,
            58.343179
          ],
          [
            12.029417,
            58.343225
          ],
          [
            12.029317,
            58.343285
          ],
          [
            12.029155,
            58.343416
          ],
          [
            12.028757,
            58.343703
          ],
          [
            12.028416,
            58.343947
          ],
          [
            12.028296,
            58.344087
          ],
          [
            12.028245,
            58.344175
          ],
          [
            12.02812,
            58.344322
          ],
          [
            12.0281,
            58.344342
          ]
        ]
      }
    }
  ]
}
