{
  "type": "FeatureCollection",
  "features": [
    {
      "type": "Feature",
      "id": "brunnsviken-loop",
      "properties": {
        "id": "brunnsviken-loop",
        "activity": "kayaking",
        "itemType": "kayak-trip",
        "name": "Brunnsviken and Hagaparken loop",
        "sourceFile": "compiled/kayak-routes.seed.json",
        "geometryStatus": "approximate-waypoint-corridor",
        "mapConfidence": "medium",
        "navigationUse": "not-for-navigation",
        "sourceFormat": "approximate-waypoint-corridor",
        "warning": "Approximate waypoint corridor for planning context only. Do not use this line for navigation."
      },
      "geometry": {
        "type": "LineString",
        "coordinates": [
          [
            18.057,
            59.366
          ],
          [
            18.049,
            59.366
          ],
          [
            18.026,
            59.362
          ],
          [
            18.021,
            59.369
          ],
          [
            18.057,
            59.366
          ]
        ]
      }
    }
  ]
}
