{
  "type": "FeatureCollection",
  "features": [
    {
      "type": "Feature",
      "id": "dalaro-galo-overnight",
      "properties": {
        "id": "dalaro-galo-overnight",
        "activity": "kayaking",
        "itemType": "kayak-trip",
        "name": "Dalarö to Gålö Havsbad",
        "sourceFile": "compiled/kayak-routes.seed.json",
        "geometryStatus": "approximate-waypoint-corridor",
        "mapConfidence": "medium",
        "navigationUse": "not-for-navigation",
        "sourceFormat": "approximate-waypoint-corridor",
        "warning": "Approximate waypoint corridor for planning context only. Do not use this line for navigation."
      },
      "geometry": {
        "type": "LineString",
        "coordinates": [
          [
            18.417,
            59.135
          ],
          [
            18.3,
            59.105
          ]
        ]
      }
    }
  ]
}
