{
  "type": "FeatureCollection",
  "features": [
    {
      "type": "Feature",
      "id": "dalaro-fjardlang-villinge",
      "properties": {
        "id": "dalaro-fjardlang-villinge",
        "activity": "kayaking",
        "itemType": "kayak-trip",
        "name": "Dalarö, Fjärdlång and Villinge",
        "sourceFile": "compiled/kayak-routes.seed.json",
        "geometryStatus": "approximate-waypoint-corridor",
        "mapConfidence": "medium",
        "navigationUse": "not-for-navigation",
        "sourceFormat": "approximate-waypoint-corridor",
        "warning": "Approximate waypoint corridor for planning context only. Do not use this line for navigation."
      },
      "geometry": {
        "type": "LineString",
        "coordinates": [
          [
            18.41,
            59.13
          ],
          [
            18.53,
            59.03
          ],
          [
            18.61,
            59
          ],
          [
            18.41,
            59.13
          ]
        ]
      }
    }
  ]
}
