{
  "type": "FeatureCollection",
  "features": [
    {
      "type": "Feature",
      "id": "djurgardskanalen-out-and-back",
      "properties": {
        "id": "djurgardskanalen-out-and-back",
        "activity": "kayaking",
        "itemType": "kayak-trip",
        "name": "Djurgårdskanalen out and back",
        "sourceFile": "compiled/kayak-routes.seed.json",
        "geometryStatus": "approximate-waypoint-corridor",
        "mapConfidence": "medium",
        "navigationUse": "not-for-navigation",
        "sourceFormat": "approximate-waypoint-corridor",
        "warning": "Approximate waypoint corridor for planning context only. Do not use this line for navigation."
      },
      "geometry": {
        "type": "LineString",
        "coordinates": [
          [
            18.145,
            59.333
          ],
          [
            18.155,
            59.333
          ],
          [
            18.145,
            59.333
          ]
        ]
      }
    }
  ]
}
