{
  "type": "FeatureCollection",
  "features": [
    {
      "type": "Feature",
      "id": "kanotcenter-trasko-storo",
      "properties": {
        "id": "kanotcenter-trasko-storo",
        "activity": "kayaking",
        "itemType": "kayak-trip",
        "name": "Träskö-Storö sauna route",
        "sourceFile": "compiled/kayak-routes.iteration-03-additions.json",
        "geometryStatus": "approximate-waypoint-corridor",
        "mapConfidence": "medium",
        "navigationUse": "not-for-navigation",
        "sourceFormat": "approximate-waypoint-corridor",
        "warning": "Approximate waypoint corridor for planning context only. Do not use this line for navigation."
      },
      "geometry": {
        "type": "LineString",
        "coordinates": [
          [
            18.333,
            59.426
          ],
          [
            18.56,
            59.411
          ],
          [
            18.64,
            59.392
          ],
          [
            18.68,
            59.43
          ],
          [
            18.76,
            59.43
          ],
          [
            18.333,
            59.426
          ]
        ]
      }
    }
  ]
}
