{
  "type": "FeatureCollection",
  "features": [
    {
      "type": "Feature",
      "id": "kayak-norrpada-roder-kapellskar-return",
      "properties": {
        "id": "kayak-norrpada-roder-kapellskar-return",
        "activity": "kayaking",
        "itemType": "kayak-trip",
        "name": "Räfsnäs / Kapellskär to Norrpada and Röder outer loop",
        "sourceFile": "compiled/kayak-routes.iteration-03-additions.json",
        "geometryStatus": "approximate-waypoint-corridor",
        "mapConfidence": "medium",
        "navigationUse": "not-for-navigation",
        "sourceFormat": "approximate-waypoint-corridor",
        "warning": "Approximate waypoint corridor for planning context only. Do not use this line for navigation."
      },
      "geometry": {
        "type": "LineString",
        "coordinates": [
          [
            19.08,
            59.735
          ],
          [
            19.2,
            59.8
          ],
          [
            19.25,
            59.75
          ],
          [
            19.2,
            59.74
          ],
          [
            19.07,
            59.66
          ],
          [
            19.08,
            59.735
          ]
        ]
      }
    }
  ]
}
