{
  "type": "FeatureCollection",
  "features": [
    {
      "type": "Feature",
      "id": "kayak-bromskar-rodloga-roder",
      "properties": {
        "id": "kayak-bromskar-rodloga-roder",
        "activity": "kayaking",
        "itemType": "kayak-trip",
        "name": "Bromskär / Östra Lagnö to Svartlöga, Rödlöga and Röder",
        "sourceFile": "compiled/kayak-routes.iteration-03-additions.json",
        "geometryStatus": "approximate-waypoint-corridor",
        "mapConfidence": "medium",
        "navigationUse": "not-for-navigation",
        "sourceFormat": "approximate-waypoint-corridor",
        "warning": "Approximate waypoint corridor for planning context only. Do not use this line for navigation."
      },
      "geometry": {
        "type": "LineString",
        "coordinates": [
          [
            18.82,
            59.56
          ],
          [
            18.93,
            59.55
          ],
          [
            19.02,
            59.6
          ],
          [
            19.07,
            59.66
          ],
          [
            19,
            59.62
          ],
          [
            18.82,
            59.56
          ]
        ]
      }
    }
  ]
}
