{
  "type": "FeatureCollection",
  "features": [
    {
      "type": "Feature",
      "id": "kayak-lido-runt-graddo",
      "properties": {
        "id": "kayak-lido-runt-graddo",
        "activity": "kayaking",
        "itemType": "kayak-trip",
        "name": "Lidö runt from Gräddö",
        "sourceFile": "compiled/kayak-routes.iteration-03-additions.json",
        "geometryStatus": "approximate-waypoint-corridor",
        "mapConfidence": "medium",
        "navigationUse": "not-for-navigation",
        "sourceFormat": "approximate-waypoint-corridor",
        "warning": "Approximate waypoint corridor for planning context only. Do not use this line for navigation."
      },
      "geometry": {
        "type": "LineString",
        "coordinates": [
          [
            19.03,
            59.76
          ],
          [
            19.08,
            59.78
          ],
          [
            17.87,
            58.76
          ],
          [
            19.06,
            59.79
          ],
          [
            19.03,
            59.76
          ]
        ]
      }
    }
  ]
}
