{
  "type": "FeatureCollection",
  "features": [
    {
      "type": "Feature",
      "id": "langholmen-reimersholme-loop",
      "properties": {
        "id": "langholmen-reimersholme-loop",
        "activity": "kayaking",
        "itemType": "kayak-trip",
        "name": "Långholmen and Reimersholme loop",
        "sourceFile": "compiled/kayak-routes.seed.json",
        "geometryStatus": "approximate-waypoint-corridor",
        "mapConfidence": "medium",
        "navigationUse": "not-for-navigation",
        "sourceFormat": "approximate-waypoint-corridor",
        "warning": "Approximate waypoint corridor for planning context only. Do not use this line for navigation."
      },
      "geometry": {
        "type": "LineString",
        "coordinates": [
          [
            18.0305,
            59.3195
          ],
          [
            18.041,
            59.3135
          ],
          [
            18.0305,
            59.3195
          ],
          [
            18.0245,
            59.318
          ],
          [
            18.0305,
            59.3195
          ]
        ]
      }
    }
  ]
}
