{
  "type": "FeatureCollection",
  "features": [
    {
      "type": "Feature",
      "id": "skt-hjalmo-ladna-runt",
      "properties": {
        "id": "skt-hjalmo-ladna-runt",
        "activity": "kayaking",
        "itemType": "kayak-trip",
        "name": "Stockholm Kayak Trail Etapp 1: Hjälmö-Lådna runt",
        "sourceFile": "compiled/kayak-routes.iteration-03-additions.json",
        "geometryStatus": "approximate-waypoint-corridor",
        "mapConfidence": "medium",
        "navigationUse": "not-for-navigation",
        "sourceFormat": "approximate-waypoint-corridor",
        "warning": "Approximate waypoint corridor for planning context only. Do not use this line for navigation."
      },
      "geometry": {
        "type": "LineString",
        "coordinates": [
          [
            18.658,
            59.439
          ],
          [
            18.64,
            59.392
          ],
          [
            18.68,
            59.43
          ],
          [
            18.76,
            59.43
          ],
          [
            18.82,
            59.42
          ],
          [
            18.658,
            59.439
          ]
        ]
      }
    }
  ]
}
