{
  "type": "FeatureCollection",
  "features": [
    {
      "type": "Feature",
      "id": "stavsnas-namdo-bullero-langviksskar",
      "properties": {
        "id": "stavsnas-namdo-bullero-langviksskar",
        "activity": "kayaking",
        "itemType": "kayak-trip",
        "name": "Stavsnäs, Nämdö, Bullerö and Långviksskär",
        "sourceFile": "compiled/kayak-routes.seed.json",
        "geometryStatus": "approximate-waypoint-corridor",
        "mapConfidence": "medium",
        "navigationUse": "not-for-navigation",
        "sourceFormat": "approximate-waypoint-corridor",
        "warning": "Approximate waypoint corridor for planning context only. Do not use this line for navigation."
      },
      "geometry": {
        "type": "LineString",
        "coordinates": [
          [
            18.694,
            59.287
          ],
          [
            18.71,
            59.22
          ],
          [
            18.88,
            59.2
          ],
          [
            18.87,
            59.16
          ],
          [
            18.694,
            59.287
          ]
        ]
      }
    }
  ]
}
