{
  "type": "FeatureCollection",
  "features": [
    {
      "type": "Feature",
      "id": "stavsnas-runmaro-runt",
      "properties": {
        "id": "stavsnas-runmaro-runt",
        "activity": "kayaking",
        "itemType": "kayak-trip",
        "name": "Stavsnäs to Runmarö runt",
        "sourceFile": "compiled/kayak-routes.seed.json",
        "geometryStatus": "approximate-waypoint-corridor",
        "mapConfidence": "medium",
        "navigationUse": "not-for-navigation",
        "sourceFormat": "approximate-waypoint-corridor",
        "warning": "Approximate waypoint corridor for planning context only. Do not use this line for navigation."
      },
      "geometry": {
        "type": "LineString",
        "coordinates": [
          [
            18.694,
            59.287
          ],
          [
            18.77,
            59.289
          ],
          [
            18.84,
            59.29
          ],
          [
            18.694,
            59.287
          ]
        ]
      }
    }
  ]
}
