{"type":"FeatureCollection","crs":{"type":"name","properties":{"name":"EPSG:3006"}},"features":[{"type":"Feature","geometry":{"type":"MultiLineString","coordinates":[[[631894.463,7499518.578],[631904.938,7499554.849],[631905.384,7499559.009],[631907.368,7499577.53],[631902.077,7499590.759],[631889.345,7499601.916],[631884.977,7499599.694],[631879.484,7499596.899],[631874.404,7499598.751],[631868.342,7499610.603],[631857.853,7499631.112],[631857.098,7499646.983],[631856.436,7499660.874],[631849.16,7499670.796],[631844.53,7499683.363],[631841.884,7499698.577],[631843.71,7499713.524],[631839.441,7499724.197],[631833.285,7499739.588],[631826.67,7499756.124],[631826.233,7499775.18],[631831.691,7499785.005],[631839.9,7499799.78],[631846.514,7499811.687],[631845.95,7499830.081],[631839.238,7499838.806],[631826.009,7499856.004],[631815.426,7499861.958],[631808.811,7499882.463],[631808.811,7499906.937],[631806.165,7499924.796],[631808.15,7499934.718],[631807.488,7499960.515],[631802.196,7499976.39],[631804.47,7499991.031],[631804.189,7499997.758],[631806.777,7500011.497],[631807.355,7500018.939],[631805.498,7500022.805],[631804.648,7500033.684],[631801.651,7500043.992],[631801.659,7500053.153],[631795.09,7500070.62],[631792.811,7500083.361],[631787.949,7500087.659],[631783.946,7500092.958],[631782.671,7500108.561],[631784.542,7500121.871],[631786.405,7500124.875],[631785.696,7500132.175],[631782.128,7500144.631],[631784.709,7500150.64],[631789.007,7500156.075],[631795.31,7500163.227],[631801.191,7500179.825],[631805.059,7500184.975],[631810.221,7500196.994],[631819.682,7500215.307],[631824.551,7500219.74],[631834.574,7500226.172],[631834.794,7500232.47],[631838.231,7500234.328],[631845.961,7500237.327],[631851.117,7500242.619],[631855.276,7500252.205],[631859.29,7500261.219],[631865.318,7500282.111],[631867.898,7500286.976],[631872.054,7500293.699],[631877.638,7500297.273],[631884.232,7500310.149],[631885.522,7500312.868],[631890.397,7500323.885],[631893.696,7500333.043],[631899.567,7500337.188],[631905.868,7500341.334],[631908.45,7500349.204],[631911.604,7500355.499],[631916.474,7500360.362],[631922.632,7500365.653],[631925.928,7500371.089],[631935.092,7500376.806],[631941.533,7500378.948],[631947.832,7500381.376],[631956.284,7500390.672],[631958.433,7500394.106],[631962.731,7500399.828],[631967.457,7500403.974],[631971.182,7500408.552],[631972.044,7500412.988],[631979.637,7500421.856],[631984.079,7500428.579],[631981.081,7500437.742],[631981.376,7500448.191],[631982.242,7500457.494],[631988.975,7500465.933],[631994.848,7500472.083],[631999.286,7500474.226],[632010.027,7500483.234],[632014.038,7500487.668],[632022.201,7500495.104],[632027.927,7500496.817],[632032.938,7500499.532],[632040.527,7500503.82],[632045.258,7500514.407],[632049.701,7500521.847],[632051.854,7500530.146],[632053.007,7500539.163],[632054.876,7500549.896],[632058.317,7500557.766],[632062.473,7500565.205],[632060.906,7500573.508],[632064.354,7500589.25],[632070.659,7500599.121],[632071.812,7500609.139],[632069.242,7500616.441],[632068.678,7500627.033],[632070.259,7500634.332],[632074.123,7500634.615],[632080.566,7500639.046],[632084.011,7500651.21],[632083.589,7500660.227],[632080.735,7500670.249],[632075.596,7500685.425],[632071.741,7500696.164],[632072.898,7500710.762],[632075.766,7500718.346],[632078.354,7500732.657],[632080.653,7500744.105],[632080.524,7500760.566],[632078.529,7500771.875],[632081.687,7500782.75],[632082.266,7500791.338],[632077.979,7500798.069],[632073.404,7500803.798],[632067.547,7500816.542],[632060.399,7500825.994],[632057.402,7500836.016],[632054.264,7500848.614],[632046.835,7500863.936],[632037.555,7500891.854],[632031.411,7500902.881],[632029.702,7500913.045],[632029.135,7500919.343],[632029.424,7500923.35],[632038.741,7500940.662],[632046.191,7500951.39],[632050.634,7500959.402],[632056.651,7500967.126],[632063.527,7500974.849],[632070.831,7500981.571],[632075.131,7500988.58],[632082.012,7501003.46],[632085.883,7501012.045],[632086.755,7501028.218],[632089.056,7501041.098],[632092.212,7501050.399],[632094.222,7501058.699],[632093.087,7501070.437],[632089.947,7501081.032],[632089.81,7501088.475],[632089.818,7501097.349],[632092.115,7501106.221],[632094.274,7501121.678],[632097.723,7501138.278],[632100.739,7501151.444],[632104.755,7501162.891],[632105.338,7501175.629],[632104.203,7501186.938],[632104.513,7501216.423],[632104.664,7501225.869],[632101.095,7501236.464],[632097.239,7501245.342],[632095.243,7501254.79],[632091.671,7501261.377],[632088.959,7501270.826],[632089.68,7501277.123],[632094.989,7501281.58],[632100.152,7501289.628],[632098.274,7501302.696],[632097.547,7501312.318],[632094.662,7501327.396],[632091.922,7501341.325],[632090.327,7501358.702],[632090.608,7501365.883],[632091.172,7501378.236],[632095.033,7501396.192],[632096.457,7501410.699],[632096.87,7501430.807],[632093.269,7501443.442],[632088.375,7501456.939],[632084.921,7501464.979],[632081.61,7501474.599],[632082.177,7501483.073],[632078.574,7501498.438],[632077.276,7501504.181],[632068.063,7501530.169],[632064.18,7501537.203],[632062.738,7501544.24],[632063.446,7501555.156],[632060.711,7501563.484],[632054.381,7501576.691],[632046.908,7501583.148],[632041.732,7501591.043],[632033.969,7501600.515],[632030.085,7501607.837],[632026.347,7501613.722],[632023.465,7501624.491],[632027.192,7501632.107],[632031.353,7501636.419],[632034.367,7501638.432],[632032.777,7501650.208],[632030.186,7501657.1],[632028.741,7501667.727],[632028.586,7501680.365],[632028.145,7501691.998],[632026.702,7501699.896],[632026.408,7501707.652],[632026.976,7501715.983],[632028.551,7501721.298],[632029.98,7501728.337],[632032.126,7501737.53],[632033.414,7501742.558],[632034.269,7501750.315],[632036.551,7501768.844],[632037.258,7501780.766],[632035.815,7501789.525],[632029.2,7501799.717],[632027.185,7501804.886],[632026.892,7501811.923],[632028.465,7501819.536],[632028.026,7501829.446],[632026.583,7501837.2],[632026.145,7501844.812],[632024.703,7501851.992],[632022.112,7501859.889],[632017.794,7501870.513],[632012.042,7501879.7],[632004.424,7501888.886],[632004.556,7501901.525],[632006.558,7501911.724],[632008.563,7501917.327],[632013.443,7501920.778],[632014.157,7501924.513],[632010.561,7501931.691],[632009.406,7501939.015],[632011.411,7501944.905],[632009.963,7501958.691],[632008.519,7501968.313],[632006.214,7501976.928],[632005.77,7501991.865],[632006.041,7502010.392],[632002.15,7502026.475],[632003.578,7502035.668],[632000.843,7502043.134],[631997.677,7502050.887],[631992.355,7502060.362],[631992.203,7502070.415],[631989.318,7502085.78],[631985.718,7502097.267],[631981.546,7502106.025],[631980.675,7502116.508],[631980.956,7502123.833],[631980.806,7502130.871],[631981.372,7502141.069],[631978.635,7502151.048],[631978.558,7502156.003],[631979.915,7502164.765],[631979.764,7502173.311],[631983.418,7502182.218],[631985.782,7502188.827],[631986.424,7502193.136],[631986.135,7502195.793],[631984.409,7502198.305],[631982.109,7502201.247],[631981.458,7502206.417],[631986.766,7502213.028],[631990.64,7502217.34],[631995.084,7502225.53],[632000.536,7502231.423],[632006.707,7502235.594],[632009.431,7502240.91],[632014.733,7502253.123],[632018.316,7502261.312],[632022.761,7502269.359],[632026.775,7502276.544],[632029.209,7502284.876],[632029.346,7502293.35],[632026.608,7502303.832],[632023.725,7502316.612],[632019.119,7502328.816],[632013.652,7502340.445],[632012.496,7502349.205],[632011.913,7502358.396],[632012.471,7502377.929],[632010.592,7502392.003],[632011.59,7502399.616],[632008.997,7502409.811],[632012.15,7502416.851],[632013.294,7502422.023],[632012.998,7502431.645],[632013.853,7502439.976],[632014.704,7502452.041],[632014.554,7502459.509],[632012.391,7502469.561],[632010.657,7502482.055],[632011.076,7502495.125],[632011.213,7502503.599],[632014.075,7502514.66],[632015.503,7502523.997],[632017.222,7502528.882],[632018.651,7502537.213],[632020.074,7502551.72],[632017.332,7502566.942],[632012.442,7502576.561],[632012.434,7502585.034],[632014.007,7502592.217],[632015.868,7502598.969],[632011.981,7502610.455],[632008.816,7502617.921],[632008.952,7502626.538],[632008.079,7502639.32],[631999.889,7502644.627],[631994.568,7502653.958],[631986.661,7502669.893],[631985.071,7502680.951],[631981.615,7502691.433],[631980.167,7502704.503],[631979.297,7502714.413],[631977.278,7502723.891],[631977.985,7502737.68],[631979.264,7502754.199],[631979.542,7502765.403],[631978.53,7502772.871],[631976.369,7502780.194],[631969.036,7502786.652],[631965.724,7502796.129],[631965.863,7502801.731],[631965.571,7502808.05],[631960.39,7502817.957],[631957.221,7502827.578],[631952.614,7502839.639],[631949.442,7502852.707],[631944.976,7502867.928],[631944.968,7502877.695],[631948.695,7502888.327],[631953.699,7502917.202],[631954.838,7502929.842],[631955.833,7502943.776],[631957.261,7502953.257],[631960.264,7502970.639],[631969.301,7502988.026],[631975.038,7503000.239],[631976.612,7503007.853],[631974.733,7503022.359],[631969.405,7503036.861],[631965.952,7503041.886],[631965.224,7503053.95],[631965.357,7503066.446],[631961.456,7503092.728],[631961.733,7503105.512],[631960.999,7503125.332],[631961.703,7503142.138],[631959.533,7503160.521],[631959.953,7503174.167],[631954.036,7503205.761],[631952.011,7503222.421],[631953.431,7503242.674],[631950.534,7503270.681],[631951.937,7503311.761],[631953.221,7503322.534],[631955.792,7503340.491],[631957.072,7503356.722],[631958.059,7503379.13],[631955.308,7503404.838],[631957.306,7503421.645],[631962.174,7503441.326],[631965.327,7503451.527],[631968.332,7503466.467],[631970.043,7503482.412],[631969.868,7503519.326],[631968.275,7503534.837],[631968.551,7503548.626],[631972.703,7503566.296],[631974.409,7503588.417],[631972.384,7503604.646],[631968.638,7503617.857],[631966.756,7503635.379],[631968.612,7503648.451],[631970.751,7503668.418],[631973.614,7503681.778],[631974.47,7503688.242],[631974.317,7503700.307],[631976.603,7503715.678],[631978.603,7503729.468],[631983.184,7503749.293],[631985.177,7503771.558],[631981.135,7503794.68],[631979.259,7503804.589],[631979.107,7503815.074],[631980.244,7503829.869],[631982.388,7503842.942],[631986.972,7503859.176],[631984.659,7503876.554],[631985.511,7503889.338],[631985.644,7503902.265],[631982.462,7503927.829],[631983.165,7503946.071],[631981.858,7503963.306],[631983.279,7503982.41],[631978.956,7503997.775],[631976.822,7504030.566],[631977.086,7504040.95],[631977.925,7504048.633],[631974.197,7504063.276],[631968.336,7504077.062],[631963.906,7504086.583],[631957.762,7504099.515],[631949.624,7504113.581],[631944.896,7504130.356],[631941.324,7504137.888],[631935.036,7504151.389],[631929.895,7504161.051],[631928.455,7504169.867],[631928.012,7504177.974],[631928.987,7504188.928],[631925.404,7504201.865],[631923.231,7504221.917],[631923.615,7504243.965],[631920.726,7504265.865],[631920.268,7504282.079],[631920.927,7504308.68],[631919.438,7504342.815],[631917.972,7504364.717],[631916.354,7504391.882],[631914.033,7504414.352],[631909.57,7504440.942],[631909.688,7504453.602],[631909.086,7504470.1],[631905.787,7504483.891],[631904.612,7504502.665],[631905.853,7504522.723],[631909.512,7504543.782],[631907.358,7504553.877],[631905.914,7504564.4],[631903.044,7504576.912],[631903.586,7504590.853],[631903.41,7504608.206],[631903.653,7504629.258],[631903.741,7504657.422],[631905.28,7504670.653],[631907.388,7504684.028],[631907.225,7504694.838],[631905.625,7504712.9],[631902.61,7504726.407],[631900.875,7504740.77],[631900.546,7504763.528],[631897.82,7504775.044],[631898.219,7504789.126],[631899.759,7504801.789],[631900.017,7504815.587],[631902.409,7504829.674],[631903.1,7504839.916],[631903.495,7504856.417],[631902.049,7504867.936],[631902.879,7504880.455],[631907.108,7504900.661],[631909.648,7504911.619],[631910.475,7504925.134],[631909.389,7504937.714],[631910.495,7504954.501],[631911.592,7504975.555],[631916.499,7505012.974],[631917.056,7505019.376],[631912.298,7505051.086],[631912.553,7505066.306],[631913.39,7505074.985],[631913.223,7505087.644],[631913.197,7505100.872],[631910.597,7505120.639],[631912.996,7505131.312],[631914.256,7505141.84],[631914.382,7505149.948],[631909.939,7505166.582],[631907.63,7505183.077],[631905.882,7505203.841],[631900.438,7505222.606],[631891.87,7505238.236],[631888.717,7505249.893],[631886.423,7505258.708],[631887.545,7505266.96],[631889.239,7505274.075],[631886.365,7505288.294],[631876.894,7505328.956],[631872.604,7505340.042],[631866.888,7505352.264],[631864.863,7505369.613],[631860.564,7505384.967],[631858.823,7505402.032],[631853.39,7505415.392],[631848.521,7505431.029],[631857.018,7505444.992],[631856.438,7505464.108],[631841.794,7505493.612],[631810.83,7505541.937],[631815.014,7505578.486],[631820.613,7505604.073],[631825.368,7505629.659],[631826.19,7505653.836],[631812.923,7505714.826],[631806.722,7505733.937],[631804.453,7505755.862],[631797.398,7505787.341],[631773.316,7505840.029],[631771.199,7505850.429],[631770.482,7505865.187],[631772.58,7505876.855],[631772.428,7505889.365],[631767.772,7505909.601],[631768.323,7505921.69],[631768.456,7505929.983],[631767.885,7505940.243],[631764.496,7505957.388],[631759.146,7505968.347],[631756.323,7505981.698],[631757.442,7505987.321],[631754.906,7505993.363],[631750.97,7505994.624],[631740.708,7505996.161],[631733.117,7505997.981],[631730.02,7506003.742],[631730.997,7506011.473],[631732.393,7506021.595],[631733.508,7506031.716],[631735.73,7506061.798],[631736.84,7506077.401],[631740.905,7506089.914],[631744.55,7506100.6],[631747.91,7506115.362],[631750.85,7506128.015],[631751.123,7506136.448],[631747.887,7506140.1],[631742.683,7506145.015],[631738.318,7506153.866],[631732.969,7506162.295],[631729.585,7506174.942],[631728.158,7506197.993],[631725.604,7506224.697],[631716.578,7506258.985],[631719.07,7506301.436],[631719.034,7506341.355],[631728.26,7506397.587],[631730.769,7506420.36],[631731.858,7506459.717],[631726.191,7506509.751],[631728.682,7506553.046],[631740.168,7506596.91],[631752.789,7506628.407],[631772.134,7506685.21],[631775.486,7506708.827],[631792.85,7506779.122],[631801.934,7506851.376],[631807.538,7506877.416],[631816.223,7506912.415],[631822.95,7506955.534],[631814.839,7506997.257],[631810.647,7507033.378],[631817.934,7507082.098],[631808.987,7507140.341],[631805.074,7507172.823],[631805.079,7507200.263],[631791.093,7507260.747],[631786.06,7507296.309],[631787.189,7507341.67],[631789.715,7507377.51],[631790.422,7507418.111],[631788.044,7507427.212],[631790.846,7507437.431],[631791.689,7507453.671],[631790.432,7507471.732],[631791.415,7507488.532],[631794.081,7507524.932],[631791.845,7507544.253],[631793.109,7507562.733],[631794.373,7507588.914],[631795.776,7507605.154],[631798.86,7507629.234],[631802.641,7507641.833],[631804.884,7507657.233],[631803.767,7507674.594],[631806.569,7507687.194],[631810.49,7507699.373],[631812.172,7507708.193],[631816.234,7507726.952],[631818.478,7507748.932],[631821.281,7507766.852],[631828.003,7507783.791],[631834.165,7507801.43],[631838.787,7507817.95],[631843.27,7507837.549],[631848.872,7507855.749],[631851.674,7507871.289],[631853.079,7507898.309],[631853.362,7507913.989],[631850.423,7507918.05],[631841.886,7507921.972],[631830.83,7507931.354],[631816.974,7507939.897],[631775.268,7507969.446],[631732.162,7507999.835],[631710.749,7508014.54],[631699.274,7508027.423],[631688.638,7508038.625],[631673.945,7508058.088],[631662.33,7508073.071],[631650.855,7508087.774],[631636.861,7508106.117],[631628.326,7508123.759],[631618.39,7508133.561],[631605.374,7508142.384],[631590.259,7508152.607],[631581.442,7508160.029],[631562.268,7508168.993],[631547.992,7508175.856],[631536.516,7508185.799],[631526.999,7508193.501],[631519.861,7508198.542],[631511.463,7508200.224],[631503.485,7508200.366],[631496.626,7508199.667],[631488.369,7508207.649],[631481.512,7508215.21],[631472.276,7508226.552],[631463.32,7508238.174],[631454.643,7508243.776],[631445.687,7508253.298],[631439.528,7508259.32],[631435.709,7508275.506],[631434.287,7508288.598],[631428.926,7508298.87],[631408.205,7508322.218],[631397.068,7508335.3],[631394.667,7508342.337],[631394.09,7508355.148],[631395.485,7508366.835],[631405.04,7508384.444],[631409.962,7508389.095],[631413.195,7508393.745],[631418.116,7508399.804],[631423.324,7508401.077],[631434.87,7508400.245],[631445.714,7508396.596],[631453.462,7508392.803],[631465.014,7508385.917],[631473.467,7508380.435],[631483.328,7508375.096],[631495.155,7508374.546],[631508.251,7508372.026],[631516.7,7508370.345],[631522.193,7508368.944],[631530.081,7508365.01],[631545.012,7508357.987],[631546.737,7508357.807],[631558.389,7508356.593],[631568.526,7508356.323],[631590.348,7508356.065],[631596.401,7508357.198],[631607.098,7508360.166],[631621.738,7508361.731],[631631.166,7508365.824],[631641.863,7508368.51],[631682.371,7508370.489],[631704.265,7508371.615],[631724.605,7508372.366],[631752.056,7508375.07],[631771.759,7508382.272],[631783.157,7508387.494],[631804.972,7508393.571],[631812.431,7508396.958],[631826.222,7508402.323],[631833.117,7508406.132],[631836.065,7508413.456],[631832.106,7508429.08],[631833.767,7508455.55],[631830.887,7508479.49],[631828.652,7508498.063],[631823.11,7508545.784],[631823.943,7508556.344],[631826.038,7508571.27],[631828.267,7508593.377],[631827.41,7508604.639],[631828.235,7508622.379],[631830.753,7508637.447],[631828.34,7508655.465],[631827.339,7508669.965],[631826.062,7508678.833],[631823.655,7508691.361],[631823.787,7508699.527],[631821.383,7508709.38],[631820.947,7508721.628],[631824.296,7508749.789],[631829.986,7508774.85],[631833.824,7508791.755],[631836,7508861.87],[631839.911,7508890.314],[631843.255,7508922.699],[631848.247,7508993.099],[631850.456,7509033.368],[631850.426,7509060.399],[631852.941,7509078.705],[631850.955,7509092.218],[631849.527,7509110.238],[631845.273,7509138.391],[631845.243,7509165.986],[631837.844,7509238.062],[631836.971,7509263.684],[631830.183,7509291.835],[631834.382,7509313.803],[631836.888,7509339.992],[631837.134,7509373.219],[631833.422,7509419.957],[631830.848,7509441.001],[631828.877,7509457.12],[631826.29,7509505.267],[631825.13,7509536.803],[631824.832,7509552.008],[631825.097,7509566.932],[631827.332,7509582.703],[631830.413,7509597.911],[631828.987,7509615.086],[631828.123,7509628.037],[631827.238,7509642.048],[631825.212,7509654.055],[631824.047,7509664.633],[631824.88,7509677.218],[631828.004,7509688.663],[631830.269,7509700.106],[631831.382,7509715.836],[631833.355,7509730.997],[631835.336,7509741.581],[631836.736,7509756.741],[631837.006,7509764.748],[631837.546,7509781.05],[631838.099,7509791.06],[631840.936,7509802.79],[631843.766,7509817.952],[631849.177,7509830.259],[631857.713,7509852.868],[631874.306,7509881.056],[631878.86,7509892.79],[631883.983,7509905.383],[631889.087,7509927.985],[631890.786,7509936.853],[631892.313,7509947.245],[631892.762,7509950.298],[631895.603,7509959.74],[631904.711,7509982.636],[631911.492,7509999.999],[631914.103,7510006.676],[631916.364,7510020.407],[631919.483,7510034.425],[631925.992,7510053.342],[631936.787,7510090.826],[631944.766,7510105.712],[631953.304,7510126.89],[631964.995,7510144.93],[631971.537,7510163.531],[631978.09,7510176.126],[631988.922,7510194.736],[631995.189,7510207.331],[632007.174,7510221.367],[632017.441,7510236.258],[632027.424,7510250.576],[632035.396,7510268.608],[632042.518,7510283.206],[632053.07,7510298.669],[632063.055,7510311.558],[632072.755,7510323.874],[632079.862,7510345.621],[632083.267,7510359.355],[632089.538,7510370.234],[632098.655,7510388.268],[632108.068,7510400.869],[632130.042,7510425.792],[632135.982,7510459.262],[632132.516,7510476.699],[632128.458,7510503.573],[632147.277,7510533.351],[632149.267,7510539.36],[632165.529,7510559.982],[632173.518,7510569.721],[632184.653,7510579.466],[632196.639,7510592.93],[632207.207,7510600.386],[632215.481,7510610.411],[632225.469,7510622.156],[632232.318,7510629.891],[632232.573,7510645.619],[632233.968,7510663.352],[632237.081,7510680.231],[632235.332,7510696.813],[632234.142,7510719.688],[632230.96,7510738.27],[632226.052,7510761.138],[632222.005,7510783.15],[632217.97,7510798.298],[632219.083,7510814.314],[632225.063,7510827.767],[632231.034,7510845.223],[632234.715,7510864.39],[632239.527,7510889.851],[632239.786,7510903.292],[632238.867,7510934.175],[632238.818,7510958.768],[632241.607,7510995.091],[632243.582,7511008.822],[632252.397,7511034.862],[632254.944,7511048.308],[632257.776,7511062.612],[632264.903,7511074.351],[632276.2,7511102.616],[632273.838,7511121.617],[632274.693,7511139.451],[632278.469,7511159.921],[632283.423,7511173.376],[632283.698,7511187.994],[632284.268,7511199.981],[632290.392,7511212.56],[632300.903,7511224.56],[632309.659,7511237.142],[632311.105,7511250.592],[632313.427,7511264.043],[632320.415,7511288.025],[632317.757,7511309.364],[632323.878,7511324.866],[632323.855,7511343.869],[632324.411,7511367.258],[632337.262,7511378.676],[632349.534,7511384.539],[632361.52,7511386.015],[632377.309,7511385.743],[632393.091,7511391.025],[632431.38,7511401.012],[632459.727,7511411.865],[632492.758,7511418.63],[632511.755,7511424.501],[632538.069,7511424.826],[632572.273,7511428.084],[632583.394,7511419.035],[632600.941,7511415.841],[632617.319,7511411.768],[632648.896,7511411.807],[632673.736,7511421.486],[632690.985,7511422.092],[632705.891,7511426.788],[632720.502,7511432.946],[632737.895,7511438.23],[632757.765,7511448.633],[632770.184,7511455.519],[632786.693,7511464.603],[632815.921,7511475.018],[632835.945,7511479.282],[632861.961,7511485.6],[632880.077,7511496.293],[632890.011,7511502.007],[632900.677,7511507.721],[632912.802,7511515.922],[632920.25,7511522.217],[632928.286,7511526.027],[632937.639,7511529.693],[632955.912,7511531.178],[632965.556,7511535.868],[632977.535,7511542.899],[632990.54,7511549.201],[633004.704,7511563.105],[633014.493,7511568.672],[633026.617,7511577.458],[633033.05,7511576.735],[633042.407,7511576.454],[633051.18,7511575.734],[633059.802,7511579.4]]]},"properties":{"GmlID":"LED.2800542","OBJECTID":2800542,"Geometrikvalitet":"<= 20 meter","Led_ID":"30466874","Lednamn":"Kungsleden, Vandringsled BD50 mellan Dievssájávri och Vákudavárre","Beskrivning":"Vandringsled BD50 mellan Teusajaure och Vakkotavare","Ledmarkering":"Målade fläckar på stenar och rösen","Typ_av_led":"Vandringsled","Ledkategori":"Barmarksled","Statlig_led":"Teusajaure - Vakkotavare (BD 50)","Statlig_led_ID":"BD 50","Skyddat_område":"Stora Sjöfallet/Stuor Muorkke (2001219)","Skyddat_område_ID":"2001219","Längd_på_led_m":13890,"Kommun":"Gällivare","Län":"Norrbottens Län","Längd_på_delsträcka_m":13890.39932159}}]}
