{"type":"FeatureCollection","crs":{"type":"name","properties":{"name":"EPSG:3006"}},"features":[{"type":"Feature","geometry":{"type":"MultiLineString","coordinates":[[[638547.0186,7537071.1465],[638541.8706,7537075.5341],[638538.0926,7537079.3121],[638534.9443,7537084.6642],[638530.2219,7537093.7942],[638525.4994,7537104.4984],[638522.3512,7537109.2209],[638521.0918,7537116.1471],[638519.5177,7537119.9251],[638516.728,7537126.544],[638508.549,7537141.916],[638495.588,7537162.872],[638482.65,7537177.667],[638474.173,7537197.8],[638462.045,7537220.719],[638451.351,7537234.683],[638440.384,7537246.404],[638432.794,7537253.938],[638418.8472,7537269.9426],[638409.2944,7537290.2834],[638393.21,7537305.6659],[638376.0434,7537340.9751],[638367.183,7537349.474],[638356.8856,7537357.179],[638339.9491,7537377.2588],[638326.98,7537390.494],[638308.424,7537409.469],[638296.044,7537424.826],[638282.263,7537440.178],[638269.339,7537451.053],[638258.377,7537461.654],[638250.207,7537468.9017],[638244.6002,7537476.9619],[638236.0128,7537488.694],[638225.8495,7537505.5694],[638225.7606,7537507.7691],[638212.1773,7537524.9943],[638199.4799,7537533.6561],[638190.564,7537552.2421],[638182.7531,7537564.9627],[638177.0205,7537578.8929],[638172.773,7537586.242],[638162.354,7537601.326],[638161.6482,7537602.7007],[638158.665,7537603.1349],[638155.7035,7537603.3232],[638150.6973,7537602.8222],[638146.8255,7537603.7014],[638135.3525,7537610.6715],[638130.3248,7537612.7528],[638119.4613,7537614.7662],[638103.6117,7537620.7916],[638092.1444,7537622.0428],[638087.0381,7537625.0752],[638076.1489,7537630.41],[638056.6067,7537643.4382],[638049.2402,7537646.8821],[638022.8565,7537663.5551],[637988.3521,7537705.2079],[637968.237,7537731.4895],[637956.7356,7537739.4796],[637948.8607,7537744.4413],[637942.0354,7537754.3559],[637930.7419,7537763.7325],[637927.9413,7537764.3416],[637918.4782,7537772.1496],[637916.6864,7537775.2095],[637903.9543,7537782.487],[637888.0862,7537790.7873],[637870.021,7537803.7259],[637849.7586,7537816.6645],[637840.9323,7537828.8728],[637838.9725,7537831.0899],[637834.4034,7537838.7937],[637829.4193,7537847.0838],[637828.1819,7537852.2691],[637827.493,7537853.8986],[637825.9629,7537860.4817],[637824.1745,7537866.2274],[637823.2871,7537869.1381],[637824.3734,7537875.327],[637828.6535,7537885.093],[637828.5795,7537896.2747],[637834.0779,7537907.6969],[637840.3152,7537924.0913],[637845.6344,7537937.685],[637847.9439,7537950.3321],[637848.5598,7537963.0389],[637850.3966,7537972.6562],[637849.664,7537988.0712],[637848.3541,7537991.5772],[637846.1178,7537994.4909],[637847.5694,7538004.1345],[637847.9958,7538005.8751],[637850.0921,7538013.8353],[637851.1771,7538025.3026],[637845.97,7538030.657],[637832.685,7538058.9866],[637829.515,7538076.598],[637823.2777,7538095.2715],[637826.434,7538109.735],[637824.9576,7538124.2771],[637812.0787,7538142.4196],[637805.5315,7538154.8141],[637803.1644,7538160.9168],[637801.2321,7538168.5733],[637798.9758,7538177.2487],[637796.591,7538194.934],[637792.409,7538204.4],[637779.0979,7538223.9369],[637768.5143,7538244.3312],[637761.6829,7538260.2339],[637757.8752,7538277.4804],[637751.7101,7538306.8555],[637753.0717,7538318.9419],[637756.262,7538341.0769],[637761.3469,7538359.9056],[637761.9068,7538385.3275],[637760.6749,7538395.2947],[637756.1953,7538403.134],[637747.908,7538412.3172],[637748.1991,7538416.6118],[637753.8435,7538436.3953],[637752.8808,7538474.9703],[637767.3944,7538513.5569],[637769.4102,7538522.5161],[637783.9152,7538568.7324],[637785.062,7538579.5552],[637768.601,7538639.945],[637762.093,7538648.002],[637759.165,7538655.519],[637749.133,7538668.045],[637743.142,7538675.839],[637736.729,7538690.735],[637735.4471,7538700.4316],[637732.9647,7538713.3151],[637732.3596,7538729.1575],[637728.4065,7538746.8573],[637727.227,7538753.109],[637724.157,7538765.36],[637720.531,7538776.358],[637712.585,7538793.62],[637707.0946,7538805.5429],[637698.7941,7538818.014],[637684.4315,7538844.9137],[637683.7959,7538849.9547],[637674.2542,7538859.2878],[637673.1027,7538866.7582],[637662.0531,7538880.1693],[637655.5858,7538888.8247],[637639.7089,7538909.7418],[637627.8304,7538921.1961],[637619.6369,7538934.389],[637604.0832,7538949.9427],[637594.7788,7538961.4691],[637585.4167,7538983.8204],[637577.353,7538998.658],[637570.662,7539013.414],[637568.705,7539028.729],[637566.857,7539053.344],[637568.514,7539077.851],[637564.044,7539106.532],[637562.083,7539127.695],[637560.672,7539163.34],[637560.892,7539193.415],[637551.604,7539207.08],[637551.604,7539217.126],[637558.65,7539230.202],[637557.845,7539241.313],[637549.47,7539280.852],[637539.428,7539314.264],[637535.237,7539339.325],[637535.779,7539366.895],[637536.879,7539392.237],[637536.871,7539408.111],[637537.298,7539426.227],[637541.855,7539441.066],[637545.472,7539472.177],[637542.606,7539488.744],[637539.987,7539502.552],[637537.653,7539517.184],[637533.125,7539528.6271],[637534.2303,7539534.988],[637540.5931,7539573.0851],[637542.812,7539582.465],[637547.4068,7539589.0205],[637566.8806,7539612.5835],[637567.3253,7539622.1441],[637569.187,7539629.2204],[637569.4609,7539636.9331],[637567.3846,7539647.8138],[637566.0635,7539654.1034],[637563.342,7539661.362],[637558.527,7539676.019],[637555.6567,7539684.2496],[637555.1909,7539685.1548],[637552.6509,7539692.1067],[637548.5565,7539702.7593],[637548.0754,7539705.0097],[637545.384,7539712.259],[637541.6708,7539723.2654],[637539.3812,7539735.2503],[637539.4908,7539738.5988],[637539.5264,7539739.6851],[637540.1394,7539741.8098],[637541.4243,7539748.3559],[637542.2698,7539760.7562],[637543.764,7539770.986],[637544.7119,7539781.0513],[637543.899,7539784.5482],[637542.3631,7539788.3008],[637542.4238,7539801.8703],[637539.7315,7539820.1355],[637539.7709,7539824.6753],[637538.0544,7539835.195],[637537.8342,7539842.239],[637535.2472,7539847.6519],[637531.9105,7539860.6127],[637530.3527,7539863.5599],[637529.5562,7539868.689],[637526.0591,7539879.3163],[637525.9287,7539884.9755],[637526.4505,7539891.5686],[637523.652,7539904.9445],[637522.9495,7539918.454],[637517.0772,7539936.8413],[637516.8165,7539939.7195],[637514.1111,7539957.7363],[637514.1388,7539971.4549],[637516.5981,7539981.708],[637522.213,7540000],[637527.618,7540020.756],[637534.437,7540041.223],[637540.7,7540061.283],[637544.173,7540077.924],[637548.229,7540097.73],[637549.59,7540109.844],[637552.446,7540119.877],[637552.951,7540129.105],[637550.557,7540137.812],[637543.094,7540149.463],[637540,7540157.074],[637539.107,7540164.249],[637535.209,7540174.073],[637529.807,7540185.153],[637526.588,7540194.005],[637524.484,7540204.087],[637521.875,7540218.859],[637520.23,7540233.622],[637520.252,7540249.609],[637520.951,7540264.487],[637522.204,7540279.634],[637524.934,7540290.77],[637527.8062,7540303.966],[637529.373,7540321.46],[637531.725,7540336.183],[637535.1017,7540340.5716],[637533.6938,7540354.9067],[637531.7099,7540357.0105],[637521.9106,7540378.2092],[637515.3685,7540390.7784],[637514.6056,7540396.8815],[637510.4097,7540405.2733],[637510.0283,7540414.0465],[637509.2239,7540428.3809],[637507.974,7540437.7553],[637505.7866,7540446.3485],[637504.5367,7540452.5981],[637500.7869,7540460.4101],[637500.0057,7540464.3161],[637500.7869,7540472.7531],[637493.3362,7540485.4378],[637489.4302,7540492.0292],[637486.5007,7540509.3621],[637486.0125,7540528.1597],[637487.2182,7540540.86]]]},"properties":{"GmlID":"LED.2799106","OBJECTID":2799106,"Geometrikvalitet":"<= 20 meter","Led_ID":"30442476","Lednamn":"Vandringsled BD38 mellan Sälka och Singi","Beskrivning":"Vandringsled BD38 mellan Sälka och Singi","Ledmarkering":"Målade fläckar på stenar och rösen","Typ_av_led":"Vandringsled","Ledkategori":"Barmarksled","Statlig_led":"Sälka - Singi (BD 38)","Statlig_led_ID":"BD 38","Skyddat_område":null,"Skyddat_område_ID":null,"Längd_på_led_m":11948,"Kommun":"Kiruna","Län":"Norrbottens Län","Längd_på_delsträcka_m":3941.90850342}},{"type":"Feature","geometry":{"type":"MultiLineString","coordinates":[[[639481.7851,7529980.7041],[639479.053,7529984.051],[639475.3646,7529988.8323],[639471.8812,7529993.3403],[639468.2486,7529997.4494],[639456.2894,7530006.2786],[639444.9978,7530016.1732],[639445.7855,7530024.7268],[639447.4959,7530031.4938],[639450.2803,7530042.0969],[639452.6006,7530053.8181],[639452.8578,7530064.239],[639450.4967,7530071.0734],[639450.2434,7530079.4171],[639449.3266,7530092.2429],[639444.9238,7530107.8629],[639443.4863,7530126.0002],[639443.9456,7530135.0191],[639440.1135,7530140.7626],[639439.9391,7530151.3359],[639438.328,7530155.6951],[639435.4058,7530164.5837],[639435.0727,7530169.0595],[639422.3486,7530193.0825],[639421.0368,7530197.3602],[639416.2159,7530204.0486],[639414.5771,7530206.5045],[639413.462,7530210.4597],[639413.4386,7530212.258],[639412.9073,7530245.2816],[639414.8229,7530249.6314],[639415.4204,7530252.9045],[639415.436,7530258.8412],[639413.6744,7530265.7293],[639409.8669,7530270.4315],[639409.036,7530274.0273],[639408.0665,7530279.4105],[639406.6591,7530283.8885],[639405.9584,7530285.9028],[639405.4795,7530288.1448],[639404.7085,7530295.5541],[639403.9256,7530303.8623],[639402.9415,7530310.3693],[639400.1209,7530319.7752],[639398.267,7530324.0226],[639396.2,7530327.3681],[639394.4021,7530330.923],[639393.0949,7530338.3987],[639392.0766,7530350.4712],[639391.9565,7530359.6874],[639391.6965,7530362.3819],[639390.7739,7530364.1685],[639389.606,7530367.5256],[639384.0675,7530378.4699],[639381.4923,7530386.305],[639378.9493,7530391.6677],[639378.3115,7530394.1995],[639378.408,7530394.1741],[639379.5143,7530398.8027],[639378.4407,7530403.417],[639379.1321,7530409.3348],[639378.6383,7530413.1814],[639379.0939,7530418.73],[639379.5017,7530425.257],[639377.895,7530431.6244],[639377.9662,7530432.5728],[639377.5333,7530448.5297],[639378.3885,7530451.9132],[639382.0281,7530465.8998],[639382.3253,7530477.5945],[639379.7032,7530489.0263],[639376.696,7530495.507],[639372.7485,7530505.123],[639366.9589,7530518.0874],[639362.083,7530529.9394],[639359.0318,7530539.7919],[639358.7396,7530544.959],[639358.3947,7530554.1723],[639357.6044,7530565.3255],[639355.8676,7530580.4748],[639353.0517,7530594.0707],[639349.6079,7530605.2398],[639345.2789,7530616.8371],[639338.3565,7530631.1248],[639329.497,7530646.7552],[639328.3318,7530651.7973],[639325.3649,7530660.1142],[639317.7067,7530674.0868],[639310.5025,7530686.9659],[639301.5253,7530700.9213],[639296.3427,7530710.5286],[639291.9195,7530717.4939],[639290.4457,7530723.923],[639290.477,7530733.3713],[639289.5767,7530737.5399],[639287.3924,7530741.0681],[639286.2678,7530752.4439],[639284.4798,7530760.2872],[639282.8033,7530770.8196],[639282.2489,7530779.6077],[639281.3208,7530783.3337],[639277.052,7530793.2877],[639270.9729,7530801.229],[639269.585,7530806.4881],[639268.3826,7530814.3882],[639267.6343,7530821.1948],[639266.0207,7530826.8907],[639264.9305,7530829.1497],[639264.778,7530832.7854],[639260.6939,7530841.7778],[639259.5526,7530850.7734],[639257.4708,7530858.6621],[639255.6317,7530864.7949],[639252.5759,7530879.9269],[639248.138,7530899.8783],[639246.0705,7530906.6677],[639242.6984,7530912.3407],[639238.4696,7530916.2434],[639236.6765,7530918.8586],[639236.2024,7530921.491],[639234.5975,7530926.5274],[639232.4155,7530942.1106],[639228.0383,7530956.9125],[639222.5366,7530964.4311],[639215.2578,7530972.3982],[639214.8461,7530974.2042],[639212.099,7530982.5239],[639208.0893,7531003.3604],[639203.6972,7531019.7943],[639200.5076,7531028.3281],[639199.1111,7531034.2467],[639198.1514,7531040.3909],[639198.6687,7531043.5577],[639197.3678,7531048.1032],[639193.3781,7531053.2499],[639189.5369,7531061.0229],[639185.0382,7531063.8921],[639183.3034,7531066.1434],[639182.8358,7531066.925],[639176.1433,7531076.5779],[639175.8258,7531079.7329],[639175.194,7531080.9897],[639168.3865,7531097.1722],[639162.4813,7531111.6074],[639156.6593,7531119.6671],[639154.392,7531124.9148],[639154.1063,7531129.9683],[639151.7845,7531139.393],[639147.2787,7531147.6898],[639139.6377,7531160.3433],[639137.3852,7531166.1158],[639131.5528,7531170.9251],[639118.5235,7531190.391],[639110.5726,7531196.4074],[639107.0214,7531199.7167],[639103.8915,7531207.9839],[639100.8517,7531212.6038],[639099.2478,7531221.4313],[639097.689,7531226.855],[639090.8593,7531240.5236],[639086.914,7531244.5556],[639083.7553,7531247.1278],[639081.5282,7531249.2975],[639077.4678,7531257.1603],[639073.1732,7531266.1195],[639072.4678,7531269.6284],[639070.1661,7531277.5142],[639066.8054,7531282.3077],[639061.4173,7531290.8129],[639057.8368,7531295.6037],[639054.0391,7531300.1716],[639052.6742,7531303.6719],[639052.6455,7531305.8704],[639053.2592,7531309.3966],[639054.107,7531311.8263],[639054.5123,7531314.4701],[639054.2407,7531318.4245],[639053.09,7531322.3673],[639053.0355,7531326.5445],[639053.2067,7531330.2846],[639052.9296,7531334.6787],[639051.1019,7531339.932],[639049.9539,7531343.655],[639047.6609,7531350.8812],[639044.9281,7531358.1017],[639043.7859,7531361.3851],[639043.7658,7531362.924],[639044.3996,7531364.9112],[639044.5994,7531366.453],[639047.6428,7531369.1312],[639051.5283,7531374.679],[639055.1682,7531382.2024],[639057.8042,7531386.9591],[639060.5783,7531388.8695],[639062.3627,7531391.4162],[639062.2629,7531393.2226],[639060.7651,7531396.3844],[639060.175,7531402.9367],[639061.7302,7531418.5686],[639062.0724,7531426.049],[639063.8847,7531438.8259],[639064.5932,7531443.8675],[639066.813,7531451.1889],[639066.8281,7531454.4201],[639065.4256,7531458.3671],[639065.699,7531468.3137],[639065.3301,7531479.7428],[639064.5329,7531490.2868],[639063.3162,7531499.2861],[639062.802,7531504.9964],[639063.818,7531511.3861],[639065.2652,7531518.4413],[639068.0228,7531526.1731],[639068.5935,7531532.9969],[639068.5132,7531539.1525],[639067.7648,7531545.9591],[639065.8914,7531554.73],[639064.0753,7531559.104],[639062.2563,7531563.6979],[639060.6257,7531570.7127],[639059.2292,7531576.6313],[639057.5871,7531584.5257],[639054.1791,7531604.956],[639051.574,7531617.8382],[639048.7222,7531630.961],[639046.7941,7531647.9951],[639046.4615,7531654.8144],[639048.4638,7531669.4627],[639049.6027,7531675.5701],[639051.2511,7531679.9783],[639053.4155,7531682.1998],[639057.7473,7531686.3993],[639059.1744,7531689.0986],[639060.1013,7531692.7663],[639060.0632,7531695.6902],[639062.1672,7531702.5413],[639064.0848,7531705.0033],[639068.0219,7531714.3289],[639071.6393,7531724.4527],[639072.9993,7531727.9856],[639075.0377,7531733.402],[639079.8542,7531741.4326],[639087.412,7531754.8885],[639091.9819,7531763.8531],[639093.5609,7531768.5605],[639095.3834,7531772.5681],[639096.4846,7531777.9722],[639096.6639,7531782.1928],[639096.1586,7531784.9983],[639095.8785,7531788.5097],[639096.0731,7531791.5587],[639096.9675,7531794.8512],[639097.3811,7531799.0748],[639097.5512,7531803.9981],[639097.0063,7531809.8495],[639096.9268,7531815.9414],[639097.0908,7531821.3334],[639097.9914,7531824.1572],[639100.9426,7531831.4603],[639103.6198,7531841.8062],[639107.8912,7531855.6881],[639113.1365,7531866.7705],[639119.0664,7531879.2679],[639122.7083,7531887.5174],[639125.2581,7531889.6598],[639127.3485,7531891.0931],[639128.5078,7531892.0457],[639130.6043,7531893.0104],[639134.779,7531896.3454],[639136.8418,7531899.8875],[639143.0824,7531906.5305],[639149.5451,7531914.1137],[639154.4074,7531918.6296],[639161.2658,7531924.1948],[639172.8207,7531928.9073],[639180.0763,7531933.0635],[639195.0042,7531943.4119],[639199.4983,7531947.1042],[639200.5958,7531948.0433],[639206.7877,7531955.1489],[639210.2018,7531956.752],[639214.8015,7531959.4518],[639218.2012,7531959.0518],[639222.301,7531960.7517],[639231.2004,7531965.2514],[639236.2001,7531967.2513],[639243.2635,7531970.483],[639248.6993,7531975.7507],[639252.9599,7531980.6093],[639254.323,7531983.9078],[639256.8667,7531986.5188],[639260.5819,7531989.145],[639265.7029,7531991.7895],[639271.2803,7531995.3775],[639283.5669,7532005.6143],[639294.7065,7532013.9615],[639296.9976,7532017.9752],[639299.3039,7532020.8174],[639302.0971,7532022.2599],[639311.3837,7532028.9425],[639325.5356,7532039.9068],[639336.4591,7532046.8452],[639343.4332,7532051.1543],[639346.6767,7532054.0087],[639348.0551,7532056.1357],[639352.9112,7532061.1202],[639356.1577,7532063.7403],[639358.9481,7532065.4171],[639365.4628,7532069.0172],[639367.3065,7532071.3846],[639373.5746,7532075.9189],[639385.3712,7532087.7898],[639399.4712,7532102.7372],[639417.9002,7532121.7572],[639424.009,7532128.2889],[639429.87,7532134.0432],[639433.7002,7532137.1902],[639435.9956,7532139.2849],[639443.6703,7532152.1371],[639455.7982,7532166.6035],[639464.5881,7532177.2552],[639468.4171,7532185.1896],[639475.2802,7532194.9383],[639477.4323,7532199.2494],[639481.4726,7532202.5685],[639486.2525,7532212.0781],[639492.7592,7532219.5951],[639492.74,7532221.0634],[639492.123,7532228.7979],[639493.1148,7532231.9078],[639494.1234,7532233.7275],[639501.0365,7532237.9472],[639516.6156,7532250.5383],[639523.77,7532256.0514],[639527.8449,7532260.2339],[639532.9215,7532266.7522],[639543.2959,7532282.6306],[639552.1759,7532294.3602],[639566.394,7532312.3535],[639575.7867,7532324.3479],[639579.4832,7532329.3469],[639581.0315,7532335.3012],[639579.6112,7532339.5538],[639575.497,7532348.5892],[639570.6535,7532359.9947],[639566.1622,7532369.9573],[639564.1433,7532374.3449],[639561.8632,7532378.663],[639561.9235,7532391.2498],[639553.5607,7532402.963],[639550.4495,7532408.9878],[639547.9018,7532416.3113],[639546.8187,7532424.1443],[639541.1689,7532443.6883],[639536.6086,7532454.909],[639532.4044,7532476.4337],[639530.9189,7532488.0832],[639526.0213,7532503.5646],[639526.6037,7532514.0818],[639526.5524,7532536.3526],[639524.6738,7532543.3606],[639524.2283,7532546.2564],[639523.7531,7532559.801],[639524.8117,7532563.5766],[639530.0946,7532571.1342],[639532.7911,7532589.2305],[639535.2406,7532595.992],[639536.1849,7532607.4129],[639536.4206,7532612.4085],[639534.768,7532622.1224],[639535.2725,7532629.8521],[639533.1745,7532633.9509],[639533.7749,7532639.9464],[639531.7103,7532644.2796],[639529.8559,7532652.898],[639535.9649,7532668.623],[639520.2108,7532692.0081],[639514.4448,7532705.1728],[639509.3123,7532719.3758],[639509.7918,7532722.0553],[639513.8321,7532729.119],[639519.5187,7532738.7605],[639523.2181,7532744.7446],[639525.6431,7532748.7428],[639526.514,7532755.7077],[639525.6926,7532758.5865],[639522.8767,7532760.0179],[639519.9401,7532762.5048],[639517.1267,7532766.7168],[639516.3057,7532772.3011],[639516.38,7532780.3404],[639513.0506,7532785.961],[639509.5755,7532797.867],[639505.4609,7532812.5266],[639500.8109,7532830.6124],[639499.1991,7532841.3811],[639498.0649,7532853.137],[639497.4845,7532858.5653],[639494.9528,7532887.6564],[639494.8009,7532915.3808],[639496.1953,7532921.2843],[639497.9846,7532926.1241],[639503.3432,7532932.4387],[639506.2228,7532938.6712],[639506.4242,7532945.8802],[639507.137,7532955.2545],[639506.3948,7532966.5381],[639505.2096,7532977.6228],[639506.107,7532988.6043],[639505.6043,7532991.7526],[639503.9093,7532994.782],[639500.4454,7532998.1975],[639492.7791,7533002.6924],[639484.2171,7533007.8375],[639479.9789,7533011.0823],[639473.7855,7533018.3738],[639465.4221,7533027.1051],[639467.1449,7533042.1063],[639468.505,7533051.3811],[639469.861,7533060.2268],[639472.2105,7533068.1045],[639474.5025,7533080.3955],[639474.9608,7533082.8537],[639476.2912,7533093.6608],[639477.2271,7533097.1061],[639477.1823,7533100.5387],[639477.0736,7533108.8748],[639477.0097,7533113.7784],[639476.9265,7533120.1531],[639476.8562,7533125.5471],[639480.1544,7533135.8894],[639480.2185,7533148.8211],[639482.3089,7533156.3955],[639487.2455,7533169.1745],[639488.0649,7533177.489],[639491.6062,7533185.3324],[639494.9698,7533203.2734],[639497.0204,7533212.232],[639491.5119,7533226.9722],[639490.6312,7533235.0956],[639490.8879,7533236.7703],[639493.0274,7533259.5381],[639496.693,7533272.1455],[639496.3859,7533276.0439],[639496.5196,7533282.5846],[639493.6458,7533289.0059],[639494.768,7533295.5505],[639499.4788,7533306.7641],[639501.7219,7533322.4728],[639507.4581,7533339.0857],[639513.8296,7533362.7289],[639511.5598,7533377.3238],[639507.0724,7533415.5391],[639509.0999,7533426.081],[639508.1101,7533432.6846],[639503.2314,7533448.2496],[639504.3979,7533468.9549],[639509.0639,7533486.744],[639510.2117,7533489.958],[639512.451,7533494.6444],[639516.4149,7533506.8506],[639515.1185,7533517.7368],[639515.188,7533522.3221],[639515.2728,7533529.3616],[639517.803,7533535.8668],[639522.2709,7533543.1268],[639525.1298,7533549.5826],[639531.6092,7533562.5816],[639531.681,7533570.7479],[639533.3809,7533579.3474],[639536.1848,7533582.6883],[639542.309,7533603.3936],[639544.3521,7533612.2559],[639543.9676,7533621.902],[639544.2443,7533629.9199],[639547.2666,7533643.3461],[639549.4086,7533666.8261],[639548.3118,7533679.9196],[639547.6263,7533690.6943],[639549.6121,7533701.0151],[639549.0117,7533717.1898],[639546.049,7533726.817],[639546.8228,7533740.0045],[639548.6627,7533749.3469],[639552.4641,7533758.7149],[639552.3937,7533764.1089],[639554.3476,7533771.0007],[639553.7036,7533774.8515],[639550.5115,7533784.3348],[639548.2998,7533793.941],[639548.3825,7533806.6979],[639549.4684,7533814.1786],[639550.6667,7533820.9294],[639551.4148,7533831.6215],[639553.1547,7533843.0241],[639551.4467,7533856.7481],[639550.5233,7533873.3481],[639549.3571,7533881.4621],[639545.6343,7533895.9048],[639542.3247,7533905.7581],[639539.7542,7533913.147],[639537.8675,7533922.312],[639536.3434,7533930.7748],[639532.7127,7533938.1498],[639528.9899,7533952.5925],[639526.7497,7533961.7529],[639526.6898,7533966.3469],[639526.6483,7533969.5274],[639525.877,7533974.4656],[639523.706,7533978.3252],[639522.2602,7533980.7804],[639520.7867,7533985.356],[639520.7544,7533987.8297],[639520.7176,7533990.6568],[639520.5502,7533998.7395],[639520.4392,7534007.2494],[639520.7388,7534015.3593],[639522.2856,7534021.0537],[639524.3902,7534030.6057],[639525.0579,7534041.5575],[639524.6783,7534055.1301],[639523.7198,7534066.4661],[639523.8351,7534073.155],[639523.9876,7534077.0074],[639525.0659,7534087.5592],[639525.3443,7534097.2901],[639524.1859,7534108.4207],[639524.1224,7534113.2835],[639523.646,7534118.7488],[639522.1113,7534127.6454],[639519.1161,7534139.7654],[639517.008,7534146.0201],[639514.9316,7534149.8433],[639513.6763,7534152.8667],[639513.005,7534157.7216],[639513.3759,7534160.3608],[639513.4651,7534167.1532],[639510.2295,7534171.4127],[639508.0178,7534176.1638],[639506.5504,7534179.3532],[639506.4332,7534179.9274],[639505.3595,7534187.8685],[639505.0228,7534193.1278],[639504.3828,7534197.6715],[639504.7668,7534199.5274],[639506.0467,7534201.1273],[639507.6761,7534203.1622],[639507.8748,7534212.0138],[639505.9681,7534215.5878],[639503.0284,7534223.4528],[639500.7362,7534228.2865],[639499.8835,7534231.5177],[639500.2174,7534236.9936],[639501.3432,7534243.8985],[639503.0169,7534250.0594],[639504.8948,7534252.26],[639506.5587,7534254.9478],[639510.3984,7534260.1315],[639514.4942,7534264.3552],[639513.5982,7534267.235],[639511.5013,7534273.01],[639510.9613,7534283.338],[639511.4344,7534293.6794],[639510.1341,7534300.1472],[639506.776,7534309.02],[639504.8705,7534315.2773],[639504.1913,7534320.7399],[639504.8829,7534329.8683],[639504.9824,7534337.773],[639505.9241,7534343.2568],[639503.5966,7534357.8776],[639501.669,7534364.8327],[639500.1374,7534369.5887],[639500.0943,7534372.8945],[639500.0368,7534377.3023],[639500.0129,7534379.1389],[639498.1331,7534382.4209],[639497.3841,7534383.5132],[639496.9976,7534384.9777],[639496.9641,7534387.5489],[639496.9497,7534388.6509],[639496.5201,7534393.4213],[639496.4291,7534400.4003],[639496.3525,7534406.2774],[639495.5651,7534410.3083],[639495.1451,7534414.344],[639493.5224,7534426.0791],[639494.4568,7534438.9496],[639495.1004,7534445.9383],[639497.1606,7534456.9866],[639502.9786,7534489.7595],[639506.417,7534507.8059],[639507.733,7534519.5794],[639509.4594,7534528.0516],[639512.8547,7534549.404],[639515.2822,7534560.4571],[639519.8561,7534575.9467],[639526.2666,7534591.4604],[639530.1874,7534600.696],[639531.6087,7534604.3884],[639532.3098,7534606.9692],[639533.2777,7534617.2685],[639532.3515,7534631.9517],[639532.2124,7534642.6039],[639545.5269,7534720.295],[639549.0468,7534732.0972],[639554.7514,7534745.3973],[639561.9206,7534759.0839],[639573.0774,7534776.8637],[639583.8527,7534795.7407],[639593.5115,7534815.7053],[639608.2362,7534841.614],[639623.7051,7534866.7977],[639629.0999,7534875.6852],[639633.3928,7534884.5584],[639634.4085,7534891.1845],[639634.3462,7534895.9596],[639636.7881,7534905.9108],[639639.2731,7534912.556],[639647.1145,7534931.0274],[639652.4562,7534943.7806],[639654.9667,7534967.6301],[639658.7324,7534990.852],[639668.1467,7535009.6806],[639672.54,7535026.6263],[639673.1676,7535044.1996],[639676.3057,7535054.8691],[639680.0714,7535066.1662],[639688.8581,7535080.6015],[639692.6238,7535090.6433],[639695.1343,7535103.8233],[639689.4857,7535114.4928],[639688.2305,7535125.79],[639694.4319,7535140.4363],[639698.2724,7535155.9157],[639705.4693,7535173.4329],[639706.9922,7535177.2356],[639706.9697,7535180.6442],[639703.47,7535197.0431],[639700.0023,7535211.451],[639697.9791,7535214.0075],[639687.6672,7535219.2495],[639671.2631,7535220.9185],[639651.0717,7535222.8404],[639637.9688,7535226.6925],[639627.1222,7535232.4999],[639620.4815,7535242.7285],[639616.312,7535246.355],[639603.0141,7535260.379],[639595.8142,7535268.0317],[639585.728,7535274.771],[639569.162,7535285.84],[639558.022,7535293.7891],[639546.947,7535310.4406],[639532.86,7535319.94],[639516.847,7535336.996],[639510.437,7535344.7971],[639506.143,7535356.899],[639504.485,7535372.876],[639497.4098,7535383.5458],[639494.7985,7535387.0249],[639490.2689,7535391.4035],[639484.1891,7535398.9998],[639473.9391,7535412.7501],[639463.2208,7535425.8959],[639457.547,7535437.16],[639453.999,7535450.769],[639439.0561,7535470.483],[639429.4534,7535474.997],[639416.8328,7535484.6031],[639406.9188,7535494.2375],[639404.9875,7535497.5172],[639404.3454,7535499.1392],[639399.4288,7535505.1297],[639376.6297,7535519.6863],[639367.7988,7535525.2703],[639363.208,7535529.241],[639341.484,7535549.701],[639310.157,7535578.93],[639301.0414,7535589.2188],[639283.0031,7535612.6874],[639265.075,7535630.3105],[639251.695,7535645.785],[639210.232,7535689.847],[639187.634,7535716.576],[639174.7481,7535736.777],[639162.14,7535758.974],[639157.6086,7535766.1405],[639151.5929,7535779.299],[639151.8257,7535784.9486],[639150.2514,7535793.5632],[639146.8562,7535802.1647],[639146.0541,7535812.5439],[639142.8272,7535823.7144],[639140.0188,7535829.5485],[639133.5785,7535849.1402],[639133.7317,7535854.7007],[639131.625,7535861.787],[639126.1611,7535878.018],[639125.1989,7535892.8071],[639122.7853,7535902.6173],[639116.502,7535918.5735],[639110.4376,7535933.6467],[639101.198,7535963.6933],[639094.7433,7535983.8988],[639080.4783,7536024.8368],[639076.445,7536035.7203],[639073.5713,7536045.0955],[639070.7302,7536053.6617],[639056.382,7536073.1116],[639050.9984,7536085.9607],[639048.7795,7536093.7632],[639044.9459,7536105.3378],[639043.1919,7536109.257],[639034.8024,7536132.2113],[639031.6509,7536142.5483],[639024.8962,7536162.4467],[639023.2395,7536164.7148],[639016.4608,7536170.9246],[639012.6359,7536175.1167],[639009.3664,7536181.2284],[639005.1895,7536185.6454],[638998.5876,7536190.4884],[638990.3862,7536194.5161],[638986.7978,7536196.9099],[638981.6943,7536204.0762],[638977.5541,7536209.2969],[638966.5414,7536228.6528],[638959.5699,7536240.8535],[638944.887,7536261.164],[638924.293,7536285.048],[638907.995,7536302.103],[638897.8534,7536319.6876],[638888.7022,7536341.4164],[638884.0269,7536354.3224],[638876.3988,7536363.2555],[638871.301,7536372.688],[638864.1191,7536391.7651],[638861.224,7536407.149],[638856.593,7536431.08],[638855.314,7536436.1241],[638848.7441,7536450.5273],[638844.5544,7536457.153],[638844.3629,7536458.427],[638837.825,7536484.448],[638835.22,7536507.402],[638832.323,7536533.717],[638826.072,7536558.058],[638820.3831,7536581.841],[638819.6233,7536584.7245],[638813.0131,7536615.6677],[638807.8839,7536632.497],[638797.6966,7536664.6979],[638793.2895,7536676.5991],[638790.7863,7536681.9129],[638784.7191,7536683.2355],[638776.857,7536688.661],[638762.8787,7536709.9991],[638754.61,7536721.345],[638740.6772,7536744.2334],[638735.3791,7536755.0202],[638725.0537,7536778.2659],[638718.2641,7536791.782],[638700.4169,7536812.8881],[638692.892,7536824.457],[638682.9447,7536843.7219],[638674.8225,7536861.2458],[638671.6275,7536865.5223],[638669.6077,7536873.0969],[638663.4333,7536890.3345],[638658.1142,7536895.2086],[638655.645,7536899.653],[638646.828,7536914.235],[638641.522,7536924.4172],[638637.5504,7536931.0503],[638629.9751,7536944.6645],[638625.801,7536954.3134],[638622.8635,7536959.4841],[638616.4341,7536973.0663],[638611.3866,7536982.2379],[638600.3631,7536997.3964],[638597.853,7537001.379],[638591.0083,7537016.4642],[638586.8188,7537023.8487],[638579.1147,7537027.7191],[638576.0035,7537034.3607],[638574.5006,7537036.6724],[638568.0468,7537046.9581],[638560.1812,7537058.0505],[638547.0186,7537071.1465]]]},"properties":{"GmlID":"LED.2799107","OBJECTID":2799107,"Geometrikvalitet":"<= 20 meter","Led_ID":"30442476","Lednamn":"Vandringsled BD38 mellan Sälka och Singi","Beskrivning":"Vandringsled BD38 mellan Sälka och Singi","Ledmarkering":"Målade fläckar på stenar och rösen","Typ_av_led":"Vandringsled","Ledkategori":"Barmarksled","Statlig_led":"Sälka - Singi (BD 38)","Statlig_led_ID":"BD 38","Skyddat_område":null,"Skyddat_område_ID":null,"Längd_på_led_m":11948,"Kommun":"Gällivare, Kiruna","Län":"Norrbottens Län","Längd_på_delsträcka_m":8005.77669023}}]}
