{"type":"FeatureCollection","crs":{"type":"name","properties":{"name":"EPSG:3006"}},"features":[{"type":"Feature","geometry":{"type":"MultiLineString","coordinates":[[[587505.3415,7364069.2034],[587505.3776,7364069.1503],[587510.6956,7364069.5687],[587514.2645,7364069.5406],[587517.4649,7364069.5406],[587521.9922,7364069.3064],[587525.9732,7364068.5258],[587531.5934,7364066.8085],[587537.9686,7364063.6647],[587540.7647,7364062.6118],[587543.9584,7364061.1974],[587546.9929,7364059.9555],[587550.1196,7364058.7635],[587553.5618,7364057.4317],[587557.7185,7364055.7949],[587562.0697,7364054.0523],[587566.454,7364052.4509],[587570.7316,7364050.9021],[587575.2813,7364049.2873],[587579.6738,7364047.5459],[587583.9563,7364045.9599],[587587.7231,7364044.4419],[587591.5261,7364043.0842],[587624.569,7364031.7115],[587626.9045,7364029.6749],[587627.4945,7364029.1513]]]},"properties":{"GmlID":"LED.2800830","OBJECTID":2800830,"Geometrikvalitet":"<= 20 meter","Led_ID":"30467009","Lednamn":"Vandringsled BD87 mellan Jäkkvik och Adolfström","Beskrivning":"Vandringsled BD87 mellan Jäkkvik och Adolfström","Ledmarkering":"Målade fläckar på stenar och rösen ","Typ_av_led":"Vandringsled","Ledkategori":"Barmarksled","Statlig_led":"Jäckvik - Adolfström (BD 87)","Statlig_led_ID":"BD 87","Skyddat_område":null,"Skyddat_område_ID":null,"Längd_på_led_m":21060,"Kommun":"Arjeplog","Län":"Norrbottens Län","Längd_på_delsträcka_m":129.96288236}},{"type":"Feature","geometry":{"type":"MultiLineString","coordinates":[[[574517.9994,7351860.322],[574518.197,7351864.926],[574516.0685,7351875.2325],[574515.1771,7351882.5293],[574518.0174,7351890.4249],[574520.8118,7351899.0763],[574522.9646,7351920.6509],[574526.7298,7351934.9217],[574532.676,7351951.4132],[574533.8672,7351954.3536],[574534.978,7351957.5155],[574539.202,7351969.725],[574542.8,7351979.851],[574547.2701,7351990.721],[574550.1307,7351999.4204],[574555.583,7352020.36],[574560.0306,7352037.3817],[574563.3616,7352048.1329],[574561.2962,7352066.6065],[574565.8321,7352080.3028],[574572,7352086.518],[574581.125,7352095.2752],[574584.881,7352100.417],[574590.456,7352110.207],[574602.445,7352137.585],[574610.508,7352151.681],[574610.8057,7352163.6503],[574608.19,7352179.044],[574601.172,7352194.1],[574597.0095,7352205.5314],[574601.5391,7352212.6679],[574606.2738,7352218.275],[574610.1812,7352226.1075],[574612.291,7352242.052],[574613.2099,7352252.553],[574615.154,7352259.724],[574625.168,7352279.003],[574644.919,7352304.426],[574652.8988,7352315.9293],[574656.391,7352326.9844],[574664.198,7352350.935],[574667.157,7352371.353],[574667.299,7352386.529],[574667.1306,7352410.0887],[574667.8534,7352422.1112],[574671.866,7352431.352],[574677.6708,7352457.3405],[574675.9536,7352480.6433],[574675.624,7352495.861],[574675.9026,7352511.4441],[574674.0635,7352520.7673],[574671.931,7352527.043],[574664.773,7352542.331],[574659.133,7352552.8065],[574650.258,7352571.299],[574643.5423,7352587.3682],[574640.085,7352598.83],[574634.324,7352615.4965],[574630,7352624.967],[574627.772,7352634.9],[574627.222,7352643.713],[574628.9023,7352653.0746],[574631.7027,7352659.1776],[574634.515,7352663.427],[574637.2672,7352666.5597],[574642.3078,7352668.8859],[574648.5725,7352668.5044],[574655.574,7352664.744],[574665.344,7352664.774],[574671.409,7352666.896],[574683.796,7352673.254],[574699.468,7352680.791],[574716.256,7352685.389],[574731.821,7352687.05],[574737.306,7352687.635],[574752.689,7352686.361],[574767.791,7352683.687],[574778.03,7352685.711],[574788,7352693.037],[574800.457,7352701.976],[574816.548,7352708.533],[574829.141,7352714.394],[574833.078,7352721.793],[574836.5061,7352733.5182],[574846.2427,7352749.0132],[574847.4522,7352761.2665],[574853.1491,7352771.8858],[574856.059,7352784.927],[574856.496,7352801.991],[574859.3473,7352825.4286],[574864.5085,7352845.8428],[574869.8245,7352864.5622],[574871.0222,7352877.2532],[574883.3473,7352902.6258],[574900.3875,7352926.0417],[574909.87,7352938.935],[574920.2817,7352951.4517],[574931.43,7352959.378],[574937.0874,7352967.1892],[574940.1346,7352990.7246],[574942.8266,7353002.9069],[574972.5996,7353038.3892],[574992.999,7353055.0994],[575002.8053,7353067.91],[575020.2495,7353104.871],[575025.9406,7353121.4525],[575042.3158,7353147.4347],[575042.3148,7353153.6266],[575038.3734,7353167.4053],[575042.3108,7353186.1377],[575053.5498,7353207.3523],[575058.6188,7353214.7207],[575060.7055,7353229.1342],[575066.9652,7353243.0544],[575088.263,7353278.625],[575098.3483,7353296.1658],[575104.3351,7353312.2707],[575105.5649,7353327.8099],[575107.4006,7353363.7478],[575105.9627,7353380.5851],[575098.3819,7353403.5589],[575098.4341,7353421.0663],[575106.0909,7353433.1878],[575114.087,7353449.804],[575117.246,7353464.176],[575116.7993,7353477.7994],[575107.939,7353511.6959],[575100.0776,7353551.3167],[575092.7644,7353598.6758],[575091.405,7353617.1582],[575080.2386,7353649.1286],[575076.4638,7353665.9984],[575074.8297,7353696.3007],[575078.7875,7353734.1165],[575079.7168,7353775.2294],[575078.3722,7353800.8868],[575093.741,7353841.444],[575100.4624,7353856.644],[575102.0224,7353878.2699],[575109.5675,7353889.3733],[575121.6731,7353906.2961],[575127.6478,7353926.8894],[575154.1228,7353966.2733],[575157.9262,7353983.2593],[575163.8865,7354000.9912],[575168.1051,7354019.5648],[575173.795,7354040.5332],[575182.122,7354065.4065],[575186.6834,7354087.5495],[575200.1455,7354121.3244],[575202.8684,7354136.3515],[575202.5922,7354150.7504],[575199.5081,7354165.5669],[575199.6635,7354188.4126],[575197.0902,7354202.5853],[575191.0587,7354227.1273],[575189.7424,7354245.5511],[575189.5946,7354262.2144],[575210.0315,7354271.9998],[575226.9025,7354281.8664],[575245.4696,7354292.3776],[575270.0518,7354317.9954],[575278.708,7354336.067],[575293.6859,7354350.1882],[575298.3366,7354352.7314],[575312.8727,7354354.6555],[575334.6242,7354359.994],[575351.0671,7354368.0429],[575367.2849,7354375.6103],[575385.2055,7354381.7973],[575410.1249,7354384.3688],[575453.7995,7354388.6335],[575481.0458,7354393.1701],[575525.9872,7354403.4132],[575555.7851,7354410.3964],[575577.2595,7354417.1557],[575586.0971,7354420.7568],[575586.2488,7354420.6665],[575589.9669,7354422.4902],[575605.3926,7354424.0945],[575623.6783,7354425.5383],[575640.602,7354418.7439],[575658.1472,7354418.1473],[575675.3472,7354424.5543],[575694.7643,7354428.1686],[575717.4466,7354434.2483],[575744.8455,7354424.2903],[575769.3335,7354425.1893],[575796.7526,7354432.1109],[575819.8137,7354432.9717],[575836.6789,7354434.1408],[575857.4391,7354440.8828],[575878.058,7354461.6469],[575890.8289,7354473.403],[575906.0357,7354483.0856],[575919.372,7354491.5289],[575923.4275,7354499.9589],[575925.2784,7354510.7063],[575932.4703,7354517.5571],[575941.0953,7354524.2089],[575953.8015,7354529.545],[575958.4096,7354535.1372],[575969.4641,7354539.9532],[575986.5021,7354543.5049],[576000.8344,7354541.516],[576014.4148,7354540.9331],[576019.0557,7354543.3381],[576024.5939,7354552.2479],[576034.1432,7354570.3353],[576060.061,7354588.1235],[576080.6266,7354597.5954],[576116.1147,7354605.2437],[576140.325,7354617.4149],[576164.9671,7354627.3694],[576201.2683,7354632.4409],[576227.7897,7354627.9616],[576255.9872,7354630.2137],[576273.84,7354643.6988],[576301.8759,7354651.8896],[576330.5739,7354663.0701],[576356.8022,7354669.3552],[576383.3717,7354676.764],[576411.6167,7354690.9043],[576428.4246,7354701.7618],[576452.0617,7354707.6057],[576466.0588,7354712.4441],[576491.1718,7354718.7],[576503.6422,7354724.9827],[576528.8663,7354727.1564],[576541.7082,7354733.4493],[576550.9732,7354748.1872],[576562.8388,7354762.9959],[576579.0039,7354770.1225],[576588.5219,7354775.582],[576604.616,7354785.3066],[576625.2899,7354790.6996],[576637.0268,7354796.5913],[576661.7367,7354803.9517],[576682.9138,7354804.5306],[576701.3888,7354808.7497],[576717.9451,7354815.1449],[576734.2314,7354817.8189],[576761.3428,7354818.9321],[576783.6242,7354819.9133],[576799.0759,7354825.9073],[576817.851,7354832.7352],[576844.1886,7354834.9423],[576861.1058,7354841.7196],[576888.4562,7354847.6687],[576902.854,7354851.406],[576922.2292,7354863.4506],[576938.2402,7354876.1458],[576948.719,7354887.2037],[576959.1977,7354898.2616],[576979.1577,7354902.5232],[576998.8278,7354903.8059],[577005.4029,7354908.0717],[577012.9093,7354919.0481],[577029.2151,7354920.9815],[577047.9992,7354927.4396],[577059.7448,7354932.9617],[577070.5129,7354946.9989],[577082.5586,7354955.129],[577095.4186,7354960.6819],[577117.8153,7354970.9536],[577137.2092,7354982.257],[577147.3153,7354993.305],[577159.6606,7355004.0433],[577171.2424,7355015.5033],[577179.1703,7355024.6345],[577193.0728,7355032.816],[577220.9594,7355046.2104],[577234.1493,7355053.2583],[577256.3608,7355070.2105],[577261.1835,7355084.0841],[577263.3341,7355100.4835],[577284.5533,7355112.9519],[577306.0722,7355128.0282],[577335.0205,7355143.3095],[577347.4771,7355149.9662],[577373.2045,7355160.7026],[577406.3613,7355171.6442],[577424.6792,7355181.4339],[577447.1038,7355190.5943],[577466.5052,7355201.5281],[577488.6092,7355208.8231],[577510.0215,7355214.2424],[577527.409,7355217.3225],[577541.8452,7355219.5784],[577551.2494,7355222.5459],[577551.3167,7355222.6076],[577559.9653,7355223.0503],[577571.6678,7355230.0584],[577578.9433,7355235.8299],[577593.9683,7355243.6726],[577602.6372,7355252.8249],[577616.8883,7355261.7603],[577634.0597,7355272.6334],[577652.4173,7355280.9399],[577670.9187,7355284.0517],[577686.7273,7355290.4311],[577694.1888,7355302.8922],[577705.9227,7355322.1559],[577708.6065,7355332.6278],[577716.4907,7355343.2438],[577722.353,7355359.7451],[577727.1522,7355374.3603],[577731.7652,7355382.2861],[577731.4155,7355394.9018],[577736.6581,7355406.9297],[577741.3018,7355413.7424],[577752.4783,7355439.674],[577763.3747,7355448.888],[577784.4057,7355464.4251],[577788.339,7355468.475],[577813.5336,7355487.3818],[577822.1173,7355502.1314],[577832.9721,7355512.8296],[577847.4381,7355527.3412],[577869.6937,7355542.4404],[577885.8203,7355550.6859],[577903.3398,7355562.312],[577924.4768,7355575.91],[577938.6143,7355589.373],[577954.4025,7355603.3572],[577969.2132,7355618.2648],[577994.5084,7355625.9906],[578027.156,7355644.079],[578041.4851,7355656.2478],[578052.7011,7355661.4606],[578067.3394,7355673.9873],[578098.9661,7355709.9707],[578116.4181,7355722.9275],[578125.3722,7355729.4123],[578133.164,7355732.095],[578145.873,7355735.186],[578167.021,7355732.8],[578186.39,7355728.736],[578212.275,7355716.202],[578238.883,7355711.455],[578260.33,7355711.316],[578289.781,7355705.906],[578320.81,7355713.302],[578347.704,7355724.445],[578385.8519,7355756.5935],[578404.2339,7355766.0821],[578423.5112,7355782.7797],[578437.943,7355805.065],[578457.0653,7355824.827],[578483.3014,7355839.3432],[578493.6003,7355845.3344],[578506.6947,7355844.1175],[578515.2747,7355840.4065],[578549.5579,7355809.3575],[578576.8965,7355793.0147],[578594.0782,7355793.2673],[578600.2306,7355792.243],[578609.4874,7355792.9777],[578617.338,7355792.9602],[578627.8765,7355790.4043],[578640.4431,7355783.3903],[578650.704,7355782.2524],[578659.5254,7355781.5494],[578678.4012,7355787.0691],[578684.6191,7355794.3723],[578686.3408,7355800.8365],[578687.928,7355810.7327],[578694.1245,7355819.0823],[578708.5027,7355824.0605],[578719.0239,7355826.0603],[578750.8113,7355847.2803],[578757.479,7355858.675],[578759.8961,7355860.2591],[578764.0656,7355861.3407],[578769.2573,7355863.8224],[578775.0359,7355866.2233],[578778.8028,7355867.3998],[578788.2984,7355865.8173],[578794.5019,7355866.965],[578802.5208,7355865.925],[578811.1549,7355860.328],[578818.0756,7355860.2306],[578825.117,7355862.7644],[578839.682,7355863.3614],[578849.5514,7355867.6784],[578852.9671,7355881.5564],[578859.7906,7355892.6787],[578863.2089,7355898.0024],[578860.0028,7355910.5058],[578853.9377,7355923.1664],[578849.9317,7355938.7363],[578849.1559,7355949.407],[578849.1064,7355959.6229],[578854.8214,7355967.8624],[578860.5364,7355976.1019],[578864.6877,7355980.7333],[578868.18,7355984.101],[578872.8356,7355985.6785],[578879.4108,7355990.9075],[578884.8296,7355992.9332],[578895.24,7355996.2675],[578906.2032,7356001.5944],[578906.4414,7356009.3566],[578905.2209,7356020.2711],[578903.5329,7356026.1543],[578900.9238,7356032.3156],[578902.889,7356043.6239],[578910.3064,7356050.5236],[578924.7198,7356057.7883],[578938.619,7356057.9928],[578954.5903,7356066.5398],[578957.5762,7356070.0204],[578958.1794,7356074.9855],[578963.5184,7356080.0019],[578968.0712,7356085.9086],[578968.6819,7356091.2481],[578969.3226,7356095.524],[578972.3928,7356100.0203],[578976.7055,7356103.6392],[578981.2924,7356108.3304],[578985.2752,7356112.8524],[578988.0326,7356117.6441],[578990.325,7356122.7267],[578995.4522,7356130.2565],[579003.782,7356152.76],[579005.3762,7356158.8523],[579004.3796,7356164.1794],[579005.3395,7356173.3301],[579003.2959,7356181.0275],[579005.3998,7356192.7954],[579009.9266,7356199.6136],[579016.6878,7356208.1673],[579019.4064,7356214.3263],[579019.97,7356221.3368],[579022.68,7356227.7996],[579021.9174,7356233.2522],[579025.8442,7356239.7493],[579031.5277,7356248.7288],[579038.9014,7356257.1477],[579047.9782,7356264.5502],[579051.2794,7356271.6378],[579053.5116,7356278.8473],[579060.7459,7356286.8062],[579071.1263,7356293.7555],[579073.756,7356297.56],[579087.5919,7356321.0657],[579091.4691,7356330.8559],[579094.6746,7356339.948],[579097.4485,7356351.9442],[579098.3964,7356357.4535],[579100.5981,7356362.2839],[579102.8573,7356371.9815],[579106.0969,7356378.009],[579108.3602,7356384.1062],[579113.0448,7356387.255],[579116.6037,7356392.3184],[579120.4314,7356394.7618],[579123.5243,7356395.6276],[579125.0981,7356396.463],[579130.8617,7356397.9756],[579134.481,7356400.8998],[579141.7429,7356406.347],[579144.6478,7356409.286],[579149.57,7356420.3686],[579150.9725,7356424.056],[579151.4962,7356426.1057],[579154.5741,7356433.6005],[579155.1195,7356436.8156],[579167.9881,7356467.5495],[579176.772,7356482.432],[579182.8881,7356491.5298],[579188.4895,7356495.8298],[579197.0941,7356498.3535],[579214.6718,7356501.1309],[579232.3929,7356504.2165],[579239.6132,7356512.6309],[579248.4678,7356522.4599],[579248.4541,7356533.7106],[579251.6299,7356545.2035],[579257.5948,7356554.9507],[579259.406,7356566.2529],[579255.9184,7356571.1715],[579256.4701,7356583.9584],[579256.7949,7356594.0021],[579256.9208,7356598.9221],[579255.3919,7356622.0894],[579254.8085,7356631.9553],[579253.854,7356649.5644],[579252.5102,7356659.4087],[579253.1134,7356670.3722],[579257.229,7356686.3],[579263.294,7356697.8741],[579264.3258,7356704.4406],[579262.3549,7356709.554],[579260.694,7356719.8451],[579262.4433,7356727.9523],[579263.0834,7356732.2272],[579260.6562,7356737.3276],[579259.4929,7356740.7914],[579262.5636,7356750.6082],[579270.0615,7356759.942],[579273.1258,7356763.4985],[579276.8893,7356766.0643],[579280.3027,7356774.5224],[579284.7805,7356783.0106],[579287.376,7356788.101],[579286.2702,7356794.9109],[579288.9447,7356802.588],[579285.6411,7356811.7681],[579287.7863,7356822.0146],[579287.9632,7356831.9012],[579289.0207,7356837.5561],[579289.2749,7356844.7084],[579289.9381,7356853.5446],[579293.3212,7356863.0659],[579294.554,7356873.2863],[579292.8399,7356880.0788],[579288.307,7356889.68],[579289.7477,7356897.93],[579290.8713,7356906.627],[579291.4382,7356913.484],[579291.7886,7356922.6152],[579293.7155,7356929.8146],[579293.2351,7356936.0338],[579282.7976,7356944.5557],[579281.3002,7356949.0739],[579282.6059,7356956.7118],[579283.4598,7356964.1848],[579281.4331,7356971.2723],[579277.8643,7356979.0763],[579273.4965,7356988.2258],[579269.859,7356998.46],[579267.6433,7357012.2308],[579264.5007,7357021.1108],[579262.761,7357028.8143],[579263.889,7357037.3591],[579264.6166,7357043.9162],[579260.8211,7357048.9774],[579264.3201,7357054.3968],[579266.5511,7357061.6045],[579267.8912,7357068.027],[579265.1129,7357074.7889],[579263.6198,7357079.1551],[579260.1543,7357083.3134],[579260.0039,7357088.6295],[579263.7941,7357094.5131],[579263.301,7357101.1877],[579260.5571,7357106.7345],[579258.1818,7357110.0115],[579250.9178,7357135.4862],[579254.8612,7357155.7863],[579255.2813,7357174.5616],[579247.3862,7357193.1016],[579246.2372,7357208.5071],[579254.7818,7357225.8493],[579259.0029,7357244.7316],[579269.8022,7357266.4124],[579271.9858,7357281.6744],[579266.9685,7357299.345],[579265.1008,7357305.2905],[579267.014,7357314.5462],[579275.2172,7357327.1282],[579286.9142,7357333.8716],[579298.1226,7357341.0762],[579301.6348,7357351.388],[579309.0781,7357365.6109],[579311.0238,7357380.8655],[579305.8226,7357396.6304],[579311.6767,7357408.1956],[579311.6389,7357417.9317],[579302.6233,7357434.0633],[579298.8543,7357449.6309],[579297.9091,7357466.2282],[579299.1421,7357481.4621],[579300.245,7357492.8926],[579299.9562,7357503.0962],[579299.7371,7357519.2388],[579299.6614,7357538.7101],[579297.3782,7357552.1818],[579288.1794,7357566.4077],[579281.1723,7357578.7957],[579271.0004,7357613.3213],[579261.7467,7357642.8328],[579254.4347,7357664.4748],[579256.111,7357674.7379],[579260.5328,7357686.4989],[579256.7911,7357701.116],[579252.8455,7357714.5399],[579252.008,7357727.3393],[579248.7146,7357742.9187],[579237.7975,7357750.6836],[579227.4495,7357755.1402],[579219.2662,7357758.7081],[579215.5986,7357770.7149],[579212.7242,7357779.8946],[579209.6935,7357788.5149],[579206.265,7357792.9621],[579202.7926,7357798.9643],[579200.2271,7357803.7471],[579197.3714,7357807.7747],[579196.0906,7357813.4031],[579195.2449,7357816.865],[579178.4074,7357848.0322],[579178.8797,7357858.7229],[579174.4597,7357872.1328],[579169.7954,7357885.7731],[579161.0465,7357900.96],[579156.2051,7357912.4582],[579146.6873,7357921.2123],[579141.3509,7357933.4087],[579137.7106,7357944.4658],[579135.666,7357957.9424],[579140.7467,7357971.6202],[579150.4809,7357980.4431],[579165.0321,7357987.0278],[579183.8021,7357987.3209],[579206.6366,7357986.7793],[579229.3637,7357990.0338],[579259.1489,7357995.8627],[579264.5672,7358005.9886],[579270.4562,7358024.6755],[579274.3889,7358036.8962],[579281.1515,7358049.9092],[579284.8398,7358062.3603],[579296.7846,7358068.6343],[579315.1486,7358074.8526],[579340.5479,7358076.0468],[579356.2522,7358083.8522],[579375.0641,7358091.0334],[579400.6335,7358094.6072],[579425.1095,7358094.8263],[579447.374,7358097.5946],[579465.825,7358100.7297],[579493.5519,7358103.6534],[579510.2999,7358108.1651],[579536.0914,7358103.9113],[579559.2451,7358108.8426],[579576.5857,7358125.9555],[579594.9623,7358131.7011],[579601.58,7358141.3864],[579616.9918,7358151.0842],[579621.6353,7358163.3252],[579628.4297,7358175.1523],[579638.6973,7358181.8548],[579658.9125,7358189.7898],[579683.9383,7358195.7251],[579708.3257,7358199.0307],[579732.2449,7358202.0858],[579751.4547,7358203.5824],[579773.2093,7358207.5258],[579791.2866,7358215.401],[579814.2151,7358219.853],[579833.4932,7358227.2878],[579846.8551,7358242.1515],[579849.9845,7358257.4358],[579862.9456,7358269.6764],[579880.5541,7358277.3012],[579887.0149,7358292.4429],[579883.9357,7358308.737],[579882.458,7358327.2134],[579881.2766,7358331.8483],[579877.4513,7358336.0925],[579875.4845,7358346.7201],[579881.4222,7358355.1989],[579889.9037,7358357.815],[579892.8116,7358358.5247],[579905.5028,7358360.8715],[579911.4704,7358366.2022],[579918.0767,7358370.4983],[579926.1662,7358373.0319],[579933.0338,7358376.8998],[579941.6961,7358381.1924],[579950.7872,7358387.9245],[579957.6721,7358393.0275],[579961.4131,7358399.1522],[579962.8769,7358406.4872],[579966.5554,7358416.1646],[579975.5576,7358425.8421],[579984.5118,7358431.8715],[579989.814,7358437.9487],[580004.2005,7358445.5008],[580014.3487,7358452.3242],[580025.0136,7358457.0352],[580034.9792,7358459.5991],[580039.8167,7358465.9668],[580043.5556,7358473.5187],[580049.1094,7358476.1085],[580054.9629,7358478.8587],[580072.0021,7358489.3739],[580077.4213,7358496.6699],[580079.9138,7358505.2497],[580085.5588,7358515.287],[580088.3118,7358525.3936],[580090.9475,7358534.2813],[580093.8004,7358540.8961],[580101.0562,7358547.7888],[580107.691,7358555.1195],[580112.8582,7358560.585],[580118.8503,7358569.1129],[580117.8342,7358578.0479],[580120.2049,7358585.5605],[580124.6121,7358591.0042],[580127.7427,7358598.5386],[580128.6849,7358602.8196],[580132.9661,7358612.6658],[580133.3437,7358620.729],[580133.539,7358629.8504],[580134.2119,7358643.5435],[580138.6884,7358651.8758],[580167.8259,7358682.3112],[580188.5764,7358706.4468],[580192.2506,7358708.6678],[580195.779,7358711.6314],[580199.0138,7358716.1423],[580209.8208,7358722.5838],[580217.4969,7358730.7039],[580219.795,7358737.9771],[580260.4542,7358780.6466],[580264.5335,7358783.7845],[580269.1071,7358785.3573],[580275.2229,7358787.1506],[580281.3832,7358789.5674],[580286.0228,7358792.874],[580291.5515,7358797.7618],[580302.1757,7358806.2064],[580310.8197,7358812.3792],[580316.1858,7358816.1793],[580319.785,7358817.9536],[580329.0934,7358822.1706],[580332.1757,7358826.0571],[580338.4579,7358829.7315],[580345.1873,7358833.7226],[580350.7009,7358837.6788],[580358.9193,7358842.7761],[580364.9537,7358849.7857],[580371.1443,7358856.6478],[580378.3158,7358866.4246],[580381.9965,7358875.9492],[580387.1539,7358881.7183],[580397.2859,7358894.3145],[580406.2807,7358904.1436],[580416.0358,7358908.6774],[580427.8791,7358914.6385],[580436.0193,7358917.1511],[580450.2858,7358918.1686],[580464.6736,7358920.2531],[580478.4929,7358920.9541],[580488.6819,7358926.2602],[580494.9542,7358935.5555],[580502.3337,7358943.3634],[580508.667,7358950.5336],[580512.0092,7358955.9467],[580518.2734,7358960.2285],[580524.2337,7358964.5016],[580528.974,7358968.8916],[580533.1754,7358976.1523],[580539.5173,7358983.019],[580544.4139,7358987.2615],[580553.5301,7358992.8407],[580560.7836,7358999.7335],[580566.101,7359005.2035],[580574.4749,7359010.1537],[580581.2078,7359013.9933],[580589.1564,7359017.868],[580594.81,7359022.39],[580613.743,7359033.921],[580633.659,7359041.948],[580633.9693,7359042.0386],[580637.6381,7359042.2815],[580642.5251,7359044.6218],[580652.7877,7359047.348],[580659.2122,7359051.3308],[580668.4003,7359054.0972],[580679.9963,7359055.8712],[580692.763,7359062.656],[580712.189,7359072.81],[580719.8936,7359074.1741],[580722.6695,7359076.2498],[580727.8651,7359080.6531],[580735.4744,7359085.7336],[580745.5498,7359089.6699],[580750.12,7359094.6628],[580760.8763,7359101.3531],[580773.2483,7359104.7482],[580782.5551,7359108.9663],[580797.9003,7359114.7258],[580806.6986,7359120.7522],[580810.5309,7359124.9643],[580814.4333,7359126.7479],[580819.1304,7359127.3392],[580827.0491,7359126.9602],[580835.3622,7359128.7193],[580841.0514,7359137.0865],[580844.6528,7359144.0262],[580855.7783,7359148.449],[580859.7449,7359153.2725],[580862.6595,7359162.9268],[580862.4097,7359171.5781],[580860.9487,7359180.0425],[580862.7485,7359186.1707],[580868.2126,7359191.797],[580868.1979,7359197.5689],[580867.5755,7359203.3232],[580870.4214,7359210.0891],[580872.1351,7359213.9362],[580871.707,7359223.4937],[580871.5184,7359230.0199],[580872.6843,7359237.0411],[580872.0487,7359243.2507],[580872.4679,7359249.7945],[580874.576,7359255.7795],[580872.4776,7359260.7927],[580872.7629,7359265.9043],[580873.7767,7359272.921],[580874.3435,7359279.6209],[580872.2002,7359290.6476],[580870.5522,7359300.3214],[580874.8034,7359311.077],[580876.251,7359318.8656],[580874.2393,7359325.339],[580878.0872,7359334.2601],[580879.2222,7359342.3434],[580870.5386,7359348.1683],[580864.0259,7359352.537],[580858.064,7359358.8963],[580856.14,7359362.3343],[580857.1071,7359365.7039],[580860.787,7359369.9113],[580863.2953,7359372.5659],[580864.9519,7359378.3857],[580864.3646,7359382.9255],[580864.8627,7359386.7373],[580868.9414,7359392.9308],[580873.2247,7359397.3075],[580877.1937,7359407.2951],[580878.9189,7359416.0028],[580875.8553,7359427.3061],[580879.8507,7359436.3831],[580882.9037,7359446.496],[580886.8594,7359456.9387],[580890.8635,7359465.7121],[580900.1206,7359471.5995],[580909.2477,7359476.7236],[580919.5875,7359476.7187],[580931.6538,7359480.1053],[580941.0672,7359485.8455],[580948.076,7359490.6047],[580953.4707,7359493.3428],[580954.8013,7359499.9124],[580953.7405,7359505.0459],[580958.6223,7359509.7437],[580963.0527,7359514.2765],[580969.1148,7359520.2235],[580974.4568,7359524.7827],[580981.9739,7359527.7341],[580990.3209,7359528.2793],[580998.7627,7359530.8019],[581003.5847,7359532.3084],[581013.3473,7359531.2239],[581022.7622,7359531.6483],[581038.1787,7359543.5877],[581043.0388,7359543.2317],[581048.4398,7359541.5412],[581054.399,7359540.7417],[581062.0887,7359540.6727],[581068.7341,7359539.6987],[581076.979,7359540.6179],[581086.4077,7359549.591],[581091.593,7359554.2977],[581097.2386,7359558.8659],[581103.1772,7359569.0623],[581106.9073,7359576.7645],[581112.3568,7359582.8459],[581118.1058,7359589.0878],[581124.2422,7359592.4551],[581135.0836,7359596.1108],[581143.6087,7359595.7503],[581163.4441,7359598.6036],[581171.3243,7359604.7555],[581174.8383,7359609.4139],[581181.9984,7359614.178],[581184.8871,7359619.4257],[581187.6107,7359625.1243],[581191.4505,7359629.0327],[581196.5145,7359632.6728],[581199.6475,7359634.7381],[581200.7704,7359637.9602],[581204.2293,7359639.2756],[581209.8326,7359640.0457],[581215.7177,7359641.5833],[581219.4012,7359645.6391],[581224.1657,7359649.1187],[581229.4167,7359651.5493],[581235.4009,7359654.9124],[581239.5725,7359659.0297],[581252.228,7359663.6339],[581281.4117,7359684.6469],[581291.0764,7359685.3857],[581306.5405,7359692.652],[581315.7523,7359694.3038],[581323.4162,7359697.4121],[581328.0441,7359700.1451],[581330.2505,7359704.1998],[581330.6858,7359707.2001],[581328.9632,7359714.3629],[581328.8213,7359718.5887],[581335.3988,7359734.6886],[581337.4713,7359736.7017],[581344.3299,7359743.0151],[581349.6678,7359748.6471],[581355.1041,7359758.4073],[581354.9175,7359769.4078],[581355.4357,7359772.7616],[581357.7604,7359776.4741],[581359.905,7359778.7752],[581362.1928,7359781.3008],[581382.1148,7359821.9459],[581385.6562,7359828.3505],[581390.9424,7359833.9473],[581396.1009,7359837.3634],[581403.2226,7359842.7751],[581409.2171,7359846.5534],[581414.489,7359848.0807],[581421.2527,7359852.3242],[581424.1563,7359856.1994],[581429.9475,7359862.4761],[581433.632,7359869.9911],[581434.5923,7359878.7608],[581433.6659,7359887.1899],[581436.0026,7359897.1718],[581438.0211,7359904.7145],[581439.5563,7359912.146],[581445.8149,7359917.0921],[581453.876,7359921.6017],[581464.1115,7359927.6341],[581470.278,7359933.062],[581476.9362,7359938.3099],[581480.441,7359944.9239],[581487.5541,7359951.2542],[581489.9375,7359956.2804],[581493.6943,7359964.2624],[581502.0429,7359971.6006],[581510.7679,7359976.0339],[581518.4659,7359978.9795],[581526.9512,7359984.961],[581533.595,7359990.6945],[581540.856,7359995.2797],[581546.4502,7360000.3022],[581550.6664,7360005.8678],[581555.1109,7360010.2737],[581563.7319,7360011.5941],[581570.7436,7360014.7142],[581576.3773,7360018.3773],[581581.5448,7360021.3464],[581581.8186,7360028.6437],[581585.9148,7360034.9833],[581592.6895,7360039.5544],[581605.0771,7360045.1638],[581613.1014,7360050.2573],[581619.3306,7360056.8535],[581624.9188,7360062.0703],[581633.2998,7360064.9389],[581645.8034,7360066.5671],[581653.7861,7360066.4112],[581658.2209,7360068.2205],[581665.6619,7360072.8807],[581670.0326,7360073.4667],[581677.3246,7360073.3182],[581682.5768,7360073.3743],[581704.5484,7360080.263],[581710.1281,7360080.317],[581713.5827,7360078.8789],[581722.9876,7360075.9168],[581727.1566,7360074.1124],[581737.2625,7360073.2755],[581744.8907,7360076.5127],[581763.154,7360080.4322],[581777.42,7360082.3758],[581787.0739,7360084.9076],[581798.0817,7360088.4203],[581809.3354,7360093.5173],[581824.0722,7360098.4887],[581828.618,7360102.4721],[581835.3162,7360103.9984],[581848.0174,7360106.3439],[581855.4601,7360106.5616],[581863.1164,7360110.6867],[581867.7614,7360110.9527],[581879.9433,7360116.6929],[581885.0677,7360118.2096],[581895.0498,7360117.0401],[581906.1765,7360118.3148],[581914.819,7360123.3132],[581923.0609,7360133.6492],[581926.8058,7360134.7379],[581931.8497,7360135.721],[581939.4984,7360148.475],[581947.1289,7360155.5794],[581956.1902,7360162.4883],[581971.9314,7360168.4066],[581985.2206,7360171.1022],[582000.5221,7360178.0802],[582010.217,7360184.4385],[582020.1037,7360189.4357],[582032.8623,7360189.8096],[582048.766,7360191.7943],[582053.81,7360196.0423],[582066.484,7360199.2991],[582067.1907,7360206.3051],[582073.1727,7360209.6694],[582081.705,7360209.0085],[582092.9357,7360209.6416],[582102.371,7360214.474],[582107.9379,7360221.6225],[582112.4639,7360227.9813],[582112.0797,7360232.4966],[582117.6109,7360240.5044],[582118.7661,7360247.8154],[582120.2104,7360253.7666],[582122.2417,7360256.6873],[582124.9961,7360262.5525],[582128.0212,7360267.6794],[582133.7861,7360273.8584],[582140.8225,7360279.41],[582146.7441,7360286.4838],[582151.7508,7360294.8913],[582154.8822,7360304.2156],[582159.7059,7360312.229],[582160.6684,7360320.6574],[582165.0244,7360327.6184],[582165.847,7360335.8422],[582167.7996,7360341.8216],[582178.9769,7360349.1062],[582192.2739,7360357.3262],[582220.9536,7360359.355],[582246.0248,7360362.9389],[582273.2945,7360364.4522],[582291.037,7360366.872],[582310.1542,7360362.9264],[582323.8622,7360357.1609],[582335.6996,7360350.3914],[582350.1615,7360343.2246],[582363.0041,7360334.5867],[582375.4001,7360324.9866],[582385.6325,7360316.2719],[582390.681,7360312.4545],[582398.0914,7360312.6052],[582409.2452,7360312.9337],[582427.0089,7360306.5762],[582442.4902,7360305.1342],[582451.9306,7360304.9283],[582464.9389,7360301.9709],[582477.688,7360302.6503],[582488.1186,7360304.6281],[582495.6456,7360307.1277],[582502.0244,7360312.4786],[582510.0605,7360318.3339],[582513.0576,7360324.9518],[582517.453,7360330.5479],[582523.1573,7360332.9938],[582530.492,7360336.8544],[582538.135,7360340.5724],[582541.494,7360345.2268],[582549.5433,7360350.627],[582562.7609,7360356.0279],[582572.1905,7360361.0133],[582577.8589,7360364.6731],[582582.5361,7360369.9219],[582582.7221,7360369.9337],[582583.7102,7360372.438],[582589.9905,7360375.964],[582594.4663,7360378.8293],[582598.2989,7360383.4134],[582604.0737,7360390.9566],[582605.9495,7360396.6304],[582610.56,7360400.678],[582625.9387,7360416.2165],[582626.9959,7360420.0283],[582629.4748,7360423.5939],[582638.5125,7360425.8851],[582640.9981,7360427.1635],[582647.4515,7360428.4015],[582674.5759,7360443.2321],[582679.4208,7360450.4693],[582702.7754,7360466.708],[582727.0247,7360482.293],[582738.7507,7360486.5086],[582751.447,7360493.328],[582762.1283,7360497.2092],[582787.2144,7360498.0721],[582808.5069,7360500.7859],[582854.6436,7360516.3609],[582871.14,7360522.7578],[582876.2438,7360527.0137],[582881.9226,7360528.6745],[582906.0092,7360547.8593],[582967.0988,7360583.1293],[582994.8052,7360601.9866],[583000.2971,7360603.6421],[583003.0102,7360605.2628],[583004.2994,7360607.2435],[583008.7043,7360609.8618],[583013.9635,7360613.0652],[583019.4038,7360616.4605],[583023.3746,7360621.1183],[583028.3795,7360624.5008],[583034.8334,7360627.3043],[583039.3313,7360630.9826],[583043.4782,7360633.9043],[583046.8805,7360636.7417],[583049.046,7360639.2936],[583052.3367,7360641.6923],[583057.366,7360642.1526],[583061.1635,7360644.2554],[583065.9434,7360646.8227],[583072.3006,7360648.6906],[583077.4278,7360652.1389],[583081.4083,7360654.3716],[583085.8735,7360657.0539],[583089.5922,7360659.7142],[583093.721,7360661.1428],[583098.3875,7360663.3337],[583103.7401,7360665.4827],[583109.0816,7360668.0046],[583113.5615,7360670.1899],[583118.1972,7360671.3227],[583126.7658,7360674.1892],[583132.9572,7360679.5349],[583136.6925,7360681.636],[583140.1771,7360683.7918],[583143.517,7360686.6274],[583147.113,7360689.2218],[583150.8372,7360691.6957],[583154.8176,7360693.9285],[583157.9068,7360696.8188],[583161.0711,7360699.276],[583163.8185,7360701.099],[583166.5036,7360702.9201],[583169.708,7360706.1248],[583172.8797,7360708.3336],[583176.5231,7360711.427],[583179.9381,7360713.8295],[583184.2146,7360716.5686],[583187.6696,7360719.7185],[583191.5347,7360721.637],[583195.3376,7360723.5535],[583199.2797,7360724.9767],[583204.1511,7360726.5519],[583208.7811,7360727.8711],[583213.6728,7360728.7629],[583217.9241,7360730.2575],[583222.2338,7360731.8782],[583226.6969,7360734.6229],[583229.9473,7360736.2743],[583234.0908,7360737.206],[583238.4208,7360738.1433],[583245.4691,7360738.6945],[583246.6421,7360738.9058],[583250.8567,7360740.7521],[583255.5396,7360742.384],[583259.6664,7360743.8749],[583263.5739,7360744.3643],[583268.2223,7360745.0624],[583272.4994,7360745.6872],[583276.5296,7360746.2424],[583280.9803,7360747.3077],[583285.0122,7360747.8009],[583289.1816,7360747.8628],[583292.7252,7360748.0305],[583297.6601,7360748.0949],[583299.082,7360748.351],[583315.7565,7360751.1494],[583332.1865,7360751.7973],[583341.2448,7360754.3377],[583372.486,7360755.993],[583378.9386,7360756.8843],[583382.163,7360758.7634],[583387.4054,7360759.114],[583393.4935,7360760.4615],[583400.3708,7360761.4438],[583405.4841,7360762.8594],[583411.3154,7360763.0333],[583418.387,7360764.0215],[583424.4011,7360764.5895],[583430.4123,7360765.2545],[583434.6741,7360765.8675],[583441.2684,7360766.55],[583450.3417,7360765.6546],[583457.094,7360764.3012],[583463.0486,7360763.6044],[583467.4423,7360763.0553],[583470.9874,7360761.6063],[583475.3406,7360762.4163],[583479.4023,7360763.2177],[583484.8535,7360763.0889],[583491.6741,7360762.7093],[583496.4218,7360763.3369],[583499.3085,7360764.3947],[583505.0368,7360764.76],[583544.9901,7360772.1716],[583551.435,7360774.5989],[583556.0275,7360777.1653],[583559.5104,7360781.0589],[583563.2253,7360783.6963],[583567.6206,7360786.354],[583573.3968,7360788.3727],[583577.9065,7360790.4508],[583583.1852,7360792.8434],[583587.5325,7360793.8477],[583590.2726,7360796.5532],[583594.5706,7360799.208],[583599.4836,7360800.8123],[583604.8507,7360803.4991],[583609.2256,7360806.8363],[583613.8383,7360808.7232],[583619.5854,7360811.7129],[583624.6766,7360814.1454],[583629.0298,7360816.4646],[583633.2227,7360818.8187],[583637.3395,7360821.0512],[583640.2721,7360824.2432],[583642.0463,7360826.2067],[583644.8221,7360826.6478],[583648.1873,7360828.6987],[583651.0058,7360830.3749],[583654.0947,7360832.3379],[583657.5862,7360834.1636],[583662.2158,7360835.4836],[583665.9598,7360837.2746],[583669.0103,7360839.3558],[583671.6588,7360840.3056],[583676.7637,7360842.3861],[583680.8827,7360844.1262],[583685.2486,7360845.9358],[583688.1404,7360847.0795],[583691.1434,7360847.6172],[583721.541,7360862.521],[583724.5229,7360864.3589],[583726.3435,7360866.5054],[583730.2238,7360869.9796],[583735.1179,7360872.8623],[583738.9768,7360874.9677],[583743.5126,7360877.3422],[583747.9786,7360879.9633],[583751.6528,7360882.0011],[583755.4403,7360884.4154],[583758.6661,7360886.875],[583762.5027,7360889.7261],[583765.5363,7360892.3666],[583769.3145,7360895.0915],[583772.9209,7360897.3138],[583776.7854,7360899.2329],[583780.8253,7360901.5304],[583783.8413,7360902.6778],[583786.8008,7360903.6371],[583790.3912,7360908.4707],[583794.3373,7360911.8226],[583797.7645,7360913.7908],[583802.4532,7360917.2893],[583805.82,7360919.1935],[583810.6294,7360922.82],[583814.7695,7360925.9289],[583817.9989,7360928.2643],[583820.4272,7360930.327],[583827.2815,7360934.2635],[583834.5951,7360941.5717],[583840.3698,7360946.2221],[583844.1708,7360950.2537],[583848.7972,7360953.7503],[583852.5509,7360957.283],[583857.4317,7360960.6007],[583862.42,7360964.4813],[583867.065,7360967.3566],[583872.1129,7360969.2492],[583875.5028,7360972.46],[583880.7037,7360975.4764],[583885.9837,7360977.9356],[583890.8773,7360980.8184],[583918.1748,7360990.1563],[583924.1462,7360992.3876],[583929.1904,7360994.4044],[583935.6046,7360996.4001],[583938.3456,7360998.4101],[583943.2829,7361001.1912],[583950.3553,7361003.0789],[583957.8397,7361006.3949],[583965.1097,7361008.9139],[583971.6838,7361009.7331],[583977.3572,7361011.5201],[583983.7186,7361013.2035],[583989.5052,7361015.3671],[583994.7072,7361016.2695],[584000.3937,7361017.6217],[584018.9975,7361024.15],[584030.7179,7361027.0586],[584035.7449,7361028.8377],[584039.554,7361031.9807],[584046.6224,7361034.9913],[584052.1528,7361037.3961],[584057.583,7361038.9894],[584062.8757,7361041.014],[584068.3886,7361041.9258],[584077.8844,7361044.9473],[584083.8575,7361047.1167],[584088.8087,7361048.0739],[584095.5767,7361048.6504],[584101.2631,7361050.0028],[584107.3152,7361051.615],[584112.5699,7361052.8301],[584118.9815,7361052.8363],[584122.8904,7361053.2648],[584132.8214,7361053.3095],[584167.62,7361056.606],[584184.8632,7361060.3313],[584191.2784,7361063.4136],[584197.7309,7361065.551],[584205.8588,7361066.9616],[584213.8515,7361069.6312],[584221.5673,7361071.8067],[584228.7117,7361073.5763],[584235.4382,7361076.305],[584242.3677,7361078.7484],[584248.3547,7361080.1918],[584255.7022,7361081.6762],[584260.2169,7361083.561],[584266.8221,7361083.8571],[584275.0083,7361083.3264],[584282.1995,7361083.5431],[584288.684,7361084.6129],[584295.8904,7361087.5505],[584303.5798,7361090.5999],[584306.7545,7361091.7643],[584312.4031,7361094.7522],[584315.2365,7361097.5581],[584322.2836,7361099.325],[584335.2179,7361100.5962],[584341.8774,7361102.0934],[584345.7717,7361104.211],[584351.5379,7361106.5223],[584358.2934,7361108.2806],[584365.5582,7361109.277],[584371.7629,7361109.9499],[584392.815,7361111.7508],[584399.529,7361111.6619],[584406.9349,7361111.2052],[584412.4149,7361110.1075],[584425.0345,7361107.2672],[584430.8306,7361105.8052],[584437.1967,7361105.6085],[584441.8328,7361106.2479],[584450.0891,7361105.8036],[584455.2365,7361106.0561],[584459.5739,7361107.1756],[584473.0672,7361108.2462],[584485.6177,7361108.1394],[584492.3111,7361108.7302],[584498.7663,7361110.7712],[584509.1205,7361114.1738],[584512.009,7361114.768],[584516.9352,7361118.4075],[584520.3224,7361119.3512],[584523.7972,7361122.6172],[584529.9857,7361128.7248],[584534.1292,7361133.1203],[584538.7381,7361136.6574],[584542.6314,7361139.787],[584545.9474,7361142.7048],[584552.0424,7361145.9569],[584571.7649,7361162.9224],[584576.8635,7361168.9005],[584580.4447,7361172.7008],[584582.8714,7361176.0775],[584586.7528,7361179.5954],[584591.0024,7361183.8045],[584594.5425,7361185.731],[584600.421,7361191.989],[584619.1961,7361206.5731],[584619.3288,7361206.7316],[584624.432,7361211.5399],[584629.7864,7361214.7934],[584637.9698,7361218.3593],[584651.0854,7361226.428],[584659.6163,7361230.5724],[584668.9346,7361237.2649],[584678.5963,7361245.7328],[584688.9277,7361250.9802],[584692.0016,7361254.3065],[584701.0932,7361264.4683],[584707.2013,7361270.3738],[584715.4237,7361276.3433],[584720.9119,7361284.2197],[584723.9103,7361287.979],[584728.7932,7361291.1737],[584733.1334,7361293.7923],[584737.6997,7361297.1639],[584743.0273,7361300.0612],[584747.3712,7361302.5555],[584751.8074,7361306.1097],[584755.4334,7361309.7016],[584759.5172,7361312.5612],[584762.6757,7361315.144],[584766.8311,7361317.6949],[584770.7716,7361319.12],[584775.1116,7361319.6868],[584778.6055,7361321.4715],[584782.6497,7361323.5838],[584785.8967,7361325.2988],[584789.4868,7361328.0191],[584792.1628,7361330.0899],[584796.8363,7361331.9726],[584801.4496,7361333.7912],[584805.0603,7361335.8282],[584809.095,7361338.2511],[584811.8973,7361340.2636],[584814.822,7361342.342],[584818.5175,7361343.6354],[584822.9554,7361345.0757],[584826.4644,7361346.3635],[584829.9601,7361348.0861],[584834.0928,7361349.3306],[584840.5356,7361351.028],[584849.1949,7361354.7689],[584852.2214,7361357.0309],[584856.3352,7361358.8967],[584859.6067,7361361.8561],[584864.2085,7361364.0475],[584867.0616,7361366.4346],[584869.436,7361368.1855],[584873.286,7361368.4888],[584877.477,7361369.8596],[584880.8445,7361371.7027],[584883.9803,7361372.9792],[584887.197,7361373.6364],[584891.4126,7361374.1996],[584896.2273,7361375.5271],[584901.3568,7361376.7398],[584905.2727,7361378.9726],[584911.2238,7361379.7751],[584916.847,7361381.1271],[584925.6046,7361382.8257],[584929.7554,7361384.4414],[584935.6235,7361385.9253],[584941.6217,7361387.2266],[584947.6312,7361388.1552],[584957.2118,7361388.3218],[584962.6672,7361389.0471],[584967.2913,7361390.6676],[584992.1056,7361392.0448],[585019.329,7361391.386],[585023.0832,7361390.98],[585025.4665,7361391.5193],[585030.8525,7361391.4001],[585035.7431,7361391.2658],[585041.2085,7361390.866],[585045.9684,7361390.374],[585049.7506,7361389.4279],[585054.9908,7361389.4457],[585058.2798,7361388.4138],[585060.3533,7361387.7695],[585062.969,7361387.9197],[585066.5926,7361387.5347],[585076.2992,7361382.7364],[585085.0287,7361385.3381],[585093.3416,7361389.0789],[585117.4087,7361397.9235],[585126.5741,7361403.9327],[585150.2299,7361422.48],[585166.6473,7361439.1799],[585183.9676,7361451.8043],[585193.6812,7361460.7307],[585207.2323,7361471.5425],[585222.1944,7361480.2043],[585229.274,7361482.8979],[585233.8508,7361485.5336],[585237.5593,7361489.586],[585243.2339,7361493.9326],[585247.2966,7361495.4006],[585251.7235,7361498.8603],[585255.7047,7361500.6794],[585257.9084,7361502.7274],[585261.0384,7361504.5913],[585264.7107,7361507.2499],[585268.1901,7361509.266],[585271.691,7361510.5753],[585275.7965,7361512.9642],[585279.9834,7361515.0018],[585283.4412,7361517.7247],[585286.9763,7361520.2377],[585290.743,7361522.121],[585294.1495,7361524.2056],[585297.8282,7361526.6523],[585300.3597,7361529.5591],[585303.6204,7361531.7807],[585308.0066,7361534.2489],[585310.8276,7361536.9524],[585315.3018,7361538.8574],[585319.5163,7361542.3107],[585321.5077,7361544.3522],[585324.5669,7361546.214],[585328.6614,7361548.9563],[585332.2542,7361551.8955],[585335.6455,7361554.4749],[585339.0946,7361557.4804],[585342.3293,7361560.5502],[585346.3595,7361563.0783],[585349.2469,7361565.9253],[585353.5515,7361568.7447],[585378.2247,7361588.6682],[585382.7393,7361591.5648],[585385.6029,7361595.1892],[585389.1551,7361597.1368],[585393.224,7361598.3929],[585397.1105,7361600.9874],[585402.851,7361605.4778],[585408.4139,7361608.8309],[585415.7778,7361611.1779],[585421.4929,7361614.182],[585430.5948,7361619.9069],[585436.9013,7361624.4145],[585441.9991,7361626.7631],[585444.2242,7361628.1044],[585457.2983,7361639.9093],[585468.4552,7361651.6371],[585478.7776,7361660.2971],[585484.9972,7361665.7095],[585492.1601,7361670.8543],[585495.2276,7361673.5278],[585499.3525,7361675.6272],[585502.8763,7361678.4936],[585506.2405,7361683.1264],[585507.6301,7361684.3376],[585511.9795,7361686.4822],[585515.2846,7361689.5543],[585521.4163,7361697.452],[585528.1534,7361701.7608],[585535.0472,7361705.5792],[585541.3517,7361707.8233],[585546.4789,7361711.517],[585550.978,7361714.9085],[585555.9102,7361718.0303],[585560.1581,7361722.6873],[585565.0189,7361728.1412],[585570.388,7361733.1863],[585582.6039,7361748.2023],[585593.3238,7361761.192],[585599.1852,7361768.6571],[585607.3999,7361777.8919],[585615.7625,7361786.919],[585624.5243,7361794.4729],[585629.3885,7361802.1196],[585635.4351,7361805.8415],[585640.1165,7361807.8946],[585646.0895,7361814.0192],[585649.6788,7361819.3634],[585655.6849,7361822.0938],[585660.8666,7361828.6185],[585668.9213,7361833.8166],[585675.9481,7361842.5198],[585681.8249,7361847.1561],[585694.6151,7361859.5726],[585704.4577,7361871.1207],[585713.4189,7361876.771],[585730.0349,7361888.3583],[585733.3551,7361891.2459],[585735.8896,7361896.7697],[585738.6578,7361901.1692],[585743.718,7361904.7195],[585748.7565,7361908.9764],[585756.4471,7361912.1829],[585762.8209,7361916.7638],[585776.7873,7361926.2527],[585787.9231,7361936.5145],[585803.4693,7361945.2004],[585807.5938,7361948.5355],[585818.286,7361957.878],[585833.066,7361983.391],[585834.7106,7361995.0143],[585837.8766,7361999.8408],[585839.0753,7362004.6165],[585839.8084,7362010.7218],[585840.6076,7362015.8488],[585860.8285,7362052.5312],[585861.0652,7362060.0844],[585867.174,7362073.208],[585865.9255,7362078.23],[585864.6568,7362087.6347],[585863.9953,7362096.9747],[585864.8429,7362106.266],[585864.9679,7362116.0301],[585867.4671,7362122.26],[585867.435,7362127.9172],[585866.347,7362131.0664],[585863.9676,7362137.0758],[585863.6808,7362141.8057],[585864.655,7362144.6646],[585867.5578,7362149.2802],[585868.7217,7362155.1862],[585869.3978,7362158.5311],[585876.3667,7362169.071],[585879.0008,7362175.5172],[585879.5642,7362179.8662],[585883.675,7362190.362],[585890.56,7362206.946],[585895.329,7362224.703],[585905.438,7362239.33],[585921.1171,7362262.2723],[585934.0823,7362268.0916],[585943.875,7362277.6688],[585950.7364,7362288.3775],[585960.2467,7362299.2783],[585968.4724,7362303.7996],[585977.648,7362308.9851],[585980.0781,7362322.8957],[585984.8285,7362349.845],[585989.344,7362363.2013],[585990.9272,7362368.5192],[585995.0579,7362383.2504],[585999.1334,7362401.6934],[586014.35,7362422.286],[586027.2275,7362441.3427],[586041.8802,7362454.0589],[586055.3792,7362460.9381],[586067.5449,7362471.9759],[586081.1331,7362480.3187],[586097.5633,7362490.667],[586104.6651,7362498.6435],[586115.4444,7362506.6957],[586136.1062,7362522.9266],[586152.8813,7362542.1171],[586164.31,7362561.884],[586173.0561,7362580.1962],[586175.4275,7362592.9759],[586184.797,7362608.936],[586190.696,7362624.408],[586191.817,7362646.017],[586193.359,7362650.535],[586203.6126,7362676.1605],[586214.836,7362690.602],[586220.8653,7362708.5133],[586237.4514,7362733.7741],[586247.9245,7362749.2339],[586263.5375,7362762.985],[586276.6682,7362781.9408],[586289.0156,7362794.6383],[586296.5206,7362808.8489],[586305.2598,7362815.9687],[586319.5373,7362822.8176],[586325.4165,7362836.5887],[586333.456,7362849.3105],[586340.517,7362867.876],[586348.9637,7362883.4976],[586369.2765,7362900.6133],[586388.0962,7362930.6798],[586406.525,7362939.0272],[586432.6899,7362958.1491],[586445.1268,7362969.7576],[586470.1739,7362979.7425],[586494.149,7362994.025],[586512.2715,7363014.6302],[586534.345,7363032.333],[586545.1804,7363044.4965],[586559.3836,7363051.5096],[586590.9512,7363058.9943],[586612.3033,7363071.1806],[586621.3278,7363086.0252],[586626.3317,7363089.628],[586626.3339,7363089.7873],[586637.6853,7363092.6651],[586652.8738,7363091.7058],[586664.2252,7363089.9472],[586675.097,7363091.8657],[586685.1694,7363099.8597],[586696.201,7363114.2488],[586706.2734,7363134.8732],[586713.3081,7363143.6665],[586720.023,7363149.4222],[586725.9385,7363158.0556],[586735.5427,7363161.4242],[586739.6932,7363164.3048],[586744.1614,7363167.4059],[586747.9567,7363170.8435],[586749.2531,7363172.1002],[586752.8464,7363175.5835],[586759.1934,7363179.959],[586764.4694,7363190.3512],[586768.946,7363195.1475],[586784.1345,7363202.0223],[586795.1845,7363211.17],[586807.2226,7363214.2042],[586827.0843,7363226.688],[586843.2635,7363244.7211],[586852.3831,7363252.0888],[586856.7195,7363270.4505],[586867.5913,7363281.3223],[586872.5475,7363288.1971],[586876.7044,7363298.909],[586877.8236,7363314.5771],[586886.7768,7363330.4052],[586895.8899,7363345.2739],[586897.3288,7363360.942],[586901.006,7363371.9737],[586907.8808,7363379.9676],[586919.3921,7363390.8394],[586925.3076,7363397.3944],[586933.3016,7363410.6644],[586938.7374,7363421.696],[586946.8345,7363438.5085],[586958.8822,7363446.797],[586968.3151,7363453.6718],[586977.4282,7363460.8664],[586989.537,7363476.134],[586997.764,7363487.208],[587003.0088,7363492.0428],[587010.683,7363507.5511],[587011.6423,7363517.6234],[587007.8052,7363527.8557],[587001.0902,7363537.7682],[586984.2442,7363554.6575],[586981.1968,7363560.6524],[586978.3874,7363575.8194],[586977.9078,7363579.9762],[586980.306,7363584.9325],[586986.3814,7363590.2085],[586995.9741,7363594.0456],[587002.8489,7363601.5599],[587009.5638,7363609.5538],[587019.1566,7363615.1496],[587024.5925,7363619.946],[587024.9122,7363626.9806],[587022.8338,7363635.774],[587028.4295,7363641.5296],[587034.5049,7363644.8871],[587046.0162,7363650.6427],[587062.4838,7363652.2415],[587069.6783,7363653.5206],[587077.5124,7363655.1193],[587077.992,7363658.3169],[587080.3902,7363663.5929],[587086.6255,7363666.7905],[587093.6602,7363670.3079],[587098.7602,7363677.2746],[587105.521,7363688.8121],[587111.788,7363699.507],[587119.634,7363719.003],[587128.431,7363726.814],[587137.574,7363731.031],[587143.465,7363731.607],[587167.183,7363737.512],[587198.474,7363745.313],[587228.454,7363746.3],[587250.155,7363745.78],[587271.0289,7363751.9738],[587280.4288,7363761.8239],[587290.3927,7363769.0935],[587302.4006,7363792.9808],[587309.927,7363811.2824],[587324.5165,7363825.0392],[587349.1515,7363857.3504],[587369.0279,7363886.46],[587374.5029,7363903.8309],[587376.72,7363908.67],[587381.3994,7363916.8932],[587394.0624,7363936.9216],[587404.5671,7363953.7094],[587413.9918,7363969.0246],[587426.8527,7363980.9037],[587433.7249,7363986.8924],[587445.8003,7363999.3605],[587455.2251,7364011.5341],[587468.1841,7364026.653],[587475.6454,7364039.0291],[587487.457,7364054.6757],[587498.5663,7364069.0358],[587505.3776,7364069.1503]]]},"properties":{"GmlID":"LED.2800831","OBJECTID":2800831,"Geometrikvalitet":"<= 20 meter","Led_ID":"30467009","Lednamn":"Vandringsled BD87 mellan Jäkkvik och Adolfström","Beskrivning":"Vandringsled BD87 mellan Jäkkvik och Adolfström","Ledmarkering":"Målade fläckar på stenar och rösen ","Typ_av_led":"Vandringsled","Ledkategori":"Barmarksled","Statlig_led":"Jäckvik - Adolfström (BD 87)","Statlig_led_ID":"BD 87","Skyddat_område":null,"Skyddat_område_ID":null,"Längd_på_led_m":21060,"Kommun":"Arjeplog","Län":"Norrbottens Län","Längd_på_delsträcka_m":20930.40690552}}]}
