{"type":"FeatureCollection","crs":{"type":"name","properties":{"name":"EPSG:3006"}},"features":[{"type":"Feature","geometry":{"type":"MultiLineString","coordinates":[[[518072.2941,7308007.6758],[518063.8774,7307998.5009],[518049.656,7307976.342],[518028.82,7307975.0191],[518015.9215,7307974.0269],[517981.8564,7307944.9227],[517969.9501,7307940.2925],[517941.5073,7307943.9305],[517925.3016,7307942.2769],[517911.0802,7307936.6544],[517891.2364,7307920.118],[517878.9994,7307912.5112],[517867.7546,7307897.9591],[517861.8014,7307878.1153],[517848.903,7307865.8783],[517793.6711,7307856.9486],[517734.1397,7307829.1673],[517706.6892,7307820.5683],[517648.8114,7307785.8416],[517545.9545,7307657.1877],[517494.6913,7307620.4767],[517466.91,7307591.7032],[517400.1026,7307520.9271],[517365.0452,7307469.6639],[517325.0269,7307438.2446],[517284.3472,7307396.2419],[517260.8654,7307382.682],[517245.6518,7307359.8616],[517229.1153,7307322.4892],[517192.735,7307281.8094],[517152.7167,7307216.6556],[517116.6671,7307173.33],[517096.1619,7307157.455],[517072.3493,7307142.9029],[517029.3545,7307124.0513],[517009.8414,7307099.908],[517002.5654,7307073.1189],[516961.8856,7307025.8245],[516893.0938,7306968.2775],[516854.0677,7306942.1499],[516810.4113,7306897.5013],[516793.8748,7306891.5482],[516771.0545,7306888.5716],[516755.8409,7306876.6654],[516739.3044,7306860.1289],[516712.846,7306843.5924],[516644.0542,7306786.7068],[516624.8719,7306763.225],[516583.8614,7306747.35],[516502.5019,7306680.8733],[516457.5226,7306627.6258],[516420.8116,7306587.6075],[516400.6371,7306576.3627],[516384.4313,7306562.472],[516368.2255,7306558.1725],[516336.1448,7306540.9746],[516321.5926,7306526.7532],[516288.1889,7306506.9094],[516258.4232,7306474.4979],[516227.3346,7306451.3468],[516134.357,7306377.596],[515914.022,7306225.888],[515810.9458,7306148.0675],[515787.1332,7306138.1456],[515742.4847,7306105.7341],[515714.3727,7306076.9606],[515697.8362,7306042.234],[515662.915,7305997.862],[515605.5626,7305936.7312],[515510.6431,7305852.3951],[515401.5023,7305767.0668],[515389.9267,7305753.1761],[515376.0361,7305747.5537],[515365.4527,7305737.3011],[515347.924,7305707.5354],[515322.7886,7305674.1317],[515278.14,7305630.4754],[515267.2259,7305621.8764],[515259.9499,7305608.9779],[515249.0358,7305585.8268],[515234.8144,7305561.6836],[515217.9472,7305531.9179],[515195.1268,7305506.1209],[515166.6841,7305446.5896],[515159.7388,7305420.7926],[515115.421,7305367.8759],[515088.6318,7305348.6935],[515016.5327,7305292.1387],[514996.0275,7305288.5007],[514922.2747,7305207.8026],[514898.7929,7305150.5864],[514812.4724,7305211.4407],[514744.0114,7305223.6777],[514702.6701,7305242.86],[514651.0763,7305237.8991],[514626.6023,7305243.5215],[514562.4407,7305295.7768],[514468.8441,7305261.3809],[514273.522,7305282.523],[514114.6325,7305330.8341],[514027.86,7305340.347],[513883.7831,7305395.9879],[513864.9315,7305410.54],[513843.434,7305419.4697],[513826.2361,7305436.0062],[513792.1709,7305450.8891],[513763.0667,7305465.4412],[513697.9129,7305514.0585],[513665.1707,7305537.2095],[513625.8138,7305566.3138],[513472.3552,7305676.7775],[513409.5165,7305725.7255],[513380.743,7305739.9469],[513221.9927,7305845.7805],[513191.8963,7305882.4915],[513169.0759,7305902.666],[513091.3544,7305923.1713],[512993.7891,7305941.3614],[512913.7525,7305950.2911],[512839.669,7305978.4031],[512788.4059,7305985.0177],[512769.2236,7305998.2469],[512718.2912,7306011.1454],[512716.6375,7306011.1454],[512660.4134,7306017.4293],[512584.0149,7306023.3824],[512492.072,7306025.036],[512447.0927,7306008.1688],[512401.7827,7306020.0751],[512358.4571,7306027.3512],[512319.431,7306024.0439],[512247.0012,7306031.3199],[512176.225,7306044.2184],[512123.9697,7306058.4398],[512089.5738,7306077.2914],[512034.0111,7306085.2289],[512007.222,7306087.8747],[511979.4407,7306079.6065],[511933.4693,7306081.5908],[511903.7036,7306090.5205],[511890.1437,7306090.5205],[511875.5916,7306097.7966],[511859.3858,7306096.8044],[511819.0368,7306116.3175],[511767.1122,7306127.5623],[511729.0782,7306141.7837],[511703.612,7306143.1066],[511647.0572,7306149.7212],[511629.8593,7306153.3592],[511609.0233,7306159.3124],[511592.1561,7306154.0207],[511561.3982,7306165.9269],[511535.2706,7306169.2342],[511528.9867,7306172.5415],[511442.9969,7306193.0468],[511414.5542,7306194.039],[511398.6791,7306198.6692],[511388.0958,7306202.638],[511334.8483,7306212.5599],[511266.3872,7306221.1588],[511071.2566,7306271.099],[511015.3633,7306278.7058],[510827.8395,7306319.3856],[510635.024,7306359.4039],[510265.9295,7306442.7478],[509925.6085,7306545.9355],[509818.7828,7306570.0788],[509659.464,7306591.813],[509550.8916,7306620.019],[509444.7273,7306661.0295],[509402.0632,7306668.967],[509179.8127,7306766.5323],[509118.9584,7306779.1001],[508927.7966,7306838.9622],[508875.872,7306861.4518],[508849.0829,7306880.3034],[508762.101,7306914.3686],[508568.9547,7307055.2595],[508505.4546,7307076.4262],[508475.0275,7307095.9392],[508284.5271,7307142.9029],[508259.3916,7307159.7701],[508214.4124,7307183.9134],[508165.1336,7307197.1426],[508157.8576,7307200.4499],[508132.0606,7307215.6634],[508125.7768,7307215.9942],[508071.2063,7307248.0749],[508012.6672,7307262.9578],[507978.602,7307273.5411],[507925.6852,7307270.5646],[507908.4873,7307274.5333],[507884.0133,7307276.5177],[507844.9871,7307291.0698],[507740.4765,7307260.9734],[507710.0494,7307237.8223],[507607.1924,7307178.9524],[507589.9944,7307173.33],[507574.7809,7307158.4472],[507483.1687,7307125.3742],[507347.4107,7307092.0895],[507324.1274,7307094.8412],[507312.4857,7307091.8779],[507265.9189,7307093.7829],[507241.1539,7307102.0379],[507229.9355,7307115.1612],[507219.7755,7307107.7529],[507209.7455,7307101.3812],[507201.1465,7307091.1285],[507194.5319,7307077.8994],[507182.6257,7307070.2926],[507171.0501,7307045.8186],[507123.0943,7307013.0763],[507102.5891,7307008.7768],[507086.0526,7306995.8784],[507033.1358,7306957.8444],[506983.857,7306923.4485],[506964.344,7306909.8886],[506947.4768,7306891.037],[506925.6486,7306877.1463],[506903.159,7306844.7348],[506855.2031,7306774.6201],[506849.5807,7306748.1617],[506833.375,7306720.0497],[506836.0208,7306683.0079],[506824.1145,7306640.6745],[506792.6952,7306596.6875],[506784.0962,7306558.9843],[506801.6249,7306484.2393],[506794.0181,7306438.9293],[506769.5441,7306406.8485],[506744.1441,7306394.7438],[506704.8534,7306387.2032],[506660.8001,7306387.2032],[506638.972,7306372.5188],[506625.8751,7306354.2625],[506600.8719,7306324.8937],[506586.1875,7306303.4624],[506582.2187,7306237.1841],[506540.9437,7306172.4934],[506496.4936,7306102.2464],[506406.4028,7305988.7399],[506331.7901,7305928.8116],[506288.1338,7305913.7304],[506225.4274,7305864.9146],[506205.9805,7305856.9771],[506159.546,7305813.7177],[506054.7708,7305745.8519],[506027.3864,7305695.0518],[505985.7144,7305652.1892],[505964.385,7305640.134],[505772.1952,7305541.064],[505765.8452,7305527.1733],[505665.8325,7305499.392],[505632.0981,7305482.3264],[505571.773,7305473.5951],[505539.2292,7305457.7201],[505502.3197,7305420.8106],[505440.0102,7305337.0698],[505381.6695,7305266.0291],[505367.3819,7305235.4696],[505322.1381,7305183.4789],[505257.4473,7305125.9319],[505200.6941,7305061.2412],[505186.8035,7305052.9068],[505142.7502,7305041.7942],[505119.3346,7305028.6973],[505094.3314,7304981.0722],[505072.1063,7304953.2909],[504935.5811,7304875.9002],[504848.6653,7304785.0156],[504828.0277,7304745.328],[504701.08,7304629.759],[504673.7753,7304608.2736],[504663.7212,7304590.811],[504582.7585,7304554.8276],[504510.7917,7304538.9526],[504485.536,7304522.026],[504477.4541,7304510.3776],[504437.2374,7304480.215],[504419.2457,7304464.34],[504415.5415,7304454.2858],[504417.129,7304447.9358],[504424.0082,7304432.5899],[504417.6582,7304412.4815],[504420.304,7304326.7564],[504440.4124,7304250.5562],[504426.654,7304240.502],[504400.1956,7304205.0478],[504403.3706,7304162.1852],[504402.535,7304135.09],[504379.0289,7304109.2684],[504379.0289,7304050.5308],[504388.0248,7304028.8349],[504429.829,7303993.9099],[504436.7082,7303961.1015],[504450.9957,7303918.2389],[504462.6374,7303902.893],[504464.7541,7303858.9721],[504483.8041,7303825.6345],[504486.9791,7303785.9469],[504490.6833,7303709.7468],[504484.3333,7303653.1258],[504493.3291,7303589.0965],[504497.0333,7303577.4549],[504499.6792,7303545.7048],[504510.7917,7303467.9171],[504544.1292,7303387.4836],[504547.8334,7303311.8127],[504537.2501,7303279.5334],[504565.296,7303160.9999],[504540.9542,7302988.4912],[504520.8459,7302952.3755],[504474.0145,7302885.7003],[504471.3687,7302857.3899],[504453.9062,7302834.3711],[504435.1207,7302797.8585],[504434.3269,7302783.8356],[504422.4207,7302747.323],[504421.8915,7302738.0626],[504411.0436,7302722.9813],[504365.7997,7302686.7333],[504359.9789,7302660.5395],[504357.333,7302597.8331],[504375.0602,7302462.6308],[504372.6789,7302418.7098],[504349.1309,7302318.4325],[504356.8039,7302281.3908],[504352.5705,7302252.8157],[504352.3059,7302213.9219],[504361.0372,7302158.6239],[504351.7768,7302079.7779],[504361.3018,7302053.3195],[504375.0602,7302038.2382],[504371.6206,7301911.7671],[504393.8456,7301805.9336],[504393.8456,7301786.8836],[504385.6435,7301774.7127],[504379.0289,7301750.371],[504381.9393,7301727.0876],[504375.0602,7301709.8897],[504374.7956,7301699.0417],[504360.2435,7301646.6541],[504385.9081,7301586.8582],[504413.954,7301537.9102],[504434.5915,7301529.4435],[504471.1041,7301514.3622],[504491.7416,7301501.9267],[504499.6792,7301483.935],[504518.9938,7301455.0954],[504521.6396,7301438.9558],[504544.1292,7301381.8057],[504560.2689,7301303.7534],[504574.5564,7301288.4076],[504587.7856,7301284.7034],[504603.9252,7301264.3304],[504606.8356,7301247.3971],[504618.2127,7301208.5032],[504619.8002,7301182.3094],[504624.2982,7301154.5281],[504622.4461,7301144.4739],[504617.419,7301103.4634],[504613.4502,7301086.5301],[504601.5439,7301074.0946],[504611.3335,7301052.9279],[504594.5721,7300989.0912],[504585.745,7300941.254],[504575.9213,7300896.2642],[504555.9891,7300874.4812],[504552.9993,7300861.5252],[504557.2705,7300836.7524],[504559.6908,7300821.8033],[504598.4373,7300738.927],[504635.4791,7300657.8585],[504664.9008,7300621.0284],[504679.7175,7300580.3883],[504728.4009,7300525.5665],[504759.7277,7300480.6931],[504771.7927,7300449.578],[504777.296,7300420.368],[504792.3244,7300383.9612],[504793.3827,7300373.3779],[504789.7844,7300348.6128],[504795.9227,7300314.9578],[504803.7544,7300297.8127],[504799.9444,7300268.8143],[504801.0028,7300253.3627],[504818.1478,7300230.5026],[504835.5045,7300212.7226],[504853.7079,7300207.0076],[504863.8679,7300176.3158],[504882.4946,7300133.3474],[504890.5379,7300117.684],[504893.2896,7300105.4074],[504915.7263,7300067.5189],[504917.6313,7300051.4322],[504925.2513,7300038.9439],[504946.8414,7300013.7555],[504985.9998,7299983.4871],[505006.1082,7299969.3054],[505019.6549,7299946.8687],[505047.8066,7299941.577],[505094.7967,7299933.322],[505116.175,7299914.0603],[505125.0651,7299882.5219],[505128.4517,7299865.5885],[505136.0718,7299859.4502],[505163.3768,7299823.8901],[505174.3835,7299814.5768],[505186.4485,7299803.1468],[505209.7319,7299768.4333],[505227.7236,7299755.945],[505252.0653,7299732.4499],[505256.9337,7299723.9833],[505271.962,7299736.6833],[505293.0229,7299736.4319],[505315.6448,7299723.7319],[505333.9011,7299699.5225],[505351.3636,7299692.7756],[505372.7949,7299681.6631],[505390.2575,7299664.2005],[505418.8325,7299647.5318],[505455.3451,7299624.513],[505472.0139,7299610.2254],[505480.7452,7299582.4441],[505485.366,7299526.544],[505486.3014,7299496.3221],[505477.5701,7299463.3814],[505457.3295,7299439.9657],[505414.8638,7299385.5937],[505398.9887,7299336.3811],[505381.192,7299309.279],[505345.4105,7299287.9623],[505308.1042,7299275.6591],[505271.1947,7299266.1341],[505213.6477,7299258.9904],[505178.3258,7299268.5154],[505159.2758,7299270.8966],[505119.5882,7299272.4841],[505071.9631,7299279.6279],[505060.4537,7299283.5967],[505044.5787,7299284.3904],[505025.5286,7299272.0873],[504991.7942,7299254.2278],[504950.5191,7299252.6403],[504877.0971,7299257.7997],[504854.872,7299272.0873],[504838.997,7299281.2154],[504817.9626,7299286.7717],[504805.2626,7299285.1842],[504792.9664,7299285.7564]]]},"properties":{"GmlID":"LED.2799616","OBJECTID":2799616,"Geometrikvalitet":"<= 20 meter","Led_ID":"30454909","Lednamn":null,"Beskrivning":null,"Ledmarkering":"Röse","Typ_av_led":"Vandringsled","Ledkategori":"Barmarksled","Statlig_led":"Syterstugorna - Viterskalstugan - Hemavan (AC 3)","Statlig_led_ID":"AC 3","Skyddat_område":"Vindelfjällen (2001842), Vindelfjällen (SE0810080)","Skyddat_område_ID":"2001842, SE0810080","Längd_på_led_m":23200,"Kommun":"Storuman","Län":"Västerbottens Län","Längd_på_delsträcka_m":23199.72579113}}]}
