{
  "type": "FeatureCollection",
  "features": [
    {
      "type": "Feature",
      "geometry": {
        "type": "Point",
        "coordinates": [
          18.333,
          59.426
        ]
      },
      "properties": {
        "id": "parking-kanotcenter-resaro",
        "name": "Skärgårdens Kanotcenter / Resarö parking",
        "type": "parking",
        "area": "Vaxholm / Resarö",
        "sourceFile": "compiled/kayak-parking.seed.json",
        "coordinateSource": "record-coordinate",
        "mapConfidence": "high",
        "routes": [
          "bogesund-round-trip",
          "vaxholm-fortress-norrhamn-teno",
          "tynningo-bjornholmen-oxdjupet",
          "grinda-gallno-multiday",
          "kanotcenter-trasko-storo"
        ],
        "services": "Close-to-water parking/launch candidate at Skärgårdens Kanotcenter. Operator FAQ says free public parking is available in front of the kayak center.",
        "access": null,
        "parkingType": "free-public-near-operator",
        "launchCarry": "short",
        "overnightSuitability": "unknown",
        "primaryCategory": "parking_launch_access",
        "categories": [
          "launch-access",
          "parking"
        ],
        "serviceTags": [
          "canoe-rental",
          "kayak-rental",
          "launch",
          "parking"
        ],
        "bookingModel": "none-or-local-parking-rules",
        "supportsOwnKayak": "candidate",
        "sources": null,
        "source": {
          "provider": "Skärgårdens Kanotcenter",
          "url": "https://kanotcenter.com/kayaking-stockholm-archipelago-faq/",
          "lastAccessedAt": "2026-04-26"
        },
        "needsFollowup": [
          "Confirm current parking limits and whether own-kayak launching is allowed without rental."
        ]
      }
    },
    {
      "type": "Feature",
      "geometry": {
        "type": "Point",
        "coordinates": [
          18.013,
          59.346
        ]
      },
      "properties": {
        "id": "parking-pampas-marina",
        "name": "Pampas Kajak & SUP guest parking",
        "type": "parking",
        "area": "Pampas Marina / Solna",
        "sourceFile": "compiled/kayak-parking.seed.json",
        "coordinateSource": "record-coordinate",
        "mapConfidence": "high",
        "routes": [
          "kungsholmen-loop"
        ],
        "services": "Naturkartan notes that parking for Kungsholmen runt is easiest at Pampas Kajak & SUP where there is a large guest parking, and own craft can be launched after checking with the dock host.",
        "access": null,
        "parkingType": "guest-parking",
        "launchCarry": "short",
        "overnightSuitability": "not-researched",
        "primaryCategory": "parking_launch_access",
        "categories": [
          "launch-access",
          "parking"
        ],
        "serviceTags": [
          "kayak-rental",
          "launch",
          "parking",
          "route-advice",
          "sup-rental"
        ],
        "bookingModel": "none-or-local-parking-rules",
        "supportsOwnKayak": "candidate",
        "sources": null,
        "source": {
          "provider": "Naturkartan",
          "url": "https://www.naturkartan.se/nl/stockholms-lan/paddla-kungsholmen-runt",
          "lastAccessedAt": "2026-04-26"
        },
        "needsFollowup": [
          "Confirm current guest parking rules and dock-host permission."
        ]
      }
    },
    {
      "type": "Feature",
      "geometry": {
        "type": "Point",
        "coordinates": [
          17.996,
          59.309
        ]
      },
      "properties": {
        "id": "parking-soderkajak-vinterviken",
        "name": "SöderKajak / Vinterviken parking",
        "type": "parking",
        "area": "Vinterviken / Mälaren",
        "sourceFile": "compiled/kayak-parking.seed.json",
        "coordinateSource": "record-coordinate",
        "mapConfidence": "medium-high",
        "routes": [
          "soderkajak-malaren-routes",
          "langholmen-reimersholme-loop"
        ],
        "services": "Close-to-water parking/launch candidate at SöderKajak. Agent research found the operator page identifies parking and launch conveniences around Vinterviksvägen 52.",
        "access": null,
        "parkingType": "operator-nearby",
        "launchCarry": "short",
        "overnightSuitability": "not-researched",
        "primaryCategory": "parking_launch_access",
        "categories": [
          "launch-access",
          "parking"
        ],
        "serviceTags": [
          "kayak-rental",
          "launch",
          "parking"
        ],
        "bookingModel": "none-or-local-parking-rules",
        "supportsOwnKayak": "candidate",
        "sources": null,
        "source": {
          "provider": "SöderKajak",
          "url": "https://www.soderkajak.se/uthyrning",
          "lastAccessedAt": "2026-04-26"
        },
        "needsFollowup": [
          "Confirm exact parking location, fees and own-kayak launch terms."
        ]
      }
    },
    {
      "type": "Feature",
      "geometry": {
        "type": "Point",
        "coordinates": [
          18.057,
          59.366
        ]
      },
      "properties": {
        "id": "parking-brunnsviken-frescati",
        "name": "Frescati / Brunnsvikens Kanotklubb parking",
        "type": "parking",
        "area": "Brunnsviken / Frescati",
        "sourceFile": "compiled/kayak-parking.seed.json",
        "coordinateSource": "record-coordinate",
        "mapConfidence": "high",
        "routes": [
          "brunnsviken-loop",
          "brunnsviken-edsviken-extension"
        ],
        "services": "Close-to-water city-nature parking/launch candidate. Brunnsvikens Kanotklubb rental info notes paid parking; Kayakomat Frescati also has a private ramp and kayak cart.",
        "access": null,
        "parkingType": "paid-near-launch",
        "launchCarry": "short",
        "overnightSuitability": "not-researched",
        "primaryCategory": "parking_launch_access",
        "categories": [
          "launch-access",
          "parking"
        ],
        "serviceTags": [
          "canoe-rental",
          "kayak-rental",
          "launch",
          "parking"
        ],
        "bookingModel": "none-or-local-parking-rules",
        "supportsOwnKayak": "candidate",
        "sources": null,
        "source": {
          "provider": "Brunnsvikens Kanotklubb",
          "url": "https://www.bkk.se/uthyrning/kayak-rentals/",
          "lastAccessedAt": "2026-04-26"
        },
        "needsFollowup": [
          "Confirm current paid parking hours and whether own-kayak launching is permitted."
        ]
      }
    },
    {
      "type": "Feature",
      "geometry": {
        "type": "Point",
        "coordinates": [
          17.98,
          59.414
        ]
      },
      "properties": {
        "id": "parking-edsviken-segeludden",
        "name": "Segeludden / Edsviken parking",
        "type": "parking",
        "area": "Edsviken / Sollentuna",
        "sourceFile": "compiled/kayak-parking.seed.json",
        "coordinateSource": "record-coordinate",
        "mapConfidence": "high",
        "routes": [
          "brunnsviken-edsviken-extension"
        ],
        "services": "Kayakomat Segeludden source notes free parking 06-01 and a toilet by parking/beach. Useful for Edsviken and Brunnsviken-Edsviken extension variants.",
        "access": null,
        "parkingType": "free-time-limited",
        "launchCarry": "short",
        "overnightSuitability": "poor-or-unverified",
        "primaryCategory": "parking_launch_access",
        "categories": [
          "launch-access",
          "parking"
        ],
        "serviceTags": [
          "kayak-rental",
          "launch",
          "parking",
          "toilet"
        ],
        "bookingModel": "none-or-local-parking-rules",
        "supportsOwnKayak": "candidate",
        "sources": null,
        "source": {
          "provider": "Kayakomat",
          "url": "https://www.kayakomat.com/sv/location/62b1903407f8df1949cdb2bc",
          "lastAccessedAt": "2026-04-26"
        },
        "needsFollowup": [
          "Check current parking time window and local launch signage."
        ]
      }
    },
    {
      "type": "Feature",
      "geometry": {
        "type": "Point",
        "coordinates": [
          18.236,
          59.302
        ]
      },
      "properties": {
        "id": "parking-saltsjo-duvnas-marina",
        "name": "Saltsjö-Duvnäs marina parking",
        "type": "parking",
        "area": "Saltsjö-Duvnäs / Lännerstasundet",
        "sourceFile": "compiled/kayak-parking.seed.json",
        "coordinateSource": "record-coordinate",
        "mapConfidence": "high",
        "routes": [
          "sicklasjon-baggensfjarden-canoe-route"
        ],
        "services": "Kayakomat Saltsjö-Duvnäs source notes parking at the marina and launch from Strandpromenaden 2A.",
        "access": null,
        "parkingType": "marina-parking",
        "launchCarry": "short",
        "overnightSuitability": "not-researched",
        "primaryCategory": "parking_launch_access",
        "categories": [
          "launch-access",
          "parking"
        ],
        "serviceTags": [
          "kayak-rental",
          "launch",
          "parking"
        ],
        "bookingModel": "none-or-local-parking-rules",
        "supportsOwnKayak": "candidate",
        "sources": null,
        "source": {
          "provider": "Kayakomat",
          "url": "https://www.kayakomat.com/sv/location/629f70f3e1994d1b87af891a",
          "lastAccessedAt": "2026-04-26"
        },
        "needsFollowup": [
          "Confirm whether marina parking is open to own-kayak users and any fee/time limits."
        ]
      }
    },
    {
      "type": "Feature",
      "geometry": {
        "type": "Point",
        "coordinates": [
          18.12,
          59.21
        ]
      },
      "properties": {
        "id": "parking-skondal-drevviken",
        "name": "Sköndalsbadet / Drevviken parking",
        "type": "parking",
        "area": "Sköndal / Drevviken",
        "sourceFile": "compiled/kayak-parking.seed.json",
        "coordinateSource": "record-coordinate",
        "mapConfidence": "high",
        "routes": [
          "drevviken-kalvfjarden-canoe-route"
        ],
        "services": "Kayakomat Sköndal source notes parking and bus 181 near the station, with toilets in summer at the beach/solbryggor and for Nice Valley guests.",
        "access": null,
        "parkingType": "beach-parking",
        "launchCarry": "short",
        "overnightSuitability": "not-researched",
        "primaryCategory": "parking_launch_access",
        "categories": [
          "launch-access",
          "parking"
        ],
        "serviceTags": [
          "kayak-rental",
          "launch",
          "parking",
          "toilet"
        ],
        "bookingModel": "none-or-local-parking-rules",
        "supportsOwnKayak": "candidate",
        "sources": null,
        "source": {
          "provider": "Kayakomat",
          "url": "https://www.kayakomat.com/sv/location/626268c03d241eeabde66e85",
          "lastAccessedAt": "2026-04-26"
        },
        "needsFollowup": [
          "Confirm current parking limits and best own-kayak launch point."
        ]
      }
    },
    {
      "type": "Feature",
      "geometry": {
        "type": "Point",
        "coordinates": [
          18.198,
          59.207
        ]
      },
      "properties": {
        "id": "parking-kajakboden-gudo",
        "name": "Kajakboden Gudö parking",
        "type": "parking",
        "area": "Gudö / Tyresån",
        "sourceFile": "compiled/kayak-parking.seed.json",
        "coordinateSource": "record-coordinate",
        "mapConfidence": "high",
        "routes": [
          "drevviken-kalvfjarden-canoe-route"
        ],
        "services": "Kajakboden source/agent research notes free 24-hour parking, launch/strandhugg and local maps on request.",
        "access": null,
        "parkingType": "free-24h-near-operator",
        "launchCarry": "short",
        "overnightSuitability": "possibly-day-or-24h-only",
        "primaryCategory": "parking_launch_access",
        "categories": [
          "launch-access",
          "parking"
        ],
        "serviceTags": [
          "kayak-rental",
          "launch",
          "parking",
          "route-advice"
        ],
        "bookingModel": "none-or-local-parking-rules",
        "supportsOwnKayak": "candidate",
        "sources": null,
        "source": {
          "provider": "Kajakboden",
          "url": "https://kajakboden.com/?p=kajakuthyrning&s=uthyrningsvillkor",
          "lastAccessedAt": "2026-04-26"
        },
        "needsFollowup": [
          "Confirm own-kayak launching and 24h parking rules."
        ]
      }
    },
    {
      "type": "Feature",
      "geometry": {
        "type": "Point",
        "coordinates": [
          18.314,
          59.242
        ]
      },
      "properties": {
        "id": "parking-tyreso-strandbadet",
        "name": "Tyresö Strandbadet parking",
        "type": "parking",
        "area": "Tyresö Strand / Erstaviken",
        "sourceFile": "compiled/kayak-parking.seed.json",
        "coordinateSource": "record-coordinate",
        "mapConfidence": "high",
        "routes": [
          "tyreso-strand-inner-archipelago"
        ],
        "services": "Kayakomat Tyresö Strandbadet source notes parking, bus access and seasonal toilet at the beach.",
        "access": null,
        "parkingType": "beach-parking",
        "launchCarry": "short",
        "overnightSuitability": "not-researched",
        "primaryCategory": "parking_launch_access",
        "categories": [
          "launch-access",
          "parking"
        ],
        "serviceTags": [
          "kayak-rental",
          "launch",
          "parking",
          "toilet"
        ],
        "bookingModel": "none-or-local-parking-rules",
        "supportsOwnKayak": "candidate",
        "sources": null,
        "source": {
          "provider": "Kayakomat",
          "url": "https://www.kayakomat.com/sv/location/645a3d0375306e25d03e503b",
          "lastAccessedAt": "2026-04-26"
        },
        "needsFollowup": [
          "Confirm current parking limits and launch signage."
        ]
      }
    },
    {
      "type": "Feature",
      "geometry": {
        "type": "Point",
        "coordinates": [
          18.52,
          59.2
        ]
      },
      "properties": {
        "id": "parking-bjorkviks-havsbad",
        "name": "Björkviks Havsbad parking",
        "type": "parking",
        "area": "Ingarö / Björnö",
        "sourceFile": "compiled/kayak-parking.seed.json",
        "coordinateSource": "record-coordinate",
        "mapConfidence": "medium-high",
        "routes": [
          "bjorkvik-bjorno-ingaro"
        ],
        "services": "Beach/launch parking candidate at Björkviks Havsbad, next to Kayakomat and Björnö/Torpesand routes.",
        "access": null,
        "parkingType": "beach-parking",
        "launchCarry": "short",
        "overnightSuitability": "not-researched",
        "primaryCategory": "parking_launch_access",
        "categories": [
          "launch-access",
          "parking"
        ],
        "serviceTags": [
          "kayak-rental",
          "launch",
          "parking",
          "route-advice"
        ],
        "bookingModel": "none-or-local-parking-rules",
        "supportsOwnKayak": "candidate",
        "sources": null,
        "source": {
          "provider": "Kayakomat",
          "url": "https://www.kayakomat.com/en/location/6275a4f7c6e0bedcab59a5e3",
          "lastAccessedAt": "2026-04-26"
        },
        "needsFollowup": [
          "Confirm parking capacity/fees and reserve overnight rules."
        ]
      }
    },
    {
      "type": "Feature",
      "geometry": {
        "type": "Point",
        "coordinates": [
          18.67,
          59.284
        ]
      },
      "properties": {
        "id": "parking-bullando-marina",
        "name": "Bullandö Marina parking",
        "type": "parking",
        "area": "Bullandö / Värmdö",
        "sourceFile": "compiled/kayak-parking.seed.json",
        "coordinateSource": "record-coordinate",
        "mapConfidence": "high",
        "routes": [
          "stavsnas-sollenkroka-kanholmsfjarden",
          "stavsnas-runmaro-runt"
        ],
        "services": "Get Out Kayak source says Bullandö can be reached by car and has plenty of free parking lots. Useful for Värmdö/Bullandö starts and local archipelago paddles.",
        "access": null,
        "parkingType": "free-marina-parking",
        "launchCarry": "short-to-medium",
        "overnightSuitability": "not-researched",
        "primaryCategory": "parking_launch_access",
        "categories": [
          "launch-access",
          "parking"
        ],
        "serviceTags": [
          "gear-rental",
          "kayak-rental",
          "parking"
        ],
        "bookingModel": "none-or-local-parking-rules",
        "supportsOwnKayak": "candidate",
        "sources": null,
        "source": {
          "provider": "Get Out Kayak",
          "url": "https://getoutkayak.se/pages/our-locations",
          "lastAccessedAt": "2026-04-26"
        },
        "needsFollowup": [
          "Confirm own-kayak launch access and overnight parking policy."
        ]
      }
    },
    {
      "type": "Feature",
      "geometry": {
        "type": "Point",
        "coordinates": [
          18.694,
          59.287
        ]
      },
      "properties": {
        "id": "parking-stavsnas-vinterhamn",
        "name": "Stavsnäs vinterhamn / gästhamn parking",
        "type": "parking",
        "area": "Stavsnäs",
        "sourceFile": "compiled/kayak-parking.seed.json",
        "coordinateSource": "record-coordinate",
        "mapConfidence": "medium-high",
        "routes": [
          "stavsnas-runmaro-runt",
          "stavsnas-sollenkroka-kanholmsfjarden",
          "stavsnas-namdo-bullero-langviksskar",
          "skt-hjalmo-ladna-runt"
        ],
        "services": "Central archipelago hub parking/launch candidate next to Get Out Kayak and Stavsnäs ferry/guest harbour. Agent findings note parking; facility sources describe Stavsnäs as a kayak base and transport hub.",
        "access": null,
        "parkingType": "paid-harbor-parking",
        "launchCarry": "short",
        "overnightSuitability": "possible-but-must-confirm",
        "primaryCategory": "parking_launch_access",
        "categories": [
          "launch-access",
          "parking",
          "transport"
        ],
        "serviceTags": [
          "ferry",
          "kayak-rental",
          "launch",
          "parking"
        ],
        "bookingModel": "none-or-local-parking-rules",
        "supportsOwnKayak": "candidate",
        "sources": null,
        "source": {
          "provider": "Get Out Kayak",
          "url": "https://getoutkayak.se/pages/our-locations",
          "lastAccessedAt": "2026-04-26"
        },
        "needsFollowup": [
          "Confirm current fees, long-stay rules and launch location."
        ]
      }
    },
    {
      "type": "Feature",
      "geometry": {
        "type": "Point",
        "coordinates": [
          18.658,
          59.439
        ]
      },
      "properties": {
        "id": "parking-sollenkroka-brygga",
        "name": "Sollenkroka brygga parking",
        "type": "parking",
        "area": "Sollenkroka",
        "sourceFile": "compiled/kayak-parking.seed.json",
        "coordinateSource": "record-coordinate",
        "mapConfidence": "medium-high",
        "routes": [
          "skt-hjalmo-ladna-runt",
          "kanotcenter-trasko-storo",
          "stavsnas-sollenkroka-kanholmsfjarden"
        ],
        "services": "Central archipelago launch candidate at Sollenkroka brygga / Get Out Kayak. Research notes limited parking and smaller resupply compared with Stavsnäs.",
        "access": null,
        "parkingType": "limited-harbor-parking",
        "launchCarry": "short",
        "overnightSuitability": "possible-but-must-confirm",
        "primaryCategory": "parking_launch_access",
        "categories": [
          "launch-access",
          "parking",
          "transport"
        ],
        "serviceTags": [
          "ferry",
          "kayak-rental",
          "launch",
          "parking",
          "sup-rental"
        ],
        "bookingModel": "none-or-local-parking-rules",
        "supportsOwnKayak": "candidate",
        "sources": null,
        "source": {
          "provider": "Get Out Kayak",
          "url": "https://getoutkayak.se/pages/our-locations",
          "lastAccessedAt": "2026-04-26"
        },
        "needsFollowup": [
          "Confirm parking capacity, fee, long-stay rules and water access."
        ]
      }
    },
    {
      "type": "Feature",
      "geometry": {
        "type": "Point",
        "coordinates": [
          18.417,
          59.135
        ]
      },
      "properties": {
        "id": "parking-dalaro-askfatshamnen",
        "name": "Dalarö Askfatshamnen parking",
        "type": "parking",
        "area": "Dalarö",
        "sourceFile": "compiled/kayak-parking.seed.json",
        "coordinateSource": "record-coordinate",
        "mapConfidence": "medium-high",
        "routes": [
          "dalaro-day-islands",
          "dalaro-galo-overnight",
          "dalaro-fjardlang-villinge"
        ],
        "services": "Southern archipelago parking/launch candidate at Dalarö Kajak / Askfatshamnen. Strong base for day islands, Gålö, Fjärdlång and Huvudskär approaches.",
        "access": null,
        "parkingType": "harbor-operator-nearby",
        "launchCarry": "short",
        "overnightSuitability": "not-researched",
        "primaryCategory": "parking_launch_access",
        "categories": [
          "launch-access",
          "parking"
        ],
        "serviceTags": [
          "kayak-rental",
          "launch",
          "parking"
        ],
        "bookingModel": "none-or-local-parking-rules",
        "supportsOwnKayak": "candidate",
        "sources": null,
        "source": {
          "provider": "Dalarö Kajak",
          "url": "https://dalarokajak.se/en/about-dalaro-kayak/",
          "lastAccessedAt": "2026-04-26"
        },
        "needsFollowup": [
          "Confirm public parking location, fees and own-kayak launch rules."
        ]
      }
    },
    {
      "type": "Feature",
      "geometry": {
        "type": "Point",
        "coordinates": [
          18.3,
          59.105
        ]
      },
      "properties": {
        "id": "parking-galo-havsbad",
        "name": "Gålö Havsbad parking",
        "type": "parking",
        "area": "Gålö",
        "sourceFile": "compiled/kayak-parking.seed.json",
        "coordinateSource": "record-coordinate",
        "mapConfidence": "medium",
        "routes": [
          "dalaro-galo-overnight"
        ],
        "services": "Parking/launch/accommodation candidate for sheltered Gålö variants and Dalarö-Gålö overnights. Gålö Havsbad is an established service node; local reserve rules apply.",
        "access": null,
        "parkingType": "camping-service-node",
        "launchCarry": "short-to-medium",
        "overnightSuitability": "likely-for-guests-but-confirm",
        "primaryCategory": "parking_launch_access",
        "categories": [
          "launch-access",
          "parking"
        ],
        "serviceTags": [
          "launch",
          "parking"
        ],
        "bookingModel": "none-or-local-parking-rules",
        "supportsOwnKayak": "candidate",
        "sources": null,
        "source": {
          "provider": "Naturkartan",
          "url": "https://www.naturkartan.se/en/stockholms-lan/galo",
          "lastAccessedAt": "2026-04-26"
        },
        "needsFollowup": [
          "Confirm public/guest parking rules, launch point and bird-protection buffers."
        ]
      }
    },
    {
      "type": "Feature",
      "geometry": {
        "type": "Point",
        "coordinates": [
          18.29,
          59.085
        ]
      },
      "properties": {
        "id": "parking-galo-morarna",
        "name": "Morarna / Gålö launch parking candidate",
        "type": "parking",
        "area": "Gålö / Morarna",
        "sourceFile": "compiled/kayak-parking.seed.json",
        "coordinateSource": "record-coordinate",
        "mapConfidence": "medium",
        "routes": [
          "dalaro-galo-overnight"
        ],
        "services": "Agent findings identified Morarna ramp as an easy launch on Gålö. Useful for bring-your-own kayak starts after checking parking and current access.",
        "access": null,
        "parkingType": "launch-ramp-candidate",
        "launchCarry": "short",
        "overnightSuitability": "unknown",
        "primaryCategory": "parking_launch_access",
        "categories": [
          "launch-access",
          "parking"
        ],
        "serviceTags": [
          "kayak-rental",
          "launch",
          "parking"
        ],
        "bookingModel": "none-or-local-parking-rules",
        "supportsOwnKayak": "candidate",
        "sources": null,
        "source": {
          "provider": "Länsstyrelsen Gålö marina/friluftsliv report",
          "url": "https://www.lansstyrelsen.se/download/18.3fcb6f8319931f7a95f95985/1758553617553/R2025-31%2520G%25C3%25A5l%25C3%25B6s%2520marina%2520friluftsliv.pdf",
          "lastAccessedAt": "2026-04-26"
        },
        "needsFollowup": [
          "Confirm legal parking, ramp status and seasonal bird restrictions."
        ]
      }
    },
    {
      "type": "Feature",
      "geometry": {
        "type": "Point",
        "coordinates": [
          17.96,
          58.89
        ]
      },
      "properties": {
        "id": "parking-nynashamn-lovhagen",
        "name": "Nynäshamn / Lövhagen parking",
        "type": "parking",
        "area": "Nynäshamn / Lövhagen",
        "sourceFile": "compiled/kayak-parking.seed.json",
        "coordinateSource": "record-coordinate",
        "mapConfidence": "medium",
        "routes": [
          "nynashamn-nattaro-rano-alo"
        ],
        "services": "Parking/launch candidate at Nynäshamns Kajakuthyrning / Lövhagen for southern routes toward Nåttarö, Rånö and Ålö.",
        "access": null,
        "parkingType": "operator-nearby",
        "launchCarry": "short-to-medium",
        "overnightSuitability": "not-researched",
        "primaryCategory": "parking_launch_access",
        "categories": [
          "launch-access",
          "parking"
        ],
        "serviceTags": [
          "kayak-rental",
          "launch",
          "parking",
          "route-advice"
        ],
        "bookingModel": "none-or-local-parking-rules",
        "supportsOwnKayak": "candidate",
        "sources": null,
        "source": {
          "provider": "Naturkartan",
          "url": "https://www.naturkartan.se/sv/stockholms-lan/nynashamns-kajakuthyrning",
          "lastAccessedAt": "2026-04-26"
        },
        "needsFollowup": [
          "Confirm exact launch, parking fees and long-stay policy."
        ]
      }
    },
    {
      "type": "Feature",
      "geometry": {
        "type": "Point",
        "coordinates": [
          17.84,
          58.82
        ]
      },
      "properties": {
        "id": "parking-ankarudden-toro",
        "name": "Ankarudden / Torö parking",
        "type": "parking",
        "area": "Torö / Ankarudden",
        "sourceFile": "compiled/kayak-parking.seed.json",
        "coordinateSource": "record-coordinate",
        "mapConfidence": "medium",
        "routes": [
          "ankarudden-landsort-runt",
          "jarflotta-toro-nynashamn"
        ],
        "services": "Southern launch/parking candidate for Landsort, Järflotta and Torö-side routes. Torö Kajak directory listing identifies Ankarudden as a sea-kayak rental location.",
        "access": null,
        "parkingType": "ferry-harbor-launch-candidate",
        "launchCarry": "short-to-medium",
        "overnightSuitability": "not-researched",
        "primaryCategory": "parking_launch_access",
        "categories": [
          "launch-access",
          "parking"
        ],
        "serviceTags": [
          "kayak-rental",
          "launch",
          "parking",
          "route-advice"
        ],
        "bookingModel": "none-or-local-parking-rules",
        "supportsOwnKayak": "candidate",
        "sources": null,
        "source": {
          "provider": "Activated / Torö Kajak listing",
          "url": "https://www.activated.se/kanot-kajak/nynashamn/toro-kajak.html",
          "lastAccessedAt": "2026-04-26"
        },
        "needsFollowup": [
          "Verify operator status, launch permission, ferry crowding and parking rules."
        ]
      }
    },
    {
      "type": "Feature",
      "geometry": {
        "type": "Point",
        "coordinates": [
          18.146,
          59.083
        ]
      },
      "properties": {
        "id": "parking-arsta-havsbad",
        "name": "Årsta Havsbad parking / launch candidate",
        "type": "parking",
        "area": "Årsta Havsbad / Haninge",
        "sourceFile": "compiled/kayak-parking.seed.json",
        "coordinateSource": "record-coordinate",
        "mapConfidence": "medium",
        "routes": [
          "dalaro-galo-overnight",
          "jarflotta-toro-nynashamn"
        ],
        "services": "Haninge tourism material names Årsta havsbad among suitable launch places for own canoe/kayak with some parking.",
        "access": null,
        "parkingType": "beach-launch-candidate",
        "launchCarry": "short-to-medium",
        "overnightSuitability": "unknown",
        "primaryCategory": "parking_launch_access",
        "categories": [
          "launch-access",
          "parking"
        ],
        "serviceTags": [
          "canoe-rental",
          "kayak-rental",
          "launch",
          "parking"
        ],
        "bookingModel": "none-or-local-parking-rules",
        "supportsOwnKayak": "candidate",
        "sources": null,
        "source": {
          "provider": "Haninge Skärgård & Vildmark",
          "url": "https://www.haninge.se/siteassets/uppleva-och-gora/turism/skargard_vildmark_w.pdf",
          "lastAccessedAt": "2026-04-26"
        },
        "needsFollowup": [
          "Confirm exact parking, launch place and local signage."
        ]
      }
    },
    {
      "type": "Feature",
      "geometry": {
        "type": "Point",
        "coordinates": [
          19.03,
          59.76
        ]
      },
      "properties": {
        "id": "parking-graddo-brygga",
        "name": "Gräddö Brygga / Kajak & Uteliv parking",
        "type": "parking",
        "area": "Gräddö / northern Roslagen",
        "sourceFile": "compiled/kayak-parking.seed.json",
        "coordinateSource": "record-coordinate",
        "mapConfidence": "medium-high",
        "routes": [
          "kayak-lido-runt-graddo",
          "kayak-vattungarna-hakanskar"
        ],
        "services": "Northern Roslagen launch/parking candidate at Kajak & Uteliv Gräddö, used for Lidö runt and longer Håkanskär/Vattungarna trips. Agent findings noted parking at/near the base.",
        "access": null,
        "parkingType": "operator-nearby",
        "launchCarry": "short",
        "overnightSuitability": "not-researched",
        "primaryCategory": "parking_launch_access",
        "categories": [
          "launch-access",
          "parking",
          "transport"
        ],
        "serviceTags": [
          "ferry",
          "kayak-rental",
          "launch",
          "parking"
        ],
        "bookingModel": "none-or-local-parking-rules",
        "supportsOwnKayak": "candidate",
        "sources": null,
        "source": {
          "provider": "Kajak & Uteliv",
          "url": "https://www.kajak-uteliv.com/turforslag/",
          "lastAccessedAt": "2026-04-26"
        },
        "needsFollowup": [
          "Confirm exact parking/fees and own-kayak launch terms."
        ]
      }
    },
    {
      "type": "Feature",
      "geometry": {
        "type": "Point",
        "coordinates": [
          19.1,
          59.75
        ]
      },
      "properties": {
        "id": "parking-rafsnas-ramp",
        "name": "Räfsnäs / Rävsnäs ramp parking candidate",
        "type": "parking",
        "area": "Räfsnäs / northern Roslagen",
        "sourceFile": "compiled/kayak-parking.seed.json",
        "coordinateSource": "record-coordinate",
        "mapConfidence": "medium",
        "routes": [
          "kayak-vattungarna-hakanskar",
          "kayak-norrpada-roder-kapellskar-return"
        ],
        "services": "Kanotguiden route context identifies Räfsnäs ramp as launch/takeout for Vattungarna-Håkanskär; agent findings note parking back on the main road.",
        "access": null,
        "parkingType": "ramp-parking-candidate",
        "launchCarry": "medium",
        "overnightSuitability": "possible-but-must-confirm",
        "primaryCategory": "parking_launch_access",
        "categories": [
          "launch-access",
          "parking"
        ],
        "serviceTags": [
          "canoe-rental",
          "guided-tours",
          "launch",
          "parking",
          "route-advice"
        ],
        "bookingModel": "none-or-local-parking-rules",
        "supportsOwnKayak": "candidate",
        "sources": null,
        "source": {
          "provider": "Kanotguiden",
          "url": "https://kanotguiden.com/kanotleder/visa_led.php?routeId=97",
          "lastAccessedAt": "2026-04-26"
        },
        "needsFollowup": [
          "Confirm current legal parking location and distance from ramp."
        ]
      }
    },
    {
      "type": "Feature",
      "geometry": {
        "type": "Point",
        "coordinates": [
          18.92,
          59.66
        ]
      },
      "properties": {
        "id": "parking-furusund-kajak-uteliv",
        "name": "Furusund / Kajak & Uteliv parking candidate",
        "type": "parking",
        "area": "Furusund",
        "sourceFile": "compiled/kayak-parking.seed.json",
        "coordinateSource": "record-coordinate",
        "mapConfidence": "medium",
        "routes": [
          "kayak-furusund-angso",
          "kayak-furusund-runt-blidosund"
        ],
        "services": "Northern archipelago launch/parking candidate near Kajak & Uteliv Furusund and Kayakomat Furusund, useful for Ängsö, Blidösundet/Yxlan and Furusund local routes.",
        "access": null,
        "parkingType": "operator-self-service-nearby",
        "launchCarry": "short-to-medium",
        "overnightSuitability": "not-researched",
        "primaryCategory": "parking_launch_access",
        "categories": [
          "launch-access",
          "parking"
        ],
        "serviceTags": [
          "kayak-rental",
          "launch",
          "parking",
          "route-advice"
        ],
        "bookingModel": "none-or-local-parking-rules",
        "supportsOwnKayak": "candidate",
        "sources": null,
        "source": {
          "provider": "Kayakomat Furusund",
          "url": "https://www.kayakomat.com/sv/location/66aa4b6492acb98b414580b7",
          "lastAccessedAt": "2026-04-26"
        },
        "needsFollowup": [
          "Confirm exact parking availability, fees and own-kayak launch point."
        ]
      }
    }
  ]
}
