<?xml version="1.0" encoding="UTF-8"?>
<gpx xmlns="http://www.topografix.com/GPX/1/1" xmlns:xsi="http://www.w3.org/2001/XMLSchema-instance" version="1.1" creator="GPX RubyGem 1.0.0 -- http://dougfales.github.io/gpx/" xsi:schemaLocation="http://www.topografix.com/GPX/1/1 http://www.topografix.com/GPX/1/1/gpx.xsd">
  <metadata>
    <name>Hallingeberg – Karrum – Odensvi, Tjustleden etapp 6 by Naturkartan</name>
    <time>2026-04-30T16:07:51+00:00</time>
  </metadata>
  <trk>
    <name>Hallingeberg – Karrum – Odensvi, Tjustleden etapp 6 by Naturkartan</name>
    <trkseg>
      <trkpt lat="57.9043657601798" lon="16.1318288346221"/>
      <trkpt lat="57.9043487148104" lon="16.1314744782311"/>
      <trkpt lat="57.9041970300806" lon="16.131102054908"/>
      <trkpt lat="57.9041456122479" lon="16.1301402297605"/>
      <trkpt lat="57.9044355355625" lon="16.1291140059165"/>
      <trkpt lat="57.9045635489093" lon="16.1282043739238"/>
      <trkpt lat="57.9046807346646" lon="16.1280198965222"/>
      <trkpt lat="57.9043858577514" lon="16.1274606732756"/>
      <trkpt lat="57.9039643004139" lon="16.1272882633726"/>
      <trkpt lat="57.9033188704305" lon="16.1268777271741"/>
      <trkpt lat="57.9032721125032" lon="16.1267442772755"/>
      <trkpt lat="57.9027014136338" lon="16.1275019058138"/>
      <trkpt lat="57.9016750632014" lon="16.1282529604363"/>
      <trkpt lat="57.9014250707706" lon="16.1283466169435"/>
      <trkpt lat="57.9012319019216" lon="16.1282727848469"/>
      <trkpt lat="57.9007857901166" lon="16.1274827317318"/>
      <trkpt lat="57.9002967925908" lon="16.1274302660867"/>
      <trkpt lat="57.899965609691" lon="16.1276193592939"/>
      <trkpt lat="57.8997583027657" lon="16.1279126672325"/>
      <trkpt lat="57.8988601895224" lon="16.130170027005"/>
      <trkpt lat="57.8983798491935" lon="16.1308233994098"/>
      <trkpt lat="57.8978147904766" lon="16.1309509326143"/>
      <trkpt lat="57.8976327317025" lon="16.1314644238472"/>
      <trkpt lat="57.8975861126979" lon="16.1321385296194"/>
      <trkpt lat="57.8974683501641" lon="16.1325421792769"/>
      <trkpt lat="57.8969996973415" lon="16.1332293019225"/>
      <trkpt lat="57.8967034098926" lon="16.1332266079518"/>
      <trkpt lat="57.8965679955528" lon="16.1335120328904"/>
      <trkpt lat="57.8965131285616" lon="16.1338993754104"/>
      <trkpt lat="57.8965833832345" lon="16.1345070767993"/>
      <trkpt lat="57.8967530563281" lon="16.1348627262825"/>
      <trkpt lat="57.896912491549" lon="16.1357073096445"/>
      <trkpt lat="57.8971813170582" lon="16.1359121323096"/>
      <trkpt lat="57.8978005203759" lon="16.1360358452879"/>
      <trkpt lat="57.8980864729224" lon="16.1365612160532"/>
      <trkpt lat="57.8982018337031" lon="16.1370850377348"/>
      <trkpt lat="57.898102096619" lon="16.1374551172834"/>
      <trkpt lat="57.8971662797865" lon="16.1382390562671"/>
      <trkpt lat="57.8970128554541" lon="16.1385411723071"/>
      <trkpt lat="57.8965629603328" lon="16.1389079894962"/>
      <trkpt lat="57.8964457148728" lon="16.139109257899"/>
      <trkpt lat="57.8965694635355" lon="16.1398523609135"/>
      <trkpt lat="57.8964865314443" lon="16.1406609787199"/>
      <trkpt lat="57.8962784745193" lon="16.1412492434519"/>
      <trkpt lat="57.8965616327953" lon="16.1428200876056"/>
      <trkpt lat="57.8964347751103" lon="16.1432573119236"/>
      <trkpt lat="57.8963358300815" lon="16.1433238467114"/>
      <trkpt lat="57.895902404553" lon="16.1442472005373"/>
      <trkpt lat="57.8956001759079" lon="16.1464701704967"/>
      <trkpt lat="57.8948523505707" lon="16.147441079159"/>
      <trkpt lat="57.8920010189798" lon="16.1493361552902"/>
      <trkpt lat="57.8909319923782" lon="16.1495451623326"/>
      <trkpt lat="57.8900625896768" lon="16.1489805013081"/>
      <trkpt lat="57.8899007043814" lon="16.1490801183715"/>
      <trkpt lat="57.8899387885159" lon="16.1494905242638"/>
      <trkpt lat="57.88960182642" lon="16.1500382520079"/>
      <trkpt lat="57.8891163917684" lon="16.1502527879878"/>
      <trkpt lat="57.8889349046569" lon="16.1509591397395"/>
      <trkpt lat="57.888213703006" lon="16.1520311890535"/>
      <trkpt lat="57.8879175515551" lon="16.1519777638191"/>
      <trkpt lat="57.8878805841058" lon="16.1523651543214"/>
      <trkpt lat="57.8877177284703" lon="16.1528187653441"/>
      <trkpt lat="57.8875583809008" lon="16.1528847927118"/>
      <trkpt lat="57.8876070181856" lon="16.1532347431125"/>
      <trkpt lat="57.8866181288613" lon="16.1541062452023"/>
      <trkpt lat="57.8862683735967" lon="16.1540224836682"/>
      <trkpt lat="57.8860563982285" lon="16.1537934694163"/>
      <trkpt lat="57.8854368755226" lon="16.1521065921494"/>
      <trkpt lat="57.8852610941123" lon="16.1520780507712"/>
      <trkpt lat="57.8850904550142" lon="16.1521639863994"/>
      <trkpt lat="57.8849180015346" lon="16.152071682709"/>
      <trkpt lat="57.8844807430842" lon="16.1512368113877"/>
      <trkpt lat="57.884265215001" lon="16.1512515958357"/>
      <trkpt lat="57.8839951798365" lon="16.1515018583852"/>
      <trkpt lat="57.8838686086229" lon="16.1518209251374"/>
      <trkpt lat="57.8831843235366" lon="16.1525223305645"/>
      <trkpt lat="57.8833534394762" lon="16.1530633569284"/>
      <trkpt lat="57.8832789221402" lon="16.1534940353989"/>
      <trkpt lat="57.8831792600686" lon="16.1535370368734"/>
      <trkpt lat="57.8828138163861" lon="16.1533952790719"/>
      <trkpt lat="57.8825800967942" lon="16.1534941596242"/>
      <trkpt lat="57.8828998175351" lon="16.1547783080594"/>
      <trkpt lat="57.8829495635246" lon="16.1562789903588"/>
      <trkpt lat="57.8825008239271" lon="16.1562072012509"/>
      <trkpt lat="57.8821162376643" lon="16.155664083734"/>
      <trkpt lat="57.8813183178768" lon="16.1552349627367"/>
      <trkpt lat="57.8810847423992" lon="16.1552832749135"/>
      <trkpt lat="57.8810845051359" lon="16.1553675506211"/>
      <trkpt lat="57.8809328798809" lon="16.1554495689801"/>
      <trkpt lat="57.8805258042299" lon="16.1549462000731"/>
      <trkpt lat="57.8795207152377" lon="16.154047763414"/>
      <trkpt lat="57.8793218457814" lon="16.15373277512"/>
      <trkpt lat="57.8787163456951" lon="16.1535992805857"/>
      <trkpt lat="57.8785843926134" lon="16.153409656593"/>
      <trkpt lat="57.8784893150627" lon="16.1527479736437"/>
      <trkpt lat="57.8780348383725" lon="16.1523956221419"/>
      <trkpt lat="57.8778928222219" lon="16.1520910553334"/>
      <trkpt lat="57.8777662609244" lon="16.1509628423876"/>
      <trkpt lat="57.8774831605804" lon="16.1501084024597"/>
      <trkpt lat="57.876977230225" lon="16.1498612201878"/>
      <trkpt lat="57.8767630837495" lon="16.149456457441"/>
      <trkpt lat="57.8765950128927" lon="16.1493094108765"/>
      <trkpt lat="57.8762620721593" lon="16.1491877451961"/>
      <trkpt lat="57.8755455399655" lon="16.1485466086005"/>
      <trkpt lat="57.8750605476607" lon="16.1473383482743"/>
      <trkpt lat="57.8749143643303" lon="16.1471667237626"/>
      <trkpt lat="57.8744850267476" lon="16.147391800828"/>
      <trkpt lat="57.8739568195111" lon="16.1473904292695"/>
      <trkpt lat="57.8732398510758" lon="16.1476575924375"/>
      <trkpt lat="57.8729398503026" lon="16.14725841455"/>
      <trkpt lat="57.8724694890039" lon="16.1469374611049"/>
      <trkpt lat="57.8719073537865" lon="16.1475702362151"/>
      <trkpt lat="57.8711717851458" lon="16.1478696981892"/>
      <trkpt lat="57.8704733185123" lon="16.1477187249266"/>
      <trkpt lat="57.870111011945" lon="16.1478443317503"/>
      <trkpt lat="57.8698543334078" lon="16.1477387185465"/>
      <trkpt lat="57.869454911184" lon="16.1477308717901"/>
      <trkpt lat="57.8690598017934" lon="16.1473870867392"/>
      <trkpt lat="57.868793709497" lon="16.1466788710759"/>
      <trkpt lat="57.8685430106017" lon="16.1462959510788"/>
      <trkpt lat="57.8679838952951" lon="16.146198842824"/>
      <trkpt lat="57.8677944875557" lon="16.1459898764115"/>
      <trkpt lat="57.866779107166" lon="16.1456079572772"/>
      <trkpt lat="57.8659927560678" lon="16.1459608220817"/>
      <trkpt lat="57.8657490676785" lon="16.1457096392819"/>
      <trkpt lat="57.8656539495735" lon="16.1454654534355"/>
      <trkpt lat="57.8655257000258" lon="16.1457639300075"/>
      <trkpt lat="57.8647742694408" lon="16.1461161886612"/>
      <trkpt lat="57.8645467061961" lon="16.1463894330646"/>
      <trkpt lat="57.8642197178786" lon="16.1464239068543"/>
      <trkpt lat="57.8635340475382" lon="16.1457836533034"/>
      <trkpt lat="57.8627492097016" lon="16.1443645126778"/>
      <trkpt lat="57.8625964577841" lon="16.1443102294644"/>
      <trkpt lat="57.8621154648303" lon="16.1444613696864"/>
      <trkpt lat="57.8614652604069" lon="16.1451161681831"/>
      <trkpt lat="57.8609924151208" lon="16.1453070079621"/>
      <trkpt lat="57.8597737364922" lon="16.1451292448815"/>
      <trkpt lat="57.8587603163515" lon="16.1451122322122"/>
      <trkpt lat="57.8585429961666" lon="16.1452748883341"/>
      <trkpt lat="57.8579107095076" lon="16.1461215043507"/>
      <trkpt lat="57.8573778370971" lon="16.1465222565467"/>
      <trkpt lat="57.8570234943401" lon="16.1470548787657"/>
      <trkpt lat="57.8566793190517" lon="16.1479659238206"/>
      <trkpt lat="57.8560720340861" lon="16.1488113917219"/>
      <trkpt lat="57.8554770556758" lon="16.1493188818203"/>
      <trkpt lat="57.8551379616428" lon="16.1500400962212"/>
      <trkpt lat="57.8548865888552" lon="16.1511875859578"/>
      <trkpt lat="57.8544889856385" lon="16.152005953307"/>
      <trkpt lat="57.8536016149627" lon="16.1525953732123"/>
      <trkpt lat="57.8535148084653" lon="16.1529567561457"/>
      <trkpt lat="57.8532027091469" lon="16.1535431163743"/>
      <trkpt lat="57.8534705019267" lon="16.1541005040693"/>
      <trkpt lat="57.853835082731" lon="16.1541634120204"/>
      <trkpt lat="57.8543768465723" lon="16.1557314240659"/>
      <trkpt lat="57.8542379558981" lon="16.1587348616454"/>
      <trkpt lat="57.8538015321491" lon="16.1582200896641"/>
      <trkpt lat="57.8536034475209" lon="16.158116668639"/>
      <trkpt lat="57.8530980445322" lon="16.1582808755785"/>
      <trkpt lat="57.8528422575253" lon="16.1584938221295"/>
      <trkpt lat="57.8526014262204" lon="16.1589784329421"/>
      <trkpt lat="57.8524809535123" lon="16.1595478862629"/>
      <trkpt lat="57.8521196885889" lon="16.1604160591259"/>
      <trkpt lat="57.8513927244496" lon="16.1616336966212"/>
      <trkpt lat="57.8504636140733" lon="16.1628521146312"/>
      <trkpt lat="57.8504686152186" lon="16.1631974155263"/>
      <trkpt lat="57.8501867801014" lon="16.1638255080803"/>
      <trkpt lat="57.8497579525397" lon="16.1643947943755"/>
      <trkpt lat="57.849228545" lon="16.1646845028268"/>
      <trkpt lat="57.8489800570967" lon="16.1652626730859"/>
      <trkpt lat="57.8483558567112" lon="16.1659729645424"/>
      <trkpt lat="57.8481453691959" lon="16.1666079222847"/>
      <trkpt lat="57.8476801735014" lon="16.1659332520597"/>
      <trkpt lat="57.8467700361398" lon="16.165342400356"/>
      <trkpt lat="57.846652045283" lon="16.1651210378176"/>
      <trkpt lat="57.846111743324" lon="16.1637549772166"/>
      <trkpt lat="57.8459272293332" lon="16.1623859149568"/>
      <trkpt lat="57.8458226491365" lon="16.1623652436545"/>
      <trkpt lat="57.8449477524115" lon="16.1633836368148"/>
      <trkpt lat="57.8445278113487" lon="16.1633140835121"/>
      <trkpt lat="57.8441010730098" lon="16.1630776355873"/>
      <trkpt lat="57.8436257345304" lon="16.163080423247"/>
      <trkpt lat="57.8434168665783" lon="16.1634903571643"/>
      <trkpt lat="57.8434116991525" lon="16.1639097867159"/>
      <trkpt lat="57.843094129831" lon="16.1642612893841"/>
      <trkpt lat="57.8430429384293" lon="16.1639681905517"/>
      <trkpt lat="57.8427485689032" lon="16.1634022685441"/>
      <trkpt lat="57.8419980443381" lon="16.1626747010703"/>
      <trkpt lat="57.8417279876353" lon="16.1614856978869"/>
      <trkpt lat="57.8413348639537" lon="16.1611742677606"/>
      <trkpt lat="57.8406954042088" lon="16.159949353234"/>
      <trkpt lat="57.8404853341158" lon="16.1600762298403"/>
      <trkpt lat="57.839546126909" lon="16.1603168573198"/>
      <trkpt lat="57.8387613314211" lon="16.1612759553368"/>
      <trkpt lat="57.8385921710935" lon="16.1616870884168"/>
      <trkpt lat="57.8370874167998" lon="16.1641450850912"/>
      <trkpt lat="57.8368570960066" lon="16.165371576871"/>
      <trkpt lat="57.836616737696" lon="16.1656882076921"/>
      <trkpt lat="57.8362520572339" lon="16.1654010213121"/>
      <trkpt lat="57.8359256867347" lon="16.1649369848031"/>
      <trkpt lat="57.8357128339151" lon="16.1644386574691"/>
      <trkpt lat="57.8353102524258" lon="16.1641865466994"/>
      <trkpt lat="57.8348753830264" lon="16.1642058685606"/>
      <trkpt lat="57.8343907369465" lon="16.1640002298042"/>
      <trkpt lat="57.8341583517434" lon="16.1637262013118"/>
      <trkpt lat="57.8336441830568" lon="16.1628114112468"/>
      <trkpt lat="57.8331722183593" lon="16.1625822750595"/>
      <trkpt lat="57.832913824236" lon="16.1625915527289"/>
      <trkpt lat="57.8322505766211" lon="16.1631520536807"/>
      <trkpt lat="57.8314990771782" lon="16.1634803427552"/>
      <trkpt lat="57.8314578472843" lon="16.1632440076489"/>
      <trkpt lat="57.8313410112162" lon="16.1632011066073"/>
      <trkpt lat="57.8305691806973" lon="16.163333657374"/>
      <trkpt lat="57.8298956756505" lon="16.1635596818326"/>
      <trkpt lat="57.8296801317664" lon="16.1635453099121"/>
      <trkpt lat="57.8289716480532" lon="16.1645914424556"/>
      <trkpt lat="57.8287097130864" lon="16.1648092588246"/>
      <trkpt lat="57.8279161348324" lon="16.16491218719"/>
      <trkpt lat="57.8273617860141" lon="16.1647166739471"/>
      <trkpt lat="57.8271071267812" lon="16.165559499146"/>
      <trkpt lat="57.8272408490998" lon="16.1669510248504"/>
      <trkpt lat="57.8268452220811" lon="16.1673847700227"/>
      <trkpt lat="57.8266080069082" lon="16.1681945704896"/>
      <trkpt lat="57.8265378388139" lon="16.1689962470168"/>
      <trkpt lat="57.8263059686073" lon="16.1697571730377"/>
      <trkpt lat="57.8260700803558" lon="16.1700972479648"/>
      <trkpt lat="57.8258170636407" lon="16.1709459862437"/>
      <trkpt lat="57.8255396880086" lon="16.1711878211572"/>
      <trkpt lat="57.8252470758794" lon="16.1712827047359"/>
      <trkpt lat="57.8249784694903" lon="16.1721019156433"/>
      <trkpt lat="57.8247433078156" lon="16.1721875934907"/>
      <trkpt lat="57.8246383109581" lon="16.1723920074187"/>
      <trkpt lat="57.8246670592087" lon="16.173282699647"/>
      <trkpt lat="57.8245559862469" lon="16.1737805828002"/>
      <trkpt lat="57.8241486724065" lon="16.1738253644845"/>
      <trkpt lat="57.8238774486568" lon="16.1737443169914"/>
      <trkpt lat="57.8236480948097" lon="16.1736245788624"/>
      <trkpt lat="57.8234399648573" lon="16.1733876254317"/>
      <trkpt lat="57.8229809795293" lon="16.1732460015831"/>
      <trkpt lat="57.8223324021843" lon="16.1736796887256"/>
      <trkpt lat="57.8221751333716" lon="16.1739031278099"/>
      <trkpt lat="57.8221273541587" lon="16.1741765889667"/>
      <trkpt lat="57.8221981725979" lon="16.1749600155519"/>
      <trkpt lat="57.8224515188666" lon="16.1758040363674"/>
      <trkpt lat="57.8223593233811" lon="16.1769869520674"/>
      <trkpt lat="57.8222648673214" lon="16.177152301179"/>
      <trkpt lat="57.8218204639747" lon="16.1773825586275"/>
      <trkpt lat="57.8216894392506" lon="16.177557336118"/>
      <trkpt lat="57.8213206681192" lon="16.1786982476782"/>
      <trkpt lat="57.821100271184" lon="16.1790872943005"/>
      <trkpt lat="57.8207499967453" lon="16.1810306272012"/>
      <trkpt lat="57.8207733527997" lon="16.1819603149843"/>
      <trkpt lat="57.8206454290586" lon="16.1828492760005"/>
      <trkpt lat="57.8206543562812" lon="16.1833581123678"/>
      <trkpt lat="57.820952082569" lon="16.185053786282"/>
      <trkpt lat="57.8214169901323" lon="16.1867023363662"/>
      <trkpt lat="57.8214149957891" lon="16.1873676164752"/>
      <trkpt lat="57.8212636582871" lon="16.1876591336165"/>
      <trkpt lat="57.821934494464" lon="16.1893598691879"/>
      <trkpt lat="57.8222516890908" lon="16.1895820641637"/>
      <trkpt lat="57.8232682049219" lon="16.1895532361461"/>
      <trkpt lat="57.8237038471618" lon="16.1897126863584"/>
      <trkpt lat="57.8238275854749" lon="16.1905729988558"/>
      <trkpt lat="57.8240342070566" lon="16.1912992517199"/>
      <trkpt lat="57.8244611351923" lon="16.1916756192827"/>
      <trkpt lat="57.8253534621928" lon="16.1917927753296"/>
      <trkpt lat="57.8260620167931" lon="16.1922602252598"/>
      <trkpt lat="57.8267511478326" lon="16.1922480246094"/>
      <trkpt lat="57.8274667297519" lon="16.1921186762345"/>
      <trkpt lat="57.8277369044804" lon="16.1925423323093"/>
      <trkpt lat="57.8277325091031" lon="16.1932648661765"/>
      <trkpt lat="57.8276269309614" lon="16.193644858751"/>
      <trkpt lat="57.8275359342981" lon="16.1946533249615"/>
      <trkpt lat="57.8276012992303" lon="16.1966317147146"/>
      <trkpt lat="57.8274941555795" lon="16.1992983675518"/>
      <trkpt lat="57.8273339672752" lon="16.199564432612"/>
      <trkpt lat="57.8266956231781" lon="16.1998561972439"/>
      <trkpt lat="57.8266071631947" lon="16.2000303275076"/>
      <trkpt lat="57.8266315012106" lon="16.2010400274013"/>
      <trkpt lat="57.8268139646633" lon="16.2024428431973"/>
      <trkpt lat="57.8271868945418" lon="16.2044349036141"/>
      <trkpt lat="57.8273886566035" lon="16.2049315338366"/>
      <trkpt lat="57.8271709803991" lon="16.2060003778915"/>
      <trkpt lat="57.8282727131506" lon="16.2068881340676"/>
      <trkpt lat="57.8284310850892" lon="16.2071989039195"/>
      <trkpt lat="57.8285138408033" lon="16.2079158316391"/>
      <trkpt lat="57.8283919676743" lon="16.2083967673369"/>
      <trkpt lat="57.8284439632068" lon="16.2096710306527"/>
      <trkpt lat="57.8285484642832" lon="16.2104010373377"/>
      <trkpt lat="57.8288855681805" lon="16.211058795362"/>
      <trkpt lat="57.8294254608823" lon="16.2115071368308"/>
      <trkpt lat="57.8297500014629" lon="16.2120059060676"/>
      <trkpt lat="57.830428133681" lon="16.2122398957348"/>
      <trkpt lat="57.8307948743104" lon="16.2129125103407"/>
      <trkpt lat="57.8309642692952" lon="16.2128280222008"/>
      <trkpt lat="57.8315621290433" lon="16.212862422087"/>
      <trkpt lat="57.8316540957722" lon="16.2135560744078"/>
      <trkpt lat="57.8319237380397" lon="16.214088983842"/>
      <trkpt lat="57.8330515595783" lon="16.2147296774107"/>
      <trkpt lat="57.833111546304" lon="16.215282437445"/>
      <trkpt lat="57.8332314700261" lon="16.215541451716"/>
      <trkpt lat="57.8332185285456" lon="16.2160407639179"/>
      <trkpt lat="57.8333379125597" lon="16.2163558615533"/>
      <trkpt lat="57.8333599493593" lon="16.2172446795427"/>
      <trkpt lat="57.8329399069034" lon="16.2185210180368"/>
      <trkpt lat="57.8330564445718" lon="16.2189868046713"/>
      <trkpt lat="57.8336165841333" lon="16.2196856596489"/>
      <trkpt lat="57.8337823683184" lon="16.2211938802293"/>
      <trkpt lat="57.8333085971154" lon="16.2216099492375"/>
      <trkpt lat="57.8331213312186" lon="16.2218938024516"/>
      <trkpt lat="57.8323434249152" lon="16.2231476136751"/>
      <trkpt lat="57.8320378044696" lon="16.2239499747447"/>
      <trkpt lat="57.8313379685021" lon="16.2244658812435"/>
      <trkpt lat="57.8309777716424" lon="16.2250184175847"/>
      <trkpt lat="57.8305266478416" lon="16.2250618823951"/>
      <trkpt lat="57.8299941927503" lon="16.2252799083048"/>
      <trkpt lat="57.8298644894154" lon="16.2254068730831"/>
      <trkpt lat="57.8297251146836" lon="16.2257965936895"/>
      <trkpt lat="57.8297414986625" lon="16.22637202196"/>
      <trkpt lat="57.8296580396046" lon="16.2269105810722"/>
      <trkpt lat="57.8295685066073" lon="16.2270422054015"/>
      <trkpt lat="57.829404722259" lon="16.227054589115"/>
      <trkpt lat="57.8299681901" lon="16.2298408517948"/>
      <trkpt lat="57.8302375828502" lon="16.230291521197"/>
      <trkpt lat="57.8303841954488" lon="16.2311001708091"/>
      <trkpt lat="57.830404617542" lon="16.2318022517805"/>
      <trkpt lat="57.8303857463289" lon="16.2325604517967"/>
      <trkpt lat="57.8302646121394" lon="16.2333346910485"/>
      <trkpt lat="57.8299360793091" lon="16.2344226836739"/>
      <trkpt lat="57.8294896668863" lon="16.2370078705146"/>
      <trkpt lat="57.829544470714" lon="16.2375995371738"/>
      <trkpt lat="57.8294745400725" lon="16.2387837404191"/>
      <trkpt lat="57.8293497324344" lon="16.2393157468322"/>
      <trkpt lat="57.8293864181573" lon="16.2398133007328"/>
      <trkpt lat="57.8299511602172" lon="16.2405067745256"/>
      <trkpt lat="57.8302607195808" lon="16.2410232164081"/>
      <trkpt lat="57.8304591277352" lon="16.2416276726693"/>
      <trkpt lat="57.831006081128" lon="16.2424322513826"/>
      <trkpt lat="57.8313776981286" lon="16.2424607363955"/>
      <trkpt lat="57.8318225942956" lon="16.2422769910918"/>
      <trkpt lat="57.8320139445097" lon="16.2429723127242"/>
      <trkpt lat="57.8322329295876" lon="16.2429611777766"/>
      <trkpt lat="57.8328941036218" lon="16.2424640388468"/>
      <trkpt lat="57.8331323918585" lon="16.2414435237941"/>
      <trkpt lat="57.8331548138948" lon="16.2403983670291"/>
      <trkpt lat="57.8337265321952" lon="16.2394423812665"/>
      <trkpt lat="57.8343475934874" lon="16.2373597233929"/>
      <trkpt lat="57.8346118641255" lon="16.2370940889447"/>
      <trkpt lat="57.8351791750811" lon="16.2371093399718"/>
      <trkpt lat="57.8359812701276" lon="16.2363062711997"/>
      <trkpt lat="57.8369532724549" lon="16.2344754951426"/>
      <trkpt lat="57.8374685737708" lon="16.2346575102167"/>
      <trkpt lat="57.8376304000554" lon="16.234821526007"/>
      <trkpt lat="57.8378924601131" lon="16.2348101276999"/>
      <trkpt lat="57.8383292168772" lon="16.2351578179056"/>
      <trkpt lat="57.8385714781164" lon="16.235109513935"/>
      <trkpt lat="57.838749303853" lon="16.2351792700497"/>
      <trkpt lat="57.8391106878301" lon="16.235537429651"/>
      <trkpt lat="57.8394107154119" lon="16.2356906918558"/>
      <trkpt lat="57.840208781181" lon="16.2352359268972"/>
      <trkpt lat="57.8405188388977" lon="16.234928242569"/>
      <trkpt lat="57.8410831789617" lon="16.2346884458027"/>
      <trkpt lat="57.8418400395815" lon="16.2353160230339"/>
      <trkpt lat="57.8420625476555" lon="16.2356201020485"/>
      <trkpt lat="57.8422577332589" lon="16.2369092530758"/>
      <trkpt lat="57.8428029864335" lon="16.2376858005966"/>
    </trkseg>
  </trk>
</gpx>
