<?xml version="1.0" encoding="UTF-8"?>
<gpx xmlns="http://www.topografix.com/GPX/1/1" xmlns:xsi="http://www.w3.org/2001/XMLSchema-instance" version="1.1" creator="GPX RubyGem 1.0.0 -- http://dougfales.github.io/gpx/" xsi:schemaLocation="http://www.topografix.com/GPX/1/1 http://www.topografix.com/GPX/1/1/gpx.xsd">
  <metadata>
    <name>Björndalen - Möckelhult - Lermon, Tjustleden etapp 8 by Naturkartan</name>
    <time>2026-04-30T16:07:51+00:00</time>
  </metadata>
  <trk>
    <name>Björndalen - Möckelhult - Lermon, Tjustleden etapp 8 by Naturkartan</name>
    <trkseg>
      <trkpt lat="58.0165614467114" lon="16.1823472660035"/>
      <trkpt lat="58.0168523825705" lon="16.1824686359614"/>
      <trkpt lat="58.0174590647221" lon="16.1833755578846"/>
      <trkpt lat="58.0178382620215" lon="16.1835078243166"/>
      <trkpt lat="58.0179654154927" lon="16.1838477943093"/>
      <trkpt lat="58.0179128609598" lon="16.1853101011366"/>
      <trkpt lat="58.0182512383908" lon="16.1870832927525"/>
      <trkpt lat="58.0182276852429" lon="16.1881751194596"/>
      <trkpt lat="58.0181035492569" lon="16.1888826359063"/>
      <trkpt lat="58.0179170519114" lon="16.189843788743"/>
      <trkpt lat="58.0173949431628" lon="16.1915597319603"/>
      <trkpt lat="58.0171626806259" lon="16.1928371340036"/>
      <trkpt lat="58.0171430669725" lon="16.1933579016477"/>
      <trkpt lat="58.0175386928022" lon="16.1950734257698"/>
      <trkpt lat="58.0174899101257" lon="16.1965893767774"/>
      <trkpt lat="58.0170904286206" lon="16.1980362609029"/>
      <trkpt lat="58.0163975805044" lon="16.1984464712441"/>
      <trkpt lat="58.0159614700824" lon="16.1989596951753"/>
      <trkpt lat="58.0157829355448" lon="16.1993503756821"/>
      <trkpt lat="58.0155367590487" lon="16.2004402745515"/>
      <trkpt lat="58.0149241257459" lon="16.2017803732306"/>
      <trkpt lat="58.0148331820965" lon="16.2028628960252"/>
      <trkpt lat="58.0143229756504" lon="16.2043220177293"/>
      <trkpt lat="58.0141961574554" lon="16.2051199749112"/>
      <trkpt lat="58.014329848811" lon="16.2057569157332"/>
      <trkpt lat="58.0142174474895" lon="16.2065345887095"/>
      <trkpt lat="58.0147279892117" lon="16.2096610385925"/>
      <trkpt lat="58.0139936506748" lon="16.2110220920295"/>
      <trkpt lat="58.014602009207" lon="16.2129719741642"/>
      <trkpt lat="58.0150294862688" lon="16.2132663466036"/>
      <trkpt lat="58.0154616571963" lon="16.2131968606263"/>
      <trkpt lat="58.015616890043" lon="16.2132771592587"/>
      <trkpt lat="58.0164974927902" lon="16.214602002874"/>
      <trkpt lat="58.0162805691361" lon="16.2159403413534"/>
      <trkpt lat="58.0166201200336" lon="16.2166789546609"/>
      <trkpt lat="58.01683511585" lon="16.2188407313079"/>
      <trkpt lat="58.0170256365091" lon="16.2193390354514"/>
      <trkpt lat="58.0171889159828" lon="16.2194615788758"/>
      <trkpt lat="58.0174899101257" lon="16.2194981239736"/>
      <trkpt lat="58.0179591290653" lon="16.219047345221"/>
      <trkpt lat="58.0181081593037" lon="16.2190042622387"/>
      <trkpt lat="58.0183898750693" lon="16.2190973013639"/>
      <trkpt lat="58.0189077090472" lon="16.2197129521519"/>
      <trkpt lat="58.0195469129831" lon="16.2207287549973"/>
      <trkpt lat="58.0205674935132" lon="16.2212764285505"/>
      <trkpt lat="58.02151305601" lon="16.2215833738446"/>
      <trkpt lat="58.0216491781175" lon="16.2217601481825"/>
      <trkpt lat="58.0219048261642" lon="16.2228414136916"/>
      <trkpt lat="58.0222963448614" lon="16.2230991572142"/>
      <trkpt lat="58.02246700041" lon="16.2235063500702"/>
      <trkpt lat="58.0226174555719" lon="16.2234979681671"/>
      <trkpt lat="58.0229837447405" lon="16.22323888354"/>
      <trkpt lat="58.0232030991465" lon="16.2232554797083"/>
      <trkpt lat="58.0233477707952" lon="16.2237471621484"/>
      <trkpt lat="58.0232320167124" lon="16.2242779042572"/>
      <trkpt lat="58.0231528077275" lon="16.2254188489169"/>
      <trkpt lat="58.0234274826944" lon="16.2255666218698"/>
      <trkpt lat="58.0235845595598" lon="16.2258149776608"/>
      <trkpt lat="58.0236016586423" lon="16.2261043209583"/>
      <trkpt lat="58.0232701543719" lon="16.2267550919205"/>
      <trkpt lat="58.0233720783144" lon="16.2275655381382"/>
      <trkpt lat="58.0238752439618" lon="16.2282545305789"/>
      <trkpt lat="58.0243873782456" lon="16.2294528074563"/>
      <trkpt lat="58.0245483946055" lon="16.2308092508465"/>
      <trkpt lat="58.0248126760125" lon="16.2310546729714"/>
      <trkpt lat="58.0250099860132" lon="16.2313902005553"/>
      <trkpt lat="58.0251938849688" lon="16.2325170636177"/>
      <trkpt lat="58.0261562950909" lon="16.2328069936484"/>
      <trkpt lat="58.0265124421567" lon="16.2323607411236"/>
      <trkpt lat="58.0267473030835" lon="16.2317903526127"/>
      <trkpt lat="58.0271426774561" lon="16.2314057908952"/>
      <trkpt lat="58.0274505447596" lon="16.2302954401821"/>
      <trkpt lat="58.0274036061019" lon="16.2297193519771"/>
      <trkpt lat="58.0274643748999" lon="16.2288105022162"/>
      <trkpt lat="58.0276481062174" lon="16.2287092488259"/>
      <trkpt lat="58.0279519502074" lon="16.228302558884"/>
      <trkpt lat="58.0281802732497" lon="16.2272540666163"/>
      <trkpt lat="58.0288119334728" lon="16.2279141414911"/>
      <trkpt lat="58.0305156391114" lon="16.2282087653875"/>
      <trkpt lat="58.0311835091561" lon="16.2284841947258"/>
      <trkpt lat="58.0314741935581" lon="16.2286828458309"/>
      <trkpt lat="58.0316632892936" lon="16.2290114164352"/>
      <trkpt lat="58.031841237098" lon="16.2295907735825"/>
      <trkpt lat="58.0321469251066" lon="16.2298583239317"/>
      <trkpt lat="58.0322375334799" lon="16.2298158276826"/>
      <trkpt lat="58.0324019864202" lon="16.2299443222582"/>
      <trkpt lat="58.0332290288061" lon="16.229399163276"/>
      <trkpt lat="58.0335977487266" lon="16.2292813137174"/>
      <trkpt lat="58.0337751097977" lon="16.2293423339725"/>
      <trkpt lat="58.0341392196715" lon="16.2297150772065"/>
      <trkpt lat="58.0344107095152" lon="16.2305969372392"/>
      <trkpt lat="58.0354632250965" lon="16.2298599164933"/>
      <trkpt lat="58.0359235592186" lon="16.2297337688506"/>
      <trkpt lat="58.0365794431418" lon="16.2293103151023"/>
      <trkpt lat="58.037243373692" lon="16.2284120265394"/>
      <trkpt lat="58.0375828407705" lon="16.2272879295051"/>
      <trkpt lat="58.0386005714536" lon="16.2262651696801"/>
      <trkpt lat="58.0387345142663" lon="16.2264021299779"/>
      <trkpt lat="58.0392700340599" lon="16.2263034749776"/>
      <trkpt lat="58.0394753906876" lon="16.2263623997569"/>
      <trkpt lat="58.0395390093327" lon="16.2265407666564"/>
      <trkpt lat="58.0394868738949" lon="16.2280578911304"/>
      <trkpt lat="58.0395934078842" lon="16.2286233343184"/>
      <trkpt lat="58.0404248088598" lon="16.2297988124192"/>
      <trkpt lat="58.0407997313887" lon="16.230768179521"/>
      <trkpt lat="58.0411593150347" lon="16.2312938086689"/>
      <trkpt lat="58.0412907432765" lon="16.2318348605186"/>
      <trkpt lat="58.0421994253993" lon="16.2320879101753"/>
      <trkpt lat="58.0428158305585" lon="16.2325851246715"/>
      <trkpt lat="58.0431723129004" lon="16.2336321920156"/>
      <trkpt lat="58.0434351693839" lon="16.2350292038172"/>
      <trkpt lat="58.0437046475708" lon="16.2359084654599"/>
      <trkpt lat="58.0442950688303" lon="16.2363293208182"/>
      <trkpt lat="58.0447065364569" lon="16.2368378508836"/>
      <trkpt lat="58.0447917804122" lon="16.2377973273396"/>
      <trkpt lat="58.0455809365958" lon="16.2393841892481"/>
      <trkpt lat="58.0454638414085" lon="16.240739794448"/>
      <trkpt lat="58.045544475317" lon="16.2411966919899"/>
      <trkpt lat="58.0458339024335" lon="16.2417956627905"/>
      <trkpt lat="58.0458821821958" lon="16.2425778619945"/>
      <trkpt lat="58.0462610442191" lon="16.2428603321314"/>
      <trkpt lat="58.047124799341" lon="16.2429894134402"/>
      <trkpt lat="58.0479960981756" lon="16.2434081733227"/>
      <trkpt lat="58.0482848547399" lon="16.2436463031918"/>
      <trkpt lat="58.0485859327018" lon="16.2442102376372"/>
      <trkpt lat="58.0497484188527" lon="16.2451385334134"/>
      <trkpt lat="58.0503400135785" lon="16.2450967915356"/>
      <trkpt lat="58.0509875994176" lon="16.2455997057259"/>
      <trkpt lat="58.0515894200653" lon="16.2457898911089"/>
      <trkpt lat="58.0524348188192" lon="16.2455019727349"/>
      <trkpt lat="58.0530062131584" lon="16.2456280365586"/>
      <trkpt lat="58.0532101448625" lon="16.2463463656604"/>
      <trkpt lat="58.0534982308745" lon="16.2468476872891"/>
      <trkpt lat="58.054194431752" lon="16.2471100408584"/>
      <trkpt lat="58.0547481402755" lon="16.2478849478066"/>
      <trkpt lat="58.0548106692731" lon="16.2481954973191"/>
      <trkpt lat="58.0547958333045" lon="16.2493631802499"/>
      <trkpt lat="58.0552981607616" lon="16.2510497029871"/>
      <trkpt lat="58.0550704244524" lon="16.2525926437229"/>
      <trkpt lat="58.055034969002" lon="16.253409544006"/>
      <trkpt lat="58.054963471368" lon="16.2538722250611"/>
      <trkpt lat="58.0546245910227" lon="16.2548378203064"/>
      <trkpt lat="58.054572455585" lon="16.255468474701"/>
      <trkpt lat="58.0538857262582" lon="16.2564508337528"/>
      <trkpt lat="58.0536079499871" lon="16.2569569330662"/>
      <trkpt lat="58.0535578262061" lon="16.2572184484452"/>
      <trkpt lat="58.0537331756204" lon="16.258087400347"/>
      <trkpt lat="58.0542460642755" lon="16.259213257581"/>
      <trkpt lat="58.0543845333159" lon="16.2601658608764"/>
      <trkpt lat="58.0546036362648" lon="16.2605930026621"/>
      <trkpt lat="58.0548347253352" lon="16.2615697458386"/>
      <trkpt lat="58.0555533058941" lon="16.2629472278059"/>
      <trkpt lat="58.0558015778661" lon="16.2637127470225"/>
      <trkpt lat="58.0566413607448" lon="16.264974558726"/>
      <trkpt lat="58.056750074029" lon="16.2655591964722"/>
      <trkpt lat="58.0567302089185" lon="16.2660325225443"/>
      <trkpt lat="58.0578809604049" lon="16.2666177470237"/>
      <trkpt lat="58.0581658612937" lon="16.2674077413976"/>
      <trkpt lat="58.0584422126412" lon="16.2674675881863"/>
      <trkpt lat="58.0587887205184" lon="16.2676732800901"/>
      <trkpt lat="58.0590638145804" lon="16.2677032034844"/>
      <trkpt lat="58.0591857712716" lon="16.2678744457662"/>
      <trkpt lat="58.0593080632389" lon="16.2683957163244"/>
      <trkpt lat="58.059414178133" lon="16.268476350233"/>
      <trkpt lat="58.0595783796161" lon="16.2684127315879"/>
      <trkpt lat="58.0597381386906" lon="16.2681917846203"/>
      <trkpt lat="58.0600279849023" lon="16.2681155093014"/>
      <trkpt lat="58.0601054336876" lon="16.2678476236761"/>
      <trkpt lat="58.0602646898478" lon="16.2676446139812"/>
      <trkpt lat="58.0606057494879" lon="16.2676420994103"/>
      <trkpt lat="58.0607887264341" lon="16.2679442670196"/>
      <trkpt lat="58.0610380042344" lon="16.2673977669328"/>
      <trkpt lat="58.0610885471106" lon="16.2673447094858"/>
      <trkpt lat="58.0611976794899" lon="16.2674013711512"/>
      <trkpt lat="58.0615489650518" lon="16.2680866755545"/>
      <trkpt lat="58.0618038587272" lon="16.2680787965655"/>
      <trkpt lat="58.061951380223" lon="16.2683226261288"/>
      <trkpt lat="58.0623654462397" lon="16.2698764633387"/>
      <trkpt lat="58.0625455733389" lon="16.2700669001788"/>
      <trkpt lat="58.0625614989549" lon="16.2704059481621"/>
      <trkpt lat="58.0626814439893" lon="16.2704594247043"/>
      <trkpt lat="58.0628647562116" lon="16.2704127375036"/>
      <trkpt lat="58.0630328971893" lon="16.2705148290843"/>
      <trkpt lat="58.0633763875812" lon="16.270997626707"/>
      <trkpt lat="58.0636785551906" lon="16.271000476554"/>
      <trkpt lat="58.0639500450343" lon="16.2711041606963"/>
      <trkpt lat="58.064136877656" lon="16.2717644032091"/>
      <trkpt lat="58.0646878201514" lon="16.2729139812291"/>
      <trkpt lat="58.065257370472" lon="16.273888964206"/>
      <trkpt lat="58.0658961553127" lon="16.274721622467"/>
      <trkpt lat="58.0662674736232" lon="16.2756272871047"/>
      <trkpt lat="58.0664888396859" lon="16.2757345754653"/>
      <trkpt lat="58.0668186675757" lon="16.2756695318967"/>
      <trkpt lat="58.06695420295" lon="16.275762906298"/>
      <trkpt lat="58.0672435462475" lon="16.276695644483"/>
      <trkpt lat="58.0671914108098" lon="16.2773930188268"/>
      <trkpt lat="58.0675862822682" lon="16.278048735112"/>
      <trkpt lat="58.0676608812064" lon="16.2787437625229"/>
      <trkpt lat="58.0676693469286" lon="16.2793108820915"/>
      <trkpt lat="58.0673711188138" lon="16.2797480821609"/>
      <trkpt lat="58.0671688634902" lon="16.2805977556854"/>
      <trkpt lat="58.0670474935323" lon="16.2829141784459"/>
      <trkpt lat="58.0670713819563" lon="16.2845649104565"/>
      <trkpt lat="58.0669723078609" lon="16.2850940600038"/>
      <trkpt lat="58.0674578715116" lon="16.2867485638708"/>
      <trkpt lat="58.0675493180752" lon="16.28682307899"/>
      <trkpt lat="58.0677985120565" lon="16.2867362424731"/>
      <trkpt lat="58.0686337687075" lon="16.2869281042367"/>
      <trkpt lat="58.070231443271" lon="16.2873904500157"/>
      <trkpt lat="58.0703570041806" lon="16.2875250633806"/>
      <trkpt lat="58.0704844091088" lon="16.287933094427"/>
      <trkpt lat="58.0707789491862" lon="16.2873802240938"/>
      <trkpt lat="58.0710738245398" lon="16.2863642536104"/>
      <trkpt lat="58.0722181219608" lon="16.2841675244272"/>
      <trkpt lat="58.0724094808102" lon="16.2832618597895"/>
      <trkpt lat="58.0729651171714" lon="16.2826041318476"/>
      <trkpt lat="58.0730869900435" lon="16.282346053049"/>
      <trkpt lat="58.0731724854559" lon="16.281582294032"/>
      <trkpt lat="58.0735918320715" lon="16.280469680205"/>
      <trkpt lat="58.0735422950238" lon="16.2799779977649"/>
      <trkpt lat="58.0733468290418" lon="16.279420601204"/>
      <trkpt lat="58.0734746530652" lon="16.2793655321002"/>
      <trkpt lat="58.0736066680402" lon="16.2791053578258"/>
      <trkpt lat="58.0737481545657" lon="16.2790158390999"/>
      <trkpt lat="58.0741006974131" lon="16.279024137184"/>
      <trkpt lat="58.0745617020875" lon="16.278820624575"/>
      <trkpt lat="58.0754540394992" lon="16.2778437975794"/>
      <trkpt lat="58.0757718812674" lon="16.2776255328208"/>
      <trkpt lat="58.0760038085282" lon="16.2768693175167"/>
      <trkpt lat="58.0761532578617" lon="16.2756587192416"/>
      <trkpt lat="58.0769986566156" lon="16.2759817577899"/>
      <trkpt lat="58.0774909257889" lon="16.2760226614773"/>
      <trkpt lat="58.0779583845288" lon="16.2765092309564"/>
      <trkpt lat="58.0784695129842" lon="16.2774213496596"/>
      <trkpt lat="58.0790550727397" lon="16.2776726391166"/>
      <trkpt lat="58.0798544548452" lon="16.2778339907527"/>
      <trkpt lat="58.0799443088472" lon="16.2780919857323"/>
      <trkpt lat="58.0800062511116" lon="16.2790850736201"/>
      <trkpt lat="58.0801350809634" lon="16.2792436592281"/>
      <trkpt lat="58.0802023038268" lon="16.2796959467232"/>
      <trkpt lat="58.0804493185133" lon="16.2798100244254"/>
      <trkpt lat="58.0805556848645" lon="16.2800123635679"/>
      <trkpt lat="58.0807436071336" lon="16.2801081687212"/>
    </trkseg>
  </trk>
</gpx>
