<?xml version="1.0" encoding="UTF-8"?>
<gpx xmlns="http://www.topografix.com/GPX/1/1" xmlns:xsi="http://www.w3.org/2001/XMLSchema-instance" version="1.1" creator="GPX RubyGem 1.0.0 -- http://dougfales.github.io/gpx/" xsi:schemaLocation="http://www.topografix.com/GPX/1/1 http://www.topografix.com/GPX/1/1/gpx.xsd">
  <metadata>
    <name>Lermon - Kolsebro - Falerum, Tjustleden etapp 9  by Naturkartan</name>
    <time>2026-04-30T16:07:51+00:00</time>
  </metadata>
  <trk>
    <name>Lermon - Kolsebro - Falerum, Tjustleden etapp 9  by Naturkartan</name>
    <trkseg>
      <trkpt lat="58.080006282017" lon="16.279085084458"/>
      <trkpt lat="58.0800190018446" lon="16.2791924063005"/>
      <trkpt lat="58.0800343383535" lon="16.2794784015581"/>
      <trkpt lat="58.080042513415" lon="16.2796778607777"/>
      <trkpt lat="58.0800345543748" lon="16.2798468621279"/>
      <trkpt lat="58.0800036266955" lon="16.2800346282048"/>
      <trkpt lat="58.0799488167284" lon="16.2802585910902"/>
      <trkpt lat="58.079920010014" lon="16.2804041405631"/>
      <trkpt lat="58.0798440314082" lon="16.2805990920317"/>
      <trkpt lat="58.0798006855549" lon="16.2807075594309"/>
      <trkpt lat="58.079764970796" lon="16.2807896769008"/>
      <trkpt lat="58.0797487736427" lon="16.2808960809085"/>
      <trkpt lat="58.0797648078552" lon="16.2811132531143"/>
      <trkpt lat="58.079792798047" lon="16.2813758583519"/>
      <trkpt lat="58.0798157360769" lon="16.281688019403"/>
      <trkpt lat="58.0798435607661" lon="16.2819500925798"/>
      <trkpt lat="58.0798515507031" lon="16.2822121191725"/>
      <trkpt lat="58.0798497603599" lon="16.2823676393529"/>
      <trkpt lat="58.0798350822216" lon="16.2825836419524"/>
      <trkpt lat="58.0798300072857" lon="16.2827834897094"/>
      <trkpt lat="58.0798132314809" lon="16.2830292465928"/>
      <trkpt lat="58.0798029277711" lon="16.2831800352162"/>
      <trkpt lat="58.079801719248" lon="16.2833642510899"/>
      <trkpt lat="58.079823433483" lon="16.2835396758039"/>
      <trkpt lat="58.0798668135942" lon="16.2837819957164"/>
      <trkpt lat="58.0799148889715" lon="16.2840932139498"/>
      <trkpt lat="58.0799647548295" lon="16.2844023425889"/>
      <trkpt lat="58.0800245680347" lon="16.2846833413432"/>
      <trkpt lat="58.0800516037321" lon="16.2849162081725"/>
      <trkpt lat="58.0800667065656" lon="16.2851777281014"/>
      <trkpt lat="58.0800762655022" lon="16.2853922633593"/>
      <trkpt lat="58.0801011717032" lon="16.2856089270313"/>
      <trkpt lat="58.0801232494838" lon="16.2857765321199"/>
      <trkpt lat="58.0801349564829" lon="16.2859561112562"/>
      <trkpt lat="58.0801439630132" lon="16.2861450709872"/>
      <trkpt lat="58.0801461416356" lon="16.2863021600172"/>
      <trkpt lat="58.0801436038694" lon="16.2864555857372"/>
      <trkpt lat="58.0801758529404" lon="16.2867046505641"/>
      <trkpt lat="58.0802284638337" lon="16.2869877010913"/>
      <trkpt lat="58.0802805856483" lon="16.2872185742499"/>
      <trkpt lat="58.0803460103785" lon="16.2875011739388"/>
      <trkpt lat="58.0804069269227" lon="16.2876617185124"/>
      <trkpt lat="58.0804955536909" lon="16.2878268585338"/>
      <trkpt lat="58.0805993514062" lon="16.2879744330794"/>
      <trkpt lat="58.0806711378162" lon="16.288058518108"/>
      <trkpt lat="58.0807377096519" lon="16.2881091968131"/>
      <trkpt lat="58.0808228282241" lon="16.2881361910066"/>
      <trkpt lat="58.080961389973" lon="16.2880856116769"/>
      <trkpt lat="58.0810562863901" lon="16.2880189091667"/>
      <trkpt lat="58.0811486815289" lon="16.2879641569614"/>
      <trkpt lat="58.0812344354881" lon="16.2879105727029"/>
      <trkpt lat="58.081297758042" lon="16.2878943170686"/>
      <trkpt lat="58.0813613404473" lon="16.2879084962033"/>
      <trkpt lat="58.0814328795122" lon="16.2879609987413"/>
      <trkpt lat="58.0815466484159" lon="16.2880880449398"/>
      <trkpt lat="58.0816169793487" lon="16.2882094049691"/>
      <trkpt lat="58.0816852178172" lon="16.2883591822323"/>
      <trkpt lat="58.0817504114092" lon="16.2885186174096"/>
      <trkpt lat="58.081768353073" lon="16.2885912343095"/>
      <trkpt lat="58.0818202760429" lon="16.2887651153351"/>
      <trkpt lat="58.0818951352984" lon="16.2889316323695"/>
      <trkpt lat="58.0819630342825" lon="16.2890287102522"/>
      <trkpt lat="58.082032625451" lon="16.289105072523"/>
      <trkpt lat="58.0821085557379" lon="16.2891985222363"/>
      <trkpt lat="58.0821691710609" lon="16.2892829909759"/>
      <trkpt lat="58.0822261277085" lon="16.2893979220478"/>
      <trkpt lat="58.0822790546575" lon="16.2895426905952"/>
      <trkpt lat="58.0823437770095" lon="16.2897689470455"/>
      <trkpt lat="58.0823785042607" lon="16.2899757404469"/>
      <trkpt lat="58.0823970398877" lon="16.2901412812536"/>
      <trkpt lat="58.082406334495" lon="16.2902968402858"/>
      <trkpt lat="58.0824104001191" lon="16.2905366295672"/>
      <trkpt lat="58.0824107509142" lon="16.2906758063173"/>
      <trkpt lat="58.0824328915732" lon="16.290803744803"/>
      <trkpt lat="58.0824701942418" lon="16.2909264317873"/>
      <trkpt lat="58.0825163371963" lon="16.2910454688519"/>
      <trkpt lat="58.08258909808" lon="16.2911386746442"/>
      <trkpt lat="58.0826765627829" lon="16.2912159939787"/>
      <trkpt lat="58.082807723836" lon="16.2913621343585"/>
      <trkpt lat="58.0829251988507" lon="16.2914972158626"/>
      <trkpt lat="58.0830141773845" lon="16.2915829540006"/>
      <trkpt lat="58.083085817353" lon="16.2916519872714"/>
      <trkpt lat="58.083162236635" lon="16.2917271646309"/>
      <trkpt lat="58.0832709260555" lon="16.2918161588921"/>
      <trkpt lat="58.0833783310313" lon="16.2919131109716"/>
      <trkpt lat="58.0834950080336" lon="16.2920250024944"/>
      <trkpt lat="58.0835629913031" lon="16.2920888007558"/>
      <trkpt lat="58.083632105146" lon="16.2922110995804"/>
      <trkpt lat="58.0837625778781" lon="16.2923851557779"/>
      <trkpt lat="58.0838589774169" lon="16.2924919062079"/>
      <trkpt lat="58.0839391581844" lon="16.2925566387197"/>
      <trkpt lat="58.084051648826" lon="16.2926640748666"/>
      <trkpt lat="58.0841645131169" lon="16.2927815987049"/>
      <trkpt lat="58.0842526651787" lon="16.2928946676397"/>
      <trkpt lat="58.084363458347" lon="16.2930002798232"/>
      <trkpt lat="58.0844306503955" lon="16.2930675644157"/>
      <trkpt lat="58.0845086111852" lon="16.2931730929881"/>
      <trkpt lat="58.0845631357793" lon="16.2933335028016"/>
      <trkpt lat="58.0845839307376" lon="16.2934609786805"/>
      <trkpt lat="58.084591339554" lon="16.2936266041907"/>
      <trkpt lat="58.0845914727802" lon="16.2936966877977"/>
      <trkpt lat="58.0847228109818" lon="16.293843681446"/>
      <trkpt lat="58.084901785268" lon="16.293991622172"/>
      <trkpt lat="58.0850557880164" lon="16.2940952092222"/>
      <trkpt lat="58.0851957057953" lon="16.2941173199769"/>
      <trkpt lat="58.085331721977" lon="16.2942308573562"/>
      <trkpt lat="58.0854729601574" lon="16.2943918688321"/>
      <trkpt lat="58.0856429757695" lon="16.2945329438441"/>
      <trkpt lat="58.0859049086046" lon="16.294570127381"/>
      <trkpt lat="58.0860915110063" lon="16.2945860611751"/>
      <trkpt lat="58.0862964755835" lon="16.2944870403702"/>
      <trkpt lat="58.0864618284453" lon="16.29442476086"/>
      <trkpt lat="58.0865787462846" lon="16.2943517218986"/>
      <trkpt lat="58.0866490524992" lon="16.2942645295482"/>
      <trkpt lat="58.0866855264869" lon="16.2941023660053"/>
      <trkpt lat="58.0867506815302" lon="16.2939473448767"/>
      <trkpt lat="58.087029223893" lon="16.293849252148"/>
      <trkpt lat="58.0872198890423" lon="16.2937331020583"/>
      <trkpt lat="58.0873996738457" lon="16.2936472906079"/>
      <trkpt lat="58.0875960294022" lon="16.2934431115243"/>
      <trkpt lat="58.0878336723692" lon="16.2932360671196"/>
      <trkpt lat="58.0880280092442" lon="16.2930962289414"/>
      <trkpt lat="58.0882079288009" lon="16.2929731526315"/>
      <trkpt lat="58.0884093388588" lon="16.2928638960187"/>
      <trkpt lat="58.0886625601519" lon="16.292823053559"/>
      <trkpt lat="58.0890428665085" lon="16.2929120017635"/>
      <trkpt lat="58.0890427614959" lon="16.2929125753908"/>
      <trkpt lat="58.0890523164952" lon="16.2932616734706"/>
      <trkpt lat="58.0890495979605" lon="16.2935259272756"/>
      <trkpt lat="58.089078997597" lon="16.2938481640195"/>
      <trkpt lat="58.0891043163353" lon="16.2943058982302"/>
      <trkpt lat="58.0891852038106" lon="16.2947846429655"/>
      <trkpt lat="58.0893038744476" lon="16.2952401830188"/>
      <trkpt lat="58.0894101210686" lon="16.2956548885537"/>
      <trkpt lat="58.089564831581" lon="16.2960668245042"/>
      <trkpt lat="58.089705626719" lon="16.2963532480539"/>
      <trkpt lat="58.0897963116634" lon="16.2965949590595"/>
      <trkpt lat="58.0898920245218" lon="16.2969383881966"/>
      <trkpt lat="58.0899647719259" lon="16.2971798748218"/>
      <trkpt lat="58.090033901456" lon="16.297428118634"/>
      <trkpt lat="58.0901815015762" lon="16.2978196430557"/>
      <trkpt lat="58.0903758015939" lon="16.2982016383935"/>
      <trkpt lat="58.0904490109588" lon="16.2983075988585"/>
      <trkpt lat="58.0905078833557" lon="16.2984100039993"/>
      <trkpt lat="58.0905504304234" lon="16.2985630259291"/>
      <trkpt lat="58.0905733938476" lon="16.2986649745377"/>
      <trkpt lat="58.0905423930275" lon="16.298803483075"/>
      <trkpt lat="58.0905057211091" lon="16.2990232579554"/>
      <trkpt lat="58.0904149384628" lon="16.2993202627973"/>
      <trkpt lat="58.0902568965559" lon="16.2998641852979"/>
      <trkpt lat="58.0901655351715" lon="16.3000619181576"/>
      <trkpt lat="58.0900572242566" lon="16.3002700407025"/>
      <trkpt lat="58.0899618601134" lon="16.3004084101888"/>
      <trkpt lat="58.0898818143423" lon="16.3005270493022"/>
      <trkpt lat="58.0898023754443" lon="16.3006365346512"/>
      <trkpt lat="58.0897591398694" lon="16.300761515004"/>
      <trkpt lat="58.0897130310807" lon="16.3009180955005"/>
      <trkpt lat="58.0896829537182" lon="16.301027423367"/>
      <trkpt lat="58.0896283780364" lon="16.3011615750268"/>
      <trkpt lat="58.0897169170992" lon="16.3012967820327"/>
      <trkpt lat="58.0898887931697" lon="16.301417602745"/>
      <trkpt lat="58.0900731213141" lon="16.3015690552555"/>
      <trkpt lat="58.0902127557663" lon="16.3016725237607"/>
      <trkpt lat="58.0903483687824" lon="16.3018978727884"/>
      <trkpt lat="58.0904695223005" lon="16.3021501788878"/>
      <trkpt lat="58.0905691864717" lon="16.3023920330131"/>
      <trkpt lat="58.0906326416286" lon="16.3027181445271"/>
      <trkpt lat="58.0906390392754" lon="16.3029384685262"/>
      <trkpt lat="58.0906361960053" lon="16.3032332104093"/>
      <trkpt lat="58.0906294510783" lon="16.303615997015"/>
      <trkpt lat="58.090659197992" lon="16.3038298454347"/>
      <trkpt lat="58.0907372212433" lon="16.3040951376167"/>
      <trkpt lat="58.0908154572183" lon="16.3043028521087"/>
      <trkpt lat="58.0908992679522" lon="16.3044564212292"/>
      <trkpt lat="58.0909870466494" lon="16.3045050012056"/>
      <trkpt lat="58.0911144635116" lon="16.3045100263443"/>
      <trkpt lat="58.091257435096" lon="16.3046847041104"/>
      <trkpt lat="58.0913913028761" lon="16.3048931314064"/>
      <trkpt lat="58.0915143118203" lon="16.3051285243961"/>
      <trkpt lat="58.0915655939212" lon="16.3053426723717"/>
      <trkpt lat="58.0915504493063" lon="16.3055627077734"/>
      <trkpt lat="58.091514084873" lon="16.3056943868925"/>
      <trkpt lat="58.0914452244986" lon="16.3058764627831"/>
      <trkpt lat="58.0914000412968" lon="16.3059639687583"/>
      <trkpt lat="58.091363944848" lon="16.3060177284958"/>
      <trkpt lat="58.0913367489475" lon="16.3060953081049"/>
      <trkpt lat="58.0913505224234" lon="16.3062581134639"/>
      <trkpt lat="58.0914104972305" lon="16.3065503050047"/>
      <trkpt lat="58.0914150520266" lon="16.3067841536455"/>
      <trkpt lat="58.0913726582789" lon="16.3070919410122"/>
      <trkpt lat="58.0913159271558" lon="16.3073961665119"/>
      <trkpt lat="58.0912589730448" lon="16.3077613648786"/>
      <trkpt lat="58.091200460423" lon="16.3080587721317"/>
      <trkpt lat="58.0912246635242" lon="16.3083165960164"/>
      <trkpt lat="58.0912847990805" lon="16.3085647266275"/>
      <trkpt lat="58.0913824559926" lon="16.3088574201823"/>
      <trkpt lat="58.0915192851282" lon="16.3092421007583"/>
      <trkpt lat="58.0916864749159" lon="16.3096644666379"/>
      <trkpt lat="58.0917928322422" lon="16.3099573168879"/>
      <trkpt lat="58.0918758691581" lon="16.3099041449952"/>
      <trkpt lat="58.0919693054049" lon="16.3098748642128"/>
      <trkpt lat="58.0920839174362" lon="16.3099475461393"/>
      <trkpt lat="58.0921755081521" lon="16.309931786316"/>
      <trkpt lat="58.0922136078548" lon="16.3098204777284"/>
      <trkpt lat="58.0922991426407" lon="16.3094963036492"/>
      <trkpt lat="58.0924142790498" lon="16.3089251705804"/>
      <trkpt lat="58.0924982615497" lon="16.3085332170242"/>
      <trkpt lat="58.0925402239027" lon="16.3083439979222"/>
      <trkpt lat="58.0926500475405" lon="16.3082505621227"/>
      <trkpt lat="58.0927130461462" lon="16.3082005698436"/>
      <trkpt lat="58.092763520514" lon="16.3081402291706"/>
      <trkpt lat="58.092774897028" lon="16.3079709403708"/>
      <trkpt lat="58.0927755119764" lon="16.307798153873"/>
      <trkpt lat="58.0928916019864" lon="16.307460804116"/>
      <trkpt lat="58.0930252346626" lon="16.3072355290863"/>
      <trkpt lat="58.0932051999707" lon="16.3071023469387"/>
      <trkpt lat="58.0933327470396" lon="16.3070701166751"/>
      <trkpt lat="58.0934561703121" lon="16.307190341778"/>
      <trkpt lat="58.0936254417021" lon="16.3075347810739"/>
      <trkpt lat="58.0937681223377" lon="16.3077907997317"/>
      <trkpt lat="58.0938412666716" lon="16.3079137524799"/>
      <trkpt lat="58.0939903367374" lon="16.3078886064719"/>
      <trkpt lat="58.0941846061557" lon="16.3077691455769"/>
      <trkpt lat="58.0945917128749" lon="16.307602846914"/>
      <trkpt lat="58.0946106203983" lon="16.3075951251616"/>
      <trkpt lat="58.0947997025387" lon="16.3072545405785"/>
      <trkpt lat="58.0949460681949" lon="16.3068913196844"/>
      <trkpt lat="58.0951118598445" lon="16.3063522881769"/>
      <trkpt lat="58.0952646921393" lon="16.3059450359066"/>
      <trkpt lat="58.0954639090553" lon="16.3053126368111"/>
      <trkpt lat="58.0955128941286" lon="16.3051599278363"/>
      <trkpt lat="58.0955449853558" lon="16.3049156838469"/>
      <trkpt lat="58.0955837884952" lon="16.3047782089048"/>
      <trkpt lat="58.0956387954603" lon="16.3046523517454"/>
      <trkpt lat="58.0957591760613" lon="16.3043337831557"/>
      <trkpt lat="58.0958938514809" lon="16.3039138242052"/>
      <trkpt lat="58.095964106463" lon="16.3037664156625"/>
      <trkpt lat="58.0960657185775" lon="16.3036332659416"/>
      <trkpt lat="58.0962228105585" lon="16.3032952795812"/>
      <trkpt lat="58.0964212081957" lon="16.3032065263555"/>
      <trkpt lat="58.0965433341607" lon="16.3031877727988"/>
      <trkpt lat="58.0966924669761" lon="16.3031422650627"/>
      <trkpt lat="58.096822239703" lon="16.3029880630006"/>
      <trkpt lat="58.09693633259" lon="16.302770110143"/>
      <trkpt lat="58.0969632034714" lon="16.3027187856787"/>
      <trkpt lat="58.0969929101113" lon="16.302655551844"/>
      <trkpt lat="58.0970126520325" lon="16.3025960424467"/>
      <trkpt lat="58.097057363781" lon="16.3025007140391"/>
      <trkpt lat="58.0971099664131" lon="16.3023769336195"/>
      <trkpt lat="58.0971261593537" lon="16.3022805636079"/>
      <trkpt lat="58.0971889957395" lon="16.3020853552935"/>
      <trkpt lat="58.0973091905729" lon="16.301859900638"/>
      <trkpt lat="58.0973709260642" lon="16.3017723662479"/>
      <trkpt lat="58.0973982752897" lon="16.3017015471657"/>
      <trkpt lat="58.0974201326918" lon="16.3016089803368"/>
      <trkpt lat="58.0974516834536" lon="16.3014987986671"/>
      <trkpt lat="58.0974868857683" lon="16.3014031220667"/>
      <trkpt lat="58.0974977790273" lon="16.3012670611397"/>
      <trkpt lat="58.097515874647" lon="16.301170760384"/>
      <trkpt lat="58.0975921998405" lon="16.3009580729929"/>
      <trkpt lat="58.0976431901679" lon="16.3008055056288"/>
      <trkpt lat="58.0976764974184" lon="16.3007097570043"/>
      <trkpt lat="58.0978452996706" lon="16.3003783294805"/>
      <trkpt lat="58.0978883175911" lon="16.3002613865248"/>
      <trkpt lat="58.0979086459928" lon="16.3001328441281"/>
      <trkpt lat="58.0979120505787" lon="16.2999857363512"/>
      <trkpt lat="58.0979414033429" lon="16.2997174681038"/>
      <trkpt lat="58.0979970417245" lon="16.2994824750585"/>
      <trkpt lat="58.0981205567247" lon="16.2992701910068"/>
      <trkpt lat="58.0982937389707" lon="16.2990216387437"/>
      <trkpt lat="58.0984797130655" lon="16.2987122322483"/>
      <trkpt lat="58.0987525524654" lon="16.2981972071629"/>
      <trkpt lat="58.0989113399374" lon="16.2979586080569"/>
      <trkpt lat="58.0989897938702" lon="16.2978336151565"/>
      <trkpt lat="58.0990847134428" lon="16.2977077263752"/>
      <trkpt lat="58.0990648657178" lon="16.2976640464627"/>
      <trkpt lat="58.0990539668492" lon="16.297539046531"/>
      <trkpt lat="58.0991140754085" lon="16.2974036303895"/>
      <trkpt lat="58.0992202836534" lon="16.2972595037329"/>
      <trkpt lat="58.0992939550226" lon="16.2970933255221"/>
      <trkpt lat="58.0993824512511" lon="16.2969260397954"/>
      <trkpt lat="58.0994852441293" lon="16.29680139974"/>
      <trkpt lat="58.0995379012793" lon="16.2967749609132"/>
      <trkpt lat="58.0995434397547" lon="16.296773667722"/>
      <trkpt lat="58.0996302137111" lon="16.2967534212155"/>
      <trkpt lat="58.0997396384629" lon="16.2967327557666"/>
      <trkpt lat="58.0998555033882" lon="16.296710408589"/>
      <trkpt lat="58.0999395951392" lon="16.296691625259"/>
      <trkpt lat="58.0999585380818" lon="16.2966873914937"/>
      <trkpt lat="58.1000486543919" lon="16.2966697930829"/>
      <trkpt lat="58.1001173341712" lon="16.2966551147308"/>
      <trkpt lat="58.1001697808096" lon="16.296653761432"/>
      <trkpt lat="58.1002369291761" lon="16.2966713502371"/>
      <trkpt lat="58.1003213956854" lon="16.2967102168459"/>
      <trkpt lat="58.100335763503" lon="16.2967168303461"/>
      <trkpt lat="58.1004272172142" lon="16.2967558660147"/>
      <trkpt lat="58.1005135759031" lon="16.2967764425234"/>
      <trkpt lat="58.1006472435345" lon="16.2967065194647"/>
      <trkpt lat="58.1007629640656" lon="16.2965447271601"/>
      <trkpt lat="58.1009707185288" lon="16.2962429157264"/>
      <trkpt lat="58.1011366475121" lon="16.2960145633608"/>
      <trkpt lat="58.1012377295066" lon="16.2958531690634"/>
      <trkpt lat="58.1013757960917" lon="16.2956835627654"/>
      <trkpt lat="58.1015250911679" lon="16.2955679464694"/>
      <trkpt lat="58.101618855342" lon="16.2955202057545"/>
      <trkpt lat="58.1016736072012" lon="16.2955068524567"/>
      <trkpt lat="58.1018205320773" lon="16.2954820293889"/>
      <trkpt lat="58.1018786375533" lon="16.2954587355599"/>
      <trkpt lat="58.101940094876" lon="16.2954255182074"/>
      <trkpt lat="58.1020420955545" lon="16.2953256606671"/>
      <trkpt lat="58.1021468728803" lon="16.2951814817984"/>
      <trkpt lat="58.1021915130454" lon="16.2951271896475"/>
      <trkpt lat="58.1022361232117" lon="16.2950749157112"/>
      <trkpt lat="58.1023292004319" lon="16.2949780941207"/>
      <trkpt lat="58.1024435130568" lon="16.2948494102498"/>
      <trkpt lat="58.1025458454614" lon="16.2947088395466"/>
      <trkpt lat="58.1026216456624" lon="16.2946105229706"/>
      <trkpt lat="58.1027056044993" lon="16.2943942161663"/>
      <trkpt lat="58.1028011338781" lon="16.2940620421969"/>
      <trkpt lat="58.1028686126428" lon="16.2938727602453"/>
      <trkpt lat="58.1029074606831" lon="16.2938181375416"/>
      <trkpt lat="58.1029198107355" lon="16.2938899724623"/>
      <trkpt lat="58.1029422009261" lon="16.2939399578588"/>
      <trkpt lat="58.1029833564663" lon="16.293982003057"/>
      <trkpt lat="58.1030388707018" lon="16.2940182738378"/>
      <trkpt lat="58.1031399169922" lon="16.2940618955631"/>
      <trkpt lat="58.1032621448217" lon="16.2940904181116"/>
      <trkpt lat="58.1034178632935" lon="16.2941409587277"/>
      <trkpt lat="58.1035726698125" lon="16.2941838814634"/>
      <trkpt lat="58.1036879405093" lon="16.2942448014636"/>
      <trkpt lat="58.1038228072186" lon="16.2943140179135"/>
      <trkpt lat="58.1039561741488" lon="16.294403611141"/>
      <trkpt lat="58.1040600776062" lon="16.2944586227692"/>
      <trkpt lat="58.1041622332777" lon="16.2945283172098"/>
      <trkpt lat="58.1042462344063" lon="16.2945733083978"/>
      <trkpt lat="58.1043266649426" lon="16.294613352601"/>
      <trkpt lat="58.1044346989331" lon="16.2946720780701"/>
      <trkpt lat="58.1045441398139" lon="16.2947770981899"/>
      <trkpt lat="58.1045868258432" lon="16.2948258199184"/>
      <trkpt lat="58.1046498872564" lon="16.2948990702587"/>
      <trkpt lat="58.1047125915486" lon="16.2949959304477"/>
      <trkpt lat="58.1047617824047" lon="16.2950692914434"/>
      <trkpt lat="58.1048161087664" lon="16.2951968177409"/>
      <trkpt lat="58.1048803326935" lon="16.2953483753588"/>
      <trkpt lat="58.1049316214458" lon="16.2954787268997"/>
      <trkpt lat="58.1049842781442" lon="16.2955787043937"/>
      <trkpt lat="58.1050447234442" lon="16.2956512170835"/>
      <trkpt lat="58.1051357732489" lon="16.2957590863169"/>
      <trkpt lat="58.1052411116146" lon="16.295894761577"/>
      <trkpt lat="58.1053632403227" lon="16.2959895387686"/>
      <trkpt lat="58.1054181182437" lon="16.2960936881226"/>
      <trkpt lat="58.105524545128" lon="16.2963483613038"/>
      <trkpt lat="58.1056438657783" lon="16.2967209880966"/>
      <trkpt lat="58.105744138282" lon="16.2970251126391"/>
      <trkpt lat="58.1058082084522" lon="16.2971897554111"/>
      <trkpt lat="58.1058769657143" lon="16.2975293932179"/>
      <trkpt lat="58.1059130511351" lon="16.297689813209"/>
      <trkpt lat="58.1059382302697" lon="16.2978054446362"/>
      <trkpt lat="58.1059694327666" lon="16.2979487704104"/>
      <trkpt lat="58.1061041780871" lon="16.2976177968393"/>
      <trkpt lat="58.1063070418313" lon="16.2970959049412"/>
      <trkpt lat="58.1063721461134" lon="16.2968746869383"/>
      <trkpt lat="58.1064175945336" lon="16.2966562175278"/>
      <trkpt lat="58.1064485885724" lon="16.2964086460031"/>
      <trkpt lat="58.1064655892773" lon="16.2961812176449"/>
      <trkpt lat="58.10648187821" lon="16.2960501208759"/>
      <trkpt lat="58.1064995468593" lon="16.2959441903725"/>
      <trkpt lat="58.1065229790421" lon="16.2958598324046"/>
      <trkpt lat="58.1065590704509" lon="16.2957848953222"/>
      <trkpt lat="58.1066090262226" lon="16.2957228832249"/>
      <trkpt lat="58.1066784223631" lon="16.2956544653005"/>
      <trkpt lat="58.1067620976548" lon="16.2956112738476"/>
      <trkpt lat="58.1069150719415" lon="16.2955639930276"/>
      <trkpt lat="58.107077861962" lon="16.2954975193288"/>
      <trkpt lat="58.1073221879828" lon="16.2954233285528"/>
      <trkpt lat="58.1074156053955" lon="16.2953716312262"/>
      <trkpt lat="58.1074916278255" lon="16.2953079818185"/>
      <trkpt lat="58.1075770437705" lon="16.295200431475"/>
      <trkpt lat="58.107640992602" lon="16.2951164537957"/>
      <trkpt lat="58.1077080806832" lon="16.2949747036118"/>
      <trkpt lat="58.1077633072105" lon="16.2947899253991"/>
      <trkpt lat="58.107953841393" lon="16.2949218924258"/>
      <trkpt lat="58.1080504278396" lon="16.2950180549023"/>
      <trkpt lat="58.1081773668697" lon="16.295162023367"/>
      <trkpt lat="58.1081678424188" lon="16.2953178444771"/>
      <trkpt lat="58.1082153260242" lon="16.2955998254129"/>
      <trkpt lat="58.1082900862142" lon="16.2957770511511"/>
      <trkpt lat="58.1083724468834" lon="16.2958357383051"/>
      <trkpt lat="58.1084747651376" lon="16.2958336641616"/>
      <trkpt lat="58.1086133426745" lon="16.2957269547457"/>
      <trkpt lat="58.108712547019" lon="16.2955858237691"/>
      <trkpt lat="58.1087758936198" lon="16.2954374677482"/>
      <trkpt lat="58.1088319580444" lon="16.2953161540264"/>
      <trkpt lat="58.108911061748" lon="16.2952798705089"/>
      <trkpt lat="58.1089847524071" lon="16.2952502977673"/>
      <trkpt lat="58.1090376798637" lon="16.2950001081675"/>
      <trkpt lat="58.1091793758634" lon="16.2945137522997"/>
      <trkpt lat="58.1093660782791" lon="16.2939906526796"/>
      <trkpt lat="58.1095357777785" lon="16.2937080482146"/>
      <trkpt lat="58.1097288438867" lon="16.2934189362933"/>
      <trkpt lat="58.1098930491866" lon="16.2931667780168"/>
      <trkpt lat="58.1100176607706" lon="16.2929479913391"/>
      <trkpt lat="58.1100814165381" lon="16.2926809736621"/>
      <trkpt lat="58.1101415854739" lon="16.2924071379954"/>
      <trkpt lat="58.1102535194918" lon="16.292222104909"/>
      <trkpt lat="58.1103636804168" lon="16.292026857178"/>
      <trkpt lat="58.1104931717013" lon="16.2919539119879"/>
      <trkpt lat="58.1106817051838" lon="16.2919325763167"/>
      <trkpt lat="58.1109049526255" lon="16.2917353732914"/>
      <trkpt lat="58.1110564883345" lon="16.2915169390213"/>
      <trkpt lat="58.1112383916542" lon="16.2913361597125"/>
      <trkpt lat="58.1114720599861" lon="16.2912407892052"/>
      <trkpt lat="58.1116750341143" lon="16.2911959052843"/>
      <trkpt lat="58.1118940233691" lon="16.2911918920351"/>
      <trkpt lat="58.1120537716158" lon="16.291190505088"/>
      <trkpt lat="58.1122216443138" lon="16.2909146216706"/>
      <trkpt lat="58.1123354044745" lon="16.2907194041947"/>
      <trkpt lat="58.1125157868531" lon="16.2904606380583"/>
      <trkpt lat="58.1126473563954" lon="16.2903029434294"/>
      <trkpt lat="58.1127911211054" lon="16.2902538912611"/>
      <trkpt lat="58.1129528629327" lon="16.2901949156894"/>
      <trkpt lat="58.1130943733958" lon="16.2902780728794"/>
      <trkpt lat="58.1132423567253" lon="16.2905647353406"/>
      <trkpt lat="58.1133905215707" lon="16.2907971610065"/>
      <trkpt lat="58.1135478335863" lon="16.2909822251768"/>
      <trkpt lat="58.1138112210944" lon="16.2911143828949"/>
      <trkpt lat="58.1139161020554" lon="16.2908885552257"/>
      <trkpt lat="58.1140318549974" lon="16.29063570667"/>
      <trkpt lat="58.1142884662629" lon="16.290133764177"/>
      <trkpt lat="58.1144012317303" lon="16.2897045979552"/>
      <trkpt lat="58.1145372716475" lon="16.2890639579835"/>
      <trkpt lat="58.1145963494397" lon="16.2886510590688"/>
      <trkpt lat="58.114614542939" lon="16.2885708002232"/>
      <trkpt lat="58.1146381429798" lon="16.2884666338995"/>
      <trkpt lat="58.1146843471934" lon="16.2882918744791"/>
      <trkpt lat="58.1147435812099" lon="16.2880678324687"/>
      <trkpt lat="58.114864829721" lon="16.2877568090893"/>
      <trkpt lat="58.115013684074" lon="16.2872401714974"/>
      <trkpt lat="58.115260447959" lon="16.2863836669962"/>
      <trkpt lat="58.11531237281" lon="16.2862034385502"/>
      <trkpt lat="58.1155079041103" lon="16.2855247322425"/>
      <trkpt lat="58.1155088651093" lon="16.2854838253419"/>
      <trkpt lat="58.1155217610735" lon="16.2853416186027"/>
      <trkpt lat="58.1155392162741" lon="16.2851382497514"/>
      <trkpt lat="58.1155849688007" lon="16.2848118132118"/>
      <trkpt lat="58.1156343672435" lon="16.2844639853387"/>
      <trkpt lat="58.1156843571718" lon="16.2841956346545"/>
      <trkpt lat="58.1157402125153" lon="16.2839254238906"/>
      <trkpt lat="58.1158114134883" lon="16.2835861680464"/>
      <trkpt lat="58.1158812565992" lon="16.2832308709779"/>
      <trkpt lat="58.1159145019327" lon="16.2830194256836"/>
      <trkpt lat="58.1159155501114" lon="16.2829938142492"/>
      <trkpt lat="58.1160091718963" lon="16.2829739396438"/>
      <trkpt lat="58.1161045380885" lon="16.2829039178816"/>
      <trkpt lat="58.1161966923542" lon="16.2827219677356"/>
      <trkpt lat="58.1162584040978" lon="16.2825192810858"/>
      <trkpt lat="58.1163058426788" lon="16.2822960872084"/>
      <trkpt lat="58.1164165535971" lon="16.2819346458297"/>
      <trkpt lat="58.1163440808542" lon="16.2816048551114"/>
      <trkpt lat="58.1162768243826" lon="16.2813225950066"/>
      <trkpt lat="58.1162491927368" lon="16.2810035122788"/>
      <trkpt lat="58.1162791665346" lon="16.2806309059848"/>
      <trkpt lat="58.1163502187834" lon="16.2803198456267"/>
      <trkpt lat="58.1165019055597" lon="16.2800504450199"/>
      <trkpt lat="58.1167378687363" lon="16.2798024293437"/>
      <trkpt lat="58.1168817368322" lon="16.2797194364152"/>
      <trkpt lat="58.117047343675" lon="16.279579063601"/>
      <trkpt lat="58.1172688758157" lon="16.2793512000211"/>
      <trkpt lat="58.1173558061601" lon="16.279121704384"/>
      <trkpt lat="58.117720922463" lon="16.2783632521198"/>
      <trkpt lat="58.117881446467" lon="16.2781312408702"/>
      <trkpt lat="58.1179697718062" lon="16.2780204288195"/>
      <trkpt lat="58.1180795138032" lon="16.2779471701421"/>
      <trkpt lat="58.1181479430554" lon="16.2778801879339"/>
      <trkpt lat="58.1181897811286" lon="16.2777111833771"/>
      <trkpt lat="58.1182067071071" lon="16.2774841959477"/>
      <trkpt lat="58.1182215508139" lon="16.2773385496151"/>
      <trkpt lat="58.1182563430313" lon="16.2771321297767"/>
      <trkpt lat="58.1183791311729" lon="16.276913223363"/>
      <trkpt lat="58.1185574680677" lon="16.2767221404365"/>
      <trkpt lat="58.1187325559621" lon="16.2764258564469"/>
      <trkpt lat="58.1188916393944" lon="16.2760887156767"/>
      <trkpt lat="58.1190293062932" lon="16.275713999604"/>
      <trkpt lat="58.119190366547" lon="16.2753192050545"/>
      <trkpt lat="58.1193782378543" lon="16.2749586686434"/>
      <trkpt lat="58.1195681546632" lon="16.2745201301558"/>
      <trkpt lat="58.119769007909" lon="16.2740342725905"/>
      <trkpt lat="58.1199678732093" lon="16.2736060078702"/>
      <trkpt lat="58.1201700787311" lon="16.2732524188226"/>
      <trkpt lat="58.12033249482" lon="16.2729865001573"/>
      <trkpt lat="58.1203398399714" lon="16.2729390904152"/>
      <trkpt lat="58.1204443398907" lon="16.2728182930533"/>
      <trkpt lat="58.120543883592" lon="16.2725685496287"/>
      <trkpt lat="58.1206041023149" lon="16.272270852281"/>
      <trkpt lat="58.1206643497416" lon="16.2719629846719"/>
      <trkpt lat="58.1207640444762" lon="16.2716691544158"/>
      <trkpt lat="58.121385152008" lon="16.2705575810061"/>
      <trkpt lat="58.121856175084" lon="16.2697832685183"/>
      <trkpt lat="58.1223300171996" lon="16.2692395927665"/>
      <trkpt lat="58.1225965779319" lon="16.2689612977244"/>
      <trkpt lat="58.123034883636" lon="16.2683052673159"/>
      <trkpt lat="58.1234566191296" lon="16.2677778697758"/>
      <trkpt lat="58.1236912652099" lon="16.2673770974694"/>
      <trkpt lat="58.1239212496273" lon="16.2669607364044"/>
      <trkpt lat="58.1239713932033" lon="16.2669551484093"/>
      <trkpt lat="58.124100671119" lon="16.2668804820378"/>
      <trkpt lat="58.1242241748641" lon="16.2667983589181"/>
      <trkpt lat="58.1243366289678" lon="16.2667108532839"/>
      <trkpt lat="58.1244245031114" lon="16.2666562446965"/>
      <trkpt lat="58.1245122192115" lon="16.2666310714759"/>
      <trkpt lat="58.1246153566009" lon="16.2666251059131"/>
      <trkpt lat="58.1247262711685" lon="16.2666148129822"/>
      <trkpt lat="58.1248173300188" lon="16.2665867699835"/>
      <trkpt lat="58.1249468298143" lon="16.2665240614029"/>
      <trkpt lat="58.1250307973087" lon="16.2664738128948"/>
      <trkpt lat="58.1250957996436" lon="16.2664464743483"/>
      <trkpt lat="58.1251641629732" lon="16.2664134812363"/>
      <trkpt lat="58.1252778919141" lon="16.2663966507198"/>
      <trkpt lat="58.1254102572323" lon="16.2664171197858"/>
      <trkpt lat="58.1255070097812" lon="16.2664634255003"/>
      <trkpt lat="58.125671232446" lon="16.2665395809995"/>
      <trkpt lat="58.125756431453" lon="16.2665715548339"/>
      <trkpt lat="58.125868171136" lon="16.2666544914635"/>
      <trkpt lat="58.1259157606685" lon="16.2666971672563"/>
      <trkpt lat="58.1259280208928" lon="16.2667081469612"/>
      <trkpt lat="58.1260374551867" lon="16.2667166502552"/>
      <trkpt lat="58.1261633255925" lon="16.2667091801226"/>
      <trkpt lat="58.1263219559958" lon="16.2666908703075"/>
      <trkpt lat="58.1264650160934" lon="16.266630304172"/>
      <trkpt lat="58.1265587143334" lon="16.2665781063456"/>
      <trkpt lat="58.1266255244216" lon="16.2664862580797"/>
      <trkpt lat="58.1266834385577" lon="16.2663766717837"/>
      <trkpt lat="58.12675325968" lon="16.2662421240668"/>
      <trkpt lat="58.1268005375365" lon="16.2661406662795"/>
      <trkpt lat="58.1268659321911" lon="16.2660095935272"/>
      <trkpt lat="58.1269521619556" lon="16.2658463351397"/>
      <trkpt lat="58.127021795819" lon="16.2656854251194"/>
      <trkpt lat="58.1271366239493" lon="16.2653387107787"/>
      <trkpt lat="58.1272557470151" lon="16.2650669081642"/>
      <trkpt lat="58.1273557346352" lon="16.2648577610734"/>
      <trkpt lat="58.1273913284438" lon="16.2647604872267"/>
      <trkpt lat="58.127480350362" lon="16.264587339465"/>
      <trkpt lat="58.1275185107532" lon="16.2645464104571"/>
      <trkpt lat="58.1275621216709" lon="16.2645112106282"/>
      <trkpt lat="58.1275736911725" lon="16.2645049142268"/>
      <trkpt lat="58.127573789845" lon="16.2645048660555"/>
      <trkpt lat="58.1275904269676" lon="16.2644957936114"/>
      <trkpt lat="58.1276735943534" lon="16.2644799449685"/>
      <trkpt lat="58.1277566244807" lon="16.2644733942122"/>
      <trkpt lat="58.1278838562895" lon="16.2644345685944"/>
      <trkpt lat="58.1279889459962" lon="16.2643531031212"/>
      <trkpt lat="58.1280069979883" lon="16.2643298853944"/>
      <trkpt lat="58.128087912862" lon="16.2642160118625"/>
      <trkpt lat="58.1282116362774" lon="16.2641070160097"/>
      <trkpt lat="58.1283705941278" lon="16.2639839695796"/>
      <trkpt lat="58.1284617515306" lon="16.2639042485932"/>
      <trkpt lat="58.1285520842386" lon="16.2638252624521"/>
      <trkpt lat="58.1287837798327" lon="16.2635831563464"/>
      <trkpt lat="58.1288341618063" lon="16.2634302465003"/>
      <trkpt lat="58.1288436652695" lon="16.2632661749227"/>
      <trkpt lat="58.1288252847007" lon="16.2631094217274"/>
      <trkpt lat="58.128815656527" lon="16.2628471881903"/>
      <trkpt lat="58.1287774385607" lon="16.2626444947444"/>
      <trkpt lat="58.128712007743" lon="16.2624421984078"/>
      <trkpt lat="58.1286620794492" lon="16.2622500116231"/>
      <trkpt lat="58.1286405231662" lon="16.2620736697143"/>
      <trkpt lat="58.128641438206" lon="16.2620429510012"/>
      <trkpt lat="58.128645902057" lon="16.2618932549366"/>
      <trkpt lat="58.1286818822273" lon="16.2617675472121"/>
      <trkpt lat="58.1287376782073" lon="16.2615855852795"/>
      <trkpt lat="58.128796280388" lon="16.2614414535396"/>
      <trkpt lat="58.1288676785724" lon="16.2612586156087"/>
      <trkpt lat="58.1289521165573" lon="16.2610134611033"/>
      <trkpt lat="58.1290570208789" lon="16.2606634240468"/>
      <trkpt lat="58.1291986141213" lon="16.2603420542572"/>
      <trkpt lat="58.1293090215685" lon="16.2599812373776"/>
      <trkpt lat="58.1294429420726" lon="16.2594779647552"/>
      <trkpt lat="58.1295410484208" lon="16.2591008999226"/>
      <trkpt lat="58.1296452158794" lon="16.2588240300673"/>
      <trkpt lat="58.1297280233391" lon="16.2585642383273"/>
      <trkpt lat="58.1297937366606" lon="16.2583481433757"/>
      <trkpt lat="58.1298898302242" lon="16.2582029638902"/>
      <trkpt lat="58.1299907131865" lon="16.2581285951572"/>
      <trkpt lat="58.1300688913255" lon="16.2580767228242"/>
      <trkpt lat="58.1301931849311" lon="16.2579894565397"/>
      <trkpt lat="58.1303084167091" lon="16.2578965380606"/>
      <trkpt lat="58.1304255909024" lon="16.2577561224239"/>
      <trkpt lat="58.130516469731" lon="16.2575748574669"/>
      <trkpt lat="58.1305543495461" lon="16.25739370916"/>
      <trkpt lat="58.1305830613902" lon="16.2572257887719"/>
      <trkpt lat="58.1306173314243" lon="16.2570224874233"/>
      <trkpt lat="58.1306440534888" lon="16.2567775022047"/>
      <trkpt lat="58.1306920239067" lon="16.2565376129267"/>
      <trkpt lat="58.1307625886088" lon="16.2563028473312"/>
      <trkpt lat="58.1308270946815" lon="16.256072029422"/>
      <trkpt lat="58.1308881511886" lon="16.2557363455047"/>
      <trkpt lat="58.1309319236549" lon="16.2555093458801"/>
      <trkpt lat="58.1309645289085" lon="16.2552750762925"/>
      <trkpt lat="58.1309719049854" lon="16.2551298033769"/>
      <trkpt lat="58.1309823232527" lon="16.2548296786287"/>
      <trkpt lat="58.1310022106698" lon="16.2546398939624"/>
      <trkpt lat="58.1310625403926" lon="16.2544434658643"/>
      <trkpt lat="58.1311137692367" lon="16.25432571466"/>
      <trkpt lat="58.1311731800766" lon="16.2541386440077"/>
      <trkpt lat="58.1312331078296" lon="16.2538678348736"/>
      <trkpt lat="58.1312927682338" lon="16.2536462306041"/>
      <trkpt lat="58.1313599336671" lon="16.2534870933471"/>
      <trkpt lat="58.1314315756455" lon="16.2533340723045"/>
      <trkpt lat="58.1315148401294" lon="16.2531491773545"/>
      <trkpt lat="58.1315699409053" lon="16.2529873210577"/>
      <trkpt lat="58.1316085731781" lon="16.2528586799705"/>
      <trkpt lat="58.1317064686175" lon="16.2525889107973"/>
      <trkpt lat="58.1317817711925" lon="16.2524453051445"/>
      <trkpt lat="58.1318636026407" lon="16.2523248191135"/>
      <trkpt lat="58.1319030732929" lon="16.2521372788157"/>
      <trkpt lat="58.131988027061" lon="16.2519548993455"/>
      <trkpt lat="58.1320501107404" lon="16.2517779161632"/>
      <trkpt lat="58.1321223059282" lon="16.2515573363044"/>
      <trkpt lat="58.132173465186" lon="16.2513228071468"/>
      <trkpt lat="58.1322190694959" lon="16.2511105482829"/>
      <trkpt lat="58.1322899478274" lon="16.2509067826598"/>
      <trkpt lat="58.1323713642658" lon="16.2507497156799"/>
      <trkpt lat="58.1324704427538" lon="16.2506179581908"/>
      <trkpt lat="58.1325452509478" lon="16.2504550018868"/>
      <trkpt lat="58.132545848147" lon="16.2504536975092"/>
      <trkpt lat="58.1326222063619" lon="16.2502781944102"/>
      <trkpt lat="58.1327240583692" lon="16.2501064177439"/>
      <trkpt lat="58.1328222128832" lon="16.2499735722039"/>
      <trkpt lat="58.1329012622055" lon="16.2498544068767"/>
      <trkpt lat="58.132985528954" lon="16.2497564135899"/>
      <trkpt lat="58.1330755556502" lon="16.2496526964816"/>
      <trkpt lat="58.1331772572472" lon="16.2495126518786"/>
      <trkpt lat="58.1332311772534" lon="16.2493709000698"/>
      <trkpt lat="58.1332664494693" lon="16.2492713257997"/>
      <trkpt lat="58.1333134102058" lon="16.2490962983007"/>
      <trkpt lat="58.1333731886643" lon="16.2488727405832"/>
      <trkpt lat="58.1334149265969" lon="16.2486833477992"/>
      <trkpt lat="58.1334525012813" lon="16.2483953103721"/>
      <trkpt lat="58.1334689723793" lon="16.2481634926737"/>
      <trkpt lat="58.1334820754682" lon="16.2479985554446"/>
      <trkpt lat="58.1335057292716" lon="16.2477780271707"/>
      <trkpt lat="58.1335403668878" lon="16.2476228944897"/>
      <trkpt lat="58.1335718023269" lon="16.247501157533"/>
      <trkpt lat="58.1336478596613" lon="16.2473652702971"/>
      <trkpt lat="58.1337449291869" lon="16.2472191626772"/>
      <trkpt lat="58.1338353910178" lon="16.2470624461882"/>
      <trkpt lat="58.1339115159821" lon="16.2469251323646"/>
      <trkpt lat="58.1339591085265" lon="16.2467972664798"/>
      <trkpt lat="58.1340014287738" lon="16.2466444867143"/>
      <trkpt lat="58.134078107685" lon="16.246274845711"/>
      <trkpt lat="58.1341589499557" lon="16.2458503724145"/>
      <trkpt lat="58.1342092471022" lon="16.245508932986"/>
      <trkpt lat="58.1342471036602" lon="16.2452649144867"/>
      <trkpt lat="58.1342732174971" lon="16.2451424268059"/>
      <trkpt lat="58.1343200732803" lon="16.2449720729917"/>
      <trkpt lat="58.1343923272239" lon="16.2447378289977"/>
      <trkpt lat="58.1344684126763" lon="16.2445242014021"/>
      <trkpt lat="58.1345901551925" lon="16.2442241575989"/>
      <trkpt lat="58.1346835417473" lon="16.243996592795"/>
      <trkpt lat="58.1347470000915" lon="16.2438488406914"/>
      <trkpt lat="58.1348109699114" lon="16.2437434811224"/>
      <trkpt lat="58.134851423587" lon="16.243696166425"/>
      <trkpt lat="58.134894794607" lon="16.2436516858608"/>
      <trkpt lat="58.1350964969139" lon="16.243442294863"/>
      <trkpt lat="58.1352699233859" lon="16.2432511428267"/>
      <trkpt lat="58.1353832592133" lon="16.2431534443846"/>
      <trkpt lat="58.1354856117322" lon="16.2430472450908"/>
      <trkpt lat="58.135590759875" lon="16.2429342977098"/>
      <trkpt lat="58.135665880987" lon="16.2428165159096"/>
      <trkpt lat="58.1357406711732" lon="16.2426820610312"/>
      <trkpt lat="58.1357998441785" lon="16.2425470782988"/>
      <trkpt lat="58.1358550843294" lon="16.2423742036662"/>
      <trkpt lat="58.1358951280269" lon="16.2421318268343"/>
      <trkpt lat="58.1359126967018" lon="16.2419613081286"/>
      <trkpt lat="58.135945650771" lon="16.241719143026"/>
      <trkpt lat="58.1359705453292" lon="16.2415185614429"/>
      <trkpt lat="58.1360160123214" lon="16.2413214479208"/>
      <trkpt lat="58.1360569745381" lon="16.2411451005577"/>
      <trkpt lat="58.1360823907214" lon="16.2410422290856"/>
    </trkseg>
  </trk>
</gpx>
