{
  "type": "FeatureCollection",
  "features": [
    {
      "type": "Feature",
      "id": "AM.drinkingWaterProtectionArea.15757937",
      "geometry": {
        "type": "Polygon",
        "coordinates": [
          [
            [
              16.48320314,
              57.37419016
            ],
            [
              16.48328979,
              57.37434071
            ],
            [
              16.48347745,
              57.37466438
            ],
            [
              16.48155369,
              57.37451249
            ],
            [
              16.48145458,
              57.37496422
            ],
            [
              16.47843144,
              57.37492845
            ],
            [
              16.47513521,
              57.37356996
            ],
            [
              16.473406,
              57.37473126
            ],
            [
              16.47336674,
              57.37481183
            ],
            [
              16.47320723,
              57.37492556
            ],
            [
              16.47306887,
              57.37497747
            ],
            [
              16.47286581,
              57.3750088
            ],
            [
              16.47271935,
              57.37498992
            ],
            [
              16.47261957,
              57.37502367
            ],
            [
              16.4725657,
              57.37509606
            ],
            [
              16.47262263,
              57.37517486
            ],
            [
              16.47265399,
              57.3752443
            ],
            [
              16.47244355,
              57.37537345
            ],
            [
              16.47222551,
              57.37549484
            ],
            [
              16.47200776,
              57.37556038
            ],
            [
              16.47180343,
              57.37560403
            ],
            [
              16.47165324,
              57.37560931
            ],
            [
              16.47146187,
              57.37565234
            ],
            [
              16.47134284,
              57.37572607
            ],
            [
              16.47132084,
              57.375851
            ],
            [
              16.47113651,
              57.3759441
            ],
            [
              16.47098269,
              57.37596826
            ],
            [
              16.47087743,
              57.37603122
            ],
            [
              16.47076096,
              57.37611777
            ],
            [
              16.47042954,
              57.37627621
            ],
            [
              16.47029676,
              57.37635243
            ],
            [
              16.47014212,
              57.3764144
            ],
            [
              16.47000449,
              57.37646962
            ],
            [
              16.4696138,
              57.37660638
            ],
            [
              16.46936387,
              57.37670333
            ],
            [
              16.46912241,
              57.37690152
            ],
            [
              16.46899351,
              57.3770166
            ],
            [
              16.46886688,
              57.37712142
            ],
            [
              16.46874703,
              57.37714873
            ],
            [
              16.46866496,
              57.37720789
            ],
            [
              16.468518,
              57.37731803
            ],
            [
              16.46840011,
              57.37742721
            ],
            [
              16.46825131,
              57.37754607
            ],
            [
              16.46810033,
              57.37761799
            ],
            [
              16.4680071,
              57.3776843
            ],
            [
              16.46802317,
              57.37781011
            ],
            [
              16.46799473,
              57.3778926
            ],
            [
              16.46794623,
              57.37791386
            ],
            [
              16.46781237,
              57.37794887
            ],
            [
              16.4676383,
              57.37798436
            ],
            [
              16.46750954,
              57.37805292
            ],
            [
              16.46744117,
              57.37810688
            ],
            [
              16.4674185,
              57.37811858
            ],
            [
              16.46657754,
              57.37794725
            ],
            [
              16.46548438,
              57.37802779
            ],
            [
              16.46504046,
              57.37864869
            ],
            [
              16.46492139,
              57.378703
            ],
            [
              16.46457728,
              57.37868084
            ],
            [
              16.46378733,
              57.37922608
            ],
            [
              16.46471645,
              57.37958199
            ],
            [
              16.46537078,
              57.3798064
            ],
            [
              16.46588268,
              57.37992714
            ],
            [
              16.46702786,
              57.38007778
            ],
            [
              16.46813696,
              57.38017637
            ],
            [
              16.4682394,
              57.38000971
            ],
            [
              16.4692893,
              57.38023677
            ],
            [
              16.47159847,
              57.3810885
            ],
            [
              16.47323548,
              57.38170165
            ],
            [
              16.47425272,
              57.38206176
            ],
            [
              16.47506301,
              57.3822419
            ],
            [
              16.47577039,
              57.38239072
            ],
            [
              16.47634332,
              57.38248261
            ],
            [
              16.47636653,
              57.38271617
            ],
            [
              16.47630144,
              57.38298015
            ],
            [
              16.47600497,
              57.38370428
            ],
            [
              16.47906764,
              57.38403563
            ],
            [
              16.47878137,
              57.3852423
            ],
            [
              16.48020793,
              57.3853375
            ],
            [
              16.4804326,
              57.3853409
            ],
            [
              16.4811061,
              57.38532405
            ],
            [
              16.48157337,
              57.38526949
            ],
            [
              16.48195143,
              57.38507791
            ],
            [
              16.48221043,
              57.3848021
            ],
            [
              16.48233931,
              57.38428036
            ],
            [
              16.48262947,
              57.38430906
            ],
            [
              16.48289346,
              57.38435948
            ],
            [
              16.48320124,
              57.38436818
            ],
            [
              16.48337111,
              57.38433358
            ],
            [
              16.48339622,
              57.38422745
            ],
            [
              16.4834791,
              57.38395537
            ],
            [
              16.48351109,
              57.38385037
            ],
            [
              16.48359367,
              57.38355754
            ],
            [
              16.4836302,
              57.38343464
            ],
            [
              16.48363826,
              57.38340745
            ],
            [
              16.48367107,
              57.38316578
            ],
            [
              16.48367402,
              57.3831441
            ],
            [
              16.48395789,
              57.38289769
            ],
            [
              16.48404864,
              57.38259267
            ],
            [
              16.48411778,
              57.38236026
            ],
            [
              16.48420058,
              57.38208187
            ],
            [
              16.48429681,
              57.38175846
            ],
            [
              16.4846833,
              57.38177937
            ],
            [
              16.48482537,
              57.38152243
            ],
            [
              16.48497232,
              57.38125667
            ],
            [
              16.48510275,
              57.38102078
            ],
            [
              16.48521558,
              57.38081674
            ],
            [
              16.48524477,
              57.38071071
            ],
            [
              16.48514523,
              57.38063575
            ],
            [
              16.48620428,
              57.37972008
            ],
            [
              16.48578747,
              57.379524
            ],
            [
              16.4871795,
              57.37830194
            ],
            [
              16.48781796,
              57.37777193
            ],
            [
              16.48900687,
              57.37639962
            ],
            [
              16.48747098,
              57.37561132
            ],
            [
              16.4869541,
              57.37566572
            ],
            [
              16.4870498,
              57.37536951
            ],
            [
              16.48266022,
              57.3730032
            ],
            [
              16.48306592,
              57.37380877
            ],
            [
              16.48320314,
              57.37419016
            ]
          ]
        ]
      },
      "geometry_name": "geom",
      "properties": {
        "nvrid": "2011723",
        "gtype": "Polygon",
        "namn": "Fårbo",
        "skyddstyp": "Vattenskyddsområde",
        "skyddstyp_kod": "VSO",
        "beslutsstatus": "Gällande",
        "beslutsmyndighet": "Länsstyrelse",
        "urspr_beslutsdatum": "20031017",
        "urspr_gallandedatum": "20031114",
        "senaste_gallandedatum": "20031114",
        "ikrafttradandedatum_foreskrift": "20031017",
        "tillsynsmyndighet": "Länsstyrelse",
        "provningsmyndighet_tillstand": " ",
        "provningsmyndighet_dispens": " ",
        "lan": "Kalmar Län",
        "kommun": "Oskarshamn",
        "iucnkategori": "0, Områden som ej kan klassificeras enligt IUCN: s system.",
        "forvaltare": " ",
        "data_friluftsliv_publicerat": "Nej",
        "area_ha": 102.13,
        "land_ha": 91.37,
        "skog_ha": 43.72,
        "vatten_ha": 10.76
      }
    }
  ],
  "totalFeatures": 1,
  "numberMatched": 1,
  "numberReturned": 1,
  "timeStamp": "2026-04-30T16:47:21.579Z",
  "crs": {
    "type": "name",
    "properties": {
      "name": "urn:ogc:def:crs:EPSG::4326"
    }
  }
}
