{
  "type": "FeatureCollection",
  "features": [
    {
      "type": "Feature",
      "id": "PS.ProtectedSites.Natura2000.SE0330268",
      "geometry": {
        "type": "MultiPolygon",
        "coordinates": [
          [
            [
              [
                16.53167658,
                57.37445832
              ],
              [
                16.53238384,
                57.37415538
              ],
              [
                16.53257245,
                57.37423457
              ],
              [
                16.53292988,
                57.37436676
              ],
              [
                16.53295907,
                57.37428632
              ],
              [
                16.5330418,
                57.37417943
              ],
              [
                16.53311347,
                57.37410509
              ],
              [
                16.5333509,
                57.37396218
              ],
              [
                16.53387586,
                57.37369469
              ],
              [
                16.53390508,
                57.37368599
              ],
              [
                16.5336771,
                57.37451801
              ],
              [
                16.53434533,
                57.37417292
              ],
              [
                16.53443373,
                57.37366798
              ],
              [
                16.53443896,
                57.37363832
              ],
              [
                16.53444534,
                57.37360181
              ],
              [
                16.53445427,
                57.37355083
              ],
              [
                16.53451085,
                57.37322715
              ],
              [
                16.53445675,
                57.37293734
              ],
              [
                16.53377796,
                57.3729552
              ],
              [
                16.53375348,
                57.37307984
              ],
              [
                16.53340697,
                57.37316995
              ],
              [
                16.53237221,
                57.3733112
              ],
              [
                16.53204238,
                57.37339623
              ],
              [
                16.53193098,
                57.37342859
              ],
              [
                16.53175087,
                57.37377813
              ],
              [
                16.5316803,
                57.37395483
              ],
              [
                16.53135746,
                57.37392604
              ],
              [
                16.53091422,
                57.37413344
              ],
              [
                16.53082338,
                57.37412327
              ],
              [
                16.53073136,
                57.37389328
              ],
              [
                16.53065886,
                57.37353847
              ],
              [
                16.53067588,
                57.37332496
              ],
              [
                16.52981504,
                57.37333984
              ],
              [
                16.52957328,
                57.37341053
              ],
              [
                16.52929776,
                57.37349606
              ],
              [
                16.52915396,
                57.37354071
              ],
              [
                16.5293172,
                57.37384876
              ],
              [
                16.53140297,
                57.37520836
              ],
              [
                16.53244022,
                57.37472738
              ],
              [
                16.53167658,
                57.37445832
              ]
            ]
          ],
          [
            [
              [
                16.5490134,
                57.37983195
              ],
              [
                16.54911645,
                57.37944758
              ],
              [
                16.54997326,
                57.37953925
              ],
              [
                16.55150911,
                57.3793357
              ],
              [
                16.55146396,
                57.37902283
              ],
              [
                16.55078862,
                57.37892474
              ],
              [
                16.55011192,
                57.37888579
              ],
              [
                16.5492085,
                57.37893407
              ],
              [
                16.54900408,
                57.37876042
              ],
              [
                16.54897822,
                57.37875364
              ],
              [
                16.54807572,
                57.37873751
              ],
              [
                16.54777146,
                57.37857671
              ],
              [
                16.54751125,
                57.37866508
              ],
              [
                16.54675418,
                57.37872508
              ],
              [
                16.54577082,
                57.3790363
              ],
              [
                16.54522157,
                57.37920614
              ],
              [
                16.54499806,
                57.37895754
              ],
              [
                16.54535342,
                57.3787333
              ],
              [
                16.54536368,
                57.37859086
              ],
              [
                16.54551156,
                57.37828808
              ],
              [
                16.54606232,
                57.3781946
              ],
              [
                16.54686772,
                57.37854138
              ],
              [
                16.5474907,
                57.37828339
              ],
              [
                16.54711133,
                57.3779524
              ],
              [
                16.54772212,
                57.37765029
              ],
              [
                16.5478921,
                57.37759582
              ],
              [
                16.5479975,
                57.37760831
              ],
              [
                16.54828224,
                57.37764205
              ],
              [
                16.54846585,
                57.37766584
              ],
              [
                16.54862955,
                57.3776569
              ],
              [
                16.54901302,
                57.37764347
              ],
              [
                16.54932421,
                57.37759132
              ],
              [
                16.54957017,
                57.37754872
              ],
              [
                16.55016984,
                57.37700536
              ],
              [
                16.5501394,
                57.37700256
              ],
              [
                16.55013953,
                57.37700244
              ],
              [
                16.55013945,
                57.37700243
              ],
              [
                16.54966771,
                57.37695106
              ],
              [
                16.54923848,
                57.37673295
              ],
              [
                16.549067,
                57.37664684
              ],
              [
                16.54861699,
                57.37642137
              ],
              [
                16.54800687,
                57.3764754
              ],
              [
                16.54737159,
                57.37688384
              ],
              [
                16.54662424,
                57.37680259
              ],
              [
                16.54707032,
                57.37643465
              ],
              [
                16.54758349,
                57.37626502
              ],
              [
                16.54805292,
                57.37603526
              ],
              [
                16.54894565,
                57.37531559
              ],
              [
                16.54827255,
                57.37509557
              ],
              [
                16.54826959,
                57.37509534
              ],
              [
                16.54759596,
                57.37504051
              ],
              [
                16.54767706,
                57.37474308
              ],
              [
                16.54553584,
                57.37491539
              ],
              [
                16.54495416,
                57.37410696
              ],
              [
                16.54491555,
                57.37405332
              ],
              [
                16.54473561,
                57.37381452
              ],
              [
                16.54249831,
                57.37402298
              ],
              [
                16.54236727,
                57.37350468
              ],
              [
                16.54131258,
                57.37356109
              ],
              [
                16.54085339,
                57.37349683
              ],
              [
                16.54066613,
                57.37349666
              ],
              [
                16.54029411,
                57.37347073
              ],
              [
                16.53832239,
                57.37391357
              ],
              [
                16.53793206,
                57.37400122
              ],
              [
                16.53575218,
                57.37449237
              ],
              [
                16.53500563,
                57.37401297
              ],
              [
                16.53432674,
                57.37437418
              ],
              [
                16.53393521,
                57.3745916
              ],
              [
                16.53356527,
                57.37479158
              ],
              [
                16.53346064,
                57.37519871
              ],
              [
                16.53414243,
                57.37548794
              ],
              [
                16.53403132,
                57.37555991
              ],
              [
                16.53398795,
                57.37560049
              ],
              [
                16.53390823,
                57.37568645
              ],
              [
                16.53387028,
                57.37575424
              ],
              [
                16.53384648,
                57.37583762
              ],
              [
                16.53378524,
                57.37611121
              ],
              [
                16.53372317,
                57.37637845
              ],
              [
                16.53363466,
                57.37676866
              ],
              [
                16.53284772,
                57.37666419
              ],
              [
                16.53249065,
                57.37656273
              ],
              [
                16.53216114,
                57.37644762
              ],
              [
                16.53164825,
                57.37629242
              ],
              [
                16.53127507,
                57.37598871
              ],
              [
                16.53127468,
                57.37598893
              ],
              [
                16.5308045,
                57.3762294
              ],
              [
                16.53061463,
                57.37634802
              ],
              [
                16.53048726,
                57.37645166
              ],
              [
                16.53037492,
                57.37656372
              ],
              [
                16.5302973,
                57.37666049
              ],
              [
                16.53024007,
                57.37676185
              ],
              [
                16.53030917,
                57.37711154
              ],
              [
                16.53177007,
                57.37721978
              ],
              [
                16.53245241,
                57.37729601
              ],
              [
                16.53315242,
                57.3773945
              ],
              [
                16.53384381,
                57.37750856
              ],
              [
                16.53433698,
                57.37760166
              ],
              [
                16.53498007,
                57.37773852
              ],
              [
                16.53548121,
                57.37785871
              ],
              [
                16.5361951,
                57.37805285
              ],
              [
                16.53673212,
                57.3782116
              ],
              [
                16.53737041,
                57.37842715
              ],
              [
                16.53797519,
                57.37865156
              ],
              [
                16.5384573,
                57.37884774
              ],
              [
                16.53918663,
                57.379151
              ],
              [
                16.53980246,
                57.37941035
              ],
              [
                16.54012741,
                57.37956227
              ],
              [
                16.54080131,
                57.37984774
              ],
              [
                16.54123857,
                57.38002685
              ],
              [
                16.54172772,
                57.38021308
              ],
              [
                16.54238432,
                57.38044525
              ],
              [
                16.54282958,
                57.3805945
              ],
              [
                16.54340496,
                57.38076973
              ],
              [
                16.54390598,
                57.38091281
              ],
              [
                16.54441836,
                57.38104886
              ],
              [
                16.54498061,
                57.38119814
              ],
              [
                16.5453287,
                57.38129369
              ],
              [
                16.54695724,
                57.38055679
              ],
              [
                16.5490134,
                57.37983195
              ]
            ]
          ],
          [
            [
              [
                16.53623796,
                57.39102347
              ],
              [
                16.53682465,
                57.3909301
              ],
              [
                16.53679628,
                57.39111237
              ],
              [
                16.54202798,
                57.39024218
              ],
              [
                16.55101985,
                57.38683647
              ],
              [
                16.5527911,
                57.38719678
              ],
              [
                16.55528594,
                57.38586941
              ],
              [
                16.55426789,
                57.38562499
              ],
              [
                16.55428066,
                57.38562047
              ],
              [
                16.55348061,
                57.385429
              ],
              [
                16.55344286,
                57.38541997
              ],
              [
                16.55058342,
                57.38473556
              ],
              [
                16.54913995,
                57.38439367
              ],
              [
                16.54810411,
                57.38414491
              ],
              [
                16.5484941,
                57.38396213
              ],
              [
                16.54849035,
                57.38396187
              ],
              [
                16.54684282,
                57.38357779
              ],
              [
                16.54526964,
                57.38478971
              ],
              [
                16.54035627,
                57.38163117
              ],
              [
                16.54045521,
                57.38159136
              ],
              [
                16.53809778,
                57.38005816
              ],
              [
                16.53565763,
                57.37848691
              ],
              [
                16.53484041,
                57.37877645
              ],
              [
                16.53448522,
                57.37887957
              ],
              [
                16.53420199,
                57.37894846
              ],
              [
                16.53373897,
                57.37899252
              ],
              [
                16.53298118,
                57.37915323
              ],
              [
                16.53248311,
                57.3791392
              ],
              [
                16.53276959,
                57.37883185
              ],
              [
                16.53332179,
                57.37867516
              ],
              [
                16.53353654,
                57.3786456
              ],
              [
                16.53397352,
                57.37864481
              ],
              [
                16.53490683,
                57.37833979
              ],
              [
                16.53531113,
                57.37828102
              ],
              [
                16.53528913,
                57.37818678
              ],
              [
                16.53472403,
                57.37794522
              ],
              [
                16.53314758,
                57.37761974
              ],
              [
                16.53260598,
                57.3775537
              ],
              [
                16.53167399,
                57.37743356
              ],
              [
                16.53093788,
                57.37739149
              ],
              [
                16.53035297,
                57.37735547
              ],
              [
                16.5303657,
                57.37742285
              ],
              [
                16.53037152,
                57.37742711
              ],
              [
                16.53091121,
                57.38015805
              ],
              [
                16.53053451,
                57.3803518
              ],
              [
                16.52788987,
                57.38074042
              ],
              [
                16.52788601,
                57.38074506
              ],
              [
                16.53101209,
                57.38099969
              ],
              [
                16.53108674,
                57.38373932
              ],
              [
                16.53286293,
                57.38364754
              ],
              [
                16.53411293,
                57.38166022
              ],
              [
                16.53527325,
                57.38204864
              ],
              [
                16.53573984,
                57.38178874
              ],
              [
                16.53793077,
                57.3818332
              ],
              [
                16.53970136,
                57.38298767
              ],
              [
                16.53972188,
                57.38300113
              ],
              [
                16.53969142,
                57.38301963
              ],
              [
                16.53953334,
                57.38334568
              ],
              [
                16.53947679,
                57.38346232
              ],
              [
                16.53918595,
                57.383985
              ],
              [
                16.53917279,
                57.38399924
              ],
              [
                16.53890829,
                57.38428546
              ],
              [
                16.53825462,
                57.38453306
              ],
              [
                16.53756567,
                57.38477089
              ],
              [
                16.53705421,
                57.38485449
              ],
              [
                16.53660974,
                57.38494954
              ],
              [
                16.53650518,
                57.3849719
              ],
              [
                16.53649227,
                57.38497709
              ],
              [
                16.53616108,
                57.3851102
              ],
              [
                16.53595054,
                57.38517782
              ],
              [
                16.53572885,
                57.38524902
              ],
              [
                16.53562323,
                57.38526913
              ],
              [
                16.5353086,
                57.38532904
              ],
              [
                16.53457185,
                57.38544608
              ],
              [
                16.53455281,
                57.38544859
              ],
              [
                16.53455196,
                57.38548292
              ],
              [
                16.53389378,
                57.38572418
              ],
              [
                16.53333498,
                57.38589942
              ],
              [
                16.53296423,
                57.38600891
              ],
              [
                16.53254432,
                57.38616019
              ],
              [
                16.53228376,
                57.38631809
              ],
              [
                16.53222995,
                57.38633489
              ],
              [
                16.53203163,
                57.38657884
              ],
              [
                16.53194823,
                57.38667268
              ],
              [
                16.53220954,
                57.38707146
              ],
              [
                16.53221001,
                57.38719459
              ],
              [
                16.53223909,
                57.38726944
              ],
              [
                16.5323355,
                57.3874053
              ],
              [
                16.53241995,
                57.38744409
              ],
              [
                16.53276656,
                57.38760371
              ],
              [
                16.53298725,
                57.38768272
              ],
              [
                16.53259682,
                57.38795652
              ],
              [
                16.53247959,
                57.38802073
              ],
              [
                16.53198595,
                57.38794645
              ],
              [
                16.5316741,
                57.38793276
              ],
              [
                16.53155179,
                57.38806272
              ],
              [
                16.53147888,
                57.38821162
              ],
              [
                16.53160309,
                57.38836279
              ],
              [
                16.5313886,
                57.38851609
              ],
              [
                16.53099603,
                57.38857232
              ],
              [
                16.53088597,
                57.38864089
              ],
              [
                16.53048182,
                57.38888325
              ],
              [
                16.53021646,
                57.38911888
              ],
              [
                16.53014159,
                57.3891813
              ],
              [
                16.53026855,
                57.38934127
              ],
              [
                16.53052074,
                57.38946817
              ],
              [
                16.53073391,
                57.38958692
              ],
              [
                16.53097449,
                57.38970117
              ],
              [
                16.53114488,
                57.3897115
              ],
              [
                16.53191495,
                57.38968672
              ],
              [
                16.53219243,
                57.38926249
              ],
              [
                16.53274162,
                57.38926024
              ],
              [
                16.53289884,
                57.38907989
              ],
              [
                16.53314981,
                57.38917378
              ],
              [
                16.53303439,
                57.38940683
              ],
              [
                16.533163,
                57.38952698
              ],
              [
                16.53434189,
                57.38950579
              ],
              [
                16.53430152,
                57.39021829
              ],
              [
                16.53430151,
                57.39021847
              ],
              [
                16.53446372,
                57.39036577
              ],
              [
                16.53489987,
                57.39076181
              ],
              [
                16.53462986,
                57.39106767
              ],
              [
                16.53443004,
                57.39129402
              ],
              [
                16.53447676,
                57.39137092
              ],
              [
                16.53451881,
                57.39144012
              ],
              [
                16.53633153,
                57.39121629
              ],
              [
                16.53628064,
                57.39111143
              ],
              [
                16.53623796,
                57.39102347
              ]
            ]
          ]
        ]
      },
      "geometry_name": "geom",
      "properties": {
        "omradesnamn": "Figeholm",
        "omradestyp": "SCI",
        "uppgiftslamnare": "Länsstyrelsen i Kalmar län",
        "sammanstalltdatum": "20021001",
        "uppdateratdatum": "20120801",
        "spa_datum": null,
        "sci_foreslaget_datum": "200304              ",
        "sci_datum": "200501              ",
        "sac_datum": "201103              ",
        "area_ha": 154.8,
        "kvalitet": "Syftet med området från naturvårdssynpunkt är att bevara  naturskogsartad ädellövskog och lbarrdominerad blandskog med hög förekomst av rödlistade arter och signalarter. Exempel på rödlistade arter är grön sköldmossa, Buxbaumia viridis. I ädellövskogen finns inslag av träd som uppvisar spår av tidigare hamling.  Grova stammar och liggande samt stående död ved utgör värdefulla strukturer i objektet och de ska bevaras. Gamla hässlen återfinns i objektet. Naturskogsartad ädellövskog och lövrik barrblandskog ska präglas av en stor mångfald av arter,  strukturer och naturliga processer. Värdet av objektet förstärks dessutom av stor andel av skogsbete. Skogsbete ska upprätthållas. ",
        "karaktar": "Objektet ligger i ett relativt flackt område, beläget precis innanför kustzonen. Berggrunden utgörs av smålandsgranit och av gabbro.",
        "arter": "Grön sköldmossa",
        "naturtyper": "9010, 9020, 9070, 9080, 9160, 9190",
        "lan": "Kalmar län",
        "kommun": "Oskarshamn",
        "objectid": 906666,
        "shape_area": null,
        "shape_len": null
      }
    }
  ],
  "totalFeatures": 1,
  "numberMatched": 1,
  "numberReturned": 1,
  "timeStamp": "2026-04-30T16:47:15.589Z",
  "crs": {
    "type": "name",
    "properties": {
      "name": "urn:ogc:def:crs:EPSG::4326"
    }
  }
}
