{
  "type": "FeatureCollection",
  "features": [
    {
      "type": "Feature",
      "id": "PS.ProtectedSites.Natura2000.SE0330262",
      "geometry": {
        "type": "Polygon",
        "coordinates": [
          [
            [
              16.26035325,
              57.36122945
            ],
            [
              16.26042045,
              57.36129753
            ],
            [
              16.2604435,
              57.36132088
            ],
            [
              16.26045717,
              57.36140165
            ],
            [
              16.26045719,
              57.36140165
            ],
            [
              16.2604975,
              57.36139815
            ],
            [
              16.26051189,
              57.3613969
            ],
            [
              16.26058356,
              57.36139068
            ],
            [
              16.26071647,
              57.36135814
            ],
            [
              16.26071854,
              57.36135868
            ],
            [
              16.26075792,
              57.36136883
            ],
            [
              16.26080641,
              57.36138134
            ],
            [
              16.26080643,
              57.36138134
            ],
            [
              16.26004913,
              57.36165366
            ],
            [
              16.25972316,
              57.36166495
            ],
            [
              16.25961331,
              57.36168885
            ],
            [
              16.25957359,
              57.36169749
            ],
            [
              16.25954947,
              57.36170019
            ],
            [
              16.25942729,
              57.36171389
            ],
            [
              16.2590877,
              57.36166414
            ],
            [
              16.25914147,
              57.36150259
            ],
            [
              16.25915371,
              57.36146583
            ],
            [
              16.2591536,
              57.3614657
            ],
            [
              16.25914469,
              57.3614546
            ],
            [
              16.25911489,
              57.36144251
            ],
            [
              16.25910914,
              57.36144018
            ],
            [
              16.25906329,
              57.36143982
            ],
            [
              16.25906243,
              57.36143981
            ],
            [
              16.25904994,
              57.3614485
            ],
            [
              16.25904811,
              57.36144975
            ],
            [
              16.25904695,
              57.36145056
            ],
            [
              16.25901087,
              57.36147564
            ],
            [
              16.25901448,
              57.36149328
            ],
            [
              16.25901776,
              57.3615092
            ],
            [
              16.25898315,
              57.36151578
            ],
            [
              16.25894748,
              57.36152257
            ],
            [
              16.25888767,
              57.36152485
            ],
            [
              16.25875528,
              57.36151383
            ],
            [
              16.25863634,
              57.36155745
            ],
            [
              16.25858477,
              57.361586
            ],
            [
              16.25853418,
              57.36161402
            ],
            [
              16.25851242,
              57.36164144
            ],
            [
              16.25850702,
              57.36164825
            ],
            [
              16.25850701,
              57.36164861
            ],
            [
              16.25850638,
              57.36170481
            ],
            [
              16.25847556,
              57.361716
            ],
            [
              16.25844221,
              57.36172812
            ],
            [
              16.25844137,
              57.36172835
            ],
            [
              16.25838991,
              57.36174239
            ],
            [
              16.25838624,
              57.3617434
            ],
            [
              16.25837644,
              57.36174606
            ],
            [
              16.25834315,
              57.36175515
            ],
            [
              16.25834014,
              57.36175598
            ],
            [
              16.25833355,
              57.36175778
            ],
            [
              16.25831617,
              57.36176251
            ],
            [
              16.25827585,
              57.36183522
            ],
            [
              16.25830015,
              57.36190589
            ],
            [
              16.25835487,
              57.36193044
            ],
            [
              16.25837245,
              57.36193831
            ],
            [
              16.25837263,
              57.3619384
            ],
            [
              16.25837402,
              57.36200799
            ],
            [
              16.2583806,
              57.36200862
            ],
            [
              16.25845413,
              57.3620157
            ],
            [
              16.25857454,
              57.36202729
            ],
            [
              16.2585902,
              57.3620288
            ],
            [
              16.25859517,
              57.36202928
            ],
            [
              16.25859752,
              57.3619678
            ],
            [
              16.25865687,
              57.36190266
            ],
            [
              16.25878057,
              57.36184035
            ],
            [
              16.25890197,
              57.36180597
            ],
            [
              16.25901256,
              57.3617861
            ],
            [
              16.2591542,
              57.36179187
            ],
            [
              16.25925238,
              57.36177805
            ],
            [
              16.25929356,
              57.36182962
            ],
            [
              16.25929381,
              57.36188816
            ],
            [
              16.25922493,
              57.36195089
            ],
            [
              16.25903052,
              57.36207211
            ],
            [
              16.25890527,
              57.36212274
            ],
            [
              16.25883507,
              57.36215112
            ],
            [
              16.25874796,
              57.36216032
            ],
            [
              16.25866865,
              57.36214363
            ],
            [
              16.25863263,
              57.36210659
            ],
            [
              16.25863253,
              57.36210636
            ],
            [
              16.25863251,
              57.36210632
            ],
            [
              16.2585097,
              57.36212043
            ],
            [
              16.25836979,
              57.3621365
            ],
            [
              16.25836896,
              57.36215641
            ],
            [
              16.25836441,
              57.36226591
            ],
            [
              16.25837342,
              57.36231244
            ],
            [
              16.25837788,
              57.36233554
            ],
            [
              16.25844831,
              57.36238773
            ],
            [
              16.25847577,
              57.36242939
            ],
            [
              16.25850115,
              57.3624679
            ],
            [
              16.25851621,
              57.36250083
            ],
            [
              16.25852896,
              57.36252871
            ],
            [
              16.25852915,
              57.36252913
            ],
            [
              16.25855186,
              57.3625788
            ],
            [
              16.258573,
              57.36265545
            ],
            [
              16.25859692,
              57.36274207
            ],
            [
              16.25861925,
              57.36283837
            ],
            [
              16.25862551,
              57.36286534
            ],
            [
              16.25861063,
              57.36295213
            ],
            [
              16.25860138,
              57.36298168
            ],
            [
              16.25858761,
              57.36302566
            ],
            [
              16.25858361,
              57.36303843
            ],
            [
              16.25859521,
              57.36311768
            ],
            [
              16.25865059,
              57.36320207
            ],
            [
              16.25866609,
              57.36325573
            ],
            [
              16.25867767,
              57.36329581
            ],
            [
              16.25867612,
              57.36338534
            ],
            [
              16.25867543,
              57.36343378
            ],
            [
              16.25867525,
              57.36344682
            ],
            [
              16.25867344,
              57.36344802
            ],
            [
              16.25867427,
              57.36344839
            ],
            [
              16.25867398,
              57.36346762
            ],
            [
              16.25870875,
              57.36351203
            ],
            [
              16.25881627,
              57.36356534
            ],
            [
              16.25891699,
              57.36360719
            ],
            [
              16.25906176,
              57.36367652
            ],
            [
              16.25918109,
              57.36370492
            ],
            [
              16.25930522,
              57.36373204
            ],
            [
              16.25947569,
              57.3637969
            ],
            [
              16.25970465,
              57.36388873
            ],
            [
              16.25986324,
              57.36397391
            ],
            [
              16.25997155,
              57.36399847
            ],
            [
              16.26009427,
              57.36403082
            ],
            [
              16.26022595,
              57.36407982
            ],
            [
              16.2603599,
              57.36415961
            ],
            [
              16.26038562,
              57.36417194
            ],
            [
              16.26038574,
              57.364172
            ],
            [
              16.26038652,
              57.36417153
            ],
            [
              16.26038659,
              57.36417155
            ],
            [
              16.26368422,
              57.36296381
            ],
            [
              16.26732606,
              57.36162981
            ],
            [
              16.2673303,
              57.36162826
            ],
            [
              16.26733049,
              57.36162818
            ],
            [
              16.26729053,
              57.36161322
            ],
            [
              16.2672257,
              57.3615889
            ],
            [
              16.2672299,
              57.36153986
            ],
            [
              16.26726083,
              57.36145013
            ],
            [
              16.2673544,
              57.36138505
            ],
            [
              16.26747296,
              57.36129849
            ],
            [
              16.26761754,
              57.36119435
            ],
            [
              16.26776024,
              57.36111175
            ],
            [
              16.26776124,
              57.36111133
            ],
            [
              16.26777565,
              57.36110544
            ],
            [
              16.26779107,
              57.36109912
            ],
            [
              16.26785514,
              57.36107288
            ],
            [
              16.26798155,
              57.36105688
            ],
            [
              16.26814641,
              57.36106067
            ],
            [
              16.26826721,
              57.36108699
            ],
            [
              16.26839303,
              57.36114149
            ],
            [
              16.26851389,
              57.36123892
            ],
            [
              16.26861385,
              57.36141751
            ],
            [
              16.26868667,
              57.36157977
            ],
            [
              16.26869216,
              57.36163345
            ],
            [
              16.26866687,
              57.36168392
            ],
            [
              16.26861855,
              57.3617527
            ],
            [
              16.2685976,
              57.36180342
            ],
            [
              16.26863914,
              57.36184439
            ],
            [
              16.26875189,
              57.36188958
            ],
            [
              16.26889057,
              57.36191082
            ],
            [
              16.26900544,
              57.36188828
            ],
            [
              16.26900606,
              57.36188797
            ],
            [
              16.26914268,
              57.36182081
            ],
            [
              16.26921234,
              57.36177188
            ],
            [
              16.26934459,
              57.3617828
            ],
            [
              16.2695517,
              57.36177512
            ],
            [
              16.26976909,
              57.36175161
            ],
            [
              16.26983872,
              57.361739
            ],
            [
              16.26996105,
              57.36171687
            ],
            [
              16.26996165,
              57.36171655
            ],
            [
              16.26996196,
              57.36171639
            ],
            [
              16.26996201,
              57.36171636
            ],
            [
              16.26999429,
              57.36160309
            ],
            [
              16.27004091,
              57.36143954
            ],
            [
              16.27012287,
              57.36134945
            ],
            [
              16.27035065,
              57.36129473
            ],
            [
              16.27063119,
              57.3612141
            ],
            [
              16.27088872,
              57.36114009
            ],
            [
              16.2708833,
              57.3600536
            ],
            [
              16.27014267,
              57.35952487
            ],
            [
              16.27003239,
              57.35944613
            ],
            [
              16.27014801,
              57.35939183
            ],
            [
              16.27020998,
              57.35936466
            ],
            [
              16.27034627,
              57.35930131
            ],
            [
              16.27047422,
              57.35923797
            ],
            [
              16.27052295,
              57.359148
            ],
            [
              16.27062137,
              57.35904887
            ],
            [
              16.27070286,
              57.35892286
            ],
            [
              16.27093339,
              57.35842813
            ],
            [
              16.27101395,
              57.35823029
            ],
            [
              16.27098699,
              57.35806875
            ],
            [
              16.27086337,
              57.35781779
            ],
            [
              16.27064375,
              57.35753125
            ],
            [
              16.27064621,
              57.35739655
            ],
            [
              16.27069896,
              57.35729758
            ],
            [
              16.27080558,
              57.35718944
            ],
            [
              16.27115982,
              57.35695467
            ],
            [
              16.27151452,
              57.35675581
            ],
            [
              16.27170444,
              57.35666531
            ],
            [
              16.27200235,
              57.35657441
            ],
            [
              16.27262802,
              57.35645537
            ],
            [
              16.27364343,
              57.35628099
            ],
            [
              16.27385435,
              57.35620838
            ],
            [
              16.27407366,
              57.35614471
            ],
            [
              16.27430385,
              57.35595528
            ],
            [
              16.27484035,
              57.35568389
            ],
            [
              16.27506753,
              57.35558428
            ],
            [
              16.27537753,
              57.35546639
            ],
            [
              16.27565004,
              57.35533967
            ],
            [
              16.2757691,
              57.35523146
            ],
            [
              16.27587525,
              57.3550874
            ],
            [
              16.27580074,
              57.35478238
            ],
            [
              16.2755481,
              57.3548372
            ],
            [
              16.27541732,
              57.35477103
            ],
            [
              16.27480817,
              57.35446281
            ],
            [
              16.27478268,
              57.35441801
            ],
            [
              16.27478177,
              57.35434617
            ],
            [
              16.27482124,
              57.3541844
            ],
            [
              16.27426243,
              57.35387929
            ],
            [
              16.27425955,
              57.35387771
            ],
            [
              16.27425909,
              57.35387747
            ],
            [
              16.27425904,
              57.3538775
            ],
            [
              16.27425889,
              57.35387744
            ],
            [
              16.27425882,
              57.35387741
            ],
            [
              16.27425817,
              57.35387786
            ],
            [
              16.27409947,
              57.35398771
            ],
            [
              16.27409934,
              57.3539878
            ],
            [
              16.27194148,
              57.3548335
            ],
            [
              16.27164362,
              57.35511577
            ],
            [
              16.27164351,
              57.35511588
            ],
            [
              16.27090964,
              57.35537027
            ],
            [
              16.27078748,
              57.35556259
            ],
            [
              16.26835603,
              57.35691669
            ],
            [
              16.26835584,
              57.3569168
            ],
            [
              16.26710146,
              57.35741927
            ],
            [
              16.26070151,
              57.35692373
            ],
            [
              16.26062038,
              57.35682969
            ],
            [
              16.2605228,
              57.35686066
            ],
            [
              16.26040195,
              57.35689682
            ],
            [
              16.26029573,
              57.356892
            ],
            [
              16.26024078,
              57.35687512
            ],
            [
              16.26023895,
              57.35687456
            ],
            [
              16.260201,
              57.35686289
            ],
            [
              16.26004806,
              57.35678855
            ],
            [
              16.25994557,
              57.35670945
            ],
            [
              16.25990041,
              57.35664407
            ],
            [
              16.25979336,
              57.35658644
            ],
            [
              16.25974584,
              57.35650599
            ],
            [
              16.25966939,
              57.35639608
            ],
            [
              16.25958052,
              57.35630266
            ],
            [
              16.25941702,
              57.35622027
            ],
            [
              16.25923512,
              57.35615646
            ],
            [
              16.258965,
              57.35604788
            ],
            [
              16.25871949,
              57.35597137
            ],
            [
              16.25856329,
              57.35594418
            ],
            [
              16.25829956,
              57.35593623
            ],
            [
              16.25800446,
              57.35590731
            ],
            [
              16.25775332,
              57.3558977
            ],
            [
              16.25756509,
              57.35590061
            ],
            [
              16.25739454,
              57.35591991
            ],
            [
              16.25723856,
              57.35593537
            ],
            [
              16.25718894,
              57.35588472
            ],
            [
              16.25709851,
              57.35589349
            ],
            [
              16.25702798,
              57.35591677
            ],
            [
              16.25702734,
              57.35591699
            ],
            [
              16.25693888,
              57.35596725
            ],
            [
              16.25682137,
              57.35595968
            ],
            [
              16.25672934,
              57.35600175
            ],
            [
              16.25648785,
              57.35606189
            ],
            [
              16.25636881,
              57.3560844
            ],
            [
              16.25620198,
              57.35610888
            ],
            [
              16.25604346,
              57.35606635
            ],
            [
              16.25593018,
              57.35602734
            ],
            [
              16.25570554,
              57.35602661
            ],
            [
              16.25563852,
              57.35607145
            ],
            [
              16.25563782,
              57.35607192
            ],
            [
              16.25552446,
              57.35605393
            ],
            [
              16.25540104,
              57.35609693
            ],
            [
              16.25533928,
              57.35611412
            ],
            [
              16.25512588,
              57.35606927
            ],
            [
              16.25511482,
              57.35603213
            ],
            [
              16.25502559,
              57.35604403
            ],
            [
              16.25495992,
              57.35608216
            ],
            [
              16.25486401,
              57.35612617
            ],
            [
              16.2548631,
              57.3561266
            ],
            [
              16.25476637,
              57.35613619
            ],
            [
              16.25470209,
              57.35618113
            ],
            [
              16.25473612,
              57.35621765
            ],
            [
              16.25478189,
              57.35621084
            ],
            [
              16.25485783,
              57.35619845
            ],
            [
              16.25493024,
              57.35622387
            ],
            [
              16.25504753,
              57.35622238
            ],
            [
              16.25510976,
              57.35623202
            ],
            [
              16.25517006,
              57.3562724
            ],
            [
              16.25527834,
              57.35628072
            ],
            [
              16.25532289,
              57.35631137
            ],
            [
              16.25534431,
              57.35639004
            ],
            [
              16.25534455,
              57.35646367
            ],
            [
              16.25523923,
              57.35654648
            ],
            [
              16.25508588,
              57.35658707
            ],
            [
              16.25493817,
              57.3566008
            ],
            [
              16.2547515,
              57.35663567
            ],
            [
              16.25469634,
              57.35667618
            ],
            [
              16.25461623,
              57.35674201
            ],
            [
              16.25446661,
              57.35678943
            ],
            [
              16.25423671,
              57.35684565
            ],
            [
              16.25395429,
              57.35690287
            ],
            [
              16.25366006,
              57.35698615
            ],
            [
              16.25343236,
              57.35705419
            ],
            [
              16.25343193,
              57.35705432
            ],
            [
              16.25334787,
              57.3570952
            ],
            [
              16.25327374,
              57.35709295
            ],
            [
              16.25323446,
              57.35707245
            ],
            [
              16.25318863,
              57.35706174
            ],
            [
              16.25303082,
              57.35709212
            ],
            [
              16.25285697,
              57.35711239
            ],
            [
              16.25277252,
              57.35715121
            ],
            [
              16.25275369,
              57.3571854
            ],
            [
              16.25280154,
              57.35724091
            ],
            [
              16.25279434,
              57.35727703
            ],
            [
              16.25273989,
              57.35732194
            ],
            [
              16.25273522,
              57.35735043
            ],
            [
              16.25277559,
              57.35739024
            ],
            [
              16.25277351,
              57.35743577
            ],
            [
              16.25270051,
              57.35747311
            ],
            [
              16.25269909,
              57.35750751
            ],
            [
              16.25264798,
              57.35755358
            ],
            [
              16.25251389,
              57.35761093
            ],
            [
              16.25248448,
              57.35762351
            ],
            [
              16.2524835,
              57.35762393
            ],
            [
              16.25244931,
              57.35762611
            ],
            [
              16.25228992,
              57.35761887
            ],
            [
              16.25216478,
              57.35761985
            ],
            [
              16.25216463,
              57.35761985
            ],
            [
              16.25209675,
              57.35765287
            ],
            [
              16.25204783,
              57.35768686
            ],
            [
              16.2520475,
              57.35768707
            ],
            [
              16.25181406,
              57.35775614
            ],
            [
              16.25163714,
              57.35779879
            ],
            [
              16.2514758,
              57.357909
            ],
            [
              16.25137378,
              57.35803203
            ],
            [
              16.25139824,
              57.35811779
            ],
            [
              16.25144192,
              57.35819517
            ],
            [
              16.25145671,
              57.35822143
            ],
            [
              16.25145779,
              57.35822335
            ],
            [
              16.25147532,
              57.35825444
            ],
            [
              16.2515442,
              57.35831579
            ],
            [
              16.25163404,
              57.35833936
            ],
            [
              16.25167341,
              57.35834021
            ],
            [
              16.25169393,
              57.35837399
            ],
            [
              16.2517741,
              57.35848955
            ],
            [
              16.25183777,
              57.35854634
            ],
            [
              16.2518252,
              57.35856632
            ],
            [
              16.25169046,
              57.35867706
            ],
            [
              16.25159296,
              57.35877654
            ],
            [
              16.25145882,
              57.35892221
            ],
            [
              16.25142584,
              57.35899856
            ],
            [
              16.25144674,
              57.35906359
            ],
            [
              16.25151327,
              57.3590832
            ],
            [
              16.25155613,
              57.35910962
            ],
            [
              16.25158883,
              57.35917623
            ],
            [
              16.25165016,
              57.35926042
            ],
            [
              16.25175484,
              57.3593423
            ],
            [
              16.25185989,
              57.35937074
            ],
            [
              16.25199514,
              57.35937278
            ],
            [
              16.25211957,
              57.35935771
            ],
            [
              16.25218036,
              57.35934204
            ],
            [
              16.25220704,
              57.35936404
            ],
            [
              16.25223284,
              57.35941998
            ],
            [
              16.25227538,
              57.35944982
            ],
            [
              16.25238975,
              57.35949377
            ],
            [
              16.25256881,
              57.35953058
            ],
            [
              16.25271814,
              57.35955384
            ],
            [
              16.25286335,
              57.35955477
            ],
            [
              16.2528973,
              57.35958724
            ],
            [
              16.25297782,
              57.35962018
            ],
            [
              16.25312507,
              57.35965074
            ],
            [
              16.2532782,
              57.35971448
            ],
            [
              16.2534284,
              57.35975604
            ],
            [
              16.25352935,
              57.35976261
            ],
            [
              16.25368927,
              57.35976699
            ],
            [
              16.2538776,
              57.35976093
            ],
            [
              16.25403149,
              57.35977663
            ],
            [
              16.25417009,
              57.35981932
            ],
            [
              16.25429104,
              57.359847
            ],
            [
              16.25442381,
              57.35986144
            ],
            [
              16.25453745,
              57.35988609
            ],
            [
              16.25462735,
              57.35988624
            ],
            [
              16.25465643,
              57.3598863
            ],
            [
              16.25475991,
              57.35988582
            ],
            [
              16.25482836,
              57.35991267
            ],
            [
              16.25483139,
              57.35991388
            ],
            [
              16.25484475,
              57.35991911
            ],
            [
              16.25491389,
              57.3599362
            ],
            [
              16.2550465,
              57.35993653
            ],
            [
              16.25523504,
              57.35994645
            ],
            [
              16.25536909,
              57.35999769
            ],
            [
              16.25556145,
              57.3600463
            ],
            [
              16.25590288,
              57.36009951
            ],
            [
              16.25608415,
              57.36011124
            ],
            [
              16.25618128,
              57.36013389
            ],
            [
              16.25618761,
              57.36017535
            ],
            [
              16.25614686,
              57.36025291
            ],
            [
              16.25605912,
              57.36030184
            ],
            [
              16.25605855,
              57.36030216
            ],
            [
              16.25599723,
              57.36031594
            ],
            [
              16.25575057,
              57.36032085
            ],
            [
              16.25550114,
              57.36031842
            ],
            [
              16.25521871,
              57.36029608
            ],
            [
              16.25490055,
              57.36029875
            ],
            [
              16.25456279,
              57.36032966
            ],
            [
              16.25437434,
              57.3603545
            ],
            [
              16.25412024,
              57.36044726
            ],
            [
              16.25398282,
              57.3605422
            ],
            [
              16.25382183,
              57.3606654
            ],
            [
              16.25382131,
              57.36066579
            ],
            [
              16.25376567,
              57.36066725
            ],
            [
              16.25369664,
              57.36068011
            ],
            [
              16.25369588,
              57.36068026
            ],
            [
              16.25364294,
              57.36074043
            ],
            [
              16.25364959,
              57.36078503
            ],
            [
              16.25364964,
              57.36078531
            ],
            [
              16.25350331,
              57.36080441
            ],
            [
              16.25338864,
              57.36080365
            ],
            [
              16.2532921,
              57.36078827
            ],
            [
              16.25321111,
              57.36076854
            ],
            [
              16.25307648,
              57.36073839
            ],
            [
              16.25299073,
              57.36071177
            ],
            [
              16.25280516,
              57.360688
            ],
            [
              16.25271405,
              57.36068383
            ],
            [
              16.2526803,
              57.3606519
            ],
            [
              16.2526302,
              57.36064587
            ],
            [
              16.25254248,
              57.36064754
            ],
            [
              16.25239102,
              57.36062562
            ],
            [
              16.25231459,
              57.36061367
            ],
            [
              16.25222928,
              57.36056549
            ],
            [
              16.25215549,
              57.36053883
            ],
            [
              16.25201025,
              57.36050962
            ],
            [
              16.25190269,
              57.36046474
            ],
            [
              16.25186054,
              57.36042726
            ],
            [
              16.25181223,
              57.36039025
            ],
            [
              16.2517103,
              57.36037059
            ],
            [
              16.25163124,
              57.36038623
            ],
            [
              16.25157674,
              57.3604008
            ],
            [
              16.2514921,
              57.36040881
            ],
            [
              16.25136413,
              57.36039283
            ],
            [
              16.25128357,
              57.36036708
            ],
            [
              16.25118782,
              57.36033634
            ],
            [
              16.25109247,
              57.36032366
            ],
            [
              16.25101186,
              57.36029603
            ],
            [
              16.25091881,
              57.36023862
            ],
            [
              16.25085443,
              57.36017813
            ],
            [
              16.25081701,
              57.36013482
            ],
            [
              16.25076333,
              57.36013419
            ],
            [
              16.25069356,
              57.3601621
            ],
            [
              16.25062574,
              57.36017393
            ],
            [
              16.25054774,
              57.36019593
            ],
            [
              16.25048171,
              57.36020387
            ],
            [
              16.25028785,
              57.3601963
            ],
            [
              16.25023691,
              57.36017421
            ],
            [
              16.25018003,
              57.3601402
            ],
            [
              16.25009319,
              57.36013153
            ],
            [
              16.2499996,
              57.36014983
            ],
            [
              16.2499987,
              57.36015001
            ],
            [
              16.24996711,
              57.36022345
            ],
            [
              16.24996848,
              57.36022448
            ],
            [
              16.24998624,
              57.36030005
            ],
            [
              16.24998801,
              57.36031239
            ],
            [
              16.24996375,
              57.36038124
            ],
            [
              16.24996361,
              57.36038161
            ],
            [
              16.24991512,
              57.36038403
            ],
            [
              16.24986582,
              57.36036032
            ],
            [
              16.24979628,
              57.36036422
            ],
            [
              16.2497959,
              57.36036424
            ],
            [
              16.24972776,
              57.36040598
            ],
            [
              16.24973971,
              57.36044346
            ],
            [
              16.24974377,
              57.36047783
            ],
            [
              16.24970395,
              57.36049515
            ],
            [
              16.24970295,
              57.36049559
            ],
            [
              16.24964948,
              57.36047296
            ],
            [
              16.24960486,
              57.36047742
            ],
            [
              16.24955211,
              57.36049931
            ],
            [
              16.24953644,
              57.36050581
            ],
            [
              16.24953542,
              57.36050623
            ],
            [
              16.24943858,
              57.36057741
            ],
            [
              16.24941978,
              57.36063092
            ],
            [
              16.2494597,
              57.3606622
            ],
            [
              16.24955847,
              57.36068359
            ],
            [
              16.24958885,
              57.36072047
            ],
            [
              16.24956944,
              57.36075044
            ],
            [
              16.24958651,
              57.36082967
            ],
            [
              16.24960654,
              57.36089407
            ],
            [
              16.24968898,
              57.36093509
            ],
            [
              16.24976233,
              57.36096959
            ],
            [
              16.24976035,
              57.3610398
            ],
            [
              16.24970076,
              57.36107144
            ],
            [
              16.24967962,
              57.36115143
            ],
            [
              16.24975151,
              57.36121502
            ],
            [
              16.2499008,
              57.36127717
            ],
            [
              16.24993977,
              57.36135319
            ],
            [
              16.24995377,
              57.3614387
            ],
            [
              16.25000188,
              57.36150184
            ],
            [
              16.24996943,
              57.36156624
            ],
            [
              16.24990536,
              57.36168061
            ],
            [
              16.24989013,
              57.36179702
            ],
            [
              16.24990571,
              57.36186314
            ],
            [
              16.24989669,
              57.36189363
            ],
            [
              16.24989661,
              57.3618939
            ],
            [
              16.24976174,
              57.3619145
            ],
            [
              16.24976061,
              57.36191467
            ],
            [
              16.2497944,
              57.36198809
            ],
            [
              16.24989268,
              57.36198047
            ],
            [
              16.24989276,
              57.36198013
            ],
            [
              16.24990376,
              57.3619358
            ],
            [
              16.24990476,
              57.36193547
            ],
            [
              16.24994399,
              57.36192246
            ],
            [
              16.25002579,
              57.3619404
            ],
            [
              16.25012537,
              57.36194427
            ],
            [
              16.25027463,
              57.36193414
            ],
            [
              16.25038237,
              57.36192747
            ],
            [
              16.2504464,
              57.36197214
            ],
            [
              16.25052568,
              57.36202969
            ],
            [
              16.2506553,
              57.3621112
            ],
            [
              16.25078755,
              57.36212251
            ],
            [
              16.25094453,
              57.36210463
            ],
            [
              16.25111042,
              57.36208284
            ],
            [
              16.25126567,
              57.3620444
            ],
            [
              16.25142794,
              57.36199928
            ],
            [
              16.25160856,
              57.36196911
            ],
            [
              16.25183931,
              57.36196577
            ],
            [
              16.25203183,
              57.3619589
            ],
            [
              16.25218339,
              57.36193375
            ],
            [
              16.25239609,
              57.36190669
            ],
            [
              16.2525316,
              57.36190109
            ],
            [
              16.25266234,
              57.3619124
            ],
            [
              16.25290924,
              57.36195175
            ],
            [
              16.25309242,
              57.36198226
            ],
            [
              16.25335639,
              57.36197827
            ],
            [
              16.25353488,
              57.36195007
            ],
            [
              16.25353568,
              57.36194969
            ],
            [
              16.25364276,
              57.36189939
            ],
            [
              16.25364286,
              57.36189941
            ],
            [
              16.25373761,
              57.36191072
            ],
            [
              16.25391853,
              57.36186861
            ],
            [
              16.2540529,
              57.36182296
            ],
            [
              16.25420161,
              57.36180699
            ],
            [
              16.25430896,
              57.36183444
            ],
            [
              16.25442295,
              57.3618889
            ],
            [
              16.25458281,
              57.3619458
            ],
            [
              16.25478645,
              57.36200605
            ],
            [
              16.25499923,
              57.36203869
            ],
            [
              16.25521452,
              57.36204753
            ],
            [
              16.25537288,
              57.36202281
            ],
            [
              16.25537381,
              57.36202242
            ],
            [
              16.25556666,
              57.36194094
            ],
            [
              16.25565695,
              57.36186556
            ],
            [
              16.25572886,
              57.36182156
            ],
            [
              16.25572923,
              57.36182155
            ],
            [
              16.25584925,
              57.36181583
            ],
            [
              16.2559558,
              57.36180422
            ],
            [
              16.25595661,
              57.36180385
            ],
            [
              16.25604833,
              57.36176152
            ],
            [
              16.25614297,
              57.36171601
            ],
            [
              16.25630649,
              57.361648
            ],
            [
              16.25645625,
              57.36158289
            ],
            [
              16.25645637,
              57.36158287
            ],
            [
              16.25659422,
              57.3615605
            ],
            [
              16.25680885,
              57.3615299
            ],
            [
              16.25694587,
              57.36153732
            ],
            [
              16.25704629,
              57.36156921
            ],
            [
              16.25722225,
              57.36158185
            ],
            [
              16.25737131,
              57.36155529
            ],
            [
              16.25748148,
              57.36154249
            ],
            [
              16.25763127,
              57.36158884
            ],
            [
              16.25778132,
              57.36156325
            ],
            [
              16.25778222,
              57.36156287
            ],
            [
              16.25791273,
              57.36150665
            ],
            [
              16.25801985,
              57.36146082
            ],
            [
              16.25801995,
              57.3614608
            ],
            [
              16.25821862,
              57.36142367
            ],
            [
              16.25840591,
              57.3613992
            ],
            [
              16.25858442,
              57.36134791
            ],
            [
              16.25858469,
              57.36134771
            ],
            [
              16.25864979,
              57.36130007
            ],
            [
              16.25872431,
              57.36126497
            ],
            [
              16.2587245,
              57.36126495
            ],
            [
              16.25881194,
              57.36125567
            ],
            [
              16.25881249,
              57.36125532
            ],
            [
              16.25888018,
              57.36121233
            ],
            [
              16.2589847,
              57.36114398
            ],
            [
              16.25907637,
              57.36104505
            ],
            [
              16.25926251,
              57.36092756
            ],
            [
              16.25942127,
              57.36085113
            ],
            [
              16.25963504,
              57.36072356
            ],
            [
              16.2597905,
              57.36065233
            ],
            [
              16.25979057,
              57.36065236
            ],
            [
              16.25979148,
              57.36065193
            ],
            [
              16.25982941,
              57.36066805
            ],
            [
              16.25983957,
              57.36069646
            ],
            [
              16.25985074,
              57.36072769
            ],
            [
              16.26016073,
              57.36080105
            ],
            [
              16.26017126,
              57.36081676
            ],
            [
              16.26022162,
              57.36089189
            ],
            [
              16.26022165,
              57.36089195
            ],
            [
              16.26017641,
              57.3611202
            ],
            [
              16.26020568,
              57.36113828
            ],
            [
              16.26035325,
              57.36122945
            ]
          ],
          [
            [
              16.25630698,
              57.35868779
            ],
            [
              16.25672211,
              57.35866835
            ],
            [
              16.25694009,
              57.3588292
            ],
            [
              16.25559794,
              57.35947154
            ],
            [
              16.25539288,
              57.35934655
            ],
            [
              16.25565061,
              57.35902238
            ],
            [
              16.25630698,
              57.35868779
            ]
          ]
        ]
      },
      "geometry_name": "geom",
      "properties": {
        "omradesnamn": "Humlenäs",
        "omradestyp": "SCI",
        "uppgiftslamnare": "Länsstyrelsen i Kalmar län",
        "sammanstalltdatum": "20010101",
        "uppdateratdatum": "20120801",
        "spa_datum": null,
        "sci_foreslaget_datum": "200201              ",
        "sci_datum": "200501              ",
        "sac_datum": "201103              ",
        "area_ha": 75.7,
        "kvalitet": "Gammalt kulturlandskap med ängsmark och betesmark, hamlade träd, lövblandskog och hasseldominerad lövskog. Tack vare förekomst av kalksten är floran artrik. Flera sällsynta djurarter har påträffats, till exempel mullvadssyrsa, sandödla och hasselsnok. Det finns även äldre fynd av ekoxe.",
        "karaktar": "Objektet ligger på en utskjutande udde i sjön Hummeln. Kambrosiluriska bergarter som innehåller sandsten och kalkkonglomerat har påträffats vid Humlenäs. Dessa block kommer troligen från ett fast kambrosilurlager på Hummelns botten. Allt tyder på att blocken förts upp av inlandsisen. Nära stranden vid Humlenäs finns breccior i berggrunden.",
        "arter": " ",
        "naturtyper": "9070, 9160",
        "lan": "Kalmar län",
        "kommun": "Oskarshamn",
        "objectid": 905073,
        "shape_area": null,
        "shape_len": null
      }
    }
  ],
  "totalFeatures": 1,
  "numberMatched": 1,
  "numberReturned": 1,
  "timeStamp": "2026-04-30T16:47:14.864Z",
  "crs": {
    "type": "name",
    "properties": {
      "name": "urn:ogc:def:crs:EPSG::4326"
    }
  }
}
