{
  "type": "FeatureCollection",
  "features": [
    {
      "type": "Feature",
      "id": "PS.ProtectedSites.NR.15762738",
      "geometry": {
        "type": "Polygon",
        "coordinates": [
          [
            [
              16.64542943,
              57.53056674
            ],
            [
              16.64542756,
              57.53056639
            ],
            [
              16.64542625,
              57.53056668
            ],
            [
              16.64542509,
              57.53056801
            ],
            [
              16.64542508,
              57.53056839
            ],
            [
              16.64542557,
              57.5305689
            ],
            [
              16.6502476,
              57.53167051
            ],
            [
              16.65024896,
              57.53167053
            ],
            [
              16.65538214,
              57.52917678
            ],
            [
              16.65952141,
              57.52792917
            ],
            [
              16.66206041,
              57.53052629
            ],
            [
              16.66216799,
              57.53063495
            ],
            [
              16.66348686,
              57.53198501
            ],
            [
              16.66739438,
              57.53255377
            ],
            [
              16.66739541,
              57.53255376
            ],
            [
              16.67149074,
              57.53077957
            ],
            [
              16.67838811,
              57.53453916
            ],
            [
              16.67253015,
              57.54222895
            ],
            [
              16.67110055,
              57.54472865
            ],
            [
              16.66911528,
              57.54704424
            ],
            [
              16.66540376,
              57.54835326
            ],
            [
              16.665403,
              57.54835383
            ],
            [
              16.66498237,
              57.55098031
            ],
            [
              16.66498248,
              57.55098075
            ],
            [
              16.66963946,
              57.55468862
            ],
            [
              16.67602309,
              57.55808434
            ],
            [
              16.68630654,
              57.56165633
            ],
            [
              16.70020482,
              57.57161574
            ],
            [
              16.71020253,
              57.57531793
            ],
            [
              16.71584818,
              57.58685064
            ],
            [
              16.72029411,
              57.58978607
            ],
            [
              16.72491353,
              57.59281501
            ],
            [
              16.74446221,
              57.60025359
            ],
            [
              16.76641474,
              57.61062294
            ],
            [
              16.77902132,
              57.61178923
            ],
            [
              16.77902201,
              57.61178923
            ],
            [
              16.77902292,
              57.61178897
            ],
            [
              16.77902343,
              57.61178849
            ],
            [
              16.77902337,
              57.61178793
            ],
            [
              16.77884143,
              57.61150848
            ],
            [
              16.77837547,
              57.61105856
            ],
            [
              16.77790442,
              57.61080183
            ],
            [
              16.77717643,
              57.61047525
            ],
            [
              16.77638106,
              57.61021198
            ],
            [
              16.77689375,
              57.60991172
            ],
            [
              16.77736632,
              57.60951747
            ],
            [
              16.77760512,
              57.60921929
            ],
            [
              16.77775872,
              57.60886348
            ],
            [
              16.77805469,
              57.60835843
            ],
            [
              16.77821341,
              57.60780046
            ],
            [
              16.77824313,
              57.60734678
            ],
            [
              16.77813888,
              57.60696589
            ],
            [
              16.77813718,
              57.60658881
            ],
            [
              16.77882839,
              57.60647119
            ],
            [
              16.7793109,
              57.60630142
            ],
            [
              16.77981206,
              57.6061225
            ],
            [
              16.78021084,
              57.60593526
            ],
            [
              16.78063888,
              57.60568059
            ],
            [
              16.78101685,
              57.6054308
            ],
            [
              16.7812422,
              57.60517304
            ],
            [
              16.78149987,
              57.60487925
            ],
            [
              16.78176998,
              57.60449989
            ],
            [
              16.78194599,
              57.60396869
            ],
            [
              16.78186829,
              57.60340839
            ],
            [
              16.79189853,
              57.59748136
            ],
            [
              16.79410078,
              57.58752879
            ],
            [
              16.78808856,
              57.58043522
            ],
            [
              16.78799219,
              57.57988371
            ],
            [
              16.78790601,
              57.57916603
            ],
            [
              16.78788856,
              57.57882936
            ],
            [
              16.78776674,
              57.57841731
            ],
            [
              16.7876453,
              57.57801877
            ],
            [
              16.7872477,
              57.57753233
            ],
            [
              16.78702948,
              57.57726466
            ],
            [
              16.78680952,
              57.57692976
            ],
            [
              16.78644114,
              57.57668097
            ],
            [
              16.78595402,
              57.57644228
            ],
            [
              16.78517974,
              57.57623283
            ],
            [
              16.78454115,
              57.57602232
            ],
            [
              16.78390931,
              57.57591493
            ],
            [
              16.78397687,
              57.57570785
            ],
            [
              16.78397554,
              57.57565855
            ],
            [
              16.7839694,
              57.57551029
            ],
            [
              16.78376997,
              57.57516612
            ],
            [
              16.78338128,
              57.57484597
            ],
            [
              16.78327966,
              57.57464024
            ],
            [
              16.78319146,
              57.5744659
            ],
            [
              16.78347359,
              57.5743964
            ],
            [
              16.78357328,
              57.57437318
            ],
            [
              16.78386178,
              57.57430361
            ],
            [
              16.78464046,
              57.57427505
            ],
            [
              16.78537615,
              57.57397758
            ],
            [
              16.78545639,
              57.57394559
            ],
            [
              16.78545663,
              57.57394488
            ],
            [
              16.78531942,
              57.57357384
            ],
            [
              16.78519813,
              57.57317975
            ],
            [
              16.78526282,
              57.57278865
            ],
            [
              16.78575616,
              57.57249304
            ],
            [
              16.78642452,
              57.57225438
            ],
            [
              16.78697711,
              57.57213784
            ],
            [
              16.78757367,
              57.5721736
            ],
            [
              16.78764849,
              57.57216854
            ],
            [
              16.78769441,
              57.57216369
            ],
            [
              16.78820747,
              57.57213277
            ],
            [
              16.78848662,
              57.57211708
            ],
            [
              16.7884875,
              57.57211657
            ],
            [
              16.78853152,
              57.57205836
            ],
            [
              16.78869505,
              57.57185061
            ],
            [
              16.78857146,
              57.57145179
            ],
            [
              16.78802895,
              57.57109234
            ],
            [
              16.7876028,
              57.57101035
            ],
            [
              16.78751432,
              57.57099307
            ],
            [
              16.7868185,
              57.57096259
            ],
            [
              16.78681757,
              57.57096267
            ],
            [
              16.78629719,
              57.57109231
            ],
            [
              16.78578154,
              57.57094371
            ],
            [
              16.78586451,
              57.5706109
            ],
            [
              16.78591724,
              57.57055212
            ],
            [
              16.78609131,
              57.5703487
            ],
            [
              16.78604994,
              57.57028165
            ],
            [
              16.78597359,
              57.57016102
            ],
            [
              16.78590622,
              57.57004996
            ],
            [
              16.78590537,
              57.5700494
            ],
            [
              16.78590437,
              57.57004928
            ],
            [
              16.78531268,
              57.57006732
            ],
            [
              16.78452175,
              57.57016771
            ],
            [
              16.78393337,
              57.57026652
            ],
            [
              16.78401502,
              57.56988436
            ],
            [
              16.7840699,
              57.56928234
            ],
            [
              16.78408914,
              57.56899018
            ],
            [
              16.7837904,
              57.56844041
            ],
            [
              16.78345935,
              57.56793999
            ],
            [
              16.78317696,
              57.56769077
            ],
            [
              16.78280701,
              57.56744232
            ],
            [
              16.78207964,
              57.56711563
            ],
            [
              16.78211514,
              57.56680547
            ],
            [
              16.78194067,
              57.56637144
            ],
            [
              16.78205939,
              57.56604732
            ],
            [
              16.78276303,
              57.56588477
            ],
            [
              16.78328414,
              57.56575946
            ],
            [
              16.78383199,
              57.56555323
            ],
            [
              16.78429901,
              57.56537007
            ],
            [
              16.78474307,
              57.56510172
            ],
            [
              16.78508641,
              57.56481614
            ],
            [
              16.7853786,
              57.56457134
            ],
            [
              16.78563515,
              57.56425072
            ],
            [
              16.78577103,
              57.56393975
            ],
            [
              16.78620832,
              57.56350544
            ],
            [
              16.78672286,
              57.56329936
            ],
            [
              16.78712785,
              57.5629011
            ],
            [
              16.78764903,
              57.56247496
            ],
            [
              16.78801711,
              57.56203224
            ],
            [
              16.78813876,
              57.56173947
            ],
            [
              16.78811689,
              57.56131303
            ],
            [
              16.78829523,
              57.5607997
            ],
            [
              16.78836623,
              57.5601797
            ],
            [
              16.78825744,
              57.5597089
            ],
            [
              16.78801809,
              57.55934726
            ],
            [
              16.78773321,
              57.5590845
            ],
            [
              16.7871864,
              57.55863079
            ],
            [
              16.78664118,
              57.5582443
            ],
            [
              16.7858784,
              57.55790906
            ],
            [
              16.78495248,
              57.55772317
            ],
            [
              16.78447093,
              57.55760119
            ],
            [
              16.78377438,
              57.55755718
            ],
            [
              16.78317887,
              57.55754383
            ],
            [
              16.78206196,
              57.55757047
            ],
            [
              16.78100247,
              57.55776717
            ],
            [
              16.78009234,
              57.55786853
            ],
            [
              16.77920441,
              57.55808186
            ],
            [
              16.77868384,
              57.55821606
            ],
            [
              16.77585697,
              57.55808515
            ],
            [
              16.77521735,
              57.55805415
            ],
            [
              16.77526987,
              57.55799101
            ],
            [
              16.77543992,
              57.55778761
            ],
            [
              16.77570834,
              57.55735904
            ],
            [
              16.7759569,
              57.55689019
            ],
            [
              16.77586847,
              57.55615462
            ],
            [
              16.77569899,
              57.55582808
            ],
            [
              16.775533,
              57.5555554
            ],
            [
              16.77531707,
              57.55528767
            ],
            [
              16.77504886,
              57.55501588
            ],
            [
              16.77476016,
              57.55468135
            ],
            [
              16.77449412,
              57.55441401
            ],
            [
              16.77404085,
              57.55417499
            ],
            [
              16.77338175,
              57.55388376
            ],
            [
              16.7729156,
              57.55370773
            ],
            [
              16.77246156,
              57.55312298
            ],
            [
              16.77208988,
              57.55280707
            ],
            [
              16.7714051,
              57.55233642
            ],
            [
              16.77094175,
              57.55218727
            ],
            [
              16.77041969,
              57.5519488
            ],
            [
              16.76957463,
              57.55164999
            ],
            [
              16.76900605,
              57.55147467
            ],
            [
              16.76845826,
              57.55137111
            ],
            [
              16.76784573,
              57.55133538
            ],
            [
              16.76702002,
              57.55129677
            ],
            [
              16.76689515,
              57.55129324
            ],
            [
              16.76706029,
              57.55123825
            ],
            [
              16.76734316,
              57.55114203
            ],
            [
              16.76734399,
              57.55114137
            ],
            [
              16.767369,
              57.55106523
            ],
            [
              16.76744812,
              57.55082208
            ],
            [
              16.76724597,
              57.55051404
            ],
            [
              16.76724526,
              57.55051367
            ],
            [
              16.76666098,
              57.55033875
            ],
            [
              16.76611392,
              57.55026652
            ],
            [
              16.76563191,
              57.55010863
            ],
            [
              16.76573315,
              57.5500765
            ],
            [
              16.76624847,
              57.54990196
            ],
            [
              16.76703168,
              57.54959973
            ],
            [
              16.76754457,
              57.54933545
            ],
            [
              16.7678699,
              57.54907696
            ],
            [
              16.76857571,
              57.5486046
            ],
            [
              16.76909547,
              57.54812928
            ],
            [
              16.7696176,
              57.54774372
            ],
            [
              16.76990753,
              57.54741829
            ],
            [
              16.77002956,
              57.54681551
            ],
            [
              16.77002592,
              57.54636205
            ],
            [
              16.76991457,
              57.54586014
            ],
            [
              16.77046328,
              57.54561808
            ],
            [
              16.77080811,
              57.54538633
            ],
            [
              16.77129321,
              57.54494264
            ],
            [
              16.77172642,
              57.54443665
            ],
            [
              16.77180603,
              57.54396894
            ],
            [
              16.77187434,
              57.54363177
            ],
            [
              16.77178358,
              57.54319702
            ],
            [
              16.77135721,
              57.54278257
            ],
            [
              16.77118391,
              57.54238446
            ],
            [
              16.77118356,
              57.54238407
            ],
            [
              16.77071187,
              57.54206012
            ],
            [
              16.77029231,
              57.5418209
            ],
            [
              16.76929121,
              57.54146033
            ],
            [
              16.76935109,
              57.54119938
            ],
            [
              16.76927546,
              57.54086335
            ],
            [
              16.7692334,
              57.54053583
            ],
            [
              16.76906998,
              57.5401152
            ],
            [
              16.76870386,
              57.53969128
            ],
            [
              16.76844324,
              57.5394643
            ],
            [
              16.76806438,
              57.53918879
            ],
            [
              16.76756457,
              57.5389187
            ],
            [
              16.76700252,
              57.53872999
            ],
            [
              16.76645571,
              57.53857251
            ],
            [
              16.76585953,
              57.53843788
            ],
            [
              16.76511267,
              57.53838065
            ],
            [
              16.76448355,
              57.53834054
            ],
            [
              16.76365619,
              57.53840067
            ],
            [
              16.76260478,
              57.53833233
            ],
            [
              16.76252564,
              57.53794228
            ],
            [
              16.76234902,
              57.53765187
            ],
            [
              16.76211995,
              57.53727199
            ],
            [
              16.76217741,
              57.53691698
            ],
            [
              16.76273895,
              57.53699801
            ],
            [
              16.76336507,
              57.53700224
            ],
            [
              16.76448233,
              57.53695786
            ],
            [
              16.76541121,
              57.53679364
            ],
            [
              16.76633272,
              57.53643188
            ],
            [
              16.7669845,
              57.53606332
            ],
            [
              16.76736823,
              57.53581801
            ],
            [
              16.76766415,
              57.53547895
            ],
            [
              16.76802764,
              57.53517532
            ],
            [
              16.76829833,
              57.53443694
            ],
            [
              16.76839262,
              57.53413544
            ],
            [
              16.76841691,
              57.53378941
            ],
            [
              16.76835657,
              57.53339937
            ],
            [
              16.76813837,
              57.53288015
            ],
            [
              16.76802984,
              57.53256224
            ],
            [
              16.76891083,
              57.53194498
            ],
            [
              16.76942092,
              57.53197249
            ],
            [
              16.77033256,
              57.53188923
            ],
            [
              16.77172059,
              57.53182474
            ],
            [
              16.77244912,
              57.53183264
            ],
            [
              16.7731782,
              57.53185398
            ],
            [
              16.77383602,
              57.53180406
            ],
            [
              16.77439296,
              57.53171449
            ],
            [
              16.77514976,
              57.5315291
            ],
            [
              16.7755863,
              57.53138204
            ],
            [
              16.77624226,
              57.53117499
            ],
            [
              16.77678159,
              57.5310541
            ],
            [
              16.77725231,
              57.5309291
            ],
            [
              16.77785395,
              57.53056991
            ],
            [
              16.7783529,
              57.53026068
            ],
            [
              16.77876725,
              57.52991171
            ],
            [
              16.77909356,
              57.52939754
            ],
            [
              16.77920214,
              57.52900594
            ],
            [
              16.77925144,
              57.5283501
            ],
            [
              16.77927937,
              57.52806701
            ],
            [
              16.77930254,
              57.52768507
            ],
            [
              16.77915772,
              57.52734051
            ],
            [
              16.77891296,
              57.52700561
            ],
            [
              16.77832478,
              57.52653883
            ],
            [
              16.77777217,
              57.52616139
            ],
            [
              16.77708489,
              57.52574458
            ],
            [
              16.77626329,
              57.52544117
            ],
            [
              16.77573472,
              57.52525666
            ],
            [
              16.77518789,
              57.52509472
            ],
            [
              16.77471049,
              57.52495472
            ],
            [
              16.77401513,
              57.52493309
            ],
            [
              16.77335509,
              57.52491572
            ],
            [
              16.77276231,
              57.5249786
            ],
            [
              16.77203551,
              57.52502008
            ],
            [
              16.77148149,
              57.52514103
            ],
            [
              16.77111173,
              57.52472638
            ],
            [
              16.77036556,
              57.52388358
            ],
            [
              16.77059496,
              57.52380555
            ],
            [
              16.77080192,
              57.52373655
            ],
            [
              16.77125283,
              57.52351316
            ],
            [
              16.77202096,
              57.52313467
            ],
            [
              16.77242111,
              57.52288473
            ],
            [
              16.77273453,
              57.52250055
            ],
            [
              16.77306054,
              57.52205376
            ],
            [
              16.77306066,
              57.52205334
            ],
            [
              16.77299697,
              57.52153769
            ],
            [
              16.77292707,
              57.52078839
            ],
            [
              16.77283004,
              57.52035369
            ],
            [
              16.77272178,
              57.52004483
            ],
            [
              16.77345328,
              57.52018733
            ],
            [
              16.77394531,
              57.5202554
            ],
            [
              16.77487718,
              57.52031112
            ],
            [
              16.77596068,
              57.52025791
            ],
            [
              16.77697365,
              57.52014237
            ],
            [
              16.77745026,
              57.52025544
            ],
            [
              16.77814806,
              57.52038024
            ],
            [
              16.7789638,
              57.52044581
            ],
            [
              16.78001187,
              57.52040182
            ],
            [
              16.78131264,
              57.52029301
            ],
            [
              16.7823073,
              57.52012372
            ],
            [
              16.78336279,
              57.51972042
            ],
            [
              16.78393172,
              57.51946459
            ],
            [
              16.7846844,
              57.51905916
            ],
            [
              16.78511685,
              57.51877299
            ],
            [
              16.78562741,
              57.51820319
            ],
            [
              16.78569919,
              57.51776718
            ],
            [
              16.78563531,
              57.51725132
            ],
            [
              16.78545319,
              57.51675891
            ],
            [
              16.78513993,
              57.5164335
            ],
            [
              16.78462336,
              57.51607377
            ],
            [
              16.78417594,
              57.51580332
            ],
            [
              16.78365732,
              57.51544364
            ],
            [
              16.7832632,
              57.51520881
            ],
            [
              16.78254321,
              57.51488657
            ],
            [
              16.7820131,
              57.51463483
            ],
            [
              16.78139763,
              57.51447787
            ],
            [
              16.78118301,
              57.51401711
            ],
            [
              16.78109111,
              57.51369905
            ],
            [
              16.78104675,
              57.51328654
            ],
            [
              16.78104653,
              57.51328613
            ],
            [
              16.78069731,
              57.5129343
            ],
            [
              16.78013278,
              57.51264682
            ],
            [
              16.77990529,
              57.51240613
            ],
            [
              16.77966101,
              57.51208038
            ],
            [
              16.77924624,
              57.51178263
            ],
            [
              16.77868161,
              57.51157589
            ],
            [
              16.77801863,
              57.51141943
            ],
            [
              16.77703243,
              57.51127883
            ],
            [
              16.77633443,
              57.5111495
            ],
            [
              16.77560331,
              57.51102491
            ],
            [
              16.7752429,
              57.51081211
            ],
            [
              16.7744914,
              57.510553
            ],
            [
              16.77360725,
              57.51040265
            ],
            [
              16.77284585,
              57.51038157
            ],
            [
              16.77213627,
              57.51044985
            ],
            [
              16.77142322,
              57.5103745
            ],
            [
              16.77074768,
              57.50903726
            ],
            [
              16.77035605,
              57.50826352
            ],
            [
              16.77009873,
              57.50775813
            ],
            [
              16.76996003,
              57.50748082
            ],
            [
              16.76737552,
              57.50237772
            ],
            [
              16.76766119,
              57.50230373
            ],
            [
              16.76819977,
              57.50216491
            ],
            [
              16.76888818,
              57.50193965
            ],
            [
              16.76959187,
              57.50166947
            ],
            [
              16.77012526,
              57.50132854
            ],
            [
              16.77073832,
              57.50086151
            ],
            [
              16.7711153,
              57.50036922
            ],
            [
              16.77127259,
              57.499928
            ],
            [
              16.77126935,
              57.49909289
            ],
            [
              16.77115647,
              57.49868526
            ],
            [
              16.7707052,
              57.49825747
            ],
            [
              16.77025147,
              57.49765483
            ],
            [
              16.76935854,
              57.49715877
            ],
            [
              16.76831993,
              57.49691073
            ],
            [
              16.7672831,
              57.49672111
            ],
            [
              16.76660337,
              57.49664097
            ],
            [
              16.76605028,
              57.49653743
            ],
            [
              16.76599175,
              57.4965289
            ],
            [
              16.76574489,
              57.48886672
            ],
            [
              16.76605327,
              57.48854562
            ],
            [
              16.76620741,
              57.4883828
            ],
            [
              16.76661998,
              57.48798004
            ],
            [
              16.7669797,
              57.48755079
            ],
            [
              16.76763778,
              57.48681851
            ],
            [
              16.76784734,
              57.486386
            ],
            [
              16.76784735,
              57.48638554
            ],
            [
              16.76764913,
              57.48589793
            ],
            [
              16.76768768,
              57.48546202
            ],
            [
              16.76760497,
              57.48485211
            ],
            [
              16.76754825,
              57.48459667
            ],
            [
              16.76798545,
              57.48450354
            ],
            [
              16.76869823,
              57.48418834
            ],
            [
              16.76927146,
              57.48387415
            ],
            [
              16.76978791,
              57.48354247
            ],
            [
              16.77046692,
              57.4829669
            ],
            [
              16.77098663,
              57.4821325
            ],
            [
              16.77107376,
              57.48156141
            ],
            [
              16.77095251,
              57.48083511
            ],
            [
              16.77071788,
              57.48023521
            ],
            [
              16.77051735,
              57.47966211
            ],
            [
              16.77021811,
              57.47921986
            ],
            [
              16.77046578,
              57.47905189
            ],
            [
              16.77558669,
              57.47555103
            ],
            [
              16.77595006,
              57.47566493
            ],
            [
              16.77666057,
              57.47588849
            ],
            [
              16.77766141,
              57.4759975
            ],
            [
              16.77884533,
              57.47602428
            ],
            [
              16.77979115,
              57.47593618
            ],
            [
              16.78061669,
              57.47579512
            ],
            [
              16.78162449,
              57.47552233
            ],
            [
              16.78225816,
              57.47523021
            ],
            [
              16.78258327,
              57.47499417
            ],
            [
              16.7829082,
              57.47483451
            ],
            [
              16.78307542,
              57.47477484
            ],
            [
              16.78371279,
              57.47454552
            ],
            [
              16.78371337,
              57.47454518
            ],
            [
              16.78438979,
              57.47390259
            ],
            [
              16.78468547,
              57.47358147
            ],
            [
              16.78499602,
              57.47319744
            ],
            [
              16.7852899,
              57.4728136
            ],
            [
              16.78540042,
              57.47250276
            ],
            [
              16.78542514,
              57.47210304
            ],
            [
              16.78543401,
              57.47181114
            ],
            [
              16.78549067,
              57.47143816
            ],
            [
              16.7853285,
              57.47098126
            ],
            [
              16.78538672,
              57.47066661
            ],
            [
              16.78549756,
              57.47037412
            ],
            [
              16.78549752,
              57.47037364
            ],
            [
              16.78516031,
              57.46975685
            ],
            [
              16.78477218,
              57.46911323
            ],
            [
              16.78423453,
              57.46863707
            ],
            [
              16.78302075,
              57.46811667
            ],
            [
              16.78289518,
              57.467781
            ],
            [
              16.78295157,
              57.46739875
            ],
            [
              16.78280536,
              57.46699145
            ],
            [
              16.78262661,
              57.46661568
            ],
            [
              16.78310748,
              57.46621234
            ],
            [
              16.78343533,
              57.46585519
            ],
            [
              16.78369643,
              57.46548926
            ],
            [
              16.78374789,
              57.46484254
            ],
            [
              16.78366725,
              57.4643179
            ],
            [
              16.78322824,
              57.46371063
            ],
            [
              16.78227922,
              57.46296356
            ],
            [
              16.77394684,
              57.45780185
            ],
            [
              16.77320641,
              57.4572954
            ],
            [
              16.77226076,
              57.45666501
            ],
            [
              16.77145894,
              57.45634344
            ],
            [
              16.77060628,
              57.45605825
            ],
            [
              16.77060554,
              57.4560581
            ],
            [
              16.76904726,
              57.45595332
            ],
            [
              16.76739516,
              57.45607365
            ],
            [
              16.76584589,
              57.45632345
            ],
            [
              16.76475845,
              57.45679428
            ],
            [
              16.76414533,
              57.45723438
            ],
            [
              16.76393479,
              57.45762662
            ],
            [
              16.76360916,
              57.45807348
            ],
            [
              16.76351565,
              57.45840197
            ],
            [
              16.75290697,
              57.45800616
            ],
            [
              16.74970854,
              57.45851053
            ],
            [
              16.74797115,
              57.45873454
            ],
            [
              16.74616647,
              57.4590174
            ],
            [
              16.74525342,
              57.45914542
            ],
            [
              16.74489054,
              57.45921099
            ],
            [
              16.74418698,
              57.45930602
            ],
            [
              16.7432985,
              57.45942038
            ],
            [
              16.74232942,
              57.45955328
            ],
            [
              16.74198235,
              57.45917424
            ],
            [
              16.74156712,
              57.45881373
            ],
            [
              16.74100199,
              57.45845431
            ],
            [
              16.74026941,
              57.45823957
            ],
            [
              16.73948588,
              57.45796263
            ],
            [
              16.73948514,
              57.45796248
            ],
            [
              16.73846923,
              57.45788024
            ],
            [
              16.7376224,
              57.45784161
            ],
            [
              16.73610354,
              57.45796953
            ],
            [
              16.73512611,
              57.45810244
            ],
            [
              16.73413172,
              57.4583971
            ],
            [
              16.73245865,
              57.45737682
            ],
            [
              16.73105172,
              57.45633657
            ],
            [
              16.7320231,
              57.45588957
            ],
            [
              16.73258772,
              57.4554766
            ],
            [
              16.73287981,
              57.45500765
            ],
            [
              16.73318792,
              57.45451148
            ],
            [
              16.73305451,
              57.45392875
            ],
            [
              16.73296273,
              57.45309886
            ],
            [
              16.73354887,
              57.4528117
            ],
            [
              16.73380791,
              57.45257316
            ],
            [
              16.73380814,
              57.45257281
            ],
            [
              16.733808,
              57.45257226
            ],
            [
              16.7338076,
              57.45257195
            ],
            [
              16.73380669,
              57.45257169
            ],
            [
              16.73174691,
              57.45256323
            ],
            [
              16.73174571,
              57.45256346
            ],
            [
              16.72137807,
              57.4525745
            ],
            [
              16.71465289,
              57.45274985
            ],
            [
              16.71086651,
              57.45264818
            ],
            [
              16.70931154,
              57.4521966
            ],
            [
              16.70238871,
              57.45116216
            ],
            [
              16.69821398,
              57.45102761
            ],
            [
              16.69537862,
              57.44995217
            ],
            [
              16.69238824,
              57.44950393
            ],
            [
              16.69217538,
              57.44945231
            ],
            [
              16.69217405,
              57.4494526
            ],
            [
              16.69217353,
              57.44945311
            ],
            [
              16.69165937,
              57.45085773
            ],
            [
              16.68867924,
              57.45103921
            ],
            [
              16.68867822,
              57.45103945
            ],
            [
              16.68867766,
              57.45103998
            ],
            [
              16.68867776,
              57.45104058
            ],
            [
              16.68906767,
              57.45153318
            ],
            [
              16.68930658,
              57.45175947
            ],
            [
              16.6899097,
              57.45228147
            ],
            [
              16.68991064,
              57.45228188
            ],
            [
              16.69066654,
              57.45242665
            ],
            [
              16.69079923,
              57.45255745
            ],
            [
              16.69086747,
              57.45272961
            ],
            [
              16.69092045,
              57.45280389
            ],
            [
              16.69093875,
              57.45342889
            ],
            [
              16.69131939,
              57.45447286
            ],
            [
              16.68964704,
              57.45532323
            ],
            [
              16.68603699,
              57.45532805
            ],
            [
              16.686036,
              57.45532821
            ],
            [
              16.68603522,
              57.4553288
            ],
            [
              16.68594703,
              57.45625453
            ],
            [
              16.68749083,
              57.45735689
            ],
            [
              16.688709,
              57.4606247
            ],
            [
              16.68709826,
              57.46224625
            ],
            [
              16.68709812,
              57.46224699
            ],
            [
              16.68910827,
              57.46362865
            ],
            [
              16.69161459,
              57.46600808
            ],
            [
              16.69637311,
              57.46758307
            ],
            [
              16.70020285,
              57.46926556
            ],
            [
              16.69963343,
              57.4705362
            ],
            [
              16.69977531,
              57.4726289
            ],
            [
              16.69847828,
              57.47440649
            ],
            [
              16.69847817,
              57.474407
            ],
            [
              16.69985305,
              57.47661257
            ],
            [
              16.69972778,
              57.47943135
            ],
            [
              16.70071802,
              57.48080657
            ],
            [
              16.70214013,
              57.48132837
            ],
            [
              16.69865452,
              57.48357207
            ],
            [
              16.69887304,
              57.48727664
            ],
            [
              16.69887374,
              57.48727707
            ],
            [
              16.69887477,
              57.48727722
            ],
            [
              16.70160808,
              57.48723169
            ],
            [
              16.70454887,
              57.48598331
            ],
            [
              16.70749129,
              57.48575528
            ],
            [
              16.70749254,
              57.48575486
            ],
            [
              16.70804191,
              57.48419009
            ],
            [
              16.70819746,
              57.48228662
            ],
            [
              16.70820733,
              57.48213273
            ],
            [
              16.70835244,
              57.48090937
            ],
            [
              16.71241518,
              57.48356003
            ],
            [
              16.71632548,
              57.48410745
            ],
            [
              16.71508022,
              57.48730044
            ],
            [
              16.71305599,
              57.49032605
            ],
            [
              16.70766609,
              57.49196331
            ],
            [
              16.70594818,
              57.49440801
            ],
            [
              16.70204571,
              57.4956603
            ],
            [
              16.69799405,
              57.49449672
            ],
            [
              16.69799256,
              57.49449667
            ],
            [
              16.69498134,
              57.49604205
            ],
            [
              16.69037017,
              57.49662983
            ],
            [
              16.68929606,
              57.49716778
            ],
            [
              16.68923841,
              57.49783781
            ],
            [
              16.68713777,
              57.49836586
            ],
            [
              16.68713697,
              57.49836625
            ],
            [
              16.68690708,
              57.49931328
            ],
            [
              16.68377263,
              57.49958456
            ],
            [
              16.6809736,
              57.50106971
            ],
            [
              16.67778143,
              57.50174171
            ],
            [
              16.67466967,
              57.50427264
            ],
            [
              16.67466959,
              57.50427323
            ],
            [
              16.67505606,
              57.5051363
            ],
            [
              16.67203068,
              57.50581491
            ],
            [
              16.67003736,
              57.50644655
            ],
            [
              16.67003699,
              57.50644726
            ],
            [
              16.67003764,
              57.50644791
            ],
            [
              16.67505829,
              57.50868287
            ],
            [
              16.67494484,
              57.50960981
            ],
            [
              16.67494504,
              57.50961032
            ],
            [
              16.67573531,
              57.5104407
            ],
            [
              16.67817865,
              57.51229058
            ],
            [
              16.67207567,
              57.51304082
            ],
            [
              16.67207502,
              57.5130413
            ],
            [
              16.67108519,
              57.51462694
            ],
            [
              16.67108528,
              57.51462737
            ],
            [
              16.67173308,
              57.51561947
            ],
            [
              16.66502972,
              57.51755062
            ],
            [
              16.66111411,
              57.51815323
            ],
            [
              16.65693005,
              57.52051841
            ],
            [
              16.65307634,
              57.52240683
            ],
            [
              16.64874559,
              57.52695605
            ],
            [
              16.6487455,
              57.5269569
            ],
            [
              16.64542943,
              57.53056674
            ]
          ],
          [
            [
              16.76209313,
              57.5682699
            ],
            [
              16.76206454,
              57.56792732
            ],
            [
              16.76215602,
              57.56757613
            ],
            [
              16.76221717,
              57.56739413
            ],
            [
              16.76227242,
              57.56739334
            ],
            [
              16.76233035,
              57.56738792
            ],
            [
              16.76239816,
              57.56737773
            ],
            [
              16.76248293,
              57.56821855
            ],
            [
              16.76209313,
              57.5682699
            ]
          ],
          [
            [
              16.76681463,
              57.56758748
            ],
            [
              16.76683146,
              57.56741636
            ],
            [
              16.76714031,
              57.56747579
            ],
            [
              16.76710204,
              57.56757282
            ],
            [
              16.76710228,
              57.56757356
            ],
            [
              16.76710307,
              57.56757393
            ],
            [
              16.76728123,
              57.56761748
            ],
            [
              16.76758791,
              57.56762071
            ],
            [
              16.7679713,
              57.56764353
            ],
            [
              16.76797735,
              57.56791059
            ],
            [
              16.76693816,
              57.56786975
            ],
            [
              16.76695049,
              57.56780533
            ],
            [
              16.76693962,
              57.56771851
            ],
            [
              16.76681463,
              57.56758748
            ]
          ],
          [
            [
              16.75828085,
              57.56806618
            ],
            [
              16.75909894,
              57.56793091
            ],
            [
              16.75913891,
              57.56803034
            ],
            [
              16.75913922,
              57.56803071
            ],
            [
              16.75914012,
              57.56803107
            ],
            [
              16.75914125,
              57.56803108
            ],
            [
              16.75944287,
              57.56798179
            ],
            [
              16.75954018,
              57.56826413
            ],
            [
              16.75901084,
              57.56853715
            ],
            [
              16.75828085,
              57.56806618
            ]
          ],
          [
            [
              16.76348277,
              57.56800649
            ],
            [
              16.76355985,
              57.56787452
            ],
            [
              16.76365007,
              57.56777848
            ],
            [
              16.7640506,
              57.56734829
            ],
            [
              16.76410566,
              57.5673889
            ],
            [
              16.76420743,
              57.56744408
            ],
            [
              16.76429889,
              57.56747741
            ],
            [
              16.76439965,
              57.56750272
            ],
            [
              16.76442049,
              57.56754145
            ],
            [
              16.76442232,
              57.56756056
            ],
            [
              16.76442293,
              57.56756125
            ],
            [
              16.76442391,
              57.56756149
            ],
            [
              16.7644976,
              57.56756674
            ],
            [
              16.76457121,
              57.5675662
            ],
            [
              16.76468224,
              57.56759288
            ],
            [
              16.76479579,
              57.56763651
            ],
            [
              16.76489658,
              57.56769145
            ],
            [
              16.76492655,
              57.56775796
            ],
            [
              16.76492105,
              57.56791072
            ],
            [
              16.7649121,
              57.56792842
            ],
            [
              16.76486662,
              57.56795707
            ],
            [
              16.76482219,
              57.56802904
            ],
            [
              16.764597,
              57.56801154
            ],
            [
              16.76394004,
              57.56810363
            ],
            [
              16.76384265,
              57.56809839
            ],
            [
              16.76363135,
              57.56805522
            ],
            [
              16.76349374,
              57.56802288
            ],
            [
              16.76348277,
              57.56800649
            ]
          ],
          [
            [
              16.67963867,
              57.51481034
            ],
            [
              16.67972431,
              57.51477042
            ],
            [
              16.68006047,
              57.51458203
            ],
            [
              16.68027772,
              57.51437116
            ],
            [
              16.68027777,
              57.51437064
            ],
            [
              16.68027751,
              57.51437031
            ],
            [
              16.68024935,
              57.51434729
            ],
            [
              16.68028488,
              57.51428459
            ],
            [
              16.68143196,
              57.51341557
            ],
            [
              16.68249982,
              57.51302327
            ],
            [
              16.68388523,
              57.5127268
            ],
            [
              16.68560445,
              57.51205011
            ],
            [
              16.68739604,
              57.51170935
            ],
            [
              16.69061624,
              57.5101569
            ],
            [
              16.69283243,
              57.50916612
            ],
            [
              16.69495433,
              57.50768946
            ],
            [
              16.69597406,
              57.50705343
            ],
            [
              16.69716634,
              57.50642149
            ],
            [
              16.69735671,
              57.50631796
            ],
            [
              16.7026329,
              57.50413613
            ],
            [
              16.70937897,
              57.50268626
            ],
            [
              16.71238301,
              57.50253854
            ],
            [
              16.71640923,
              57.50109335
            ],
            [
              16.71979246,
              57.50088763
            ],
            [
              16.72301644,
              57.50272234
            ],
            [
              16.72288388,
              57.50415083
            ],
            [
              16.72044656,
              57.50515422
            ],
            [
              16.72044633,
              57.50515479
            ],
            [
              16.72066993,
              57.5065236
            ],
            [
              16.71928762,
              57.50764392
            ],
            [
              16.71751814,
              57.50800203
            ],
            [
              16.71572814,
              57.50790697
            ],
            [
              16.71572678,
              57.50790719
            ],
            [
              16.71572619,
              57.50790768
            ],
            [
              16.71572622,
              57.50790826
            ],
            [
              16.71597819,
              57.50831376
            ],
            [
              16.71580126,
              57.50966325
            ],
            [
              16.71468441,
              57.51046438
            ],
            [
              16.71234725,
              57.51129693
            ],
            [
              16.7100501,
              57.51116616
            ],
            [
              16.71004915,
              57.51116624
            ],
            [
              16.70932024,
              57.51155611
            ],
            [
              16.70908521,
              57.511604
            ],
            [
              16.70896467,
              57.51164978
            ],
            [
              16.70862005,
              57.51175512
            ],
            [
              16.70843842,
              57.51184972
            ],
            [
              16.70822911,
              57.51193128
            ],
            [
              16.70803698,
              57.51204992
            ],
            [
              16.70790427,
              57.5120566
            ],
            [
              16.70790324,
              57.51205684
            ],
            [
              16.70790266,
              57.51205735
            ],
            [
              16.70790274,
              57.51205795
            ],
            [
              16.70799229,
              57.51217778
            ],
            [
              16.7073182,
              57.5133953
            ],
            [
              16.70636368,
              57.51480682
            ],
            [
              16.70371381,
              57.51611502
            ],
            [
              16.70164827,
              57.51749842
            ],
            [
              16.69853572,
              57.51931416
            ],
            [
              16.6967379,
              57.52074055
            ],
            [
              16.69435091,
              57.5224561
            ],
            [
              16.69092896,
              57.52429764
            ],
            [
              16.68665939,
              57.52580049
            ],
            [
              16.68533972,
              57.52601161
            ],
            [
              16.68394802,
              57.52598566
            ],
            [
              16.6827642,
              57.52542367
            ],
            [
              16.68057784,
              57.523562
            ],
            [
              16.68064682,
              57.52275374
            ],
            [
              16.68226655,
              57.51847789
            ],
            [
              16.6832486,
              57.51708121
            ],
            [
              16.6848054,
              57.51577666
            ],
            [
              16.68480569,
              57.51577612
            ],
            [
              16.68480517,
              57.51577544
            ],
            [
              16.68480426,
              57.51577516
            ],
            [
              16.68398751,
              57.51567435
            ],
            [
              16.68398652,
              57.51567465
            ],
            [
              16.68324704,
              57.51610703
            ],
            [
              16.68143723,
              57.51611959
            ],
            [
              16.67992563,
              57.51567869
            ],
            [
              16.67963867,
              57.51481034
            ]
          ]
        ]
      },
      "geometry_name": "geom",
      "properties": {
        "nvrid": "2002259",
        "gtype": "Polygon",
        "namn": "Misterhults skärgård",
        "skyddstyp": "Naturreservat",
        "skyddstyp_kod": "NR",
        "beslutsstatus": "Gällande",
        "beslutsmyndighet": "Länsstyrelse",
        "urspr_beslutsdatum": "19671205",
        "urspr_gallandedatum": "19671205",
        "senaste_gallandedatum": "20180503",
        "ikrafttradandedatum_foreskrift": null,
        "tillsynsmyndighet": null,
        "provningsmyndighet_tillstand": " ",
        "provningsmyndighet_dispens": " ",
        "lan": "Kalmar Län",
        "kommun": "Oskarshamn, Västervik",
        "iucnkategori": "V, Skyddat landskap/havsområde (Protected Landscape/Seascape)",
        "forvaltare": "Länsstyrelsen i Kalmar län",
        "data_friluftsliv_publicerat": "Ja",
        "area_ha": 8450.48,
        "land_ha": 1555.9,
        "skog_ha": 382.16,
        "vatten_ha": 6894.58
      }
    }
  ],
  "totalFeatures": 1,
  "numberMatched": 1,
  "numberReturned": 1,
  "timeStamp": "2026-04-30T16:47:15.407Z",
  "crs": {
    "type": "name",
    "properties": {
      "name": "urn:ogc:def:crs:EPSG::4326"
    }
  }
}
