{
  "type": "FeatureCollection",
  "features": [
    {
      "type": "Feature",
      "id": "PS.ProtectedSites.NR.15763613",
      "geometry": {
        "type": "Polygon",
        "coordinates": [
          [
            [
              16.44098604,
              57.39844435
            ],
            [
              16.44020217,
              57.39820812
            ],
            [
              16.4402008,
              57.39820803
            ],
            [
              16.43451298,
              57.39971065
            ],
            [
              16.43278097,
              57.401266
            ],
            [
              16.43296116,
              57.40166497
            ],
            [
              16.43364149,
              57.40303105
            ],
            [
              16.4335609,
              57.40329421
            ],
            [
              16.43356092,
              57.40329459
            ],
            [
              16.43356145,
              57.40329509
            ],
            [
              16.43356239,
              57.40329535
            ],
            [
              16.43788809,
              57.40370605
            ],
            [
              16.44132249,
              57.40310922
            ],
            [
              16.44132335,
              57.40310865
            ],
            [
              16.44132337,
              57.40310809
            ],
            [
              16.44117126,
              57.40281606
            ],
            [
              16.44568218,
              57.40239175
            ],
            [
              16.45101919,
              57.39843238
            ],
            [
              16.45101954,
              57.39843183
            ],
            [
              16.45101925,
              57.39843126
            ],
            [
              16.45101841,
              57.39843089
            ],
            [
              16.44700182,
              57.3975423
            ],
            [
              16.44700086,
              57.39754243
            ],
            [
              16.44700035,
              57.39754267
            ],
            [
              16.44692675,
              57.39759295
            ],
            [
              16.44674067,
              57.39770056
            ],
            [
              16.44652466,
              57.39772695
            ],
            [
              16.44625151,
              57.39776493
            ],
            [
              16.44610385,
              57.39778597
            ],
            [
              16.44591342,
              57.39781243
            ],
            [
              16.44571415,
              57.39784436
            ],
            [
              16.4454037,
              57.39789302
            ],
            [
              16.44516722,
              57.39793651
            ],
            [
              16.44492648,
              57.39800704
            ],
            [
              16.44467353,
              57.39809716
            ],
            [
              16.44452829,
              57.39815164
            ],
            [
              16.44440451,
              57.39820353
            ],
            [
              16.44416477,
              57.39829443
            ],
            [
              16.44392672,
              57.39831441
            ],
            [
              16.44371124,
              57.39831421
            ],
            [
              16.44342164,
              57.39829008
            ],
            [
              16.44316697,
              57.39828523
            ],
            [
              16.44303531,
              57.39826344
            ],
            [
              16.44291515,
              57.39825915
            ],
            [
              16.44275847,
              57.39826966
            ],
            [
              16.44263378,
              57.39829817
            ],
            [
              16.44252768,
              57.39832948
            ],
            [
              16.44235589,
              57.39837504
            ],
            [
              16.44216144,
              57.39841425
            ],
            [
              16.44192858,
              57.39842466
            ],
            [
              16.44170088,
              57.39841602
            ],
            [
              16.44153656,
              57.39843002
            ],
            [
              16.44128896,
              57.39843013
            ],
            [
              16.44098604,
              57.39844435
            ]
          ]
        ]
      },
      "geometry_name": "geom",
      "properties": {
        "nvrid": "2022669",
        "gtype": "Polygon",
        "namn": "Stamsjövägen",
        "skyddstyp": "Naturreservat",
        "skyddstyp_kod": "NR",
        "beslutsstatus": "Gällande",
        "beslutsmyndighet": "Länsstyrelse",
        "urspr_beslutsdatum": "20101210",
        "urspr_gallandedatum": null,
        "senaste_gallandedatum": "20220630",
        "ikrafttradandedatum_foreskrift": null,
        "tillsynsmyndighet": null,
        "provningsmyndighet_tillstand": " ",
        "provningsmyndighet_dispens": " ",
        "lan": "Kalmar Län",
        "kommun": "Oskarshamn",
        "iucnkategori": "IV, Habitat/Artskyddsområde (Habitat/Species Management Area)",
        "forvaltare": "Länsstyrelsen i Kalmar län",
        "data_friluftsliv_publicerat": "Ja",
        "area_ha": 45.22,
        "land_ha": 42.22,
        "skog_ha": 34.96,
        "vatten_ha": 3
      }
    }
  ],
  "totalFeatures": 1,
  "numberMatched": 1,
  "numberReturned": 1,
  "timeStamp": "2026-04-30T16:47:15.712Z",
  "crs": {
    "type": "name",
    "properties": {
      "name": "urn:ogc:def:crs:EPSG::4326"
    }
  }
}
