{
  "type": "FeatureCollection",
  "features": [
    {
      "type": "Feature",
      "id": "PS.ProtectedSites.KR.15759012",
      "geometry": {
        "type": "MultiPolygon",
        "coordinates": [
          [
            [
              [
                16.47383465,
                57.3389203
              ],
              [
                16.47397719,
                57.33874748
              ],
              [
                16.47416492,
                57.33860503
              ],
              [
                16.47444089,
                57.33847105
              ],
              [
                16.47517239,
                57.33831253
              ],
              [
                16.4755278,
                57.33830078
              ],
              [
                16.47579344,
                57.33832362
              ],
              [
                16.47607408,
                57.3382809
              ],
              [
                16.47622348,
                57.33830025
              ],
              [
                16.47629205,
                57.33814544
              ],
              [
                16.4765719,
                57.33805507
              ],
              [
                16.47741008,
                57.33808202
              ],
              [
                16.47780704,
                57.33801938
              ],
              [
                16.47811589,
                57.33824119
              ],
              [
                16.47835175,
                57.33846722
              ],
              [
                16.47861476,
                57.33859786
              ],
              [
                16.47933606,
                57.33871918
              ],
              [
                16.47956142,
                57.33869749
              ],
              [
                16.4797425,
                57.33852537
              ],
              [
                16.48009579,
                57.33847475
              ],
              [
                16.48022236,
                57.33845661
              ],
              [
                16.48052376,
                57.33842171
              ],
              [
                16.48100124,
                57.33838529
              ],
              [
                16.481345,
                57.33832309
              ],
              [
                16.48148193,
                57.33811722
              ],
              [
                16.48162951,
                57.33793639
              ],
              [
                16.4815408,
                57.33774322
              ],
              [
                16.48167072,
                57.33763975
              ],
              [
                16.48188543,
                57.33759482
              ],
              [
                16.48237232,
                57.33765527
              ],
              [
                16.48274028,
                57.33785144
              ],
              [
                16.48298864,
                57.33793549
              ],
              [
                16.48299259,
                57.33807192
              ],
              [
                16.48315016,
                57.33823219
              ],
              [
                16.48342256,
                57.33834297
              ],
              [
                16.483702,
                57.33835314
              ],
              [
                16.48388907,
                57.33827253
              ],
              [
                16.48403768,
                57.3381276
              ],
              [
                16.484242,
                57.33805989
              ],
              [
                16.48419499,
                57.33801004
              ],
              [
                16.4838968,
                57.33769383
              ],
              [
                16.4831425,
                57.33689388
              ],
              [
                16.48275072,
                57.33676476
              ],
              [
                16.48257846,
                57.33670799
              ],
              [
                16.48199803,
                57.33651669
              ],
              [
                16.48187442,
                57.33646929
              ],
              [
                16.48175497,
                57.33642517
              ],
              [
                16.47993038,
                57.33575133
              ],
              [
                16.47929106,
                57.33551682
              ],
              [
                16.4787892,
                57.33533728
              ],
              [
                16.4786844,
                57.33530137
              ],
              [
                16.47757762,
                57.33492207
              ],
              [
                16.47740613,
                57.3348591
              ],
              [
                16.47714737,
                57.33486087
              ],
              [
                16.47640685,
                57.33458069
              ],
              [
                16.47595575,
                57.33437295
              ],
              [
                16.47588589,
                57.33433433
              ],
              [
                16.47582177,
                57.33436884
              ],
              [
                16.47559828,
                57.33448916
              ],
              [
                16.47538447,
                57.33454357
              ],
              [
                16.47522629,
                57.33462123
              ],
              [
                16.47517653,
                57.33467641
              ],
              [
                16.47512082,
                57.33475116
              ],
              [
                16.47507593,
                57.33484821
              ],
              [
                16.47507431,
                57.33485371
              ],
              [
                16.47504476,
                57.334954
              ],
              [
                16.47501368,
                57.33503209
              ],
              [
                16.47496535,
                57.33510049
              ],
              [
                16.47488316,
                57.3351696
              ],
              [
                16.47473821,
                57.33526117
              ],
              [
                16.47462899,
                57.3353226
              ],
              [
                16.47454447,
                57.33536347
              ],
              [
                16.47438168,
                57.33544105
              ],
              [
                16.47430182,
                57.33548625
              ],
              [
                16.47430056,
                57.33548731
              ],
              [
                16.47421883,
                57.33555661
              ],
              [
                16.47418748,
                57.33559119
              ],
              [
                16.47412156,
                57.3356893
              ],
              [
                16.47405391,
                57.3358189
              ],
              [
                16.47398201,
                57.33598811
              ],
              [
                16.47390383,
                57.3361944
              ],
              [
                16.47385064,
                57.3363522
              ],
              [
                16.47380721,
                57.33642384
              ],
              [
                16.47375352,
                57.33647681
              ],
              [
                16.47365463,
                57.33653936
              ],
              [
                16.47348988,
                57.33663126
              ],
              [
                16.47308694,
                57.33683639
              ],
              [
                16.47301588,
                57.33688576
              ],
              [
                16.47296047,
                57.3369355
              ],
              [
                16.47292561,
                57.3369776
              ],
              [
                16.47290258,
                57.3370487
              ],
              [
                16.47290251,
                57.33715216
              ],
              [
                16.47291916,
                57.33726899
              ],
              [
                16.47294836,
                57.33734603
              ],
              [
                16.47301479,
                57.33743248
              ],
              [
                16.4730842,
                57.33749773
              ],
              [
                16.47316524,
                57.33756382
              ],
              [
                16.47329974,
                57.33765716
              ],
              [
                16.47360971,
                57.33783907
              ],
              [
                16.47370147,
                57.33789847
              ],
              [
                16.47378294,
                57.33797194
              ],
              [
                16.4738355,
                57.33803686
              ],
              [
                16.47386229,
                57.33809111
              ],
              [
                16.47386704,
                57.33814407
              ],
              [
                16.47385058,
                57.33818575
              ],
              [
                16.47382219,
                57.33822611
              ],
              [
                16.47377482,
                57.33826828
              ],
              [
                16.47369106,
                57.33832702
              ],
              [
                16.4734999,
                57.33846083
              ],
              [
                16.4733281,
                57.33857453
              ],
              [
                16.47323606,
                57.33862367
              ],
              [
                16.47295606,
                57.33875648
              ],
              [
                16.4728921,
                57.33878609
              ],
              [
                16.47281697,
                57.33881105
              ],
              [
                16.47273348,
                57.33883266
              ],
              [
                16.4726104,
                57.33884518
              ],
              [
                16.47244861,
                57.33884877
              ],
              [
                16.47217741,
                57.3388539
              ],
              [
                16.47207751,
                57.33885736
              ],
              [
                16.47167971,
                57.3388946
              ],
              [
                16.47146326,
                57.33890896
              ],
              [
                16.47123552,
                57.33891328
              ],
              [
                16.47110127,
                57.33891033
              ],
              [
                16.470764,
                57.33888008
              ],
              [
                16.4704809,
                57.33885026
              ],
              [
                16.47036896,
                57.33884093
              ],
              [
                16.47026525,
                57.33883801
              ],
              [
                16.47014043,
                57.33883913
              ],
              [
                16.47002487,
                57.33884989
              ],
              [
                16.46992127,
                57.33886968
              ],
              [
                16.46984102,
                57.33889332
              ],
              [
                16.46976477,
                57.3389238
              ],
              [
                16.46968531,
                57.33896762
              ],
              [
                16.46967866,
                57.33897294
              ],
              [
                16.46963759,
                57.33900583
              ],
              [
                16.4696007,
                57.33905024
              ],
              [
                16.46956282,
                57.3391097
              ],
              [
                16.46952835,
                57.33917856
              ],
              [
                16.46950964,
                57.33924003
              ],
              [
                16.46950793,
                57.33929308
              ],
              [
                16.46952443,
                57.33934408
              ],
              [
                16.46958217,
                57.33943249
              ],
              [
                16.46973746,
                57.33964338
              ],
              [
                16.46982916,
                57.33977729
              ],
              [
                16.46985519,
                57.33983741
              ],
              [
                16.46986483,
                57.33990036
              ],
              [
                16.46983817,
                57.34002741
              ],
              [
                16.46983583,
                57.34009777
              ],
              [
                16.46986288,
                57.3401963
              ],
              [
                16.46991923,
                57.34034402
              ],
              [
                16.46998296,
                57.34050527
              ],
              [
                16.47001745,
                57.34060451
              ],
              [
                16.47002641,
                57.34064772
              ],
              [
                16.47002291,
                57.34069878
              ],
              [
                16.46998095,
                57.34084755
              ],
              [
                16.46997574,
                57.34088768
              ],
              [
                16.46996792,
                57.34094557
              ],
              [
                16.46997477,
                57.34102932
              ],
              [
                16.46997982,
                57.34106708
              ],
              [
                16.46998527,
                57.34110786
              ],
              [
                16.46996499,
                57.34123694
              ],
              [
                16.46990659,
                57.34138099
              ],
              [
                16.46985151,
                57.34148295
              ],
              [
                16.4698297,
                57.34152332
              ],
              [
                16.46980164,
                57.34160131
              ],
              [
                16.46977412,
                57.34174513
              ],
              [
                16.46976975,
                57.3418232
              ],
              [
                16.4697769,
                57.34188237
              ],
              [
                16.47047709,
                57.34153468
              ],
              [
                16.47079708,
                57.33974916
              ],
              [
                16.47184589,
                57.33966636
              ],
              [
                16.47244891,
                57.33944522
              ],
              [
                16.47294929,
                57.33931575
              ],
              [
                16.47329005,
                57.33915249
              ],
              [
                16.47383465,
                57.3389203
              ]
            ],
            [
              [
                16.4757721,
                57.33458391
              ],
              [
                16.4759823,
                57.33446323
              ],
              [
                16.47650026,
                57.33465298
              ],
              [
                16.47631687,
                57.33494489
              ],
              [
                16.47599357,
                57.33483326
              ],
              [
                16.4757721,
                57.33458391
              ]
            ]
          ],
          [
            [
              [
                16.47000808,
                57.33881501
              ],
              [
                16.4701342,
                57.33880326
              ],
              [
                16.47026642,
                57.33880208
              ],
              [
                16.47037579,
                57.33880516
              ],
              [
                16.47049232,
                57.33881488
              ],
              [
                16.4707758,
                57.33884474
              ],
              [
                16.47110808,
                57.33887453
              ],
              [
                16.47123569,
                57.33887733
              ],
              [
                16.47145803,
                57.33887312
              ],
              [
                16.47167,
                57.33885907
              ],
              [
                16.4720697,
                57.33882164
              ],
              [
                16.47217412,
                57.33881803
              ],
              [
                16.4724461,
                57.33881288
              ],
              [
                16.47260285,
                57.3388094
              ],
              [
                16.47271265,
                57.33879823
              ],
              [
                16.47278517,
                57.33877948
              ],
              [
                16.47285287,
                57.33875696
              ],
              [
                16.47291256,
                57.33872934
              ],
              [
                16.47319078,
                57.33859736
              ],
              [
                16.47327891,
                57.33855032
              ],
              [
                16.47344788,
                57.3384385
              ],
              [
                16.47363846,
                57.33830508
              ],
              [
                16.47371997,
                57.33824791
              ],
              [
                16.47376228,
                57.33821028
              ],
              [
                16.47378667,
                57.33817556
              ],
              [
                16.47380026,
                57.33814113
              ],
              [
                16.47379629,
                57.33809668
              ],
              [
                16.47377262,
                57.33804876
              ],
              [
                16.4737238,
                57.33798845
              ],
              [
                16.47364718,
                57.33791934
              ],
              [
                16.47355977,
                57.33786277
              ],
              [
                16.47324905,
                57.3376804
              ],
              [
                16.47311129,
                57.33758482
              ],
              [
                16.47302767,
                57.33751663
              ],
              [
                16.47295895,
                57.33745202
              ],
              [
                16.47295509,
                57.33744839
              ],
              [
                16.47288457,
                57.33735662
              ],
              [
                16.47285325,
                57.337274
              ],
              [
                16.47283609,
                57.33715354
              ],
              [
                16.47283617,
                57.33704557
              ],
              [
                16.4728616,
                57.336967
              ],
              [
                16.47290151,
                57.33691884
              ],
              [
                16.47296104,
                57.33686538
              ],
              [
                16.47303767,
                57.33681213
              ],
              [
                16.47344326,
                57.33660566
              ],
              [
                16.4736055,
                57.33651517
              ],
              [
                16.47369857,
                57.33645628
              ],
              [
                16.47374601,
                57.33640949
              ],
              [
                16.47378612,
                57.33634334
              ],
              [
                16.47383861,
                57.33618757
              ],
              [
                16.47391711,
                57.33598049
              ],
              [
                16.47398954,
                57.33580999
              ],
              [
                16.4740583,
                57.33567828
              ],
              [
                16.47412628,
                57.3355771
              ],
              [
                16.47416087,
                57.33553899
              ],
              [
                16.47424932,
                57.33546397
              ],
              [
                16.47433562,
                57.33541513
              ],
              [
                16.47450037,
                57.33533661
              ],
              [
                16.47458285,
                57.33529673
              ],
              [
                16.47468899,
                57.33523703
              ],
              [
                16.47482973,
                57.3351481
              ],
              [
                16.47490577,
                57.3350842
              ],
              [
                16.4749498,
                57.33502183
              ],
              [
                16.47497947,
                57.33494739
              ],
              [
                16.47501057,
                57.33484179
              ],
              [
                16.47501116,
                57.33484025
              ],
              [
                16.47505749,
                57.33474004
              ],
              [
                16.47511493,
                57.33466298
              ],
              [
                16.47518165,
                57.33459464
              ],
              [
                16.47484676,
                57.33438983
              ],
              [
                16.4745305,
                57.33419543
              ],
              [
                16.47501763,
                57.33383249
              ],
              [
                16.4754449,
                57.33412104
              ],
              [
                16.47577491,
                57.33434339
              ],
              [
                16.47583944,
                57.33430865
              ],
              [
                16.47534775,
                57.33401181
              ],
              [
                16.47492019,
                57.33374289
              ],
              [
                16.47467589,
                57.33358135
              ],
              [
                16.47452793,
                57.33346607
              ],
              [
                16.47445621,
                57.33341036
              ],
              [
                16.4742888,
                57.33326085
              ],
              [
                16.47414205,
                57.3331142
              ],
              [
                16.47389534,
                57.33283307
              ],
              [
                16.47369178,
                57.33256568
              ],
              [
                16.47347419,
                57.33222905
              ],
              [
                16.4733515,
                57.33197818
              ],
              [
                16.47328256,
                57.33180524
              ],
              [
                16.47320587,
                57.33157419
              ],
              [
                16.47318048,
                57.33146904
              ],
              [
                16.47315828,
                57.33133065
              ],
              [
                16.47313611,
                57.33118386
              ],
              [
                16.47322311,
                57.33095571
              ],
              [
                16.4730267,
                57.32969414
              ],
              [
                16.46938755,
                57.32925397
              ],
              [
                16.46914509,
                57.32943115
              ],
              [
                16.46898225,
                57.32949672
              ],
              [
                16.46881161,
                57.32951583
              ],
              [
                16.4686097,
                57.32947825
              ],
              [
                16.4684655,
                57.32943286
              ],
              [
                16.46832827,
                57.32943019
              ],
              [
                16.46817143,
                57.32946482
              ],
              [
                16.46804702,
                57.32951904
              ],
              [
                16.46787738,
                57.32962942
              ],
              [
                16.46779889,
                57.32965903
              ],
              [
                16.46755242,
                57.3297315
              ],
              [
                16.46747724,
                57.3297654
              ],
              [
                16.46727014,
                57.32999721
              ],
              [
                16.46716944,
                57.33015692
              ],
              [
                16.46598515,
                57.32999946
              ],
              [
                16.46578782,
                57.32998112
              ],
              [
                16.46565306,
                57.32997857
              ],
              [
                16.46547742,
                57.33001142
              ],
              [
                16.46539905,
                57.33006914
              ],
              [
                16.46533279,
                57.33034117
              ],
              [
                16.46517374,
                57.33043097
              ],
              [
                16.46522467,
                57.33047382
              ],
              [
                16.46527592,
                57.33052617
              ],
              [
                16.46549515,
                57.33063571
              ],
              [
                16.46568964,
                57.33064225
              ],
              [
                16.46601165,
                57.33055736
              ],
              [
                16.46645303,
                57.33057624
              ],
              [
                16.46704381,
                57.33038667
              ],
              [
                16.46675666,
                57.33315444
              ],
              [
                16.46688774,
                57.33305346
              ],
              [
                16.46697276,
                57.33305382
              ],
              [
                16.46704289,
                57.33313159
              ],
              [
                16.46706167,
                57.3332801
              ],
              [
                16.46704164,
                57.33350524
              ],
              [
                16.46704787,
                57.33366808
              ],
              [
                16.4672484,
                57.33384931
              ],
              [
                16.46739238,
                57.3340171
              ],
              [
                16.46740817,
                57.33408311
              ],
              [
                16.46750132,
                57.33413893
              ],
              [
                16.46750632,
                57.33421361
              ],
              [
                16.46742789,
                57.33429359
              ],
              [
                16.46746247,
                57.33432331
              ],
              [
                16.46741036,
                57.33444499
              ],
              [
                16.46734372,
                57.33448781
              ],
              [
                16.46714858,
                57.33441107
              ],
              [
                16.46709008,
                57.33440024
              ],
              [
                16.46704594,
                57.33443855
              ],
              [
                16.46706949,
                57.3346314
              ],
              [
                16.46723493,
                57.33469824
              ],
              [
                16.46727755,
                57.33475997
              ],
              [
                16.46744472,
                57.33478513
              ],
              [
                16.46746552,
                57.33473403
              ],
              [
                16.46759906,
                57.33473187
              ],
              [
                16.46773944,
                57.33479392
              ],
              [
                16.46783291,
                57.33478543
              ],
              [
                16.46785083,
                57.3349775
              ],
              [
                16.46788118,
                57.33501209
              ],
              [
                16.46785086,
                57.3350812
              ],
              [
                16.46777202,
                57.33517457
              ],
              [
                16.46776691,
                57.3353431
              ],
              [
                16.46776536,
                57.33539496
              ],
              [
                16.46781052,
                57.33546924
              ],
              [
                16.46790556,
                57.33554661
              ],
              [
                16.46788924,
                57.33571892
              ],
              [
                16.46782267,
                57.33584939
              ],
              [
                16.46772885,
                57.3359421
              ],
              [
                16.4676665,
                57.33601956
              ],
              [
                16.46779429,
                57.3360725
              ],
              [
                16.4678045,
                57.33617812
              ],
              [
                16.46782169,
                57.33636789
              ],
              [
                16.46805825,
                57.33648338
              ],
              [
                16.46845714,
                57.33658688
              ],
              [
                16.4689029,
                57.3366639
              ],
              [
                16.46923672,
                57.33678616
              ],
              [
                16.4694278,
                57.33680204
              ],
              [
                16.46946489,
                57.33680516
              ],
              [
                16.46970059,
                57.33675417
              ],
              [
                16.46992608,
                57.33674401
              ],
              [
                16.47001836,
                57.33684311
              ],
              [
                16.47013159,
                57.33694298
              ],
              [
                16.47035783,
                57.33699298
              ],
              [
                16.47053354,
                57.33698451
              ],
              [
                16.47077664,
                57.33694758
              ],
              [
                16.47078931,
                57.33681183
              ],
              [
                16.47084077,
                57.33675597
              ],
              [
                16.47110635,
                57.33672234
              ],
              [
                16.47134472,
                57.33671793
              ],
              [
                16.47139966,
                57.3368078
              ],
              [
                16.47150008,
                57.33697078
              ],
              [
                16.47155346,
                57.33708491
              ],
              [
                16.47165997,
                57.33709854
              ],
              [
                16.47171752,
                57.337172
              ],
              [
                16.47175075,
                57.33721443
              ],
              [
                16.47173966,
                57.33729028
              ],
              [
                16.47173034,
                57.33737249
              ],
              [
                16.4717924,
                57.33734962
              ],
              [
                16.47186499,
                57.33736135
              ],
              [
                16.47195787,
                57.33747411
              ],
              [
                16.47209962,
                57.3375995
              ],
              [
                16.47211341,
                57.33766419
              ],
              [
                16.47205777,
                57.33766349
              ],
              [
                16.47202954,
                57.33774634
              ],
              [
                16.47210071,
                57.33776894
              ],
              [
                16.47222427,
                57.33788935
              ],
              [
                16.47229994,
                57.33800595
              ],
              [
                16.4724208,
                57.3381321
              ],
              [
                16.47250727,
                57.33815607
              ],
              [
                16.472504,
                57.33826024
              ],
              [
                16.47262983,
                57.33833008
              ],
              [
                16.47281634,
                57.33845256
              ],
              [
                16.47278475,
                57.33863205
              ],
              [
                16.47261639,
                57.33872614
              ],
              [
                16.47250259,
                57.33873331
              ],
              [
                16.47246022,
                57.33875885
              ],
              [
                16.47224602,
                57.33875145
              ],
              [
                16.471905,
                57.33873664
              ],
              [
                16.47158208,
                57.33876017
              ],
              [
                16.471356,
                57.33879288
              ],
              [
                16.47113967,
                57.33877786
              ],
              [
                16.47090482,
                57.33877587
              ],
              [
                16.47074163,
                57.33876936
              ],
              [
                16.47049131,
                57.3387477
              ],
              [
                16.47020725,
                57.33874282
              ],
              [
                16.47005025,
                57.33872945
              ],
              [
                16.4696894,
                57.33871197
              ],
              [
                16.46950528,
                57.33870494
              ],
              [
                16.46946211,
                57.3387058
              ],
              [
                16.46928613,
                57.33870925
              ],
              [
                16.46907966,
                57.33870584
              ],
              [
                16.46906499,
                57.33872127
              ],
              [
                16.46908082,
                57.33877031
              ],
              [
                16.4690134,
                57.33878925
              ],
              [
                16.46880103,
                57.33878928
              ],
              [
                16.46872306,
                57.33876689
              ],
              [
                16.46861061,
                57.3387181
              ],
              [
                16.46841305,
                57.3387318
              ],
              [
                16.46838858,
                57.33873723
              ],
              [
                16.46837983,
                57.33873919
              ],
              [
                16.46828715,
                57.341446
              ],
              [
                16.46970798,
                57.34186302
              ],
              [
                16.46970788,
                57.34186215
              ],
              [
                16.46970324,
                57.34182384
              ],
              [
                16.46970779,
                57.34174274
              ],
              [
                16.46973588,
                57.34159602
              ],
              [
                16.46976509,
                57.34151483
              ],
              [
                16.4698422,
                57.34137209
              ],
              [
                16.46989916,
                57.34123155
              ],
              [
                16.46991863,
                57.34110762
              ],
              [
                16.46990844,
                57.3410314
              ],
              [
                16.46990139,
                57.34094505
              ],
              [
                16.46990948,
                57.34088512
              ],
              [
                16.46991488,
                57.34084358
              ],
              [
                16.46995666,
                57.3406954
              ],
              [
                16.46995985,
                57.34064906
              ],
              [
                16.46995172,
                57.34060982
              ],
              [
                16.46991783,
                57.34051234
              ],
              [
                16.46985422,
                57.34035139
              ],
              [
                16.46979745,
                57.34020258
              ],
              [
                16.46976931,
                57.3401001
              ],
              [
                16.46977182,
                57.34002506
              ],
              [
                16.4697981,
                57.33989981
              ],
              [
                16.46978938,
                57.33984302
              ],
              [
                16.46976542,
                57.33978766
              ],
              [
                16.46967543,
                57.33965626
              ],
              [
                16.46951997,
                57.33944512
              ],
              [
                16.46945996,
                57.33935323
              ],
              [
                16.4694414,
                57.33929589
              ],
              [
                16.4694433,
                57.33923679
              ],
              [
                16.46946335,
                57.33917093
              ],
              [
                16.46949929,
                57.33909915
              ],
              [
                16.46953886,
                57.339037
              ],
              [
                16.46957935,
                57.3389883
              ],
              [
                16.46963364,
                57.33894481
              ],
              [
                16.46972104,
                57.33889661
              ],
              [
                16.46980521,
                57.33886297
              ],
              [
                16.46989415,
                57.33883677
              ],
              [
                16.47000808,
                57.33881501
              ]
            ]
          ],
          [
            [
              [
                16.46467701,
                57.3506718
              ],
              [
                16.46488344,
                57.35066041
              ],
              [
                16.46508547,
                57.35075436
              ],
              [
                16.4651445,
                57.35097952
              ],
              [
                16.46526918,
                57.35110529
              ],
              [
                16.46533267,
                57.35127395
              ],
              [
                16.46529068,
                57.35141524
              ],
              [
                16.46525834,
                57.35154786
              ],
              [
                16.46544513,
                57.35170071
              ],
              [
                16.46568201,
                57.35168976
              ],
              [
                16.4662371,
                57.35152693
              ],
              [
                16.46679119,
                57.35122255
              ],
              [
                16.46690751,
                57.35098636
              ],
              [
                16.46698819,
                57.35087983
              ],
              [
                16.46716552,
                57.3507816
              ],
              [
                16.46739077,
                57.35074231
              ],
              [
                16.46773672,
                57.35074527
              ],
              [
                16.46817821,
                57.35070807
              ],
              [
                16.46844802,
                57.35058225
              ],
              [
                16.46878906,
                57.35043467
              ],
              [
                16.46942241,
                57.34979927
              ],
              [
                16.46963203,
                57.3494746
              ],
              [
                16.47002594,
                57.34917323
              ],
              [
                16.47066929,
                57.34887519
              ],
              [
                16.47122705,
                57.34860838
              ],
              [
                16.47164465,
                57.34832299
              ],
              [
                16.47183892,
                57.3481364
              ],
              [
                16.47211359,
                57.34785399
              ],
              [
                16.47213025,
                57.34773711
              ],
              [
                16.471771,
                57.34761259
              ],
              [
                16.47157747,
                57.34747053
              ],
              [
                16.47136829,
                57.34736272
              ],
              [
                16.47118522,
                57.34735526
              ],
              [
                16.4709167,
                57.34702886
              ],
              [
                16.47069324,
                57.34691274
              ],
              [
                16.47053066,
                57.34621231
              ],
              [
                16.47061555,
                57.34601709
              ],
              [
                16.47078904,
                57.34582616
              ],
              [
                16.47120681,
                57.34561067
              ],
              [
                16.47120431,
                57.34547097
              ],
              [
                16.47106654,
                57.34537609
              ],
              [
                16.47086213,
                57.34535511
              ],
              [
                16.47056383,
                57.34540816
              ],
              [
                16.4701554,
                57.34538826
              ],
              [
                16.46978804,
                57.34538284
              ],
              [
                16.4694896,
                57.34522728
              ],
              [
                16.46916705,
                57.34506635
              ],
              [
                16.46927875,
                57.34491738
              ],
              [
                16.46952875,
                57.34490376
              ],
              [
                16.46990557,
                57.34485439
              ],
              [
                16.47078356,
                57.34429568
              ],
              [
                16.47085873,
                57.34425195
              ],
              [
                16.47196513,
                57.34412404
              ],
              [
                16.472353,
                57.34351382
              ],
              [
                16.47219068,
                57.3434348
              ],
              [
                16.46969958,
                57.3429321
              ],
              [
                16.46968371,
                57.34295588
              ],
              [
                16.46961733,
                57.34300966
              ],
              [
                16.46950892,
                57.3430595
              ],
              [
                16.46935518,
                57.34311407
              ],
              [
                16.46922461,
                57.34317491
              ],
              [
                16.46911536,
                57.34323864
              ],
              [
                16.46904074,
                57.34327765
              ],
              [
                16.46893874,
                57.34329417
              ],
              [
                16.46878109,
                57.34328536
              ],
              [
                16.46857412,
                57.34326219
              ],
              [
                16.46834252,
                57.34320915
              ],
              [
                16.46826643,
                57.34319133
              ],
              [
                16.46817365,
                57.34318811
              ],
              [
                16.46808494,
                57.34319874
              ],
              [
                16.46800438,
                57.34322593
              ],
              [
                16.46789015,
                57.34328193
              ],
              [
                16.46760604,
                57.34348325
              ],
              [
                16.46758211,
                57.34350737
              ],
              [
                16.46755084,
                57.34355535
              ],
              [
                16.46754258,
                57.34359968
              ],
              [
                16.46755112,
                57.34389821
              ],
              [
                16.46751373,
                57.34422919
              ],
              [
                16.4674889,
                57.34430499
              ],
              [
                16.46741126,
                57.34440151
              ],
              [
                16.46739837,
                57.34441753
              ],
              [
                16.46735509,
                57.3444539
              ],
              [
                16.46725291,
                57.34450525
              ],
              [
                16.46710004,
                57.34453775
              ],
              [
                16.46694125,
                57.34455948
              ],
              [
                16.46679812,
                57.34457537
              ],
              [
                16.46673615,
                57.34459971
              ],
              [
                16.46666191,
                57.34465931
              ],
              [
                16.4666398,
                57.34472322
              ],
              [
                16.46665442,
                57.34480382
              ],
              [
                16.46669936,
                57.34490584
              ],
              [
                16.46681348,
                57.34505795
              ],
              [
                16.46691599,
                57.34538963
              ],
              [
                16.46692798,
                57.34548811
              ],
              [
                16.46690216,
                57.34555147
              ],
              [
                16.46681085,
                57.34567343
              ],
              [
                16.4667332,
                57.34571931
              ],
              [
                16.4666521,
                57.34574558
              ],
              [
                16.4666413,
                57.34574782
              ],
              [
                16.466579,
                57.34575431
              ],
              [
                16.4664878,
                57.34575727
              ],
              [
                16.46639874,
                57.34575423
              ],
              [
                16.46628835,
                57.34574078
              ],
              [
                16.46616424,
                57.34571504
              ],
              [
                16.46596846,
                57.34568958
              ],
              [
                16.46583882,
                57.34567203
              ],
              [
                16.46571993,
                57.34564277
              ],
              [
                16.46564476,
                57.34562377
              ],
              [
                16.4655473,
                57.34561474
              ],
              [
                16.46545915,
                57.34562475
              ],
              [
                16.4653599,
                57.34565875
              ],
              [
                16.46528676,
                57.34570235
              ],
              [
                16.46520847,
                57.34575191
              ],
              [
                16.46520624,
                57.34575319
              ],
              [
                16.46506108,
                57.34582869
              ],
              [
                16.46488191,
                57.34588673
              ],
              [
                16.46476432,
                57.34590143
              ],
              [
                16.46465856,
                57.34591464
              ],
              [
                16.46427388,
                57.34593605
              ],
              [
                16.46389072,
                57.34595402
              ],
              [
                16.46376113,
                57.34596963
              ],
              [
                16.46356013,
                57.34600258
              ],
              [
                16.4633435,
                57.34601268
              ],
              [
                16.46271628,
                57.34603561
              ],
              [
                16.46255828,
                57.34604893
              ],
              [
                16.46239206,
                57.34607496
              ],
              [
                16.46211832,
                57.34613937
              ],
              [
                16.4618258,
                57.34619158
              ],
              [
                16.46170943,
                57.34620376
              ],
              [
                16.46156364,
                57.34621348
              ],
              [
                16.46143161,
                57.34620972
              ],
              [
                16.46132545,
                57.34619687
              ],
              [
                16.46120685,
                57.34618986
              ],
              [
                16.46105171,
                57.34618499
              ],
              [
                16.46093626,
                57.34619972
              ],
              [
                16.46081251,
                57.34622686
              ],
              [
                16.46064159,
                57.34626753
              ],
              [
                16.46048,
                57.34630701
              ],
              [
                16.46031614,
                57.34635347
              ],
              [
                16.46019657,
                57.34638737
              ],
              [
                16.46007785,
                57.34642303
              ],
              [
                16.45995076,
                57.34645095
              ],
              [
                16.45985792,
                57.34646745
              ],
              [
                16.45977867,
                57.34647673
              ],
              [
                16.45969318,
                57.34648164
              ],
              [
                16.45960773,
                57.34648286
              ],
              [
                16.45952608,
                57.34647652
              ],
              [
                16.45944981,
                57.34646542
              ],
              [
                16.45935725,
                57.34644952
              ],
              [
                16.45915148,
                57.34639979
              ],
              [
                16.45905554,
                57.34637753
              ],
              [
                16.45896877,
                57.34636514
              ],
              [
                16.45891153,
                57.34636551
              ],
              [
                16.45887825,
                57.34636573
              ],
              [
                16.45870495,
                57.34636687
              ],
              [
                16.45855064,
                57.34636379
              ],
              [
                16.45843004,
                57.34635391
              ],
              [
                16.4582958,
                57.3463322
              ],
              [
                16.45809497,
                57.34628744
              ],
              [
                16.45799856,
                57.34627278
              ],
              [
                16.45782732,
                57.3462583
              ],
              [
                16.45744258,
                57.34624758
              ],
              [
                16.45728389,
                57.3462358
              ],
              [
                16.45716353,
                57.34622297
              ],
              [
                16.45704078,
                57.34621491
              ],
              [
                16.45694946,
                57.34621352
              ],
              [
                16.45687489,
                57.34622065
              ],
              [
                16.45683026,
                57.34623503
              ],
              [
                16.45687412,
                57.34626153
              ],
              [
                16.45693858,
                57.34911054
              ],
              [
                16.46080826,
                57.35185151
              ],
              [
                16.46090333,
                57.35191883
              ],
              [
                16.46096141,
                57.35195997
              ],
              [
                16.46143993,
                57.35184927
              ],
              [
                16.4618029,
                57.35181097
              ],
              [
                16.46221987,
                57.35177968
              ],
              [
                16.46242072,
                57.35171311
              ],
              [
                16.46264668,
                57.35154449
              ],
              [
                16.46281746,
                57.35130335
              ],
              [
                16.46336729,
                57.35116944
              ],
              [
                16.46365739,
                57.35096605
              ],
              [
                16.46365994,
                57.35096405
              ],
              [
                16.46392119,
                57.3508796
              ],
              [
                16.46414814,
                57.35079697
              ],
              [
                16.46444692,
                57.35071827
              ],
              [
                16.46467701,
                57.3506718
              ]
            ]
          ],
          [
            [
              [
                16.39498314,
                57.3636276
              ],
              [
                16.39544063,
                57.36359672
              ],
              [
                16.39601483,
                57.36369407
              ],
              [
                16.39655913,
                57.36367697
              ],
              [
                16.39831078,
                57.36361344
              ],
              [
                16.39950806,
                57.36361364
              ],
              [
                16.39979407,
                57.36361327
              ],
              [
                16.40046182,
                57.3635646
              ],
              [
                16.40124868,
                57.36353439
              ],
              [
                16.40128578,
                57.36355935
              ],
              [
                16.40131332,
                57.36357791
              ],
              [
                16.40132378,
                57.36358496
              ],
              [
                16.40160562,
                57.36353378
              ],
              [
                16.40182042,
                57.36349021
              ],
              [
                16.40192543,
                57.36344643
              ],
              [
                16.40207824,
                57.36337072
              ],
              [
                16.40233438,
                57.36334509
              ],
              [
                16.40252293,
                57.36330971
              ],
              [
                16.40265692,
                57.36330352
              ],
              [
                16.40273637,
                57.36335432
              ],
              [
                16.40296349,
                57.36336169
              ],
              [
                16.40313908,
                57.3633596
              ],
              [
                16.40337009,
                57.36335113
              ],
              [
                16.40348656,
                57.36329644
              ],
              [
                16.40366512,
                57.36321262
              ],
              [
                16.40390359,
                57.3631093
              ],
              [
                16.40416836,
                57.36301196
              ],
              [
                16.40483445,
                57.36293302
              ],
              [
                16.40528951,
                57.36286584
              ],
              [
                16.40548503,
                57.36282951
              ],
              [
                16.40603702,
                57.36272695
              ],
              [
                16.40661407,
                57.36256114
              ],
              [
                16.40689384,
                57.36247494
              ],
              [
                16.40733467,
                57.36235988
              ],
              [
                16.40764707,
                57.36234159
              ],
              [
                16.40812216,
                57.36233197
              ],
              [
                16.40839765,
                57.362339
              ],
              [
                16.40860892,
                57.36242527
              ],
              [
                16.40892646,
                57.36262623
              ],
              [
                16.40914463,
                57.3627158
              ],
              [
                16.40966887,
                57.36277586
              ],
              [
                16.41012803,
                57.36276649
              ],
              [
                16.41057051,
                57.36277477
              ],
              [
                16.41089719,
                57.36275328
              ],
              [
                16.41102986,
                57.36272758
              ],
              [
                16.41136732,
                57.36273503
              ],
              [
                16.41155998,
                57.36271741
              ],
              [
                16.4116342,
                57.36267422
              ],
              [
                16.41163977,
                57.36259939
              ],
              [
                16.41183793,
                57.36248332
              ],
              [
                16.411943,
                57.36246513
              ],
              [
                16.41222868,
                57.36252787
              ],
              [
                16.4124281,
                57.3625287
              ],
              [
                16.41272324,
                57.36251965
              ],
              [
                16.41289478,
                57.36245156
              ],
              [
                16.41295161,
                57.36237038
              ],
              [
                16.41315613,
                57.36225922
              ],
              [
                16.41354674,
                57.36224441
              ],
              [
                16.41402107,
                57.36227803
              ],
              [
                16.41442577,
                57.36228425
              ],
              [
                16.41466746,
                57.36224815
              ],
              [
                16.41502459,
                57.36203954
              ],
              [
                16.41528878,
                57.36189773
              ],
              [
                16.41570105,
                57.36180872
              ],
              [
                16.41608292,
                57.36173944
              ],
              [
                16.41618838,
                57.36166476
              ],
              [
                16.41634194,
                57.36157628
              ],
              [
                16.41665637,
                57.36147832
              ],
              [
                16.41684137,
                57.3615014
              ],
              [
                16.41747906,
                57.36138804
              ],
              [
                16.417761,
                57.36131475
              ],
              [
                16.41825573,
                57.36128927
              ],
              [
                16.41909443,
                57.36120113
              ],
              [
                16.41959985,
                57.36115943
              ],
              [
                16.41987092,
                57.36109184
              ],
              [
                16.42024052,
                57.36099512
              ],
              [
                16.42075812,
                57.36087569
              ],
              [
                16.42159933,
                57.36071157
              ],
              [
                16.42242605,
                57.36056483
              ],
              [
                16.4230854,
                57.36040895
              ],
              [
                16.42330818,
                57.36036566
              ],
              [
                16.42347964,
                57.36037551
              ],
              [
                16.42372112,
                57.36035708
              ],
              [
                16.42402461,
                57.36029381
              ],
              [
                16.42456581,
                57.36016607
              ],
              [
                16.42483261,
                57.36000322
              ],
              [
                16.42502062,
                57.35993126
              ],
              [
                16.42535378,
                57.35989164
              ],
              [
                16.42570758,
                57.3598538
              ],
              [
                16.42611148,
                57.35983144
              ],
              [
                16.42652501,
                57.35980966
              ],
              [
                16.42655197,
                57.35968353
              ],
              [
                16.42670333,
                57.3595657
              ],
              [
                16.42680989,
                57.35955833
              ],
              [
                16.42703183,
                57.35962432
              ],
              [
                16.42731562,
                57.35960425
              ],
              [
                16.4276479,
                57.35959192
              ],
              [
                16.42780363,
                57.35960463
              ],
              [
                16.42794818,
                57.35968212
              ],
              [
                16.42831006,
                57.35969075
              ],
              [
                16.42859982,
                57.35972056
              ],
              [
                16.42887366,
                57.35977901
              ],
              [
                16.42911269,
                57.3598432
              ],
              [
                16.42955291,
                57.35980028
              ],
              [
                16.43482729,
                57.3582256
              ],
              [
                16.43548065,
                57.35796981
              ],
              [
                16.43620903,
                57.35768464
              ],
              [
                16.43762836,
                57.3570862
              ],
              [
                16.43722573,
                57.35605074
              ],
              [
                16.43751717,
                57.35493562
              ],
              [
                16.43765936,
                57.35439153
              ],
              [
                16.43767235,
                57.35433262
              ],
              [
                16.43801201,
                57.35279295
              ],
              [
                16.43801783,
                57.35276661
              ],
              [
                16.43802586,
                57.35273022
              ],
              [
                16.43807753,
                57.35249593
              ],
              [
                16.43808535,
                57.35246049
              ],
              [
                16.43809638,
                57.35241052
              ],
              [
                16.43821609,
                57.35186782
              ],
              [
                16.43832373,
                57.35137983
              ],
              [
                16.43835397,
                57.35124272
              ],
              [
                16.43832599,
                57.35111198
              ],
              [
                16.43827033,
                57.35085191
              ],
              [
                16.43698556,
                57.3503672
              ],
              [
                16.4354453,
                57.34930073
              ],
              [
                16.43476894,
                57.34638563
              ],
              [
                16.43607999,
                57.34608894
              ],
              [
                16.43613577,
                57.34607632
              ],
              [
                16.44135658,
                57.34602502
              ],
              [
                16.44396281,
                57.34599932
              ],
              [
                16.44391282,
                57.34547439
              ],
              [
                16.44438875,
                57.34535439
              ],
              [
                16.44542638,
                57.34537855
              ],
              [
                16.44662047,
                57.34505196
              ],
              [
                16.44673555,
                57.3448828
              ],
              [
                16.44740251,
                57.34454318
              ],
              [
                16.44759429,
                57.34427527
              ],
              [
                16.44785708,
                57.3441925
              ],
              [
                16.44848625,
                57.34425942
              ],
              [
                16.44947143,
                57.34440817
              ],
              [
                16.44982199,
                57.34451708
              ],
              [
                16.45036032,
                57.34457683
              ],
              [
                16.45054136,
                57.34475625
              ],
              [
                16.45208743,
                57.34486393
              ],
              [
                16.45210276,
                57.34550196
              ],
              [
                16.45243978,
                57.34591538
              ],
              [
                16.45623892,
                57.34587758
              ],
              [
                16.45677569,
                57.34620204
              ],
              [
                16.45685562,
                57.34618601
              ],
              [
                16.45694454,
                57.34617752
              ],
              [
                16.45704571,
                57.34617905
              ],
              [
                16.45717399,
                57.34618747
              ],
              [
                16.45729485,
                57.34620037
              ],
              [
                16.4574488,
                57.34621179
              ],
              [
                16.45783418,
                57.34622252
              ],
              [
                16.45801274,
                57.34623762
              ],
              [
                16.45811668,
                57.34625343
              ],
              [
                16.45831805,
                57.34629831
              ],
              [
                16.45844461,
                57.34631877
              ],
              [
                16.45855687,
                57.34632798
              ],
              [
                16.45870577,
                57.34633094
              ],
              [
                16.45887746,
                57.34632981
              ],
              [
                16.45898153,
                57.34633212
              ],
              [
                16.45907417,
                57.34634277
              ],
              [
                16.45917815,
                57.3463669
              ],
              [
                16.45938094,
                57.3464159
              ],
              [
                16.45946852,
                57.34643095
              ],
              [
                16.45953949,
                57.34644128
              ],
              [
                16.45961162,
                57.34644687
              ],
              [
                16.45968879,
                57.34644576
              ],
              [
                16.45976809,
                57.34644122
              ],
              [
                16.45984048,
                57.34643274
              ],
              [
                16.45992785,
                57.34641721
              ],
              [
                16.46004911,
                57.34639058
              ],
              [
                16.46016499,
                57.34635576
              ],
              [
                16.46045085,
                57.34627473
              ],
              [
                16.46061453,
                57.34623473
              ],
              [
                16.46078663,
                57.34619377
              ],
              [
                16.46091604,
                57.34616539
              ],
              [
                16.46093447,
                57.34616304
              ],
              [
                16.46104589,
                57.34614884
              ],
              [
                16.46121239,
                57.34615405
              ],
              [
                16.46133636,
                57.34616137
              ],
              [
                16.46144067,
                57.34617401
              ],
              [
                16.46156131,
                57.34617745
              ],
              [
                16.46169903,
                57.34616826
              ],
              [
                16.461809,
                57.34615675
              ],
              [
                16.46209462,
                57.34610578
              ],
              [
                16.46236946,
                57.3460411
              ],
              [
                16.46254386,
                57.34601379
              ],
              [
                16.46270891,
                57.34599988
              ],
              [
                16.46284045,
                57.34599507
              ],
              [
                16.46333842,
                57.34597685
              ],
              [
                16.46354749,
                57.34596712
              ],
              [
                16.46374426,
                57.34593486
              ],
              [
                16.46388058,
                57.34591845
              ],
              [
                16.46426761,
                57.3459003
              ],
              [
                16.46456248,
                57.34588389
              ],
              [
                16.46464762,
                57.34587915
              ],
              [
                16.46485673,
                57.34585302
              ],
              [
                16.46502045,
                57.34579997
              ],
              [
                16.465159,
                57.34572792
              ],
              [
                16.46523687,
                57.34567862
              ],
              [
                16.46531675,
                57.34563101
              ],
              [
                16.46543374,
                57.34559094
              ],
              [
                16.46554604,
                57.34557819
              ],
              [
                16.46566477,
                57.34558919
              ],
              [
                16.46574776,
                57.34561015
              ],
              [
                16.46586084,
                57.34563797
              ],
              [
                16.4659843,
                57.3456547
              ],
              [
                16.46618399,
                57.34568067
              ],
              [
                16.46630767,
                57.34570631
              ],
              [
                16.4664082,
                57.34571856
              ],
              [
                16.46648789,
                57.34572128
              ],
              [
                16.46657069,
                57.34571859
              ],
              [
                16.46662299,
                57.34571315
              ],
              [
                16.46669073,
                57.3456912
              ],
              [
                16.46675376,
                57.34565396
              ],
              [
                16.46683846,
                57.34554078
              ],
              [
                16.46686107,
                57.34548536
              ],
              [
                16.46684992,
                57.34539377
              ],
              [
                16.4668414,
                57.3453662
              ],
              [
                16.46682468,
                57.34531213
              ],
              [
                16.46676626,
                57.34512312
              ],
              [
                16.46674916,
                57.34506778
              ],
              [
                16.46674763,
                57.34506574
              ],
              [
                16.46663591,
                57.34491682
              ],
              [
                16.46658875,
                57.34480975
              ],
              [
                16.46657277,
                57.34472165
              ],
              [
                16.46659913,
                57.34464541
              ],
              [
                16.46668759,
                57.34457438
              ],
              [
                16.46677069,
                57.34454175
              ],
              [
                16.46692641,
                57.34452445
              ],
              [
                16.46707967,
                57.3445035
              ],
              [
                16.46721689,
                57.34447431
              ],
              [
                16.46730374,
                57.34443067
              ],
              [
                16.4673396,
                57.34440054
              ],
              [
                16.46735291,
                57.34438399
              ],
              [
                16.46730789,
                57.34437046
              ],
              [
                16.46698173,
                57.3442725
              ],
              [
                16.46599582,
                57.34443654
              ],
              [
                16.46456147,
                57.34307222
              ],
              [
                16.46434237,
                57.34201022
              ],
              [
                16.46392649,
                57.33988009
              ],
              [
                16.4637931,
                57.33919677
              ],
              [
                16.46360454,
                57.33919987
              ],
              [
                16.46331655,
                57.33923629
              ],
              [
                16.46316863,
                57.33927685
              ],
              [
                16.46309251,
                57.33933867
              ],
              [
                16.46279947,
                57.33939685
              ],
              [
                16.4626817,
                57.33942342
              ],
              [
                16.4626233,
                57.33948335
              ],
              [
                16.46249716,
                57.33953385
              ],
              [
                16.46232092,
                57.33956825
              ],
              [
                16.4621271,
                57.33961372
              ],
              [
                16.46198419,
                57.33961823
              ],
              [
                16.46170447,
                57.33958647
              ],
              [
                16.46166236,
                57.33958039
              ],
              [
                16.46157537,
                57.33959154
              ],
              [
                16.46152027,
                57.33963205
              ],
              [
                16.46146156,
                57.33963604
              ],
              [
                16.46121848,
                57.33962993
              ],
              [
                16.4610942,
                57.33965366
              ],
              [
                16.46093367,
                57.33971466
              ],
              [
                16.4607604,
                57.33972868
              ],
              [
                16.46059807,
                57.33972367
              ],
              [
                16.46043348,
                57.33974132
              ],
              [
                16.46032071,
                57.33976031
              ],
              [
                16.46012451,
                57.33975595
              ],
              [
                16.46009668,
                57.33968597
              ],
              [
                16.46005287,
                57.33965443
              ],
              [
                16.4600336,
                57.33964058
              ],
              [
                16.45984717,
                57.33961579
              ],
              [
                16.45963918,
                57.33962171
              ],
              [
                16.45954973,
                57.33965208
              ],
              [
                16.45951775,
                57.33963752
              ],
              [
                16.45950635,
                57.33952021
              ],
              [
                16.45944939,
                57.33937899
              ],
              [
                16.45947556,
                57.33924434
              ],
              [
                16.45963007,
                57.33921103
              ],
              [
                16.45979344,
                57.33918037
              ],
              [
                16.46009968,
                57.33922736
              ],
              [
                16.46031758,
                57.33920082
              ],
              [
                16.46075127,
                57.33919677
              ],
              [
                16.46093161,
                57.33913961
              ],
              [
                16.46113506,
                57.33897388
              ],
              [
                16.46126543,
                57.33885242
              ],
              [
                16.46150112,
                57.33863083
              ],
              [
                16.46161297,
                57.33852383
              ],
              [
                16.46160763,
                57.33839303
              ],
              [
                16.46183049,
                57.33830002
              ],
              [
                16.46191501,
                57.33824354
              ],
              [
                16.4620475,
                57.33810204
              ],
              [
                16.46220958,
                57.33789665
              ],
              [
                16.46244201,
                57.33770722
              ],
              [
                16.46283852,
                57.3375598
              ],
              [
                16.46273441,
                57.33749791
              ],
              [
                16.46252205,
                57.33737168
              ],
              [
                16.45914463,
                57.33534718
              ],
              [
                16.45727646,
                57.33423244
              ],
              [
                16.45634695,
                57.33367614
              ],
              [
                16.45535328,
                57.33310026
              ],
              [
                16.45315471,
                57.33419995
              ],
              [
                16.44913857,
                57.33614985
              ],
              [
                16.44905728,
                57.33618931
              ],
              [
                16.44885192,
                57.33609298
              ],
              [
                16.44795317,
                57.33571915
              ],
              [
                16.44676675,
                57.33566204
              ],
              [
                16.44328862,
                57.3352371
              ],
              [
                16.44005721,
                57.33454336
              ],
              [
                16.43916784,
                57.33435242
              ],
              [
                16.43843234,
                57.33449711
              ],
              [
                16.43809895,
                57.3345627
              ],
              [
                16.43575285,
                57.3350242
              ],
              [
                16.43540908,
                57.33509201
              ],
              [
                16.43436558,
                57.33529728
              ],
              [
                16.43391916,
                57.33538509
              ],
              [
                16.43289043,
                57.33559808
              ],
              [
                16.43184044,
                57.33579916
              ],
              [
                16.43068871,
                57.33579113
              ],
              [
                16.43064437,
                57.33579081
              ],
              [
                16.42936947,
                57.33600949
              ],
              [
                16.4290261,
                57.33608252
              ],
              [
                16.42886152,
                57.33611753
              ],
              [
                16.4272455,
                57.33714064
              ],
              [
                16.42720037,
                57.33716886
              ],
              [
                16.42687104,
                57.33715463
              ],
              [
                16.42681647,
                57.33721544
              ],
              [
                16.42692566,
                57.33734058
              ],
              [
                16.4274053,
                57.33753483
              ],
              [
                16.4277616,
                57.33755939
              ],
              [
                16.42807727,
                57.33755191
              ],
              [
                16.42825437,
                57.33759203
              ],
              [
                16.42841682,
                57.33761284
              ],
              [
                16.43020211,
                57.33921084
              ],
              [
                16.43338958,
                57.34208272
              ],
              [
                16.4334079,
                57.34209922
              ],
              [
                16.43469172,
                57.34322442
              ],
              [
                16.4342866,
                57.34398224
              ],
              [
                16.43217013,
                57.34389813
              ],
              [
                16.43176724,
                57.34413572
              ],
              [
                16.43175629,
                57.34414217
              ],
              [
                16.42540726,
                57.34788576
              ],
              [
                16.4192811,
                57.35147145
              ],
              [
                16.4042851,
                57.36024456
              ],
              [
                16.40430791,
                57.36015812
              ],
              [
                16.40456911,
                57.35906853
              ],
              [
                16.40455597,
                57.35906496
              ],
              [
                16.39173798,
                57.35558484
              ],
              [
                16.38906081,
                57.35485563
              ],
              [
                16.38773765,
                57.35450905
              ],
              [
                16.38777032,
                57.35467082
              ],
              [
                16.38794522,
                57.35476076
              ],
              [
                16.38801202,
                57.35479512
              ],
              [
                16.38825729,
                57.3549748
              ],
              [
                16.38844702,
                57.35511379
              ],
              [
                16.38849755,
                57.35513958
              ],
              [
                16.38894325,
                57.35536704
              ],
              [
                16.38914865,
                57.35549151
              ],
              [
                16.38921252,
                57.3555913
              ],
              [
                16.38922617,
                57.35563497
              ],
              [
                16.3892618,
                57.355749
              ],
              [
                16.38975399,
                57.35610121
              ],
              [
                16.39001995,
                57.35616327
              ],
              [
                16.39020466,
                57.35620637
              ],
              [
                16.39052765,
                57.35641855
              ],
              [
                16.39075441,
                57.35657172
              ],
              [
                16.39088906,
                57.356857
              ],
              [
                16.39097888,
                57.35715696
              ],
              [
                16.39089079,
                57.35743106
              ],
              [
                16.3906926,
                57.35780434
              ],
              [
                16.39075595,
                57.35811407
              ],
              [
                16.39081888,
                57.35850363
              ],
              [
                16.39106119,
                57.35886045
              ],
              [
                16.39134154,
                57.35896421
              ],
              [
                16.39196464,
                57.3591207
              ],
              [
                16.39215401,
                57.3593519
              ],
              [
                16.39230218,
                57.35943959
              ],
              [
                16.39243848,
                57.35943558
              ],
              [
                16.39289085,
                57.35947444
              ],
              [
                16.39300563,
                57.35956133
              ],
              [
                16.39334281,
                57.35981657
              ],
              [
                16.39333992,
                57.3599006
              ],
              [
                16.39333362,
                57.36008432
              ],
              [
                16.39321758,
                57.36031811
              ],
              [
                16.39316702,
                57.36050792
              ],
              [
                16.39310379,
                57.36062495
              ],
              [
                16.3931558,
                57.3607162
              ],
              [
                16.3935448,
                57.36096734
              ],
              [
                16.39358389,
                57.36099257
              ],
              [
                16.39396528,
                57.36117627
              ],
              [
                16.39414795,
                57.36131298
              ],
              [
                16.39417485,
                57.36155203
              ],
              [
                16.39388343,
                57.36180138
              ],
              [
                16.39387914,
                57.36180367
              ],
              [
                16.39360492,
                57.36195002
              ],
              [
                16.39340316,
                57.36205329
              ],
              [
                16.3929059,
                57.36225382
              ],
              [
                16.39271034,
                57.36264397
              ],
              [
                16.39291816,
                57.36277572
              ],
              [
                16.39292185,
                57.36287517
              ],
              [
                16.3928997,
                57.36311913
              ],
              [
                16.39289765,
                57.36352599
              ],
              [
                16.39294101,
                57.36355502
              ],
              [
                16.39299317,
                57.36358993
              ],
              [
                16.39304496,
                57.3636996
              ],
              [
                16.39306579,
                57.36384387
              ],
              [
                16.39307293,
                57.36387055
              ],
              [
                16.39379367,
                57.36377494
              ],
              [
                16.39498314,
                57.3636276
              ]
            ]
          ]
        ]
      },
      "geometry_name": "geom",
      "properties": {
        "nvrid": "2054561",
        "gtype": "Polygon",
        "namn": "Stensjö by",
        "skyddstyp": "Kulturreservat",
        "skyddstyp_kod": "KR",
        "beslutsstatus": "Gällande",
        "beslutsmyndighet": "Länsstyrelse",
        "urspr_beslutsdatum": "20200310",
        "urspr_gallandedatum": "20200409",
        "senaste_gallandedatum": "20200409",
        "ikrafttradandedatum_foreskrift": null,
        "tillsynsmyndighet": null,
        "provningsmyndighet_tillstand": " ",
        "provningsmyndighet_dispens": " ",
        "lan": "Kalmar Län",
        "kommun": "Oskarshamn",
        "iucnkategori": "0, Områden som ej kan klassificeras enligt IUCN: s system.",
        "forvaltare": "Kungliga Vitterhetsakademien",
        "data_friluftsliv_publicerat": "Nej",
        "area_ha": 603.53,
        "land_ha": 576.48,
        "skog_ha": 445.66,
        "vatten_ha": 27.05
      }
    }
  ],
  "totalFeatures": 1,
  "numberMatched": 1,
  "numberReturned": 1,
  "timeStamp": "2026-04-30T16:47:15.757Z",
  "crs": {
    "type": "name",
    "properties": {
      "name": "urn:ogc:def:crs:EPSG::4326"
    }
  }
}
