<?xml version="1.0" encoding="UTF-8"?>
<gpx xmlns="http://www.topografix.com/GPX/1/1" xmlns:xsi="http://www.w3.org/2001/XMLSchema-instance" version="1.1" creator="GPX RubyGem 1.0.0 -- http://dougfales.github.io/gpx/" xsi:schemaLocation="http://www.topografix.com/GPX/1/1 http://www.topografix.com/GPX/1/1/gpx.xsd">
  <metadata>
    <name>Etapp 5 Ullånger - Skuleberget, Höga Kusten-leden by Naturkartan</name>
    <time>2026-04-30T16:07:50+00:00</time>
  </metadata>
  <trk>
    <name>Etapp 5 Ullånger - Skuleberget, Höga Kusten-leden by Naturkartan</name>
    <trkseg>
      <trkpt lat="63.009471" lon="18.186084"/>
      <trkpt lat="63.009736" lon="18.186162"/>
      <trkpt lat="63.00993" lon="18.186221"/>
      <trkpt lat="63.010379" lon="18.186371"/>
      <trkpt lat="63.010459" lon="18.186392"/>
      <trkpt lat="63.010574" lon="18.186425"/>
      <trkpt lat="63.010757" lon="18.186494"/>
      <trkpt lat="63.010789" lon="18.186539"/>
      <trkpt lat="63.010867" lon="18.186565"/>
      <trkpt lat="63.011316" lon="18.186691"/>
      <trkpt lat="63.011352" lon="18.186683"/>
      <trkpt lat="63.011804" lon="18.18678"/>
      <trkpt lat="63.011942" lon="18.186806"/>
      <trkpt lat="63.012023" lon="18.186819"/>
      <trkpt lat="63.012058" lon="18.186819"/>
      <trkpt lat="63.01208" lon="18.186819"/>
      <trkpt lat="63.012943" lon="18.186816"/>
      <trkpt lat="63.013005" lon="18.186825"/>
      <trkpt lat="63.013197" lon="18.186888"/>
      <trkpt lat="63.013378" lon="18.186974"/>
      <trkpt lat="63.013418" lon="18.187013"/>
      <trkpt lat="63.013444" lon="18.187085"/>
      <trkpt lat="63.013449" lon="18.187135"/>
      <trkpt lat="63.013494" lon="18.187156"/>
      <trkpt lat="63.013544" lon="18.187178"/>
      <trkpt lat="63.013554" lon="18.187183"/>
      <trkpt lat="63.013583" lon="18.187157"/>
      <trkpt lat="63.013635" lon="18.187147"/>
      <trkpt lat="63.013711" lon="18.187167"/>
      <trkpt lat="63.013854" lon="18.187237"/>
      <trkpt lat="63.014002" lon="18.187347"/>
      <trkpt lat="63.014091" lon="18.187434"/>
      <trkpt lat="63.014157" lon="18.187501"/>
      <trkpt lat="63.014383" lon="18.187734"/>
      <trkpt lat="63.014402" lon="18.187756"/>
      <trkpt lat="63.014422" lon="18.187826"/>
      <trkpt lat="63.014475" lon="18.187847"/>
      <trkpt lat="63.014476" lon="18.187806"/>
      <trkpt lat="63.014414" lon="18.188423"/>
      <trkpt lat="63.014338" lon="18.188962"/>
      <trkpt lat="63.014311" lon="18.189336"/>
      <trkpt lat="63.014306" lon="18.189647"/>
      <trkpt lat="63.014328" lon="18.189908"/>
      <trkpt lat="63.014404" lon="18.190261"/>
      <trkpt lat="63.014465" lon="18.190548"/>
      <trkpt lat="63.014628" lon="18.191177"/>
      <trkpt lat="63.014861" lon="18.192056"/>
      <trkpt lat="63.014968" lon="18.192691"/>
      <trkpt lat="63.014996" lon="18.19282"/>
      <trkpt lat="63.015089" lon="18.193402"/>
      <trkpt lat="63.015178" lon="18.193494"/>
      <trkpt lat="63.015288" lon="18.193654"/>
      <trkpt lat="63.01549" lon="18.19408"/>
      <trkpt lat="63.015645" lon="18.194353"/>
      <trkpt lat="63.015752" lon="18.194504"/>
      <trkpt lat="63.015951" lon="18.194763"/>
      <trkpt lat="63.016147" lon="18.194965"/>
      <trkpt lat="63.016287" lon="18.195203"/>
      <trkpt lat="63.016445" lon="18.195622"/>
      <trkpt lat="63.016644" lon="18.196237"/>
      <trkpt lat="63.016696" lon="18.196484"/>
      <trkpt lat="63.016716" lon="18.196796"/>
      <trkpt lat="63.016705" lon="18.198244"/>
      <trkpt lat="63.016702" lon="18.198584"/>
      <trkpt lat="63.016717" lon="18.198902"/>
      <trkpt lat="63.016756" lon="18.199229"/>
      <trkpt lat="63.016832" lon="18.19942"/>
      <trkpt lat="63.016936" lon="18.199607"/>
      <trkpt lat="63.017086" lon="18.199983"/>
      <trkpt lat="63.017261" lon="18.200585"/>
      <trkpt lat="63.017474" lon="18.201189"/>
      <trkpt lat="63.017671" lon="18.202011"/>
      <trkpt lat="63.018186" lon="18.204"/>
      <trkpt lat="63.018304" lon="18.204365"/>
      <trkpt lat="63.018441" lon="18.204658"/>
      <trkpt lat="63.018587" lon="18.204746"/>
      <trkpt lat="63.018756" lon="18.204808"/>
      <trkpt lat="63.018935" lon="18.204731"/>
      <trkpt lat="63.019078" lon="18.204578"/>
      <trkpt lat="63.01925" lon="18.204259"/>
      <trkpt lat="63.019464" lon="18.203964"/>
      <trkpt lat="63.019741" lon="18.204601"/>
      <trkpt lat="63.019836" lon="18.204844"/>
      <trkpt lat="63.019958" lon="18.205054"/>
      <trkpt lat="63.020088" lon="18.205221"/>
      <trkpt lat="63.020214" lon="18.20534"/>
      <trkpt lat="63.02034" lon="18.205423"/>
      <trkpt lat="63.020526" lon="18.205443"/>
      <trkpt lat="63.020762" lon="18.205602"/>
      <trkpt lat="63.021036" lon="18.205956"/>
      <trkpt lat="63.02136" lon="18.206448"/>
      <trkpt lat="63.021401" lon="18.206557"/>
      <trkpt lat="63.021406" lon="18.20668"/>
      <trkpt lat="63.021399" lon="18.206821"/>
      <trkpt lat="63.021363" lon="18.20704"/>
      <trkpt lat="63.021283" lon="18.20733"/>
      <trkpt lat="63.021167" lon="18.207661"/>
      <trkpt lat="63.020899" lon="18.208299"/>
      <trkpt lat="63.020782" lon="18.208604"/>
      <trkpt lat="63.020836" lon="18.208715"/>
      <trkpt lat="63.020913" lon="18.208796"/>
      <trkpt lat="63.020917" lon="18.208862"/>
      <trkpt lat="63.021118" lon="18.209194"/>
      <trkpt lat="63.021142" lon="18.209367"/>
      <trkpt lat="63.021198" lon="18.209518"/>
      <trkpt lat="63.021253" lon="18.209559"/>
      <trkpt lat="63.0213" lon="18.209672"/>
      <trkpt lat="63.021288" lon="18.209701"/>
      <trkpt lat="63.02132" lon="18.209863"/>
      <trkpt lat="63.02148" lon="18.210135"/>
      <trkpt lat="63.021633" lon="18.21103"/>
      <trkpt lat="63.021686" lon="18.211576"/>
      <trkpt lat="63.021755" lon="18.211693"/>
      <trkpt lat="63.021814" lon="18.211911"/>
      <trkpt lat="63.02189" lon="18.212011"/>
      <trkpt lat="63.021875" lon="18.212037"/>
      <trkpt lat="63.021904" lon="18.212241"/>
      <trkpt lat="63.021952" lon="18.212331"/>
      <trkpt lat="63.021979" lon="18.212459"/>
      <trkpt lat="63.021989" lon="18.212836"/>
      <trkpt lat="63.02201" lon="18.213052"/>
      <trkpt lat="63.022029" lon="18.21308"/>
      <trkpt lat="63.021992" lon="18.213277"/>
      <trkpt lat="63.022056" lon="18.213438"/>
      <trkpt lat="63.022048" lon="18.213503"/>
      <trkpt lat="63.022105" lon="18.213616"/>
      <trkpt lat="63.022181" lon="18.213683"/>
      <trkpt lat="63.022235" lon="18.213826"/>
      <trkpt lat="63.02229" lon="18.213846"/>
      <trkpt lat="63.022259" lon="18.213874"/>
      <trkpt lat="63.022318" lon="18.214072"/>
      <trkpt lat="63.022466" lon="18.214298"/>
      <trkpt lat="63.02262" lon="18.214488"/>
      <trkpt lat="63.022767" lon="18.214595"/>
      <trkpt lat="63.022848" lon="18.2146"/>
      <trkpt lat="63.022971" lon="18.214716"/>
      <trkpt lat="63.023067" lon="18.21489"/>
      <trkpt lat="63.023147" lon="18.21492"/>
      <trkpt lat="63.023227" lon="18.215034"/>
      <trkpt lat="63.02332" lon="18.2151"/>
      <trkpt lat="63.023514" lon="18.215141"/>
      <trkpt lat="63.023551" lon="18.21524"/>
      <trkpt lat="63.023618" lon="18.215264"/>
      <trkpt lat="63.023645" lon="18.21547"/>
      <trkpt lat="63.023783" lon="18.215658"/>
      <trkpt lat="63.02381" lon="18.215926"/>
      <trkpt lat="63.023805" lon="18.2163"/>
      <trkpt lat="63.023852" lon="18.216412"/>
      <trkpt lat="63.023864" lon="18.21671"/>
      <trkpt lat="63.023847" lon="18.216748"/>
      <trkpt lat="63.023866" lon="18.216786"/>
      <trkpt lat="63.023832" lon="18.216849"/>
      <trkpt lat="63.023815" lon="18.216989"/>
      <trkpt lat="63.023838" lon="18.217013"/>
      <trkpt lat="63.023824" lon="18.217111"/>
      <trkpt lat="63.023845" lon="18.217193"/>
      <trkpt lat="63.02392" lon="18.217374"/>
      <trkpt lat="63.023907" lon="18.217472"/>
      <trkpt lat="63.023946" lon="18.217911"/>
      <trkpt lat="63.023915" lon="18.218004"/>
      <trkpt lat="63.023927" lon="18.218166"/>
      <trkpt lat="63.023873" lon="18.21833"/>
      <trkpt lat="63.023731" lon="18.218326"/>
      <trkpt lat="63.023679" lon="18.218438"/>
      <trkpt lat="63.023623" lon="18.218739"/>
      <trkpt lat="63.023537" lon="18.219002"/>
      <trkpt lat="63.023473" lon="18.219558"/>
      <trkpt lat="63.02352" lon="18.219565"/>
      <trkpt lat="63.023547" lon="18.219822"/>
      <trkpt lat="63.023659" lon="18.220157"/>
      <trkpt lat="63.023693" lon="18.220197"/>
      <trkpt lat="63.023726" lon="18.220367"/>
      <trkpt lat="63.023922" lon="18.220521"/>
      <trkpt lat="63.024019" lon="18.220698"/>
      <trkpt lat="63.02407" lon="18.22081"/>
      <trkpt lat="63.024091" lon="18.221032"/>
      <trkpt lat="63.024157" lon="18.221165"/>
      <trkpt lat="63.02436" lon="18.221334"/>
      <trkpt lat="63.024491" lon="18.221342"/>
      <trkpt lat="63.024519" lon="18.222012"/>
      <trkpt lat="63.024554" lon="18.222102"/>
      <trkpt lat="63.024562" lon="18.22229"/>
      <trkpt lat="63.024608" lon="18.222422"/>
      <trkpt lat="63.024618" lon="18.222537"/>
      <trkpt lat="63.024814" lon="18.222796"/>
      <trkpt lat="63.024822" lon="18.223066"/>
      <trkpt lat="63.024878" lon="18.223171"/>
      <trkpt lat="63.024973" lon="18.223606"/>
      <trkpt lat="63.025021" lon="18.22362"/>
      <trkpt lat="63.024991" lon="18.22375"/>
      <trkpt lat="63.024995" lon="18.223845"/>
      <trkpt lat="63.02493" lon="18.224014"/>
      <trkpt lat="63.024622" lon="18.224461"/>
      <trkpt lat="63.024647" lon="18.224519"/>
      <trkpt lat="63.024625" lon="18.224696"/>
      <trkpt lat="63.024521" lon="18.22488"/>
      <trkpt lat="63.024499" lon="18.225025"/>
      <trkpt lat="63.024515" lon="18.225089"/>
      <trkpt lat="63.024505" lon="18.225193"/>
      <trkpt lat="63.024581" lon="18.225379"/>
      <trkpt lat="63.024643" lon="18.225433"/>
      <trkpt lat="63.024739" lon="18.225698"/>
      <trkpt lat="63.024789" lon="18.225643"/>
      <trkpt lat="63.024792" lon="18.225743"/>
      <trkpt lat="63.024864" lon="18.225839"/>
      <trkpt lat="63.024839" lon="18.225838"/>
      <trkpt lat="63.024863" lon="18.225931"/>
      <trkpt lat="63.024855" lon="18.226109"/>
      <trkpt lat="63.024911" lon="18.226245"/>
      <trkpt lat="63.024963" lon="18.226267"/>
      <trkpt lat="63.025085" lon="18.227028"/>
      <trkpt lat="63.024579" lon="18.228101"/>
      <trkpt lat="63.024394" lon="18.228208"/>
      <trkpt lat="63.023976" lon="18.229088"/>
      <trkpt lat="63.023908" lon="18.22971"/>
      <trkpt lat="63.023742" lon="18.229946"/>
      <trkpt lat="63.023265" lon="18.230461"/>
      <trkpt lat="63.022886" lon="18.230676"/>
      <trkpt lat="63.022331" lon="18.230483"/>
      <trkpt lat="63.022087" lon="18.230311"/>
      <trkpt lat="63.021873" lon="18.230246"/>
      <trkpt lat="63.021367" lon="18.229603"/>
      <trkpt lat="63.021007" lon="18.22898"/>
      <trkpt lat="63.020559" lon="18.22883"/>
      <trkpt lat="63.019936" lon="18.228659"/>
      <trkpt lat="63.019537" lon="18.228895"/>
      <trkpt lat="63.019021" lon="18.229216"/>
      <trkpt lat="63.018466" lon="18.229624"/>
      <trkpt lat="63.018193" lon="18.229774"/>
      <trkpt lat="63.01793" lon="18.229624"/>
      <trkpt lat="63.017755" lon="18.229495"/>
      <trkpt lat="63.017269" lon="18.229453"/>
      <trkpt lat="63.016178" lon="18.229603"/>
      <trkpt lat="63.015974" lon="18.229646"/>
      <trkpt lat="63.015623" lon="18.229796"/>
      <trkpt lat="63.014883" lon="18.230332"/>
      <trkpt lat="63.014192" lon="18.230676"/>
      <trkpt lat="63.01388" lon="18.230676"/>
      <trkpt lat="63.013481" lon="18.23044"/>
      <trkpt lat="63.013101" lon="18.230354"/>
      <trkpt lat="63.012848" lon="18.230354"/>
      <trkpt lat="63.012683" lon="18.230354"/>
      <trkpt lat="63.012439" lon="18.230375"/>
      <trkpt lat="63.012225" lon="18.230397"/>
      <trkpt lat="63.011981" lon="18.230718"/>
      <trkpt lat="63.01168" lon="18.230954"/>
      <trkpt lat="63.011456" lon="18.230976"/>
      <trkpt lat="63.011222" lon="18.230998"/>
      <trkpt lat="63.011056" lon="18.231062"/>
      <trkpt lat="63.01091" lon="18.231298"/>
      <trkpt lat="63.010793" lon="18.23162"/>
      <trkpt lat="63.010589" lon="18.232392"/>
      <trkpt lat="63.010531" lon="18.2328"/>
      <trkpt lat="63.010453" lon="18.233229"/>
      <trkpt lat="63.010268" lon="18.233465"/>
      <trkpt lat="63.010063" lon="18.233465"/>
      <trkpt lat="63.009898" lon="18.233444"/>
      <trkpt lat="63.009636" lon="18.233399"/>
      <trkpt lat="63.009677" lon="18.236109"/>
      <trkpt lat="63.009703" lon="18.237824"/>
      <trkpt lat="63.009242" lon="18.239574"/>
      <trkpt lat="63.009573" lon="18.242554"/>
      <trkpt lat="63.009573" lon="18.242811"/>
      <trkpt lat="63.009349" lon="18.247252"/>
      <trkpt lat="63.009095" lon="18.249282"/>
      <trkpt lat="63.009797" lon="18.251618"/>
      <trkpt lat="63.010438" lon="18.25291"/>
      <trkpt lat="63.010601" lon="18.255374"/>
      <trkpt lat="63.011224" lon="18.258118"/>
      <trkpt lat="63.011179" lon="18.258958"/>
      <trkpt lat="63.011136" lon="18.259792"/>
      <trkpt lat="63.011215" lon="18.260326"/>
      <trkpt lat="63.011317" lon="18.260929"/>
      <trkpt lat="63.011408" lon="18.261477"/>
      <trkpt lat="63.011845" lon="18.261833"/>
      <trkpt lat="63.012165" lon="18.262021"/>
      <trkpt lat="63.012454" lon="18.262175"/>
      <trkpt lat="63.012666" lon="18.262399"/>
      <trkpt lat="63.01273" lon="18.262687"/>
      <trkpt lat="63.01286" lon="18.262872"/>
      <trkpt lat="63.012903" lon="18.262868"/>
      <trkpt lat="63.012986" lon="18.262962"/>
      <trkpt lat="63.013113" lon="18.262976"/>
      <trkpt lat="63.013156" lon="18.263039"/>
      <trkpt lat="63.01346" lon="18.263094"/>
      <trkpt lat="63.013615" lon="18.263194"/>
      <trkpt lat="63.013789" lon="18.263139"/>
      <trkpt lat="63.013831" lon="18.26319"/>
      <trkpt lat="63.014217" lon="18.26332"/>
      <trkpt lat="63.014543" lon="18.263346"/>
      <trkpt lat="63.014827" lon="18.263707"/>
      <trkpt lat="63.014895" lon="18.26391"/>
      <trkpt lat="63.015079" lon="18.264233"/>
      <trkpt lat="63.01526" lon="18.264444"/>
      <trkpt lat="63.015527" lon="18.264915"/>
      <trkpt lat="63.015628" lon="18.264997"/>
      <trkpt lat="63.015682" lon="18.265127"/>
      <trkpt lat="63.015799" lon="18.265241"/>
      <trkpt lat="63.015883" lon="18.265454"/>
      <trkpt lat="63.016035" lon="18.26552"/>
      <trkpt lat="63.016153" lon="18.265639"/>
      <trkpt lat="63.016237" lon="18.265624"/>
      <trkpt lat="63.016297" lon="18.265684"/>
      <trkpt lat="63.016379" lon="18.265668"/>
      <trkpt lat="63.016475" lon="18.26577"/>
      <trkpt lat="63.016677" lon="18.265773"/>
      <trkpt lat="63.016845" lon="18.265847"/>
      <trkpt lat="63.016995" lon="18.266006"/>
      <trkpt lat="63.017306" lon="18.26618"/>
      <trkpt lat="63.017533" lon="18.266384"/>
      <trkpt lat="63.017771" lon="18.266498"/>
      <trkpt lat="63.017862" lon="18.266535"/>
      <trkpt lat="63.017979" lon="18.266409"/>
      <trkpt lat="63.018149" lon="18.266504"/>
      <trkpt lat="63.018299" lon="18.266724"/>
      <trkpt lat="63.018357" lon="18.267037"/>
      <trkpt lat="63.018324" lon="18.267242"/>
      <trkpt lat="63.018258" lon="18.26738"/>
      <trkpt lat="63.0182" lon="18.267701"/>
      <trkpt lat="63.018218" lon="18.267747"/>
      <trkpt lat="63.01818" lon="18.268024"/>
      <trkpt lat="63.018198" lon="18.268342"/>
      <trkpt lat="63.017949" lon="18.268904"/>
      <trkpt lat="63.01782" lon="18.26907"/>
      <trkpt lat="63.017754" lon="18.269066"/>
      <trkpt lat="63.017682" lon="18.269173"/>
      <trkpt lat="63.017607" lon="18.26976"/>
      <trkpt lat="63.01752" lon="18.269889"/>
      <trkpt lat="63.017408" lon="18.270308"/>
      <trkpt lat="63.017213" lon="18.270554"/>
      <trkpt lat="63.017128" lon="18.270788"/>
      <trkpt lat="63.017123" lon="18.271068"/>
      <trkpt lat="63.017066" lon="18.271541"/>
      <trkpt lat="63.017082" lon="18.271855"/>
      <trkpt lat="63.016988" lon="18.272757"/>
      <trkpt lat="63.016957" lon="18.272855"/>
      <trkpt lat="63.016913" lon="18.273555"/>
      <trkpt lat="63.017024" lon="18.274044"/>
      <trkpt lat="63.017027" lon="18.274209"/>
      <trkpt lat="63.017093" lon="18.274476"/>
      <trkpt lat="63.01723" lon="18.274764"/>
      <trkpt lat="63.017304" lon="18.274835"/>
      <trkpt lat="63.017518" lon="18.275401"/>
      <trkpt lat="63.017562" lon="18.275677"/>
      <trkpt lat="63.01756" lon="18.275796"/>
      <trkpt lat="63.017601" lon="18.275862"/>
      <trkpt lat="63.017652" lon="18.276234"/>
      <trkpt lat="63.017666" lon="18.276825"/>
      <trkpt lat="63.017701" lon="18.276871"/>
      <trkpt lat="63.017784" lon="18.277239"/>
      <trkpt lat="63.017818" lon="18.277455"/>
      <trkpt lat="63.017832" lon="18.277766"/>
      <trkpt lat="63.017873" lon="18.277993"/>
      <trkpt lat="63.017858" lon="18.278272"/>
      <trkpt lat="63.017889" lon="18.278349"/>
      <trkpt lat="63.017931" lon="18.278686"/>
      <trkpt lat="63.017912" lon="18.278753"/>
      <trkpt lat="63.017934" lon="18.278839"/>
      <trkpt lat="63.017906" lon="18.278937"/>
      <trkpt lat="63.017898" lon="18.279251"/>
      <trkpt lat="63.017923" lon="18.27962"/>
      <trkpt lat="63.01785" lon="18.280469"/>
      <trkpt lat="63.017764" lon="18.280697"/>
      <trkpt lat="63.017752" lon="18.280774"/>
      <trkpt lat="63.017778" lon="18.280813"/>
      <trkpt lat="63.017744" lon="18.280872"/>
      <trkpt lat="63.017684" lon="18.281153"/>
      <trkpt lat="63.017694" lon="18.281547"/>
      <trkpt lat="63.017751" lon="18.282227"/>
      <trkpt lat="63.017864" lon="18.282668"/>
      <trkpt lat="63.017877" lon="18.282869"/>
      <trkpt lat="63.017949" lon="18.283191"/>
      <trkpt lat="63.017957" lon="18.283348"/>
      <trkpt lat="63.018002" lon="18.283589"/>
      <trkpt lat="63.018079" lon="18.283779"/>
      <trkpt lat="63.01811" lon="18.284049"/>
      <trkpt lat="63.018411" lon="18.284355"/>
      <trkpt lat="63.018729" lon="18.284537"/>
      <trkpt lat="63.019471" lon="18.284888"/>
      <trkpt lat="63.019777" lon="18.285141"/>
      <trkpt lat="63.020255" lon="18.285755"/>
      <trkpt lat="63.020673" lon="18.286315"/>
      <trkpt lat="63.021492" lon="18.287247"/>
      <trkpt lat="63.021752" lon="18.287376"/>
      <trkpt lat="63.021854" lon="18.287556"/>
      <trkpt lat="63.021918" lon="18.287798"/>
      <trkpt lat="63.021885" lon="18.288141"/>
      <trkpt lat="63.021864" lon="18.288435"/>
      <trkpt lat="63.021838" lon="18.288871"/>
      <trkpt lat="63.021885" lon="18.289218"/>
      <trkpt lat="63.022083" lon="18.289868"/>
      <trkpt lat="63.022154" lon="18.290125"/>
      <trkpt lat="63.022125" lon="18.290932"/>
      <trkpt lat="63.022112" lon="18.291411"/>
      <trkpt lat="63.022136" lon="18.29193"/>
      <trkpt lat="63.022191" lon="18.292231"/>
      <trkpt lat="63.022152" lon="18.292711"/>
      <trkpt lat="63.022087" lon="18.293212"/>
      <trkpt lat="63.022013" lon="18.293613"/>
      <trkpt lat="63.021988" lon="18.293875"/>
      <trkpt lat="63.021986" lon="18.294296"/>
      <trkpt lat="63.022006" lon="18.294745"/>
      <trkpt lat="63.02188" lon="18.29514"/>
      <trkpt lat="63.021898" lon="18.295517"/>
      <trkpt lat="63.021905" lon="18.295776"/>
      <trkpt lat="63.022034" lon="18.296059"/>
      <trkpt lat="63.022255" lon="18.296309"/>
      <trkpt lat="63.022286" lon="18.296775"/>
      <trkpt lat="63.022688" lon="18.29697"/>
      <trkpt lat="63.023874" lon="18.297564"/>
      <trkpt lat="63.024342" lon="18.297807"/>
      <trkpt lat="63.024658" lon="18.297987"/>
      <trkpt lat="63.024841" lon="18.298127"/>
      <trkpt lat="63.025065" lon="18.29829"/>
      <trkpt lat="63.025513" lon="18.298717"/>
      <trkpt lat="63.025918" lon="18.299192"/>
      <trkpt lat="63.026272" lon="18.299661"/>
      <trkpt lat="63.026562" lon="18.300106"/>
      <trkpt lat="63.026692" lon="18.300302"/>
      <trkpt lat="63.027154" lon="18.301274"/>
      <trkpt lat="63.027536" lon="18.30215"/>
      <trkpt lat="63.027822" lon="18.302932"/>
      <trkpt lat="63.028131" lon="18.303904"/>
      <trkpt lat="63.028263" lon="18.304434"/>
      <trkpt lat="63.028464" lon="18.305281"/>
      <trkpt lat="63.028579" lon="18.305184"/>
      <trkpt lat="63.028692" lon="18.305265"/>
      <trkpt lat="63.029203" lon="18.307234"/>
      <trkpt lat="63.029232" lon="18.307379"/>
      <trkpt lat="63.029494" lon="18.308698"/>
      <trkpt lat="63.029667" lon="18.309443"/>
      <trkpt lat="63.029681" lon="18.309752"/>
      <trkpt lat="63.029826" lon="18.309891"/>
      <trkpt lat="63.030085" lon="18.310392"/>
      <trkpt lat="63.030418" lon="18.310949"/>
      <trkpt lat="63.030678" lon="18.311673"/>
      <trkpt lat="63.030807" lon="18.312242"/>
      <trkpt lat="63.031007" lon="18.313084"/>
      <trkpt lat="63.031126" lon="18.313518"/>
      <trkpt lat="63.031231" lon="18.313955"/>
      <trkpt lat="63.031596" lon="18.314094"/>
      <trkpt lat="63.031685" lon="18.314181"/>
      <trkpt lat="63.031748" lon="18.314334"/>
      <trkpt lat="63.031826" lon="18.314424"/>
      <trkpt lat="63.03195" lon="18.314804"/>
      <trkpt lat="63.032029" lon="18.314956"/>
      <trkpt lat="63.032125" lon="18.315393"/>
      <trkpt lat="63.032209" lon="18.315638"/>
      <trkpt lat="63.032249" lon="18.31597"/>
      <trkpt lat="63.032327" lon="18.316187"/>
      <trkpt lat="63.032496" lon="18.316301"/>
      <trkpt lat="63.032605" lon="18.316498"/>
      <trkpt lat="63.032754" lon="18.316585"/>
      <trkpt lat="63.032855" lon="18.316725"/>
      <trkpt lat="63.032953" lon="18.316775"/>
      <trkpt lat="63.032977" lon="18.316861"/>
      <trkpt lat="63.033071" lon="18.317"/>
      <trkpt lat="63.033256" lon="18.317191"/>
      <trkpt lat="63.033318" lon="18.317334"/>
      <trkpt lat="63.033429" lon="18.317464"/>
      <trkpt lat="63.03353" lon="18.317478"/>
      <trkpt lat="63.033623" lon="18.317588"/>
      <trkpt lat="63.03373" lon="18.317621"/>
      <trkpt lat="63.033857" lon="18.317788"/>
      <trkpt lat="63.033908" lon="18.317803"/>
      <trkpt lat="63.03396" lon="18.31792"/>
      <trkpt lat="63.034123" lon="18.317983"/>
      <trkpt lat="63.034197" lon="18.318056"/>
      <trkpt lat="63.034215" lon="18.31814"/>
      <trkpt lat="63.034289" lon="18.318165"/>
      <trkpt lat="63.034439" lon="18.318325"/>
      <trkpt lat="63.034552" lon="18.318339"/>
      <trkpt lat="63.034676" lon="18.318451"/>
      <trkpt lat="63.034858" lon="18.318401"/>
      <trkpt lat="63.034983" lon="18.318288"/>
      <trkpt lat="63.035052" lon="18.318289"/>
      <trkpt lat="63.03527" lon="18.318138"/>
      <trkpt lat="63.035466" lon="18.317931"/>
      <trkpt lat="63.03552" lon="18.317817"/>
      <trkpt lat="63.03559" lon="18.317771"/>
      <trkpt lat="63.035658" lon="18.31762"/>
      <trkpt lat="63.035756" lon="18.31753"/>
      <trkpt lat="63.035839" lon="18.317537"/>
      <trkpt lat="63.035896" lon="18.317437"/>
      <trkpt lat="63.035967" lon="18.317438"/>
      <trkpt lat="63.036134" lon="18.317189"/>
      <trkpt lat="63.03623" lon="18.317195"/>
      <trkpt lat="63.036271" lon="18.317153"/>
      <trkpt lat="63.03652" lon="18.316789"/>
      <trkpt lat="63.036569" lon="18.31676"/>
      <trkpt lat="63.036658" lon="18.316579"/>
      <trkpt lat="63.036886" lon="18.316455"/>
      <trkpt lat="63.037051" lon="18.316466"/>
      <trkpt lat="63.037138" lon="18.316533"/>
      <trkpt lat="63.037174" lon="18.316498"/>
      <trkpt lat="63.03742" lon="18.316395"/>
      <trkpt lat="63.037597" lon="18.316456"/>
      <trkpt lat="63.037713" lon="18.316415"/>
      <trkpt lat="63.037806" lon="18.316467"/>
      <trkpt lat="63.037888" lon="18.316437"/>
      <trkpt lat="63.037935" lon="18.316397"/>
      <trkpt lat="63.038042" lon="18.316105"/>
      <trkpt lat="63.038228" lon="18.315887"/>
      <trkpt lat="63.038249" lon="18.315912"/>
      <trkpt lat="63.03835" lon="18.31576"/>
      <trkpt lat="63.038436" lon="18.315746"/>
      <trkpt lat="63.038683" lon="18.315406"/>
      <trkpt lat="63.038792" lon="18.315416"/>
      <trkpt lat="63.038862" lon="18.31558"/>
      <trkpt lat="63.03892" lon="18.315639"/>
      <trkpt lat="63.039117" lon="18.315605"/>
      <trkpt lat="63.039204" lon="18.315717"/>
      <trkpt lat="63.039396" lon="18.315621"/>
      <trkpt lat="63.039442" lon="18.315513"/>
      <trkpt lat="63.039527" lon="18.315434"/>
      <trkpt lat="63.039673" lon="18.315494"/>
      <trkpt lat="63.039789" lon="18.315452"/>
      <trkpt lat="63.039866" lon="18.315386"/>
      <trkpt lat="63.03995" lon="18.315381"/>
      <trkpt lat="63.040022" lon="18.315239"/>
      <trkpt lat="63.040122" lon="18.31523"/>
      <trkpt lat="63.040232" lon="18.315112"/>
      <trkpt lat="63.040497" lon="18.315017"/>
      <trkpt lat="63.040504" lon="18.31506"/>
      <trkpt lat="63.040546" lon="18.31506"/>
      <trkpt lat="63.040589" lon="18.315125"/>
      <trkpt lat="63.040826" lon="18.315157"/>
      <trkpt lat="63.040899" lon="18.315229"/>
      <trkpt lat="63.040956" lon="18.31518"/>
      <trkpt lat="63.040965" lon="18.315226"/>
      <trkpt lat="63.041249" lon="18.315234"/>
      <trkpt lat="63.041384" lon="18.315389"/>
      <trkpt lat="63.041663" lon="18.315522"/>
      <trkpt lat="63.041738" lon="18.315508"/>
      <trkpt lat="63.041846" lon="18.315678"/>
      <trkpt lat="63.041933" lon="18.315736"/>
      <trkpt lat="63.042296" lon="18.315846"/>
      <trkpt lat="63.042462" lon="18.315993"/>
      <trkpt lat="63.042859" lon="18.315989"/>
      <trkpt lat="63.043031" lon="18.316151"/>
      <trkpt lat="63.043081" lon="18.316136"/>
      <trkpt lat="63.043249" lon="18.316318"/>
      <trkpt lat="63.043367" lon="18.31627"/>
      <trkpt lat="63.043534" lon="18.316424"/>
      <trkpt lat="63.043532" lon="18.316519"/>
      <trkpt lat="63.043564" lon="18.316632"/>
      <trkpt lat="63.0437" lon="18.316851"/>
      <trkpt lat="63.043876" lon="18.316953"/>
      <trkpt lat="63.043998" lon="18.317171"/>
      <trkpt lat="63.044157" lon="18.317192"/>
      <trkpt lat="63.044184" lon="18.317254"/>
      <trkpt lat="63.04433" lon="18.317337"/>
      <trkpt lat="63.044453" lon="18.317485"/>
      <trkpt lat="63.044598" lon="18.317458"/>
      <trkpt lat="63.044683" lon="18.317612"/>
      <trkpt lat="63.044742" lon="18.317637"/>
      <trkpt lat="63.044856" lon="18.317619"/>
      <trkpt lat="63.044916" lon="18.317505"/>
      <trkpt lat="63.044982" lon="18.317473"/>
      <trkpt lat="63.045094" lon="18.317497"/>
      <trkpt lat="63.045417" lon="18.317422"/>
      <trkpt lat="63.045562" lon="18.31751"/>
      <trkpt lat="63.045677" lon="18.317742"/>
      <trkpt lat="63.045806" lon="18.318094"/>
      <trkpt lat="63.045871" lon="18.318209"/>
      <trkpt lat="63.046071" lon="18.318336"/>
      <trkpt lat="63.046335" lon="18.318375"/>
      <trkpt lat="63.046565" lon="18.318375"/>
      <trkpt lat="63.046742" lon="18.318551"/>
      <trkpt lat="63.046879" lon="18.318809"/>
      <trkpt lat="63.047031" lon="18.319217"/>
      <trkpt lat="63.047194" lon="18.319762"/>
      <trkpt lat="63.047331" lon="18.320211"/>
      <trkpt lat="63.047413" lon="18.320417"/>
      <trkpt lat="63.047573" lon="18.320698"/>
      <trkpt lat="63.047725" lon="18.320973"/>
      <trkpt lat="63.047782" lon="18.321425"/>
      <trkpt lat="63.04784" lon="18.32148"/>
      <trkpt lat="63.048099" lon="18.321617"/>
      <trkpt lat="63.048256" lon="18.321711"/>
      <trkpt lat="63.048433" lon="18.321799"/>
      <trkpt lat="63.048658" lon="18.321811"/>
      <trkpt lat="63.048592" lon="18.321988"/>
      <trkpt lat="63.048539" lon="18.322229"/>
      <trkpt lat="63.0485" lon="18.322554"/>
      <trkpt lat="63.048481" lon="18.322935"/>
      <trkpt lat="63.0485" lon="18.323191"/>
      <trkpt lat="63.048534" lon="18.323435"/>
      <trkpt lat="63.048596" lon="18.323659"/>
      <trkpt lat="63.048654" lon="18.323809"/>
      <trkpt lat="63.048755" lon="18.323892"/>
      <trkpt lat="63.049232" lon="18.324037"/>
      <trkpt lat="63.049669" lon="18.324165"/>
      <trkpt lat="63.049964" lon="18.32431"/>
      <trkpt lat="63.050226" lon="18.324608"/>
      <trkpt lat="63.050383" lon="18.324839"/>
      <trkpt lat="63.051882" lon="18.325233"/>
      <trkpt lat="63.052244" lon="18.325335"/>
      <trkpt lat="63.053" lon="18.325667"/>
      <trkpt lat="63.053177" lon="18.325732"/>
      <trkpt lat="63.053537" lon="18.325903"/>
      <trkpt lat="63.053601" lon="18.325935"/>
      <trkpt lat="63.054099" lon="18.32615"/>
      <trkpt lat="63.054532" lon="18.326394"/>
      <trkpt lat="63.054862" lon="18.326644"/>
      <trkpt lat="63.054918" lon="18.32669"/>
      <trkpt lat="63.05528" lon="18.326998"/>
      <trkpt lat="63.055453" lon="18.327175"/>
      <trkpt lat="63.055667" lon="18.327513"/>
      <trkpt lat="63.055847" lon="18.327877"/>
      <trkpt lat="63.056048" lon="18.328312"/>
      <trkpt lat="63.056219" lon="18.328726"/>
      <trkpt lat="63.056315" lon="18.329126"/>
      <trkpt lat="63.056437" lon="18.329645"/>
      <trkpt lat="63.056535" lon="18.33024"/>
      <trkpt lat="63.056609" lon="18.330727"/>
      <trkpt lat="63.056746" lon="18.331679"/>
      <trkpt lat="63.056787" lon="18.332006"/>
      <trkpt lat="63.057006" lon="18.333745"/>
      <trkpt lat="63.057133" lon="18.334816"/>
      <trkpt lat="63.057251" lon="18.335963"/>
      <trkpt lat="63.057242" lon="18.336297"/>
      <trkpt lat="63.057332" lon="18.336475"/>
      <trkpt lat="63.057419303865856" lon="18.337281142129456"/>
      <trkpt lat="63.05757704700872" lon="18.33721701015719"/>
      <trkpt lat="63.05797555218686" lon="18.337189525056516"/>
      <trkpt lat="63.05828272954636" lon="18.337281142158815"/>
      <trkpt lat="63.058739338550794" lon="18.33759264032315"/>
      <trkpt lat="63.059139179022" lon="18.337778856851372"/>
      <trkpt lat="63.05957917124812" lon="18.337925444215898"/>
      <trkpt lat="63.06001500604998" lon="18.338072031579372"/>
      <trkpt lat="63.06047259187619" lon="18.338102327675955"/>
      <trkpt lat="63.060812948217176" lon="18.337882446630204"/>
      <trkpt lat="63.06103293251567" lon="18.337570948482124"/>
      <trkpt lat="63.061273668145446" lon="18.337085377838463"/>
      <trkpt lat="63.061456293847215" lon="18.337112862969605"/>
      <trkpt lat="63.061624522879555" lon="18.336738884793846"/>
      <trkpt lat="63.06233230311909" lon="18.335840905636616"/>
      <trkpt lat="63.06301691529191" lon="18.335687592185963"/>
      <trkpt lat="63.063231886811195" lon="18.33581170311666"/>
      <trkpt lat="63.06347000725455" lon="18.33580440248096"/>
      <trkpt lat="63.06363037182021" lon="18.33616938281986"/>
      <trkpt lat="63.063945" lon="18.337518"/>
      <trkpt lat="63.064088" lon="18.337301"/>
      <trkpt lat="63.064214" lon="18.337664"/>
      <trkpt lat="63.064411" lon="18.338469"/>
      <trkpt lat="63.064533" lon="18.338893"/>
      <trkpt lat="63.064566" lon="18.338937"/>
      <trkpt lat="63.064615" lon="18.338957"/>
      <trkpt lat="63.064665" lon="18.339193"/>
      <trkpt lat="63.064763" lon="18.339531"/>
      <trkpt lat="63.064771" lon="18.339829"/>
      <trkpt lat="63.064764" lon="18.340157"/>
      <trkpt lat="63.064805" lon="18.340403"/>
      <trkpt lat="63.064943" lon="18.340495"/>
      <trkpt lat="63.065038" lon="18.340784"/>
      <trkpt lat="63.065024" lon="18.341128"/>
      <trkpt lat="63.065009" lon="18.341214"/>
      <trkpt lat="63.065036" lon="18.3416"/>
      <trkpt lat="63.064953" lon="18.341852"/>
      <trkpt lat="63.064727" lon="18.342364"/>
      <trkpt lat="63.0647" lon="18.342584"/>
      <trkpt lat="63.06473" lon="18.342871"/>
      <trkpt lat="63.064783" lon="18.34315"/>
      <trkpt lat="63.064884" lon="18.343477"/>
      <trkpt lat="63.064846" lon="18.343719"/>
      <trkpt lat="63.064737" lon="18.344266"/>
      <trkpt lat="63.06472" lon="18.344647"/>
      <trkpt lat="63.064676" lon="18.345071"/>
      <trkpt lat="63.064618" lon="18.345532"/>
      <trkpt lat="63.064569" lon="18.346224"/>
      <trkpt lat="63.064652" lon="18.346669"/>
      <trkpt lat="63.064693" lon="18.347141"/>
      <trkpt lat="63.064805" lon="18.34742"/>
      <trkpt lat="63.064836" lon="18.347833"/>
      <trkpt lat="63.064807" lon="18.348225"/>
      <trkpt lat="63.064878" lon="18.348836"/>
      <trkpt lat="63.065105" lon="18.34917"/>
      <trkpt lat="63.065308" lon="18.349121"/>
      <trkpt lat="63.065488" lon="18.348906"/>
      <trkpt lat="63.065553" lon="18.348531"/>
      <trkpt lat="63.065565" lon="18.348193"/>
      <trkpt lat="63.065531" lon="18.347908"/>
      <trkpt lat="63.06557" lon="18.347656"/>
      <trkpt lat="63.065692" lon="18.347254"/>
      <trkpt lat="63.065838" lon="18.346664"/>
      <trkpt lat="63.065959" lon="18.346465"/>
      <trkpt lat="63.06609" lon="18.346058"/>
      <trkpt lat="63.066172" lon="18.346001"/>
      <trkpt lat="63.066287" lon="18.345999"/>
      <trkpt lat="63.066379" lon="18.345854"/>
      <trkpt lat="63.066445" lon="18.345607"/>
      <trkpt lat="63.066466" lon="18.345422"/>
      <trkpt lat="63.066499" lon="18.345231"/>
      <trkpt lat="63.06654" lon="18.344877"/>
      <trkpt lat="63.066625" lon="18.34484"/>
      <trkpt lat="63.066785" lon="18.3447"/>
      <trkpt lat="63.066929" lon="18.344545"/>
      <trkpt lat="63.067128" lon="18.344459"/>
      <trkpt lat="63.067332" lon="18.34411"/>
      <trkpt lat="63.067456" lon="18.34396"/>
      <trkpt lat="63.067857" lon="18.343708"/>
      <trkpt lat="63.067932" lon="18.343424"/>
      <trkpt lat="63.068041" lon="18.343327"/>
      <trkpt lat="63.068243" lon="18.3433"/>
      <trkpt lat="63.068396" lon="18.343139"/>
      <trkpt lat="63.068676" lon="18.343241"/>
      <trkpt lat="63.068783" lon="18.343241"/>
      <trkpt lat="63.06887" lon="18.343091"/>
      <trkpt lat="63.068868" lon="18.342635"/>
      <trkpt lat="63.06896" lon="18.342549"/>
      <trkpt lat="63.069067" lon="18.342496"/>
      <trkpt lat="63.069176" lon="18.342313"/>
      <trkpt lat="63.069273" lon="18.342345"/>
      <trkpt lat="63.069351" lon="18.342415"/>
      <trkpt lat="63.069477" lon="18.342211"/>
      <trkpt lat="63.069545" lon="18.342324"/>
      <trkpt lat="63.069596" lon="18.342496"/>
      <trkpt lat="63.06974" lon="18.342576"/>
      <trkpt lat="63.06991" lon="18.342624"/>
      <trkpt lat="63.070133" lon="18.342807"/>
      <trkpt lat="63.070328" lon="18.342887"/>
      <trkpt lat="63.070486" lon="18.343166"/>
      <trkpt lat="63.070656" lon="18.343241"/>
      <trkpt lat="63.070716" lon="18.343542"/>
      <trkpt lat="63.070754" lon="18.343924"/>
      <trkpt lat="63.07076" lon="18.343976"/>
      <trkpt lat="63.070812" lon="18.34428"/>
      <trkpt lat="63.07084" lon="18.344443"/>
      <trkpt lat="63.070964" lon="18.344679"/>
      <trkpt lat="63.071134" lon="18.344824"/>
      <trkpt lat="63.071224" lon="18.344942"/>
      <trkpt lat="63.071397" lon="18.34484"/>
      <trkpt lat="63.071601" lon="18.344926"/>
      <trkpt lat="63.071802" lon="18.34492"/>
      <trkpt lat="63.0719" lon="18.344759"/>
      <trkpt lat="63.072024" lon="18.344727"/>
      <trkpt lat="63.072189" lon="18.344438"/>
      <trkpt lat="63.072325" lon="18.344255"/>
      <trkpt lat="63.072682" lon="18.344336"/>
      <trkpt lat="63.072784" lon="18.344593"/>
      <trkpt lat="63.072854" lon="18.344674"/>
      <trkpt lat="63.073051" lon="18.34484"/>
      <trkpt lat="63.073112" lon="18.345178"/>
      <trkpt lat="63.073204" lon="18.345934"/>
      <trkpt lat="63.073207" lon="18.346412"/>
      <trkpt lat="63.073226" lon="18.346583"/>
      <trkpt lat="63.073408" lon="18.34683"/>
      <trkpt lat="63.073498" lon="18.347098"/>
      <trkpt lat="63.073624" lon="18.34742"/>
      <trkpt lat="63.073833" lon="18.347667"/>
      <trkpt lat="63.073892" lon="18.347817"/>
      <trkpt lat="63.073974" lon="18.348225"/>
      <trkpt lat="63.074013" lon="18.348313"/>
      <trkpt lat="63.074135" lon="18.34847"/>
      <trkpt lat="63.07428" lon="18.348697"/>
      <trkpt lat="63.074296" lon="18.348957"/>
      <trkpt lat="63.074407" lon="18.34907"/>
      <trkpt lat="63.074516" lon="18.349143"/>
      <trkpt lat="63.074683" lon="18.349128"/>
      <trkpt lat="63.074712" lon="18.349143"/>
      <trkpt lat="63.074825" lon="18.34932"/>
      <trkpt lat="63.075115" lon="18.34965"/>
      <trkpt lat="63.07523" lon="18.349688"/>
      <trkpt lat="63.07535384735735" lon="18.34982306749706"/>
      <trkpt lat="63.07540808049444" lon="18.34990598387895"/>
      <trkpt lat="63.07552250029812" lon="18.35021671167175"/>
      <trkpt lat="63.07559018942737" lon="18.35036619680275"/>
      <trkpt lat="63.07568911517257" lon="18.35061628592911"/>
      <trkpt lat="63.07582271974732" lon="18.3509638993925"/>
      <trkpt lat="63.07588904993318" lon="18.35120804192701"/>
      <trkpt lat="63.07602170981303" lon="18.35151186371505"/>
      <trkpt lat="63.07620350201702" lon="18.3517885585716"/>
      <trkpt lat="63.07631896405175" lon="18.35185366325305"/>
      <trkpt lat="63.07642199536582" lon="18.35152230827399"/>
      <trkpt lat="63.07645964174463" lon="18.35136498042559"/>
      <trkpt lat="63.07660436707826" lon="18.35133524804607"/>
      <trkpt lat="63.07674572601331" lon="18.35126835017789"/>
      <trkpt lat="63.07694430049884" lon="18.35077033274837"/>
      <trkpt lat="63.07690054691514" lon="18.35037637866162"/>
      <trkpt lat="63.07692747220676" lon="18.35017568506697"/>
      <trkpt lat="63.07698132271074" lon="18.35002702315126"/>
      <trkpt lat="63.07707219521285" lon="18.34973713240882"/>
      <trkpt lat="63.07710921726488" lon="18.34961820286509"/>
      <trkpt lat="63.07716979869801" lon="18.34940264308221"/>
      <trkpt lat="63.07722701438044" lon="18.349172217107"/>
      <trkpt lat="63.07727413309314" lon="18.34906072066764"/>
      <trkpt lat="63.07731115488517" lon="18.34894922422836"/>
      <trkpt lat="63.0773313485702" lon="18.34886746017216"/>
      <trkpt lat="63.07734817663027" lon="18.34877826302105"/>
      <trkpt lat="63.07736837028961" lon="18.34871136515727"/>
      <trkpt lat="63.07739192954111" lon="18.34865190038317"/>
      <trkpt lat="63.07742221998387" lon="18.34854040391747"/>
      <trkpt lat="63.07743904799159" lon="18.34851810462931"/>
      <trkpt lat="63.07746597278341" lon="18.34842147437649"/>
      <trkpt lat="63.07747943517003" lon="18.34833227722456"/>
      <trkpt lat="63.07754468127956" lon="18.34815951063584"/>
      <trkpt lat="63.07761944140819" lon="18.34793660907235"/>
      <trkpt lat="63.07773858489733" lon="18.34761126691558"/>
      <trkpt lat="63.07777560609861" lon="18.34747747118809"/>
      <trkpt lat="63.07780589613722" lon="18.34738084094624"/>
      <trkpt lat="63.077819" lon="18.347321"/>
      <trkpt lat="63.077957" lon="18.347002"/>
      <trkpt lat="63.078124" lon="18.346717"/>
      <trkpt lat="63.078463" lon="18.346229"/>
      <trkpt lat="63.078644" lon="18.345957"/>
      <trkpt lat="63.078781" lon="18.345944"/>
      <trkpt lat="63.078918" lon="18.345974"/>
      <trkpt lat="63.07901" lon="18.345922"/>
      <trkpt lat="63.079204" lon="18.345696"/>
      <trkpt lat="63.079387" lon="18.345525"/>
      <trkpt lat="63.079568" lon="18.345446"/>
      <trkpt lat="63.07977" lon="18.34544"/>
      <trkpt lat="63.079911" lon="18.345487"/>
      <trkpt lat="63.080041" lon="18.345459"/>
      <trkpt lat="63.080104" lon="18.345261"/>
      <trkpt lat="63.08012" lon="18.345007"/>
      <trkpt lat="63.080109" lon="18.344569"/>
      <trkpt lat="63.080165" lon="18.344286"/>
      <trkpt lat="63.080196" lon="18.343934"/>
      <trkpt lat="63.080284" lon="18.34372"/>
      <trkpt lat="63.080382" lon="18.343544"/>
      <trkpt lat="63.080458" lon="18.343386"/>
      <trkpt lat="63.080536" lon="18.343357"/>
      <trkpt lat="63.080594" lon="18.343464"/>
      <trkpt lat="63.080677" lon="18.343492"/>
      <trkpt lat="63.08085" lon="18.343474"/>
      <trkpt lat="63.081028" lon="18.34377"/>
      <trkpt lat="63.081162" lon="18.343904"/>
      <trkpt lat="63.081325" lon="18.343982"/>
      <trkpt lat="63.081405" lon="18.344109"/>
      <trkpt lat="63.081465" lon="18.344775"/>
      <trkpt lat="63.081557" lon="18.34512"/>
      <trkpt lat="63.081681" lon="18.345844"/>
      <trkpt lat="63.081758" lon="18.346096"/>
      <trkpt lat="63.081875" lon="18.34618"/>
      <trkpt lat="63.08188" lon="18.346687"/>
      <trkpt lat="63.081917" lon="18.346852"/>
      <trkpt lat="63.08191" lon="18.347012"/>
      <trkpt lat="63.081666" lon="18.347593"/>
      <trkpt lat="63.081549" lon="18.3479"/>
      <trkpt lat="63.081548" lon="18.34822"/>
      <trkpt lat="63.081458" lon="18.348307"/>
      <trkpt lat="63.08129" lon="18.348351"/>
      <trkpt lat="63.081197" lon="18.348525"/>
      <trkpt lat="63.081063" lon="18.348569"/>
      <trkpt lat="63.080909" lon="18.348641"/>
      <trkpt lat="63.080834" lon="18.348714"/>
      <trkpt lat="63.080825" lon="18.348872"/>
      <trkpt lat="63.080737" lon="18.349231"/>
      <trkpt lat="63.080604" lon="18.349466"/>
      <trkpt lat="63.08055" lon="18.349563"/>
      <trkpt lat="63.080386" lon="18.350368"/>
      <trkpt lat="63.080225" lon="18.350974"/>
      <trkpt lat="63.080096" lon="18.351427"/>
      <trkpt lat="63.079971" lon="18.352045"/>
      <trkpt lat="63.07993" lon="18.3526"/>
      <trkpt lat="63.079964" lon="18.353308"/>
      <trkpt lat="63.079899" lon="18.354277"/>
      <trkpt lat="63.079948" lon="18.354675"/>
      <trkpt lat="63.079968" lon="18.35515"/>
      <trkpt lat="63.07997" lon="18.355683"/>
      <trkpt lat="63.080064" lon="18.356281"/>
      <trkpt lat="63.08014" lon="18.356502"/>
      <trkpt lat="63.080207" lon="18.356822"/>
      <trkpt lat="63.080231" lon="18.357228"/>
      <trkpt lat="63.08022" lon="18.357782"/>
      <trkpt lat="63.080084" lon="18.357674"/>
      <trkpt lat="63.079954" lon="18.357616"/>
      <trkpt lat="63.079821" lon="18.357616"/>
      <trkpt lat="63.079689" lon="18.357666"/>
      <trkpt lat="63.079552" lon="18.357751"/>
      <trkpt lat="63.079402" lon="18.357879"/>
      <trkpt lat="63.079266" lon="18.358022"/>
      <trkpt lat="63.079173" lon="18.358096"/>
      <trkpt lat="63.079082" lon="18.358134"/>
      <trkpt lat="63.078983" lon="18.358141"/>
      <trkpt lat="63.078876" lon="18.358104"/>
      <trkpt lat="63.078791" lon="18.358028"/>
      <trkpt lat="63.078696" lon="18.357917"/>
      <trkpt lat="63.078601" lon="18.357764"/>
      <trkpt lat="63.078536" lon="18.357635"/>
      <trkpt lat="63.07849" lon="18.357594"/>
      <trkpt lat="63.078231" lon="18.357561"/>
      <trkpt lat="63.078113" lon="18.357528"/>
      <trkpt lat="63.078013" lon="18.357486"/>
      <trkpt lat="63.077924" lon="18.357432"/>
      <trkpt lat="63.077825" lon="18.357359"/>
      <trkpt lat="63.077456" lon="18.357047"/>
      <trkpt lat="63.076902" lon="18.356622"/>
      <trkpt lat="63.076814" lon="18.356591"/>
      <trkpt lat="63.076714" lon="18.356588"/>
      <trkpt lat="63.076544" lon="18.356622"/>
      <trkpt lat="63.076182" lon="18.356765"/>
      <trkpt lat="63.076024" lon="18.356799"/>
      <trkpt lat="63.075859" lon="18.356814"/>
      <trkpt lat="63.075669" lon="18.3568"/>
      <trkpt lat="63.075114" lon="18.356679"/>
      <trkpt lat="63.074802" lon="18.356534"/>
      <trkpt lat="63.074558" lon="18.356446"/>
      <trkpt lat="63.074338" lon="18.356387"/>
      <trkpt lat="63.07421" lon="18.356361"/>
      <trkpt lat="63.073913" lon="18.356332"/>
      <trkpt lat="63.073704" lon="18.356291"/>
      <trkpt lat="63.073574" lon="18.356261"/>
      <trkpt lat="63.073428" lon="18.356215"/>
      <trkpt lat="63.073321" lon="18.356161"/>
      <trkpt lat="63.073089" lon="18.356043"/>
      <trkpt lat="63.073002" lon="18.356008"/>
    </trkseg>
  </trk>
</gpx>
