<?xml version="1.0" encoding="UTF-8"?>
<gpx xmlns="http://www.topografix.com/GPX/1/1" xmlns:xsi="http://www.w3.org/2001/XMLSchema-instance" version="1.1" creator="GPX RubyGem 1.0.0 -- http://dougfales.github.io/gpx/" xsi:schemaLocation="http://www.topografix.com/GPX/1/1 http://www.topografix.com/GPX/1/1/gpx.xsd">
  <metadata>
    <name>Etapp 6, Skuleberget - Entré Syd Skuleskogens nationalpark, Höga Kusten-leden by Naturkartan</name>
    <time>2026-04-30T16:07:50+00:00</time>
  </metadata>
  <trk>
    <name>Etapp 6, Skuleberget - Entré Syd Skuleskogens nationalpark, Höga Kusten-leden by Naturkartan</name>
    <trkseg>
      <trkpt lat="63.072801" lon="18.35593"/>
      <trkpt lat="63.072706" lon="18.355905"/>
      <trkpt lat="63.072614" lon="18.355898"/>
      <trkpt lat="63.072541" lon="18.355911"/>
      <trkpt lat="63.072341" lon="18.355982"/>
      <trkpt lat="63.072175" lon="18.35603"/>
      <trkpt lat="63.072037" lon="18.356041"/>
      <trkpt lat="63.071802" lon="18.356008"/>
      <trkpt lat="63.071446" lon="18.355914"/>
      <trkpt lat="63.071347" lon="18.355877"/>
      <trkpt lat="63.071281" lon="18.355842"/>
      <trkpt lat="63.071039" lon="18.355625"/>
      <trkpt lat="63.070978" lon="18.355583"/>
      <trkpt lat="63.07085" lon="18.355523"/>
      <trkpt lat="63.070705" lon="18.355485"/>
      <trkpt lat="63.070474" lon="18.355413"/>
      <trkpt lat="63.070275" lon="18.355316"/>
      <trkpt lat="63.06922" lon="18.354635"/>
      <trkpt lat="63.068747" lon="18.354566"/>
      <trkpt lat="63.068541" lon="18.354493"/>
      <trkpt lat="63.068021" lon="18.354517"/>
      <trkpt lat="63.067297" lon="18.355008"/>
      <trkpt lat="63.06647" lon="18.355516"/>
      <trkpt lat="63.066282" lon="18.355777"/>
      <trkpt lat="63.065969" lon="18.355705"/>
      <trkpt lat="63.065516" lon="18.355628"/>
      <trkpt lat="63.065324" lon="18.355614"/>
      <trkpt lat="63.064774" lon="18.355465"/>
      <trkpt lat="63.064277" lon="18.355296"/>
      <trkpt lat="63.063724" lon="18.355059"/>
      <trkpt lat="63.063283" lon="18.354773"/>
      <trkpt lat="63.063052" lon="18.354577"/>
      <trkpt lat="63.06274" lon="18.354264"/>
      <trkpt lat="63.062543" lon="18.353992"/>
      <trkpt lat="63.062483" lon="18.353849"/>
      <trkpt lat="63.062429" lon="18.353544"/>
      <trkpt lat="63.062411" lon="18.353359"/>
      <trkpt lat="63.062359" lon="18.352948"/>
      <trkpt lat="63.062287" lon="18.352454"/>
      <trkpt lat="63.062144" lon="18.351212"/>
      <trkpt lat="63.062102" lon="18.350787"/>
      <trkpt lat="63.061992" lon="18.35018"/>
      <trkpt lat="63.061939" lon="18.349981"/>
      <trkpt lat="63.061887" lon="18.349846"/>
      <trkpt lat="63.061836" lon="18.349758"/>
      <trkpt lat="63.061583" lon="18.349385"/>
      <trkpt lat="63.061419" lon="18.3502"/>
      <trkpt lat="63.061255" lon="18.351016"/>
      <trkpt lat="63.061305" lon="18.351285"/>
      <trkpt lat="63.061355" lon="18.351554"/>
      <trkpt lat="63.061397" lon="18.351702"/>
      <trkpt lat="63.06144" lon="18.35185"/>
      <trkpt lat="63.061263" lon="18.352256"/>
      <trkpt lat="63.061086" lon="18.352662"/>
      <trkpt lat="63.061219" lon="18.352909"/>
      <trkpt lat="63.061351" lon="18.353155"/>
      <trkpt lat="63.061506" lon="18.353413"/>
      <trkpt lat="63.06166" lon="18.353671"/>
      <trkpt lat="63.061724" lon="18.353952"/>
      <trkpt lat="63.061788" lon="18.354232"/>
      <trkpt lat="63.06176" lon="18.354354"/>
      <trkpt lat="63.061733" lon="18.354475"/>
      <trkpt lat="63.061767" lon="18.354593"/>
      <trkpt lat="63.061801" lon="18.35471"/>
      <trkpt lat="63.061865" lon="18.354828"/>
      <trkpt lat="63.061928" lon="18.354946"/>
      <trkpt lat="63.061949" lon="18.355181"/>
      <trkpt lat="63.06197" lon="18.355416"/>
      <trkpt lat="63.061989" lon="18.355526"/>
      <trkpt lat="63.062008" lon="18.355636"/>
      <trkpt lat="63.062121" lon="18.355822"/>
      <trkpt lat="63.062234" lon="18.356008"/>
      <trkpt lat="63.062315" lon="18.35622"/>
      <trkpt lat="63.062396" lon="18.356433"/>
      <trkpt lat="63.062441" lon="18.356618"/>
      <trkpt lat="63.062485" lon="18.356804"/>
      <trkpt lat="63.062623" lon="18.357017"/>
      <trkpt lat="63.06276" lon="18.357229"/>
      <trkpt lat="63.062894" lon="18.357407"/>
      <trkpt lat="63.063028" lon="18.357586"/>
      <trkpt lat="63.06332" lon="18.357866"/>
      <trkpt lat="63.063612" lon="18.358147"/>
      <trkpt lat="63.063949" lon="18.358458"/>
      <trkpt lat="63.064286" lon="18.358769"/>
      <trkpt lat="63.064487" lon="18.35897"/>
      <trkpt lat="63.064688" lon="18.359171"/>
      <trkpt lat="63.064774" lon="18.359342"/>
      <trkpt lat="63.06486" lon="18.359513"/>
      <trkpt lat="63.065058" lon="18.359634"/>
      <trkpt lat="63.065275" lon="18.359771"/>
      <trkpt lat="63.065256" lon="18.359884"/>
      <trkpt lat="63.06522" lon="18.360176"/>
      <trkpt lat="63.065167" lon="18.360801"/>
      <trkpt lat="63.065152" lon="18.361054"/>
      <trkpt lat="63.065147" lon="18.361423"/>
      <trkpt lat="63.065158" lon="18.361865"/>
      <trkpt lat="63.065167" lon="18.362051"/>
      <trkpt lat="63.065194" lon="18.362356"/>
      <trkpt lat="63.065263" lon="18.362991"/>
      <trkpt lat="63.065345" lon="18.363526"/>
      <trkpt lat="63.06546" lon="18.363969"/>
      <trkpt lat="63.065575" lon="18.364413"/>
      <trkpt lat="63.065717" lon="18.364785"/>
      <trkpt lat="63.06586" lon="18.365157"/>
      <trkpt lat="63.065904" lon="18.365258"/>
      <trkpt lat="63.065947" lon="18.365359"/>
      <trkpt lat="63.065929" lon="18.365444"/>
      <trkpt lat="63.065912" lon="18.365529"/>
      <trkpt lat="63.066063" lon="18.36598"/>
      <trkpt lat="63.066214" lon="18.366431"/>
      <trkpt lat="63.066295" lon="18.366735"/>
      <trkpt lat="63.066375" lon="18.367038"/>
      <trkpt lat="63.066451" lon="18.367182"/>
      <trkpt lat="63.066527" lon="18.367327"/>
      <trkpt lat="63.066597" lon="18.367209"/>
      <trkpt lat="63.066668" lon="18.367091"/>
      <trkpt lat="63.066765" lon="18.36686"/>
      <trkpt lat="63.066852" lon="18.366603"/>
      <trkpt lat="63.06689" lon="18.366526"/>
      <trkpt lat="63.066936" lon="18.366343"/>
      <trkpt lat="63.067123" lon="18.365896"/>
      <trkpt lat="63.067135" lon="18.365875"/>
      <trkpt lat="63.067123" lon="18.365896"/>
      <trkpt lat="63.067811" lon="18.367502"/>
      <trkpt lat="63.068133" lon="18.368196"/>
      <trkpt lat="63.06824" lon="18.368493"/>
      <trkpt lat="63.068358" lon="18.368866"/>
      <trkpt lat="63.068529" lon="18.369623"/>
      <trkpt lat="63.068534" lon="18.36977"/>
      <trkpt lat="63.068601" lon="18.369998"/>
      <trkpt lat="63.068606" lon="18.370277"/>
      <trkpt lat="63.068578" lon="18.370417"/>
      <trkpt lat="63.068498" lon="18.37057"/>
      <trkpt lat="63.068525" lon="18.370929"/>
      <trkpt lat="63.06861" lon="18.371095"/>
      <trkpt lat="63.068685" lon="18.37127"/>
      <trkpt lat="63.068751" lon="18.371586"/>
      <trkpt lat="63.068802" lon="18.372018"/>
      <trkpt lat="63.069001" lon="18.372608"/>
      <trkpt lat="63.069202" lon="18.372683"/>
      <trkpt lat="63.069331" lon="18.372589"/>
      <trkpt lat="63.069353" lon="18.372769"/>
      <trkpt lat="63.069453" lon="18.373085"/>
      <trkpt lat="63.069528" lon="18.373485"/>
      <trkpt lat="63.069533" lon="18.373836"/>
      <trkpt lat="63.069594" lon="18.37397"/>
      <trkpt lat="63.06969" lon="18.373933"/>
      <trkpt lat="63.069741" lon="18.374093"/>
      <trkpt lat="63.069969" lon="18.375011"/>
      <trkpt lat="63.070196" lon="18.37593"/>
      <trkpt lat="63.070485" lon="18.376612"/>
      <trkpt lat="63.070774" lon="18.377295"/>
      <trkpt lat="63.071186" lon="18.377932"/>
      <trkpt lat="63.071598" lon="18.37857"/>
      <trkpt lat="63.071793" lon="18.379765"/>
      <trkpt lat="63.071987" lon="18.380961"/>
      <trkpt lat="63.072181" lon="18.382157"/>
      <trkpt lat="63.072375" lon="18.383353"/>
      <trkpt lat="63.07257" lon="18.384548"/>
      <trkpt lat="63.072629" lon="18.384912"/>
      <trkpt lat="63.072813" lon="18.386115"/>
      <trkpt lat="63.072997" lon="18.387319"/>
      <trkpt lat="63.073182" lon="18.388522"/>
      <trkpt lat="63.073275" lon="18.38913"/>
      <trkpt lat="63.073103" lon="18.390192"/>
      <trkpt lat="63.072931" lon="18.391254"/>
      <trkpt lat="63.0734" lon="18.391992"/>
      <trkpt lat="63.073868" lon="18.392729"/>
      <trkpt lat="63.074127" lon="18.393136"/>
      <trkpt lat="63.074659" lon="18.39362"/>
      <trkpt lat="63.075191" lon="18.394104"/>
      <trkpt lat="63.075722" lon="18.394588"/>
      <trkpt lat="63.076226" lon="18.395046"/>
      <trkpt lat="63.076082" lon="18.395493"/>
      <trkpt lat="63.075718" lon="18.396266"/>
      <trkpt lat="63.075585" lon="18.396396"/>
      <trkpt lat="63.0755" lon="18.396558"/>
      <trkpt lat="63.075202" lon="18.396916"/>
      <trkpt lat="63.074764" lon="18.397347"/>
      <trkpt lat="63.074451" lon="18.397843"/>
      <trkpt lat="63.074234" lon="18.39825"/>
      <trkpt lat="63.074042" lon="18.39855"/>
      <trkpt lat="63.073836" lon="18.398998"/>
      <trkpt lat="63.073626" lon="18.399583"/>
      <trkpt lat="63.073549" lon="18.400185"/>
      <trkpt lat="63.073387" lon="18.400689"/>
      <trkpt lat="63.073111" lon="18.401283"/>
      <trkpt lat="63.073025" lon="18.401565"/>
      <trkpt lat="63.072724" lon="18.402145"/>
      <trkpt lat="63.07266" lon="18.402428"/>
      <trkpt lat="63.072378" lon="18.403249"/>
      <trkpt lat="63.072186" lon="18.403986"/>
      <trkpt lat="63.072" lon="18.404495"/>
      <trkpt lat="63.071859" lon="18.404977"/>
      <trkpt lat="63.071807" lon="18.405387"/>
      <trkpt lat="63.071673" lon="18.40584"/>
      <trkpt lat="63.07166" lon="18.406024"/>
      <trkpt lat="63.071397" lon="18.406973"/>
      <trkpt lat="63.070903" lon="18.408501"/>
      <trkpt lat="63.070692" lon="18.40887"/>
      <trkpt lat="63.070551" lon="18.409436"/>
      <trkpt lat="63.070307" lon="18.409903"/>
      <trkpt lat="63.070217" lon="18.410342"/>
      <trkpt lat="63.070063" lon="18.410767"/>
      <trkpt lat="63.070012" lon="18.411135"/>
      <trkpt lat="63.070006" lon="18.411687"/>
      <trkpt lat="63.069986" lon="18.411913"/>
      <trkpt lat="63.070031" lon="18.412295"/>
      <trkpt lat="63.070031" lon="18.412947"/>
      <trkpt lat="63.070102" lon="18.413442"/>
      <trkpt lat="63.070115" lon="18.414108"/>
      <trkpt lat="63.070085" lon="18.414319"/>
      <trkpt lat="63.070012" lon="18.414844"/>
      <trkpt lat="63.069993" lon="18.41575"/>
      <trkpt lat="63.06991" lon="18.416316"/>
      <trkpt lat="63.069749" lon="18.416967"/>
      <trkpt lat="63.069807" lon="18.417307"/>
      <trkpt lat="63.069961" lon="18.417576"/>
      <trkpt lat="63.070442" lon="18.418171"/>
      <trkpt lat="63.071052" lon="18.419048"/>
      <trkpt lat="63.071257" lon="18.419324"/>
      <trkpt lat="63.071251" lon="18.419615"/>
      <trkpt lat="63.071203" lon="18.419997"/>
      <trkpt lat="63.071049" lon="18.420747"/>
      <trkpt lat="63.071097" lon="18.420931"/>
      <trkpt lat="63.071361" lon="18.42177"/>
      <trkpt lat="63.071503" lon="18.421823"/>
      <trkpt lat="63.071647" lon="18.421878"/>
      <trkpt lat="63.071912" lon="18.42184"/>
      <trkpt lat="63.072101" lon="18.421851"/>
      <trkpt lat="63.072874" lon="18.42205"/>
      <trkpt lat="63.073059" lon="18.422082"/>
      <trkpt lat="63.073236" lon="18.422055"/>
      <trkpt lat="63.073625" lon="18.421905"/>
      <trkpt lat="63.073831" lon="18.421846"/>
      <trkpt lat="63.0739" lon="18.421861"/>
      <trkpt lat="63.073746" lon="18.422848"/>
      <trkpt lat="63.073465" lon="18.422834"/>
      <trkpt lat="63.073116" lon="18.423104"/>
      <trkpt lat="63.072945" lon="18.423347"/>
      <trkpt lat="63.072059" lon="18.423631"/>
      <trkpt lat="63.071986" lon="18.423793"/>
      <trkpt lat="63.071937" lon="18.424063"/>
      <trkpt lat="63.072016" lon="18.424171"/>
      <trkpt lat="63.072029" lon="18.424454"/>
      <trkpt lat="63.072096" lon="18.424549"/>
      <trkpt lat="63.072212" lon="18.424575"/>
      <trkpt lat="63.072267" lon="18.424872"/>
      <trkpt lat="63.072517" lon="18.425372"/>
      <trkpt lat="63.072725" lon="18.425547"/>
      <trkpt lat="63.072805" lon="18.425885"/>
      <trkpt lat="63.072756" lon="18.426425"/>
      <trkpt lat="63.072786" lon="18.426573"/>
      <trkpt lat="63.072884" lon="18.4266"/>
      <trkpt lat="63.072921" lon="18.426843"/>
      <trkpt lat="63.072793" lon="18.426937"/>
      <trkpt lat="63.072572" lon="18.427774"/>
      <trkpt lat="63.072401" lon="18.428085"/>
      <trkpt lat="63.07201" lon="18.429907"/>
      <trkpt lat="63.072023" lon="18.430278"/>
      <trkpt lat="63.07206" lon="18.430348"/>
      <trkpt lat="63.072087" lon="18.430437"/>
      <trkpt lat="63.072098" lon="18.430632"/>
      <trkpt lat="63.072075" lon="18.431014"/>
      <trkpt lat="63.071824" lon="18.432676"/>
      <trkpt lat="63.071511" lon="18.434472"/>
      <trkpt lat="63.071479" lon="18.434914"/>
      <trkpt lat="63.071466" lon="18.43536"/>
      <trkpt lat="63.07148" lon="18.435733"/>
      <trkpt lat="63.071651" lon="18.436449"/>
      <trkpt lat="63.071784" lon="18.437168"/>
      <trkpt lat="63.071881" lon="18.43799"/>
      <trkpt lat="63.071939" lon="18.438767"/>
      <trkpt lat="63.072102" lon="18.441891"/>
      <trkpt lat="63.072197" lon="18.443392"/>
      <trkpt lat="63.072294" lon="18.44394"/>
      <trkpt lat="63.072427" lon="18.4445"/>
      <trkpt lat="63.072542" lon="18.444842"/>
      <trkpt lat="63.07266" lon="18.445208"/>
      <trkpt lat="63.072729" lon="18.445373"/>
      <trkpt lat="63.072789" lon="18.445522"/>
      <trkpt lat="63.072854" lon="18.44558"/>
      <trkpt lat="63.072905" lon="18.445596"/>
      <trkpt lat="63.073488" lon="18.4457"/>
      <trkpt lat="63.074006" lon="18.445791"/>
      <trkpt lat="63.074152" lon="18.445885"/>
      <trkpt lat="63.074279" lon="18.446045"/>
      <trkpt lat="63.075254" lon="18.44843"/>
      <trkpt lat="63.075339" lon="18.448674"/>
      <trkpt lat="63.075384" lon="18.448891"/>
      <trkpt lat="63.075389" lon="18.449099"/>
      <trkpt lat="63.075343" lon="18.450143"/>
      <trkpt lat="63.075289" lon="18.451145"/>
      <trkpt lat="63.075302" lon="18.451607"/>
      <trkpt lat="63.075334" lon="18.451901"/>
      <trkpt lat="63.075368" lon="18.452162"/>
      <trkpt lat="63.075416" lon="18.452308"/>
      <trkpt lat="63.075514" lon="18.452578"/>
      <trkpt lat="63.075928" lon="18.453233"/>
      <trkpt lat="63.076426" lon="18.454457"/>
      <trkpt lat="63.077303" lon="18.456667"/>
      <trkpt lat="63.078229" lon="18.458988"/>
      <trkpt lat="63.078493" lon="18.459713"/>
      <trkpt lat="63.078666" lon="18.460075"/>
      <trkpt lat="63.079232" lon="18.461063"/>
      <trkpt lat="63.080105" lon="18.462457"/>
      <trkpt lat="63.08067" lon="18.463453"/>
      <trkpt lat="63.081118" lon="18.464256"/>
      <trkpt lat="63.0816" lon="18.465004"/>
      <trkpt lat="63.082019" lon="18.465661"/>
      <trkpt lat="63.082282" lon="18.466093"/>
      <trkpt lat="63.082645" lon="18.467071"/>
      <trkpt lat="63.083004" lon="18.468012"/>
      <trkpt lat="63.083127" lon="18.468694"/>
      <trkpt lat="63.083222" lon="18.46971"/>
      <trkpt lat="63.083161" lon="18.470936"/>
      <trkpt lat="63.082959" lon="18.471841"/>
      <trkpt lat="63.082819" lon="18.47303"/>
      <trkpt lat="63.082605" lon="18.474827"/>
      <trkpt lat="63.082628" lon="18.475657"/>
      <trkpt lat="63.082802" lon="18.4764"/>
      <trkpt lat="63.083093" lon="18.477478"/>
      <trkpt lat="63.083312" lon="18.47845"/>
      <trkpt lat="63.083361" lon="18.478512"/>
      <trkpt lat="63.083565" lon="18.478773"/>
      <trkpt lat="63.083713" lon="18.478934"/>
      <trkpt lat="63.083794" lon="18.479041"/>
      <trkpt lat="63.08381" lon="18.479097"/>
      <trkpt lat="63.08386" lon="18.479042"/>
      <trkpt lat="63.083882" lon="18.478976"/>
      <trkpt lat="63.083923" lon="18.478988"/>
      <trkpt lat="63.084035" lon="18.479023"/>
      <trkpt lat="63.084162" lon="18.479084"/>
      <trkpt lat="63.084298" lon="18.479194"/>
      <trkpt lat="63.084429" lon="18.479344"/>
      <trkpt lat="63.084631" lon="18.47966"/>
      <trkpt lat="63.085278" lon="18.480723"/>
      <trkpt lat="63.085585" lon="18.481275"/>
      <trkpt lat="63.085653" lon="18.48139"/>
      <trkpt lat="63.085664" lon="18.48158"/>
      <trkpt lat="63.085649" lon="18.481745"/>
    </trkseg>
  </trk>
</gpx>
