<?xml version="1.0" encoding="UTF-8"?>
<gpx xmlns="http://www.topografix.com/GPX/1/1" xmlns:xsi="http://www.w3.org/2001/XMLSchema-instance" version="1.1" creator="GPX RubyGem 1.0.0 -- http://dougfales.github.io/gpx/" xsi:schemaLocation="http://www.topografix.com/GPX/1/1 http://www.topografix.com/GPX/1/1/gpx.xsd">
  <metadata>
    <name>Etapp 8, Entré Nord Skuleskogens nationalpark - Balesuddens naturreservat, Höga Kusten-Leden by Naturkartan</name>
    <time>2026-04-30T16:07:50+00:00</time>
  </metadata>
  <trk>
    <name>Etapp 8, Entré Nord Skuleskogens nationalpark - Balesuddens naturreservat, Höga Kusten-Leden by Naturkartan</name>
    <trkseg>
      <trkpt lat="63.134315" lon="18.517448"/>
      <trkpt lat="63.134345" lon="18.517547"/>
      <trkpt lat="63.13439" lon="18.517693"/>
      <trkpt lat="63.134528" lon="18.517754"/>
      <trkpt lat="63.134644" lon="18.518049"/>
      <trkpt lat="63.134722" lon="18.518253"/>
      <trkpt lat="63.134753" lon="18.518449"/>
      <trkpt lat="63.134919" lon="18.518451"/>
      <trkpt lat="63.13535" lon="18.518398"/>
      <trkpt lat="63.135831" lon="18.518321"/>
      <trkpt lat="63.136284" lon="18.518215"/>
      <trkpt lat="63.136586" lon="18.518156"/>
      <trkpt lat="63.136832" lon="18.518125"/>
      <trkpt lat="63.137125" lon="18.518315"/>
      <trkpt lat="63.137224" lon="18.518337"/>
      <trkpt lat="63.137569" lon="18.518399"/>
      <trkpt lat="63.13835" lon="18.518512"/>
      <trkpt lat="63.139019" lon="18.518647"/>
      <trkpt lat="63.139731" lon="18.518769"/>
      <trkpt lat="63.140118" lon="18.518845"/>
      <trkpt lat="63.140381" lon="18.518896"/>
      <trkpt lat="63.141117" lon="18.519027"/>
      <trkpt lat="63.141387" lon="18.519017"/>
      <trkpt lat="63.141722" lon="18.518893"/>
      <trkpt lat="63.142424" lon="18.518503"/>
      <trkpt lat="63.142966" lon="18.518209"/>
      <trkpt lat="63.143263" lon="18.517986"/>
      <trkpt lat="63.143476" lon="18.517747"/>
      <trkpt lat="63.143897" lon="18.517195"/>
      <trkpt lat="63.144375" lon="18.516542"/>
      <trkpt lat="63.144692" lon="18.516123"/>
      <trkpt lat="63.14492" lon="18.515726"/>
      <trkpt lat="63.145131" lon="18.515307"/>
      <trkpt lat="63.145506" lon="18.514331"/>
      <trkpt lat="63.145725" lon="18.513872"/>
      <trkpt lat="63.145872" lon="18.513655"/>
      <trkpt lat="63.146054" lon="18.513532"/>
      <trkpt lat="63.146284" lon="18.513469"/>
      <trkpt lat="63.146771" lon="18.5135"/>
      <trkpt lat="63.14716" lon="18.51355"/>
      <trkpt lat="63.147489" lon="18.513416"/>
      <trkpt lat="63.147631" lon="18.51328"/>
      <trkpt lat="63.147789" lon="18.513021"/>
      <trkpt lat="63.148051" lon="18.51241"/>
      <trkpt lat="63.148325" lon="18.511768"/>
      <trkpt lat="63.148498" lon="18.511496"/>
      <trkpt lat="63.148738" lon="18.511236"/>
      <trkpt lat="63.1491" lon="18.510986"/>
      <trkpt lat="63.149633" lon="18.510745"/>
      <trkpt lat="63.150149" lon="18.510544"/>
      <trkpt lat="63.150607" lon="18.510318"/>
      <trkpt lat="63.151643" lon="18.509874"/>
      <trkpt lat="63.152139" lon="18.50951"/>
      <trkpt lat="63.152184" lon="18.509442"/>
      <trkpt lat="63.152235" lon="18.509473"/>
      <trkpt lat="63.152358" lon="18.509547"/>
      <trkpt lat="63.152504" lon="18.509797"/>
      <trkpt lat="63.152632" lon="18.510084"/>
      <trkpt lat="63.152981" lon="18.510931"/>
      <trkpt lat="63.15365" lon="18.512783"/>
      <trkpt lat="63.153802" lon="18.513119"/>
      <trkpt lat="63.153982" lon="18.513244"/>
      <trkpt lat="63.154156" lon="18.513216"/>
      <trkpt lat="63.154274" lon="18.513102"/>
      <trkpt lat="63.154374" lon="18.512943"/>
      <trkpt lat="63.154949" lon="18.512248"/>
      <trkpt lat="63.155347" lon="18.511747"/>
      <trkpt lat="63.155487" lon="18.51157"/>
      <trkpt lat="63.156068" lon="18.510828"/>
      <trkpt lat="63.156478" lon="18.510305"/>
      <trkpt lat="63.156615" lon="18.510131"/>
      <trkpt lat="63.156881" lon="18.509696"/>
      <trkpt lat="63.156954" lon="18.509492"/>
      <trkpt lat="63.157074" lon="18.509163"/>
      <trkpt lat="63.157142" lon="18.508903"/>
      <trkpt lat="63.15729" lon="18.508339"/>
      <trkpt lat="63.157373" lon="18.508212"/>
      <trkpt lat="63.157477" lon="18.508161"/>
      <trkpt lat="63.157571" lon="18.508168"/>
      <trkpt lat="63.157763" lon="18.508314"/>
      <trkpt lat="63.15793" lon="18.50865"/>
      <trkpt lat="63.158161" lon="18.509179"/>
      <trkpt lat="63.158499" lon="18.509861"/>
      <trkpt lat="63.158672" lon="18.51015"/>
      <trkpt lat="63.158912" lon="18.510547"/>
      <trkpt lat="63.159138" lon="18.511001"/>
      <trkpt lat="63.159195" lon="18.511141"/>
      <trkpt lat="63.159374" lon="18.511581"/>
      <trkpt lat="63.159649" lon="18.512114"/>
      <trkpt lat="63.15971" lon="18.512234"/>
      <trkpt lat="63.159777" lon="18.512357"/>
      <trkpt lat="63.160161" lon="18.513071"/>
      <trkpt lat="63.160434" lon="18.51359"/>
      <trkpt lat="63.161573" lon="18.516455"/>
      <trkpt lat="63.162911" lon="18.519819"/>
      <trkpt lat="63.162944" lon="18.519903"/>
      <trkpt lat="63.163079" lon="18.520242"/>
      <trkpt lat="63.163138" lon="18.52039"/>
      <trkpt lat="63.163518" lon="18.521408"/>
      <trkpt lat="63.163623" lon="18.521687"/>
      <trkpt lat="63.163691" lon="18.521871"/>
      <trkpt lat="63.16379" lon="18.522243"/>
      <trkpt lat="63.163907" lon="18.522678"/>
      <trkpt lat="63.164048" lon="18.523441"/>
      <trkpt lat="63.164115" lon="18.524006"/>
      <trkpt lat="63.164193" lon="18.524996"/>
      <trkpt lat="63.164174" lon="18.526249"/>
      <trkpt lat="63.164042" lon="18.527548"/>
      <trkpt lat="63.163806" lon="18.529021"/>
      <trkpt lat="63.163719" lon="18.53002"/>
      <trkpt lat="63.163687" lon="18.531722"/>
      <trkpt lat="63.163842" lon="18.534066"/>
      <trkpt lat="63.163873" lon="18.534765"/>
      <trkpt lat="63.164547" lon="18.545708"/>
      <trkpt lat="63.164636" lon="18.547383"/>
      <trkpt lat="63.164657" lon="18.547791"/>
      <trkpt lat="63.164749" lon="18.548928"/>
      <trkpt lat="63.164797" lon="18.550436"/>
      <trkpt lat="63.164734" lon="18.551913"/>
      <trkpt lat="63.164721" lon="18.552227"/>
      <trkpt lat="63.164704" lon="18.552468"/>
      <trkpt lat="63.164702" lon="18.552488"/>
      <trkpt lat="63.164687" lon="18.552703"/>
      <trkpt lat="63.164601" lon="18.553915"/>
      <trkpt lat="63.16466" lon="18.554964"/>
      <trkpt lat="63.164693" lon="18.555209"/>
      <trkpt lat="63.164794" lon="18.555967"/>
      <trkpt lat="63.16494" lon="18.556752"/>
      <trkpt lat="63.165111" lon="18.557345"/>
      <trkpt lat="63.165243" lon="18.557805"/>
      <trkpt lat="63.165672" lon="18.558715"/>
      <trkpt lat="63.166171" lon="18.559432"/>
      <trkpt lat="63.167294" lon="18.561147"/>
      <trkpt lat="63.168071" lon="18.562306"/>
      <trkpt lat="63.168068" lon="18.562303"/>
      <trkpt lat="63.168187" lon="18.56248"/>
      <trkpt lat="63.168469" lon="18.562904"/>
      <trkpt lat="63.168574" lon="18.56307"/>
      <trkpt lat="63.16957" lon="18.564538"/>
      <trkpt lat="63.170372" lon="18.565728"/>
      <trkpt lat="63.170372" lon="18.565728"/>
      <trkpt lat="63.170713" lon="18.566052"/>
      <trkpt lat="63.171232" lon="18.566543"/>
      <trkpt lat="63.172056" lon="18.56718"/>
      <trkpt lat="63.172292" lon="18.567363"/>
      <trkpt lat="63.172904" lon="18.567853"/>
      <trkpt lat="63.17411" lon="18.5688"/>
      <trkpt lat="63.174513" lon="18.566128"/>
      <trkpt lat="63.174631" lon="18.565345"/>
      <trkpt lat="63.174905" lon="18.565629"/>
      <trkpt lat="63.175058" lon="18.565763"/>
      <trkpt lat="63.175238" lon="18.565922"/>
      <trkpt lat="63.175545" lon="18.566228"/>
      <trkpt lat="63.175709" lon="18.566439"/>
      <trkpt lat="63.175816" lon="18.566696"/>
      <trkpt lat="63.175874" lon="18.566914"/>
      <trkpt lat="63.175833" lon="18.567089"/>
      <trkpt lat="63.175663" lon="18.567814"/>
      <trkpt lat="63.175527" lon="18.56841"/>
      <trkpt lat="63.175237" lon="18.569689"/>
      <trkpt lat="63.174667" lon="18.572064"/>
      <trkpt lat="63.174708" lon="18.572117"/>
      <trkpt lat="63.175024" lon="18.572515"/>
      <trkpt lat="63.175212" lon="18.572752"/>
      <trkpt lat="63.175341" lon="18.572881"/>
      <trkpt lat="63.175489" lon="18.573017"/>
      <trkpt lat="63.175731" lon="18.57319"/>
      <trkpt lat="63.176063" lon="18.573352"/>
      <trkpt lat="63.176345" lon="18.573424"/>
      <trkpt lat="63.176547" lon="18.573346"/>
      <trkpt lat="63.176905" lon="18.573283"/>
      <trkpt lat="63.177248" lon="18.57314"/>
      <trkpt lat="63.177491" lon="18.573049"/>
      <trkpt lat="63.177822" lon="18.572913"/>
      <trkpt lat="63.178138" lon="18.572784"/>
      <trkpt lat="63.178288" lon="18.572782"/>
      <trkpt lat="63.178539" lon="18.572781"/>
      <trkpt lat="63.17874" lon="18.572969"/>
      <trkpt lat="63.178793" lon="18.573744"/>
      <trkpt lat="63.178853" lon="18.577504"/>
      <trkpt lat="63.178921" lon="18.580004"/>
      <trkpt lat="63.178943" lon="18.580708"/>
      <trkpt lat="63.179039" lon="18.581208"/>
      <trkpt lat="63.179127" lon="18.581613"/>
      <trkpt lat="63.179163" lon="18.581969"/>
      <trkpt lat="63.179186" lon="18.582286"/>
      <trkpt lat="63.179165" lon="18.582811"/>
      <trkpt lat="63.179144" lon="18.583234"/>
      <trkpt lat="63.179172" lon="18.583739"/>
      <trkpt lat="63.179316" lon="18.584466"/>
      <trkpt lat="63.17953" lon="18.585494"/>
      <trkpt lat="63.179611" lon="18.585919"/>
      <trkpt lat="63.17965" lon="18.586385"/>
      <trkpt lat="63.179653" lon="18.586863"/>
      <trkpt lat="63.179683" lon="18.588528"/>
      <trkpt lat="63.179767" lon="18.589995"/>
      <trkpt lat="63.179772" lon="18.590894"/>
      <trkpt lat="63.179768" lon="18.591259"/>
      <trkpt lat="63.179792" lon="18.591505"/>
      <trkpt lat="63.179859" lon="18.59173"/>
      <trkpt lat="63.180111" lon="18.592288"/>
      <trkpt lat="63.180848" lon="18.594291"/>
      <trkpt lat="63.180952" lon="18.594799"/>
      <trkpt lat="63.181011" lon="18.595314"/>
      <trkpt lat="63.181035" lon="18.596066"/>
      <trkpt lat="63.181182" lon="18.598425"/>
      <trkpt lat="63.181256" lon="18.599268"/>
      <trkpt lat="63.181291" lon="18.599998"/>
      <trkpt lat="63.181099" lon="18.601551"/>
      <trkpt lat="63.180906" lon="18.602859"/>
      <trkpt lat="63.180652" lon="18.604171"/>
      <trkpt lat="63.180454" lon="18.604847"/>
      <trkpt lat="63.180306" lon="18.605407"/>
      <trkpt lat="63.180219" lon="18.606292"/>
      <trkpt lat="63.18006" lon="18.607119"/>
      <trkpt lat="63.180011" lon="18.607568"/>
      <trkpt lat="63.179996" lon="18.608058"/>
      <trkpt lat="63.179944" lon="18.60903"/>
      <trkpt lat="63.179761" lon="18.609883"/>
      <trkpt lat="63.179674" lon="18.610691"/>
      <trkpt lat="63.179567" lon="18.611616"/>
      <trkpt lat="63.179506" lon="18.612102"/>
      <trkpt lat="63.179479" lon="18.612679"/>
      <trkpt lat="63.179484" lon="18.614124"/>
      <trkpt lat="63.17956" lon="18.614932"/>
      <trkpt lat="63.179859" lon="18.617317"/>
      <trkpt lat="63.180055" lon="18.61822"/>
      <trkpt lat="63.180298" lon="18.618921"/>
      <trkpt lat="63.180544" lon="18.61963"/>
      <trkpt lat="63.180973" lon="18.620606"/>
      <trkpt lat="63.181468" lon="18.621834"/>
      <trkpt lat="63.181843" lon="18.623051"/>
      <trkpt lat="63.182142" lon="18.624063"/>
      <trkpt lat="63.182225" lon="18.624382"/>
      <trkpt lat="63.182821" lon="18.626569"/>
      <trkpt lat="63.183886" lon="18.630122"/>
      <trkpt lat="63.184397" lon="18.631881"/>
      <trkpt lat="63.184615" lon="18.632689"/>
      <trkpt lat="63.184761" lon="18.633652"/>
      <trkpt lat="63.184984" lon="18.635375"/>
      <trkpt lat="63.185169" lon="18.636411"/>
      <trkpt lat="63.185316" lon="18.636929"/>
      <trkpt lat="63.185479" lon="18.637351"/>
      <trkpt lat="63.185696" lon="18.637664"/>
      <trkpt lat="63.185957" lon="18.637748"/>
      <trkpt lat="63.186402" lon="18.637905"/>
      <trkpt lat="63.186582" lon="18.637989"/>
      <trkpt lat="63.186794" lon="18.63835"/>
      <trkpt lat="63.186886" lon="18.638683"/>
      <trkpt lat="63.18694" lon="18.638875"/>
      <trkpt lat="63.187024" lon="18.640027"/>
      <trkpt lat="63.187033" lon="18.641196"/>
      <trkpt lat="63.186998" lon="18.641829"/>
      <trkpt lat="63.186919" lon="18.642314"/>
      <trkpt lat="63.186773" lon="18.643104"/>
      <trkpt lat="63.18671365975732" lon="18.64385048000258"/>
      <trkpt lat="63.18674651014814" lon="18.64457064228085"/>
      <trkpt lat="63.18696186178718" lon="18.6450561449405"/>
      <trkpt lat="63.18677936050173" lon="18.64522607087179"/>
      <trkpt lat="63.18652385676972" lon="18.64508851178459"/>
      <trkpt lat="63.1862537503732" lon="18.6448619438768"/>
      <trkpt lat="63.18593983977416" lon="18.64459491741414"/>
      <trkpt lat="63.18561132503567" lon="18.64389903027677"/>
      <trkpt lat="63.185309" lon="18.643823"/>
      <trkpt lat="63.184474" lon="18.644352"/>
      <trkpt lat="63.183788" lon="18.644584"/>
      <trkpt lat="63.183191" lon="18.645179"/>
      <trkpt lat="63.182729" lon="18.645691"/>
      <trkpt lat="63.182304" lon="18.646055"/>
      <trkpt lat="63.181849" lon="18.646204"/>
      <trkpt lat="63.181282" lon="18.646419"/>
      <trkpt lat="63.180715" lon="18.646733"/>
      <trkpt lat="63.180238" lon="18.647311"/>
      <trkpt lat="63.179716" lon="18.649047"/>
      <trkpt lat="63.179223" lon="18.650039"/>
      <trkpt lat="63.178664" lon="18.652271"/>
      <trkpt lat="63.178515" lon="18.653279"/>
      <trkpt lat="63.17844" lon="18.65389"/>
      <trkpt lat="63.17847" lon="18.654419"/>
      <trkpt lat="63.17859" lon="18.654866"/>
      <trkpt lat="63.178776" lon="18.655064"/>
      <trkpt lat="63.178955" lon="18.654982"/>
      <trkpt lat="63.179171" lon="18.654833"/>
      <trkpt lat="63.179425" lon="18.654502"/>
      <trkpt lat="63.17985" lon="18.653973"/>
      <trkpt lat="63.18032" lon="18.653477"/>
      <trkpt lat="63.180492" lon="18.653312"/>
      <trkpt lat="63.180678" lon="18.653329"/>
      <trkpt lat="63.180782" lon="18.653543"/>
      <trkpt lat="63.180902" lon="18.65389"/>
      <trkpt lat="63.180954" lon="18.654138"/>
      <trkpt lat="63.180946" lon="18.654932"/>
      <trkpt lat="63.180723" lon="18.65594"/>
      <trkpt lat="63.180305" lon="18.656833"/>
      <trkpt lat="63.180066" lon="18.657379"/>
      <trkpt lat="63.179895" lon="18.658122"/>
      <trkpt lat="63.179581" lon="18.658684"/>
      <trkpt lat="63.179306" lon="18.659048"/>
      <trkpt lat="63.179067" lon="18.659478"/>
      <trkpt lat="63.178819" lon="18.659721"/>
      <trkpt lat="63.178682" lon="18.660136"/>
      <trkpt lat="63.178706" lon="18.660696"/>
      <trkpt lat="63.178815" lon="18.661004"/>
      <trkpt lat="63.179006" lon="18.661756"/>
      <trkpt lat="63.17928" lon="18.662388"/>
      <trkpt lat="63.179565" lon="18.663249"/>
      <trkpt lat="63.17975" lon="18.663803"/>
      <trkpt lat="63.179738" lon="18.664539"/>
      <trkpt lat="63.179323" lon="18.665428"/>
      <trkpt lat="63.179034" lon="18.666345"/>
      <trkpt lat="63.179177" lon="18.668496"/>
      <trkpt lat="63.179159" lon="18.669786"/>
      <trkpt lat="63.178512" lon="18.676095"/>
      <trkpt lat="63.178288" lon="18.676879"/>
      <trkpt lat="63.177805" lon="18.677681"/>
      <trkpt lat="63.177456" lon="18.678054"/>
      <trkpt lat="63.177262" lon="18.678847"/>
      <trkpt lat="63.177012" lon="18.680014"/>
      <trkpt lat="63.176378" lon="18.680998"/>
      <trkpt lat="63.176071" lon="18.681648"/>
      <trkpt lat="63.175713" lon="18.682107"/>
      <trkpt lat="63.17542" lon="18.682862"/>
      <trkpt lat="63.175381" lon="18.683435"/>
      <trkpt lat="63.175433" lon="18.684076"/>
      <trkpt lat="63.175377" lon="18.684391"/>
      <trkpt lat="63.175174" lon="18.684362"/>
      <trkpt lat="63.175071" lon="18.684315"/>
      <trkpt lat="63.175049" lon="18.684439"/>
      <trkpt lat="63.175088" lon="18.684869"/>
      <trkpt lat="63.17512" lon="18.685359"/>
      <trkpt lat="63.175101" lon="18.685952"/>
      <trkpt lat="63.175068" lon="18.686374"/>
      <trkpt lat="63.175117" lon="18.68679"/>
      <trkpt lat="63.175192" lon="18.68701"/>
      <trkpt lat="63.175236" lon="18.687163"/>
      <trkpt lat="63.17523" lon="18.687217"/>
      <trkpt lat="63.1752" lon="18.687457"/>
      <trkpt lat="63.175225" lon="18.687995"/>
      <trkpt lat="63.175228" lon="18.688313"/>
      <trkpt lat="63.175189" lon="18.688504"/>
      <trkpt lat="63.175159" lon="18.688851"/>
      <trkpt lat="63.175222" lon="18.689046"/>
      <trkpt lat="63.17548" lon="18.689438"/>
      <trkpt lat="63.17567" lon="18.689964"/>
      <trkpt lat="63.175869" lon="18.690594"/>
      <trkpt lat="63.175864" lon="18.691655"/>
      <trkpt lat="63.175933" lon="18.692449"/>
      <trkpt lat="63.175856" lon="18.693232"/>
      <trkpt lat="63.175308" lon="18.694427"/>
      <trkpt lat="63.174928" lon="18.695937"/>
      <trkpt lat="63.174471" lon="18.696836"/>
      <trkpt lat="63.174299" lon="18.697285"/>
      <trkpt lat="63.174057" lon="18.698021"/>
      <trkpt lat="63.173876" lon="18.698575"/>
      <trkpt lat="63.173634" lon="18.699101"/>
      <trkpt lat="63.173504" lon="18.699405"/>
      <trkpt lat="63.173987" lon="18.699755"/>
      <trkpt lat="63.174312" lon="18.700228"/>
      <trkpt lat="63.175101" lon="18.70101"/>
      <trkpt lat="63.175649" lon="18.701298"/>
      <trkpt lat="63.176429" lon="18.701771"/>
      <trkpt lat="63.176874" lon="18.701874"/>
      <trkpt lat="63.177292" lon="18.700886"/>
      <trkpt lat="63.17797" lon="18.700598"/>
      <trkpt lat="63.17848" lon="18.700619"/>
      <trkpt lat="63.178675" lon="18.700022"/>
      <trkpt lat="63.178657" lon="18.698335"/>
      <trkpt lat="63.178879" lon="18.697389"/>
      <trkpt lat="63.179399" lon="18.697019"/>
      <trkpt lat="63.180086" lon="18.696731"/>
      <trkpt lat="63.180689" lon="18.696649"/>
      <trkpt lat="63.181038" lon="18.696977"/>
      <trkpt lat="63.181442" lon="18.697253"/>
      <trkpt lat="63.182079" lon="18.696823"/>
      <trkpt lat="63.182567" lon="18.697688"/>
      <trkpt lat="63.18297" lon="18.698164"/>
      <trkpt lat="63.183334" lon="18.698459"/>
      <trkpt lat="63.183399" lon="18.698233"/>
      <trkpt lat="63.183538" lon="18.697225"/>
      <trkpt lat="63.183817" lon="18.696854"/>
      <trkpt lat="63.184244" lon="18.696875"/>
      <trkpt lat="63.184828" lon="18.697328"/>
      <trkpt lat="63.185608" lon="18.697965"/>
      <trkpt lat="63.186239" lon="18.698891"/>
      <trkpt lat="63.187018" lon="18.699755"/>
      <trkpt lat="63.18751" lon="18.70031"/>
      <trkpt lat="63.187848" lon="18.701486"/>
      <trkpt lat="63.188125" lon="18.701824"/>
      <trkpt lat="63.188317" lon="18.702059"/>
      <trkpt lat="63.188911" lon="18.702018"/>
      <trkpt lat="63.18952" lon="18.701823"/>
      <trkpt lat="63.190018" lon="18.70182"/>
      <trkpt lat="63.190306" lon="18.701644"/>
      <trkpt lat="63.190496" lon="18.701208"/>
      <trkpt lat="63.190923" lon="18.701019"/>
      <trkpt lat="63.191052" lon="18.700808"/>
      <trkpt lat="63.191258" lon="18.700052"/>
      <trkpt lat="63.191463" lon="18.699488"/>
      <trkpt lat="63.191964" lon="18.699488"/>
      <trkpt lat="63.192715" lon="18.699425"/>
      <trkpt lat="63.193251" lon="18.699512"/>
      <trkpt lat="63.193629" lon="18.699878"/>
      <trkpt lat="63.193791" lon="18.700753"/>
      <trkpt lat="63.194028" lon="18.702576"/>
      <trkpt lat="63.194168" lon="18.703071"/>
      <trkpt lat="63.194399" lon="18.70329"/>
      <trkpt lat="63.194612" lon="18.703547"/>
      <trkpt lat="63.195049" lon="18.70342"/>
      <trkpt lat="63.195341" lon="18.703074"/>
      <trkpt lat="63.196086" lon="18.702709"/>
      <trkpt lat="63.196256" lon="18.702736"/>
      <trkpt lat="63.196315" lon="18.702658"/>
      <trkpt lat="63.196408" lon="18.702499"/>
      <trkpt lat="63.196488" lon="18.702493"/>
      <trkpt lat="63.196559" lon="18.702609"/>
      <trkpt lat="63.196657" lon="18.702727"/>
      <trkpt lat="63.196806" lon="18.702779"/>
      <trkpt lat="63.197845" lon="18.702018"/>
      <trkpt lat="63.198062" lon="18.701618"/>
      <trkpt lat="63.198393" lon="18.701565"/>
      <trkpt lat="63.198509" lon="18.70145"/>
      <trkpt lat="63.198689" lon="18.700804"/>
      <trkpt lat="63.19907" lon="18.700269"/>
      <trkpt lat="63.199663" lon="18.699961"/>
      <trkpt lat="63.200129" lon="18.699821"/>
      <trkpt lat="63.200468" lon="18.700032"/>
      <trkpt lat="63.200637" lon="18.70066"/>
      <trkpt lat="63.200804" lon="18.701545"/>
      <trkpt lat="63.200973" lon="18.701976"/>
      <trkpt lat="63.201008" lon="18.702062"/>
    </trkseg>
  </trk>
</gpx>
