<?xml version="1.0" encoding="UTF-8"?>
<gpx xmlns="http://www.topografix.com/GPX/1/1" xmlns:xsi="http://www.w3.org/2001/XMLSchema-instance" version="1.1" creator="GPX RubyGem 1.0.0 -- http://dougfales.github.io/gpx/" xsi:schemaLocation="http://www.topografix.com/GPX/1/1 http://www.topografix.com/GPX/1/1/gpx.xsd">
  <metadata>
    <name>Etapp 9, Balesuddens naturreservat - Örnsköldsvik, Höga Kusten-Leden by Naturkartan</name>
    <time>2026-04-30T16:07:50+00:00</time>
  </metadata>
  <trk>
    <name>Etapp 9, Balesuddens naturreservat - Örnsköldsvik, Höga Kusten-Leden by Naturkartan</name>
    <trkseg>
      <trkpt lat="63.201008" lon="18.702062"/>
      <trkpt lat="63.201302" lon="18.701792"/>
      <trkpt lat="63.201521" lon="18.701577"/>
      <trkpt lat="63.202012" lon="18.701174"/>
      <trkpt lat="63.202744" lon="18.700567"/>
      <trkpt lat="63.203408" lon="18.70008"/>
      <trkpt lat="63.204101" lon="18.699664"/>
      <trkpt lat="63.204594" lon="18.699366"/>
      <trkpt lat="63.205033" lon="18.699173"/>
      <trkpt lat="63.205447" lon="18.699151"/>
      <trkpt lat="63.205792" lon="18.69883"/>
      <trkpt lat="63.206461" lon="18.698355"/>
      <trkpt lat="63.207071" lon="18.698153"/>
      <trkpt lat="63.207447" lon="18.697926"/>
      <trkpt lat="63.207976" lon="18.697429"/>
      <trkpt lat="63.208344" lon="18.696995"/>
      <trkpt lat="63.208592" lon="18.696543"/>
      <trkpt lat="63.208616" lon="18.696462"/>
      <trkpt lat="63.208656" lon="18.696274"/>
      <trkpt lat="63.208883" lon="18.69534"/>
      <trkpt lat="63.209101" lon="18.694503"/>
      <trkpt lat="63.209149" lon="18.693763"/>
      <trkpt lat="63.209139" lon="18.693162"/>
      <trkpt lat="63.209082" lon="18.692522"/>
      <trkpt lat="63.208996" lon="18.691992"/>
      <trkpt lat="63.208888" lon="18.691574"/>
      <trkpt lat="63.208863" lon="18.691398"/>
      <trkpt lat="63.208884" lon="18.691207"/>
      <trkpt lat="63.209004" lon="18.691021"/>
      <trkpt lat="63.209106" lon="18.69094"/>
      <trkpt lat="63.209284" lon="18.690936"/>
      <trkpt lat="63.209475" lon="18.690899"/>
      <trkpt lat="63.209657" lon="18.690808"/>
      <trkpt lat="63.20977" lon="18.690687"/>
      <trkpt lat="63.20989" lon="18.69054"/>
      <trkpt lat="63.209992" lon="18.690393"/>
      <trkpt lat="63.210131" lon="18.690137"/>
      <trkpt lat="63.210319" lon="18.689783"/>
      <trkpt lat="63.210508" lon="18.689579"/>
      <trkpt lat="63.210817" lon="18.689353"/>
      <trkpt lat="63.211178" lon="18.689032"/>
      <trkpt lat="63.211504" lon="18.688742"/>
      <trkpt lat="63.211783" lon="18.68848"/>
      <trkpt lat="63.212031" lon="18.688249"/>
      <trkpt lat="63.212258" lon="18.688098"/>
      <trkpt lat="63.212529" lon="18.687991"/>
      <trkpt lat="63.212771" lon="18.687991"/>
      <trkpt lat="63.212979" lon="18.688077"/>
      <trkpt lat="63.213148" lon="18.688184"/>
      <trkpt lat="63.213477" lon="18.688474"/>
      <trkpt lat="63.213762" lon="18.688849"/>
      <trkpt lat="63.213943" lon="18.689006"/>
      <trkpt lat="63.214057" lon="18.68915"/>
      <trkpt lat="63.214123" lon="18.68918"/>
      <trkpt lat="63.2142" lon="18.689224"/>
      <trkpt lat="63.214463" lon="18.689171"/>
      <trkpt lat="63.214575" lon="18.689115"/>
      <trkpt lat="63.21469" lon="18.689064"/>
      <trkpt lat="63.21491" lon="18.688885"/>
      <trkpt lat="63.21544" lon="18.688517"/>
      <trkpt lat="63.215933" lon="18.688324"/>
      <trkpt lat="63.216189" lon="18.68827"/>
      <trkpt lat="63.216499" lon="18.688388"/>
      <trkpt lat="63.21675" lon="18.688345"/>
      <trkpt lat="63.216953" lon="18.688302"/>
      <trkpt lat="63.217219" lon="18.68827"/>
      <trkpt lat="63.217519" lon="18.688356"/>
      <trkpt lat="63.21805" lon="18.688656"/>
      <trkpt lat="63.218297" lon="18.688839"/>
      <trkpt lat="63.218481" lon="18.688892"/>
      <trkpt lat="63.218621" lon="18.68886"/>
      <trkpt lat="63.218838" lon="18.688871"/>
      <trkpt lat="63.219071" lon="18.688914"/>
      <trkpt lat="63.219249" lon="18.689021"/>
      <trkpt lat="63.219433" lon="18.689246"/>
      <trkpt lat="63.219641" lon="18.689472"/>
      <trkpt lat="63.219825" lon="18.689557"/>
      <trkpt lat="63.220008" lon="18.689557"/>
      <trkpt lat="63.220231" lon="18.689375"/>
      <trkpt lat="63.220376" lon="18.689192"/>
      <trkpt lat="63.220675" lon="18.688817"/>
      <trkpt lat="63.221666" lon="18.687701"/>
      <trkpt lat="63.221985" lon="18.687487"/>
      <trkpt lat="63.222192" lon="18.687392"/>
      <trkpt lat="63.222314" lon="18.687337"/>
      <trkpt lat="63.222764" lon="18.686961"/>
      <trkpt lat="63.222947" lon="18.686886"/>
      <trkpt lat="63.223266" lon="18.686929"/>
      <trkpt lat="63.223605" lon="18.686897"/>
      <trkpt lat="63.223651" lon="18.686903"/>
      <trkpt lat="63.224992" lon="18.687079"/>
      <trkpt lat="63.22563" lon="18.687219"/>
      <trkpt lat="63.225958" lon="18.687197"/>
      <trkpt lat="63.226205" lon="18.687068"/>
      <trkpt lat="63.226384" lon="18.686907"/>
      <trkpt lat="63.226683" lon="18.686446"/>
      <trkpt lat="63.227142" lon="18.685695"/>
      <trkpt lat="63.227553" lon="18.684794"/>
      <trkpt lat="63.227751" lon="18.684193"/>
      <trkpt lat="63.227954" lon="18.68371"/>
      <trkpt lat="63.228394" lon="18.682981"/>
      <trkpt lat="63.228787" lon="18.682344"/>
      <trkpt lat="63.229042" lon="18.681768"/>
      <trkpt lat="63.229153" lon="18.681135"/>
      <trkpt lat="63.229169" lon="18.681029"/>
      <trkpt lat="63.229206" lon="18.680792"/>
      <trkpt lat="63.229274" lon="18.680567"/>
      <trkpt lat="63.229385" lon="18.680309"/>
      <trkpt lat="63.229413" lon="18.680171"/>
      <trkpt lat="63.22952" lon="18.679655"/>
      <trkpt lat="63.229659" lon="18.679064"/>
      <trkpt lat="63.229791" lon="18.678507"/>
      <trkpt lat="63.229846" lon="18.6782"/>
      <trkpt lat="63.22988" lon="18.678012"/>
      <trkpt lat="63.22995" lon="18.677627"/>
      <trkpt lat="63.23009" lon="18.676458"/>
      <trkpt lat="63.230274" lon="18.67547"/>
      <trkpt lat="63.230535" lon="18.674237"/>
      <trkpt lat="63.230815" lon="18.673035"/>
      <trkpt lat="63.230975" lon="18.672456"/>
      <trkpt lat="63.231052" lon="18.672059"/>
      <trkpt lat="63.23111" lon="18.671415"/>
      <trkpt lat="63.231142" lon="18.670977"/>
      <trkpt lat="63.231153" lon="18.670825"/>
      <trkpt lat="63.231184" lon="18.6704"/>
      <trkpt lat="63.231189" lon="18.670342"/>
      <trkpt lat="63.231202" lon="18.67016"/>
      <trkpt lat="63.231197" lon="18.669591"/>
      <trkpt lat="63.231105" lon="18.669033"/>
      <trkpt lat="63.230994" lon="18.668504"/>
      <trkpt lat="63.230946" lon="18.668271"/>
      <trkpt lat="63.230863" lon="18.667606"/>
      <trkpt lat="63.230863" lon="18.667048"/>
      <trkpt lat="63.230936" lon="18.666244"/>
      <trkpt lat="63.230999" lon="18.665675"/>
      <trkpt lat="63.230994" lon="18.664913"/>
      <trkpt lat="63.230999" lon="18.664119"/>
      <trkpt lat="63.231037" lon="18.663636"/>
      <trkpt lat="63.231116" lon="18.662516"/>
      <trkpt lat="63.23113" lon="18.662364"/>
      <trkpt lat="63.231244" lon="18.661465"/>
      <trkpt lat="63.231263" lon="18.661223"/>
      <trkpt lat="63.231289" lon="18.660644"/>
      <trkpt lat="63.23126" lon="18.660091"/>
      <trkpt lat="63.231174" lon="18.659456"/>
      <trkpt lat="63.231174" lon="18.658643"/>
      <trkpt lat="63.231204" lon="18.658117"/>
      <trkpt lat="63.231234" lon="18.657567"/>
      <trkpt lat="63.231238" lon="18.656773"/>
      <trkpt lat="63.231232" lon="18.656395"/>
      <trkpt lat="63.231219" lon="18.655703"/>
      <trkpt lat="63.231243" lon="18.6551"/>
      <trkpt lat="63.231272" lon="18.654867"/>
      <trkpt lat="63.231288" lon="18.654711"/>
      <trkpt lat="63.231305" lon="18.654456"/>
      <trkpt lat="63.231339" lon="18.65425"/>
      <trkpt lat="63.231379" lon="18.653858"/>
      <trkpt lat="63.23142" lon="18.6536"/>
      <trkpt lat="63.231485" lon="18.652831"/>
      <trkpt lat="63.231546" lon="18.652007"/>
      <trkpt lat="63.231599" lon="18.651557"/>
      <trkpt lat="63.231661" lon="18.651136"/>
      <trkpt lat="63.231709" lon="18.650882"/>
      <trkpt lat="63.232046" lon="18.65022"/>
      <trkpt lat="63.23219" lon="18.650116"/>
      <trkpt lat="63.232354" lon="18.650095"/>
      <trkpt lat="63.232392" lon="18.649605"/>
      <trkpt lat="63.232736" lon="18.647993"/>
      <trkpt lat="63.233078" lon="18.646491"/>
      <trkpt lat="63.23336" lon="18.645322"/>
      <trkpt lat="63.233555" lon="18.644619"/>
      <trkpt lat="63.234288" lon="18.642634"/>
      <trkpt lat="63.23458" lon="18.64199"/>
      <trkpt lat="63.234885" lon="18.641368"/>
      <trkpt lat="63.235062" lon="18.640896"/>
      <trkpt lat="63.235173" lon="18.640376"/>
      <trkpt lat="63.235234" lon="18.639829"/>
      <trkpt lat="63.235277" lon="18.638908"/>
      <trkpt lat="63.235219" lon="18.636976"/>
      <trkpt lat="63.235108" lon="18.634841"/>
      <trkpt lat="63.23505" lon="18.633575"/>
      <trkpt lat="63.235026" lon="18.632776"/>
      <trkpt lat="63.235019" lon="18.631966"/>
      <trkpt lat="63.235019" lon="18.631542"/>
      <trkpt lat="63.235019" lon="18.631317"/>
      <trkpt lat="63.235055" lon="18.630346"/>
      <trkpt lat="63.23506" lon="18.630245"/>
      <trkpt lat="63.235557" lon="18.630353"/>
      <trkpt lat="63.235785" lon="18.630579"/>
      <trkpt lat="63.235925" lon="18.631061"/>
      <trkpt lat="63.236137" lon="18.631276"/>
      <trkpt lat="63.236413" lon="18.631018"/>
      <trkpt lat="63.236702" lon="18.631104"/>
      <trkpt lat="63.237012" lon="18.631179"/>
      <trkpt lat="63.237239" lon="18.630997"/>
      <trkpt lat="63.237437" lon="18.630772"/>
      <trkpt lat="63.237727" lon="18.63045"/>
      <trkpt lat="63.237968" lon="18.630396"/>
      <trkpt lat="63.238403" lon="18.630514"/>
      <trkpt lat="63.238756" lon="18.63074"/>
      <trkpt lat="63.238978" lon="18.631308"/>
      <trkpt lat="63.23921" lon="18.631469"/>
      <trkpt lat="63.239451" lon="18.631555"/>
      <trkpt lat="63.23949" lon="18.631855"/>
      <trkpt lat="63.239369" lon="18.633078"/>
      <trkpt lat="63.239485" lon="18.633583"/>
      <trkpt lat="63.239736" lon="18.634183"/>
      <trkpt lat="63.239867" lon="18.634237"/>
      <trkpt lat="63.240379" lon="18.634076"/>
      <trkpt lat="63.240842" lon="18.634312"/>
      <trkpt lat="63.24107" lon="18.634345"/>
      <trkpt lat="63.241277" lon="18.634259"/>
      <trkpt lat="63.241553" lon="18.63383"/>
      <trkpt lat="63.241731" lon="18.633604"/>
      <trkpt lat="63.242127" lon="18.633433"/>
      <trkpt lat="63.242649" lon="18.63384"/>
      <trkpt lat="63.242963" lon="18.633765"/>
      <trkpt lat="63.243267" lon="18.633486"/>
      <trkpt lat="63.243528" lon="18.633368"/>
      <trkpt lat="63.24377" lon="18.633615"/>
      <trkpt lat="63.244156" lon="18.63399"/>
      <trkpt lat="63.244596" lon="18.634237"/>
      <trkpt lat="63.245016" lon="18.634377"/>
      <trkpt lat="63.245393" lon="18.63457"/>
      <trkpt lat="63.245663" lon="18.634677"/>
      <trkpt lat="63.246001" lon="18.634666"/>
      <trkpt lat="63.246392" lon="18.634495"/>
      <trkpt lat="63.246875" lon="18.634194"/>
      <trkpt lat="63.24746" lon="18.634162"/>
      <trkpt lat="63.247764" lon="18.634194"/>
      <trkpt lat="63.247991" lon="18.63413"/>
      <trkpt lat="63.248406" lon="18.633872"/>
      <trkpt lat="63.249174" lon="18.633068"/>
      <trkpt lat="63.249367" lon="18.632928"/>
      <trkpt lat="63.249512" lon="18.632821"/>
      <trkpt lat="63.249942" lon="18.632048"/>
      <trkpt lat="63.250159" lon="18.631855"/>
      <trkpt lat="63.25084" lon="18.631512"/>
      <trkpt lat="63.250898" lon="18.631544"/>
      <trkpt lat="63.251386" lon="18.631673"/>
      <trkpt lat="63.251695" lon="18.631845"/>
      <trkpt lat="63.252062" lon="18.631888"/>
      <trkpt lat="63.252603" lon="18.631748"/>
      <trkpt lat="63.252747" lon="18.631877"/>
      <trkpt lat="63.253192" lon="18.632188"/>
      <trkpt lat="63.25338" lon="18.632413"/>
      <trkpt lat="63.253771" lon="18.633154"/>
      <trkpt lat="63.254172" lon="18.63383"/>
      <trkpt lat="63.254152" lon="18.634108"/>
      <trkpt lat="63.254032" lon="18.634452"/>
      <trkpt lat="63.253945" lon="18.635053"/>
      <trkpt lat="63.254008" lon="18.635417"/>
      <trkpt lat="63.254244" lon="18.635739"/>
      <trkpt lat="63.254476" lon="18.635954"/>
      <trkpt lat="63.254751" lon="18.636276"/>
      <trkpt lat="63.254896" lon="18.63649"/>
      <trkpt lat="63.255128" lon="18.636769"/>
      <trkpt lat="63.255364" lon="18.636812"/>
      <trkpt lat="63.255601" lon="18.637027"/>
      <trkpt lat="63.25577" lon="18.637456"/>
      <trkpt lat="63.256021" lon="18.63781"/>
      <trkpt lat="63.256253" lon="18.638547"/>
      <trkpt lat="63.256239" lon="18.639073"/>
      <trkpt lat="63.256155" lon="18.639785"/>
      <trkpt lat="63.256181" lon="18.640181"/>
      <trkpt lat="63.256501" lon="18.641127"/>
      <trkpt lat="63.256766" lon="18.641507"/>
      <trkpt lat="63.257178" lon="18.641742"/>
      <trkpt lat="63.257614" lon="18.642276"/>
      <trkpt lat="63.257975" lon="18.642866"/>
      <trkpt lat="63.258221" lon="18.643446"/>
      <trkpt lat="63.258221" lon="18.643447"/>
      <trkpt lat="63.258273" lon="18.64357"/>
      <trkpt lat="63.258393" lon="18.644152"/>
      <trkpt lat="63.25843" lon="18.6445"/>
      <trkpt lat="63.258513" lon="18.645017"/>
      <trkpt lat="63.258743" lon="18.645252"/>
      <trkpt lat="63.259314" lon="18.645567"/>
      <trkpt lat="63.259612" lon="18.646214"/>
      <trkpt lat="63.259776" lon="18.646732"/>
      <trkpt lat="63.259947" lon="18.647072"/>
      <trkpt lat="63.260049" lon="18.64767"/>
      <trkpt lat="63.260056" lon="18.648172"/>
      <trkpt lat="63.26014" lon="18.64856"/>
      <trkpt lat="63.260293" lon="18.649272"/>
      <trkpt lat="63.260475" lon="18.649846"/>
      <trkpt lat="63.260548" lon="18.650291"/>
      <trkpt lat="63.260649" lon="18.650485"/>
      <trkpt lat="63.260639" lon="18.650792"/>
      <trkpt lat="63.260646" lon="18.651059"/>
      <trkpt lat="63.2607" lon="18.651221"/>
      <trkpt lat="63.2607" lon="18.651407"/>
      <trkpt lat="63.260697" lon="18.651674"/>
      <trkpt lat="63.260646" lon="18.651924"/>
      <trkpt lat="63.260595" lon="18.652676"/>
      <trkpt lat="63.260489" lon="18.65296"/>
      <trkpt lat="63.260395" lon="18.653396"/>
      <trkpt lat="63.2603" lon="18.654335"/>
      <trkpt lat="63.260231" lon="18.654739"/>
      <trkpt lat="63.260227" lon="18.655"/>
      <trkpt lat="63.260224" lon="18.655208"/>
      <trkpt lat="63.26018" lon="18.655556"/>
      <trkpt lat="63.259984" lon="18.656235"/>
      <trkpt lat="63.259776" lon="18.65672"/>
      <trkpt lat="63.259572" lon="18.657125"/>
      <trkpt lat="63.25939" lon="18.657715"/>
      <trkpt lat="63.259382" lon="18.65781"/>
      <trkpt lat="63.259347" lon="18.658233"/>
      <trkpt lat="63.259991" lon="18.658063"/>
      <trkpt lat="63.260624" lon="18.658015"/>
      <trkpt lat="63.261192" lon="18.657861"/>
      <trkpt lat="63.261677" lon="18.657969"/>
      <trkpt lat="63.261678" lon="18.657934"/>
      <trkpt lat="63.261677" lon="18.657969"/>
      <trkpt lat="63.261687" lon="18.658292"/>
      <trkpt lat="63.261732" lon="18.658686"/>
      <trkpt lat="63.261668" lon="18.659325"/>
      <trkpt lat="63.26164700000001" lon="18.659479"/>
      <trkpt lat="63.26221744837493" lon="18.65955865986753"/>
      <trkpt lat="63.26278788547618" lon="18.65963831973506"/>
      <trkpt lat="63.26335831130389" lon="18.65971797960259"/>
      <trkpt lat="63.26337579224197" lon="18.65972042083741"/>
      <trkpt lat="63.26362058210351" lon="18.66086841122446"/>
      <trkpt lat="63.26386536988894" lon="18.66201640161151"/>
      <trkpt lat="63.26411015559828" lon="18.66316439199856"/>
      <trkpt lat="63.2642240881339" lon="18.66369871350306"/>
      <trkpt lat="63.26469093128237" lon="18.66296586014148"/>
      <trkpt lat="63.26515776687951" lon="18.66223300677989"/>
      <trkpt lat="63.265568" lon="18.661589"/>
      <trkpt lat="63.265657" lon="18.661384"/>
      <trkpt lat="63.266043" lon="18.660553"/>
      <trkpt lat="63.266509" lon="18.659464"/>
      <trkpt lat="63.266555" lon="18.659346"/>
      <trkpt lat="63.266596" lon="18.659201"/>
      <trkpt lat="63.26669" lon="18.65904"/>
      <trkpt lat="63.266847" lon="18.658847"/>
      <trkpt lat="63.267462" lon="18.657957"/>
      <trkpt lat="63.267549" lon="18.657806"/>
      <trkpt lat="63.267617" lon="18.65764"/>
      <trkpt lat="63.267652" lon="18.657522"/>
      <trkpt lat="63.267715" lon="18.657157"/>
      <trkpt lat="63.267849" lon="18.656787"/>
      <trkpt lat="63.268132" lon="18.656268"/>
      <trkpt lat="63.268483" lon="18.655521"/>
      <trkpt lat="63.26861" lon="18.655288"/>
      <trkpt lat="63.268758" lon="18.655128"/>
      <trkpt lat="63.268974" lon="18.654842"/>
      <trkpt lat="63.269532" lon="18.65559"/>
      <trkpt lat="63.270108" lon="18.656472"/>
      <trkpt lat="63.270273" lon="18.656847"/>
      <trkpt lat="63.270658" lon="18.657521"/>
      <trkpt lat="63.271009" lon="18.657703"/>
      <trkpt lat="63.271519" lon="18.658274"/>
      <trkpt lat="63.271606" lon="18.658372"/>
      <trkpt lat="63.27199" lon="18.658986"/>
      <trkpt lat="63.272373" lon="18.659663"/>
      <trkpt lat="63.272578" lon="18.660073"/>
      <trkpt lat="63.272764" lon="18.660502"/>
      <trkpt lat="63.272847" lon="18.660694"/>
      <trkpt lat="63.27290279639777" lon="18.66086154191026"/>
      <trkpt lat="63.27270910504819" lon="18.66118825800558"/>
      <trkpt lat="63.27247533789455" lon="18.661797138"/>
      <trkpt lat="63.2721213440274" lon="18.66261392823736"/>
      <trkpt lat="63.27150017448014" lon="18.66409900139521"/>
      <trkpt lat="63.27095246550459" lon="18.66555347587362"/>
      <trkpt lat="63.2696299058498" lon="18.66929586023059"/>
      <trkpt lat="63.26865464626204" lon="18.6726224241078"/>
      <trkpt lat="63.26840080616881" lon="18.67529555579335"/>
      <trkpt lat="63.26830728557167" lon="18.67930525332093"/>
      <trkpt lat="63.26820040451796" lon="18.6828397274376"/>
      <trkpt lat="63.26788107650941" lon="18.68628512328618"/>
      <trkpt lat="63.26746613790019" lon="18.69027634542647"/>
      <trkpt lat="63.26863344165758" lon="18.69078192899093"/>
      <trkpt lat="63.27017827304977" lon="18.69079175848319"/>
      <trkpt lat="63.27141861395069" lon="18.69091347284183"/>
      <trkpt lat="63.27211760975231" lon="18.69162754444571"/>
      <trkpt lat="63.27249543826977" lon="18.69173255497557"/>
      <trkpt lat="63.27295827146074" lon="18.6895693380562"/>
      <trkpt lat="63.27396405641576" lon="18.68473142259683"/>
      <trkpt lat="63.27529921495181" lon="18.68595655554739"/>
      <trkpt lat="63.27565547135328" lon="18.68679536264617"/>
      <trkpt lat="63.27602220128855" lon="18.68749436860054"/>
      <trkpt lat="63.27620032557479" lon="18.68793707233334"/>
      <trkpt lat="63.27651465986776" lon="18.68856617765741"/>
      <trkpt lat="63.27669278111338" lon="18.6889156806277"/>
      <trkpt lat="63.27672421416" lon="18.68898558121882"/>
      <trkpt lat="63.27678708015083" lon="18.6889389808243"/>
      <trkpt lat="63.27687457879753" lon="18.68891698089863"/>
      <trkpt lat="63.27707290668044" lon="18.68933702301942"/>
      <trkpt lat="63.27747900237665" lon="18.69015610515441"/>
      <trkpt lat="63.27766909899802" lon="18.69011408148435"/>
      <trkpt lat="63.27791464084109" lon="18.69038710886187"/>
      <trkpt lat="63.27842460568291" lon="18.69059712992166"/>
      <trkpt lat="63.27872680281857" lon="18.6906601362231"/>
      <trkpt lat="63.27917064911762" lon="18.69024009410344"/>
      <trkpt lat="63.27988834357558" lon="18.68958902881619"/>
      <trkpt lat="63.28014330967574" lon="18.68933700354421"/>
      <trkpt lat="63.28036050124268" lon="18.68908497827215"/>
      <trkpt lat="63.28066" lon="18.68889"/>
      <trkpt lat="63.28066" lon="18.689062"/>
      <trkpt lat="63.280649" lon="18.689243"/>
      <trkpt lat="63.280852" lon="18.690249"/>
      <trkpt lat="63.280997" lon="18.690409"/>
      <trkpt lat="63.281073" lon="18.690568"/>
      <trkpt lat="63.281178" lon="18.690821"/>
      <trkpt lat="63.281225" lon="18.690995"/>
      <trkpt lat="63.281342" lon="18.691264"/>
      <trkpt lat="63.281408" lon="18.691416"/>
      <trkpt lat="63.281652" lon="18.691738"/>
      <trkpt lat="63.281817" lon="18.691886"/>
      <trkpt lat="63.28207" lon="18.692073"/>
      <trkpt lat="63.282464" lon="18.692264"/>
      <trkpt lat="63.282898" lon="18.692708"/>
      <trkpt lat="63.282961" lon="18.692792"/>
      <trkpt lat="63.282986" lon="18.692867"/>
      <trkpt lat="63.283039" lon="18.693021"/>
      <trkpt lat="63.283125" lon="18.693172"/>
      <trkpt lat="63.283222" lon="18.693241"/>
      <trkpt lat="63.283329" lon="18.693364"/>
      <trkpt lat="63.283403" lon="18.69347"/>
      <trkpt lat="63.283462" lon="18.693627"/>
      <trkpt lat="63.283581" lon="18.694093"/>
      <trkpt lat="63.283653" lon="18.694287"/>
      <trkpt lat="63.283755" lon="18.694563"/>
      <trkpt lat="63.283619" lon="18.695138"/>
      <trkpt lat="63.283376" lon="18.695905"/>
      <trkpt lat="63.283194" lon="18.696275"/>
      <trkpt lat="63.283285" lon="18.696486"/>
      <trkpt lat="63.283337" lon="18.696502"/>
      <trkpt lat="63.283611" lon="18.696692"/>
      <trkpt lat="63.283707" lon="18.696716"/>
      <trkpt lat="63.28383" lon="18.696669"/>
      <trkpt lat="63.283845" lon="18.696664"/>
      <trkpt lat="63.283957" lon="18.696576"/>
      <trkpt lat="63.284189" lon="18.696514"/>
      <trkpt lat="63.28443" lon="18.696464"/>
      <trkpt lat="63.284637" lon="18.696208"/>
      <trkpt lat="63.284783" lon="18.696129"/>
      <trkpt lat="63.285036" lon="18.695958"/>
      <trkpt lat="63.285179" lon="18.69614"/>
      <trkpt lat="63.285655" lon="18.696987"/>
      <trkpt lat="63.285697" lon="18.697062"/>
      <trkpt lat="63.285919" lon="18.697183"/>
      <trkpt lat="63.28602" lon="18.697169"/>
      <trkpt lat="63.286235" lon="18.696887"/>
      <trkpt lat="63.286322" lon="18.696611"/>
      <trkpt lat="63.286531" lon="18.696295"/>
      <trkpt lat="63.286726" lon="18.696046"/>
      <trkpt lat="63.286968" lon="18.695656"/>
      <trkpt lat="63.287203" lon="18.695064"/>
      <trkpt lat="63.287271" lon="18.694513"/>
      <trkpt lat="63.287338" lon="18.694176"/>
      <trkpt lat="63.287546" lon="18.693975"/>
      <trkpt lat="63.28762" lon="18.69419"/>
      <trkpt lat="63.287762" lon="18.694472"/>
      <trkpt lat="63.287842" lon="18.694667"/>
      <trkpt lat="63.288027" lon="18.694798"/>
      <trkpt lat="63.288112" lon="18.69512"/>
      <trkpt lat="63.28803826778866" lon="18.6953706612878"/>
      <trkpt lat="63.28788098908902" lon="18.69579053139972"/>
      <trkpt lat="63.28776565083083" lon="18.69628037986467"/>
      <trkpt lat="63.2875978852677" lon="18.69649031492133"/>
      <trkpt lat="63.28755594372973" lon="18.69667697524167"/>
      <trkpt lat="63.28750875942086" lon="18.69679360582836"/>
      <trkpt lat="63.28737244876052" lon="18.69707351923668"/>
      <trkpt lat="63.28712235891081" lon="18.69755766426221"/>
      <trkpt lat="63.28646176162229" lon="18.69926047083129"/>
      <trkpt lat="63.28699653202096" lon="18.70054340728709"/>
      <trkpt lat="63.28729012723886" lon="18.70166306092111"/>
      <trkpt lat="63.28739787496363" lon="18.70206200881606"/>
      <trkpt lat="63.287347" lon="18.702697"/>
      <trkpt lat="63.287456" lon="18.703927"/>
      <trkpt lat="63.287523" lon="18.704717"/>
      <trkpt lat="63.288084" lon="18.704479"/>
      <trkpt lat="63.288645" lon="18.704241"/>
      <trkpt lat="63.289206" lon="18.704003"/>
      <trkpt lat="63.289405" lon="18.703919"/>
      <trkpt lat="63.289498" lon="18.704606"/>
      <trkpt lat="63.289504" lon="18.704653"/>
      <trkpt lat="63.289557" lon="18.705013"/>
      <trkpt lat="63.289595" lon="18.705275"/>
      <trkpt lat="63.289609" lon="18.705374"/>
      <trkpt lat="63.289634" lon="18.705617"/>
      <trkpt lat="63.289632" lon="18.705887"/>
      <trkpt lat="63.289622" lon="18.706232"/>
      <trkpt lat="63.289617" lon="18.706533"/>
      <trkpt lat="63.289617" lon="18.70675"/>
      <trkpt lat="63.289628" lon="18.706875"/>
      <trkpt lat="63.289662" lon="18.707103"/>
      <trkpt lat="63.289695" lon="18.707312"/>
      <trkpt lat="63.289648" lon="18.707363"/>
      <trkpt lat="63.289568" lon="18.707529"/>
      <trkpt lat="63.289527" lon="18.707658"/>
      <trkpt lat="63.28951" lon="18.707768"/>
      <trkpt lat="63.289443" lon="18.707889"/>
      <trkpt lat="63.289379" lon="18.707933"/>
      <trkpt lat="63.289332" lon="18.707977"/>
      <trkpt lat="63.289223" lon="18.708033"/>
      <trkpt lat="63.289154" lon="18.707963"/>
      <trkpt lat="63.289045" lon="18.707727"/>
      <trkpt lat="63.289023" lon="18.707714"/>
      <trkpt lat="63.288989" lon="18.707692"/>
      <trkpt lat="63.288829" lon="18.70779"/>
      <trkpt lat="63.288733" lon="18.707868"/>
      <trkpt lat="63.288652" lon="18.707936"/>
      <trkpt lat="63.288174" lon="18.708223"/>
      <trkpt lat="63.288135" lon="18.708324"/>
      <trkpt lat="63.288143" lon="18.708377"/>
      <trkpt lat="63.288084" lon="18.708423"/>
      <trkpt lat="63.288018" lon="18.708476"/>
      <trkpt lat="63.287803" lon="18.708642"/>
      <trkpt lat="63.287448" lon="18.708777"/>
      <trkpt lat="63.287431" lon="18.708784"/>
      <trkpt lat="63.287515" lon="18.709971"/>
      <trkpt lat="63.287635" lon="18.712473"/>
      <trkpt lat="63.287564" lon="18.71315"/>
      <trkpt lat="63.287724" lon="18.713331"/>
      <trkpt lat="63.287752" lon="18.7136"/>
      <trkpt lat="63.287788" lon="18.713691"/>
      <trkpt lat="63.287852" lon="18.713851"/>
      <trkpt lat="63.287913" lon="18.713909"/>
      <trkpt lat="63.287851" lon="18.714117"/>
      <trkpt lat="63.287758" lon="18.714517"/>
      <trkpt lat="63.28769" lon="18.714809"/>
      <trkpt lat="63.287597" lon="18.715099"/>
      <trkpt lat="63.287597" lon="18.715099"/>
    </trkseg>
  </trk>
</gpx>
