{
  "type": "FeatureCollection",
  "features": [
    {
      "type": "Feature",
      "properties": {
        "name": "SAT Furusund unmarked",
        "sectionId": "sat-furusund",
        "sourceUrl": "https://www.outdooractive.com/en/route/hiking-trail/uppland/sat-furusund-unmarked/277477767/"
      },
      "geometry": {
        "type": "LineString",
        "coordinates": [
          [
            18.916061,
            59.660056
          ],
          [
            18.916185,
            59.659999
          ],
          [
            18.916453,
            59.659964
          ],
          [
            18.916768,
            59.659999
          ],
          [
            18.916789,
            59.659938
          ],
          [
            18.916821,
            59.659916
          ],
          [
            18.916873,
            59.659807
          ],
          [
            18.916968,
            59.659804
          ],
          [
            18.916922,
            59.659755
          ],
          [
            18.916831,
            59.659642
          ],
          [
            18.916669,
            59.659529
          ],
          [
            18.916598,
            59.659435
          ],
          [
            18.916637,
            59.659293
          ],
          [
            18.916516,
            59.65927
          ],
          [
            18.916447,
            59.659276
          ],
          [
            18.916659,
            59.659197
          ],
          [
            18.916673,
            59.65914
          ],
          [
            18.916623,
            59.659081
          ],
          [
            18.916529,
            59.659009
          ],
          [
            18.91652,
            59.658929
          ],
          [
            18.916611,
            59.658798
          ],
          [
            18.916684,
            59.658721
          ],
          [
            18.916757,
            59.658673
          ],
          [
            18.916689,
            59.658669
          ],
          [
            18.916571,
            59.658619
          ],
          [
            18.916456,
            59.658599
          ],
          [
            18.916154,
            59.658647
          ],
          [
            18.916035,
            59.658716
          ],
          [
            18.915956,
            59.658719
          ],
          [
            18.91572,
            59.658626
          ],
          [
            18.915368,
            59.658517
          ],
          [
            18.915265,
            59.658454
          ],
          [
            18.915128,
            59.658398
          ],
          [
            18.915059,
            59.658386
          ],
          [
            18.914814,
            59.65826
          ],
          [
            18.914488,
            59.658134
          ],
          [
            18.914418,
            59.658092
          ],
          [
            18.91418,
            59.658019
          ],
          [
            18.914018,
            59.658004
          ],
          [
            18.913775,
            59.658011
          ],
          [
            18.91363,
            59.658033
          ],
          [
            18.913522,
            59.658093
          ],
          [
            18.913194,
            59.658322
          ],
          [
            18.913012,
            59.658386
          ],
          [
            18.912529,
            59.658484
          ],
          [
            18.912379,
            59.658442
          ],
          [
            18.912131,
            59.658336
          ],
          [
            18.911499,
            59.658286
          ],
          [
            18.910316,
            59.658009
          ],
          [
            18.910073,
            59.657934
          ],
          [
            18.909843,
            59.657829
          ],
          [
            18.909649,
            59.65771
          ],
          [
            18.908971,
            59.657469
          ],
          [
            18.908752,
            59.657422
          ],
          [
            18.908511,
            59.657405
          ],
          [
            18.908137,
            59.657418
          ],
          [
            18.9079,
            59.657443
          ],
          [
            18.907593,
            59.657534
          ],
          [
            18.907249,
            59.657727
          ],
          [
            18.907049,
            59.65778
          ],
          [
            18.905473,
            59.657852
          ],
          [
            18.905365,
            59.657832
          ],
          [
            18.904855,
            59.657598
          ],
          [
            18.90459,
            59.657448
          ],
          [
            18.90439,
            59.657306
          ],
          [
            18.904173,
            59.657213
          ],
          [
            18.903865,
            59.657126
          ],
          [
            18.903755,
            59.65712
          ],
          [
            18.903578,
            59.657147
          ],
          [
            18.903184,
            59.657278
          ],
          [
            18.90314,
            59.657333
          ],
          [
            18.903015,
            59.657339
          ],
          [
            18.902313,
            59.657076
          ],
          [
            18.902204,
            59.657047
          ],
          [
            18.902069,
            59.656952
          ],
          [
            18.901345,
            59.656891
          ],
          [
            18.901001,
            59.65692
          ],
          [
            18.900507,
            59.656905
          ],
          [
            18.900405,
            59.656834
          ],
          [
            18.900435,
            59.656851
          ],
          [
            18.900341,
            59.656842
          ],
          [
            18.900169,
            59.656778
          ],
          [
            18.900051,
            59.656769
          ],
          [
            18.89996,
            59.656738
          ],
          [
            18.899882,
            59.656677
          ],
          [
            18.899783,
            59.656648
          ],
          [
            18.89973,
            59.656648
          ],
          [
            18.899717,
            59.656633
          ],
          [
            18.899677,
            59.656654
          ],
          [
            18.899467,
            59.65668
          ],
          [
            18.899535,
            59.656707
          ],
          [
            18.89935,
            59.656679
          ],
          [
            18.899174,
            59.656701
          ],
          [
            18.898851,
            59.6568
          ],
          [
            18.898636,
            59.656835
          ],
          [
            18.898527,
            59.656826
          ],
          [
            18.898372,
            59.656837
          ],
          [
            18.898361,
            59.656872
          ],
          [
            18.898221,
            59.656881
          ],
          [
            18.89796,
            59.657001
          ],
          [
            18.897852,
            59.65707
          ],
          [
            18.897795,
            59.657143
          ],
          [
            18.897808,
            59.657186
          ],
          [
            18.89776,
            59.657204
          ],
          [
            18.897794,
            59.657171
          ],
          [
            18.897742,
            59.657135
          ],
          [
            18.897653,
            59.657162
          ],
          [
            18.897366,
            59.657191
          ],
          [
            18.897212,
            59.657225
          ],
          [
            18.89709,
            59.657286
          ],
          [
            18.897187,
            59.657373
          ],
          [
            18.897113,
            59.657415
          ],
          [
            18.897104,
            59.657467
          ],
          [
            18.897198,
            59.657503
          ],
          [
            18.897303,
            59.657606
          ],
          [
            18.897421,
            59.657671
          ],
          [
            18.897524,
            59.657706
          ],
          [
            18.897609,
            59.657811
          ],
          [
            18.897824,
            59.657943
          ],
          [
            18.897825,
            59.657981
          ],
          [
            18.897877,
            59.658032
          ],
          [
            18.897933,
            59.658046
          ],
          [
            18.897995,
            59.6581
          ],
          [
            18.898026,
            59.658153
          ],
          [
            18.898115,
            59.658202
          ],
          [
            18.898268,
            59.658253
          ],
          [
            18.898546,
            59.658285
          ],
          [
            18.898709,
            59.658271
          ],
          [
            18.89884,
            59.658322
          ],
          [
            18.899224,
            59.658342
          ],
          [
            18.89933,
            59.658364
          ],
          [
            18.899627,
            59.658311
          ],
          [
            18.899727,
            59.658335
          ],
          [
            18.900074,
            59.658319
          ],
          [
            18.90018,
            59.658331
          ],
          [
            18.900207,
            59.658355
          ],
          [
            18.90017,
            59.658444
          ],
          [
            18.900156,
            59.658609
          ],
          [
            18.900054,
            59.658759
          ],
          [
            18.899986,
            59.658808
          ],
          [
            18.899984,
            59.658868
          ],
          [
            18.900051,
            59.658914
          ],
          [
            18.900043,
            59.658969
          ],
          [
            18.900009,
            59.659022
          ],
          [
            18.90002,
            59.659126
          ],
          [
            18.900078,
            59.659207
          ],
          [
            18.900073,
            59.65926
          ],
          [
            18.900233,
            59.6594
          ],
          [
            18.900251,
            59.659479
          ],
          [
            18.900309,
            59.659551
          ],
          [
            18.900304,
            59.659636
          ],
          [
            18.900289,
            59.659666
          ],
          [
            18.900301,
            59.659707
          ],
          [
            18.900392,
            59.659873
          ],
          [
            18.900523,
            59.65993
          ],
          [
            18.900577,
            59.659974
          ],
          [
            18.900841,
            59.660073
          ],
          [
            18.901066,
            59.660187
          ],
          [
            18.901268,
            59.660322
          ],
          [
            18.901373,
            59.660356
          ],
          [
            18.901401,
            59.660383
          ],
          [
            18.901406,
            59.660444
          ],
          [
            18.901435,
            59.66047
          ],
          [
            18.901655,
            59.660495
          ],
          [
            18.901788,
            59.660588
          ],
          [
            18.901816,
            59.660652
          ],
          [
            18.902218,
            59.660902
          ],
          [
            18.902215,
            59.660934
          ],
          [
            18.902162,
            59.661
          ],
          [
            18.902194,
            59.661049
          ],
          [
            18.902189,
            59.661114
          ],
          [
            18.902248,
            59.661196
          ],
          [
            18.902304,
            59.661333
          ],
          [
            18.902438,
            59.661417
          ],
          [
            18.902488,
            59.661465
          ],
          [
            18.902585,
            59.66149
          ],
          [
            18.902762,
            59.661602
          ],
          [
            18.90274,
            59.661565
          ],
          [
            18.902958,
            59.661631
          ],
          [
            18.90315,
            59.66164
          ],
          [
            18.903562,
            59.661802
          ],
          [
            18.903638,
            59.661854
          ],
          [
            18.903733,
            59.661873
          ],
          [
            18.903814,
            59.66191
          ],
          [
            18.903776,
            59.661961
          ],
          [
            18.902994,
            59.662276
          ],
          [
            18.902838,
            59.662379
          ],
          [
            18.902826,
            59.66241
          ],
          [
            18.902858,
            59.662438
          ],
          [
            18.902912,
            59.662441
          ],
          [
            18.90304,
            59.662574
          ],
          [
            18.903131,
            59.662642
          ],
          [
            18.903164,
            59.662694
          ],
          [
            18.903429,
            59.662828
          ],
          [
            18.903537,
            59.662842
          ],
          [
            18.90367,
            59.662889
          ],
          [
            18.903704,
            59.662919
          ],
          [
            18.904104,
            59.663067
          ],
          [
            18.904164,
            59.663069
          ],
          [
            18.90431,
            59.663122
          ],
          [
            18.90447,
            59.663214
          ],
          [
            18.904651,
            59.663232
          ],
          [
            18.904727,
            59.663255
          ],
          [
            18.904945,
            59.663423
          ],
          [
            18.905075,
            59.663482
          ],
          [
            18.905177,
            59.66351
          ],
          [
            18.905253,
            59.663553
          ],
          [
            18.905486,
            59.663598
          ],
          [
            18.905706,
            59.663662
          ],
          [
            18.905874,
            59.663742
          ],
          [
            18.906245,
            59.663863
          ],
          [
            18.906361,
            59.663873
          ],
          [
            18.906498,
            59.66393
          ],
          [
            18.906606,
            59.663919
          ],
          [
            18.906644,
            59.663902
          ],
          [
            18.90683,
            59.663905
          ],
          [
            18.906975,
            59.663934
          ],
          [
            18.907146,
            59.663936
          ],
          [
            18.907521,
            59.664006
          ],
          [
            18.907746,
            59.663971
          ],
          [
            18.907824,
            59.66393
          ],
          [
            18.908264,
            59.663997
          ],
          [
            18.908316,
            59.663993
          ],
          [
            18.908366,
            59.664034
          ],
          [
            18.908367,
            59.664058
          ],
          [
            18.908456,
            59.664079
          ],
          [
            18.908475,
            59.664109
          ],
          [
            18.908854,
            59.664301
          ],
          [
            18.909119,
            59.664323
          ],
          [
            18.90926,
            59.664359
          ],
          [
            18.909331,
            59.664396
          ],
          [
            18.909325,
            59.664423
          ],
          [
            18.909341,
            59.664444
          ],
          [
            18.909403,
            59.66446
          ],
          [
            18.909751,
            59.66452
          ],
          [
            18.910037,
            59.664548
          ],
          [
            18.910313,
            59.664499
          ],
          [
            18.910535,
            59.664514
          ],
          [
            18.91065,
            59.664504
          ],
          [
            18.910746,
            59.664491
          ],
          [
            18.910816,
            59.664458
          ],
          [
            18.910954,
            59.664431
          ],
          [
            18.911009,
            59.664442
          ],
          [
            18.911086,
            59.664483
          ],
          [
            18.911104,
            59.664541
          ],
          [
            18.911314,
            59.66467
          ],
          [
            18.911601,
            59.664774
          ],
          [
            18.911681,
            59.664786
          ],
          [
            18.911991,
            59.664703
          ],
          [
            18.912042,
            59.664668
          ],
          [
            18.912076,
            59.664564
          ],
          [
            18.912099,
            59.664539
          ],
          [
            18.912106,
            59.664454
          ],
          [
            18.912175,
            59.664382
          ],
          [
            18.912233,
            59.664299
          ],
          [
            18.912246,
            59.664248
          ],
          [
            18.912326,
            59.664147
          ],
          [
            18.91241,
            59.664112
          ],
          [
            18.913468,
            59.663901
          ],
          [
            18.913675,
            59.663919
          ],
          [
            18.914461,
            59.663879
          ],
          [
            18.914567,
            59.663897
          ],
          [
            18.914647,
            59.663933
          ],
          [
            18.914825,
            59.664114
          ],
          [
            18.915152,
            59.664268
          ],
          [
            18.915373,
            59.664396
          ],
          [
            18.915528,
            59.664519
          ],
          [
            18.915531,
            59.664558
          ],
          [
            18.915609,
            59.664599
          ],
          [
            18.915675,
            59.664597
          ],
          [
            18.915683,
            59.664737
          ],
          [
            18.915716,
            59.664795
          ],
          [
            18.915859,
            59.664889
          ],
          [
            18.915851,
            59.664913
          ],
          [
            18.915918,
            59.664961
          ],
          [
            18.915897,
            59.665055
          ],
          [
            18.91581,
            59.665091
          ],
          [
            18.915288,
            59.665402
          ],
          [
            18.91521,
            59.665478
          ],
          [
            18.915064,
            59.665512
          ],
          [
            18.915023,
            59.665564
          ],
          [
            18.91502,
            59.665597
          ],
          [
            18.914915,
            59.665621
          ],
          [
            18.914902,
            59.665674
          ],
          [
            18.914944,
            59.665701
          ],
          [
            18.914996,
            59.665723
          ],
          [
            18.915234,
            59.665757
          ],
          [
            18.915472,
            59.665752
          ],
          [
            18.915706,
            59.665826
          ],
          [
            18.915769,
            59.665811
          ],
          [
            18.915938,
            59.665819
          ],
          [
            18.916072,
            59.665866
          ],
          [
            18.916228,
            59.665962
          ],
          [
            18.916289,
            59.66598
          ],
          [
            18.916348,
            59.666128
          ],
          [
            18.916543,
            59.666219
          ],
          [
            18.917139,
            59.666223
          ],
          [
            18.917261,
            59.666212
          ],
          [
            18.917454,
            59.666248
          ],
          [
            18.917492,
            59.666226
          ],
          [
            18.917561,
            59.666228
          ],
          [
            18.917501,
            59.666203
          ],
          [
            18.917576,
            59.666181
          ],
          [
            18.917801,
            59.666204
          ],
          [
            18.918043,
            59.666263
          ],
          [
            18.918092,
            59.666254
          ],
          [
            18.918275,
            59.666284
          ],
          [
            18.918383,
            59.666317
          ],
          [
            18.918567,
            59.666309
          ],
          [
            18.918732,
            59.666256
          ],
          [
            18.918798,
            59.666274
          ],
          [
            18.918944,
            59.666233
          ],
          [
            18.919036,
            59.665638
          ],
          [
            18.919621,
            59.665233
          ],
          [
            18.920345,
            59.66566
          ],
          [
            18.922883,
            59.665926
          ],
          [
            18.923671,
            59.666148
          ],
          [
            18.924015,
            59.666451
          ],
          [
            18.924401,
            59.666841
          ],
          [
            18.924615,
            59.667296
          ],
          [
            18.924744,
            59.66799
          ],
          [
            18.92483,
            59.668488
          ],
          [
            18.925238,
            59.668738
          ],
          [
            18.926246,
            59.668662
          ],
          [
            18.926761,
            59.66851
          ],
          [
            18.92822,
            59.66851
          ],
          [
            18.928821,
            59.668477
          ],
          [
            18.929594,
            59.668618
          ],
          [
            18.930109,
            59.66838
          ],
          [
            18.93101,
            59.668542
          ],
          [
            18.931911,
            59.668738
          ],
          [
            18.932705,
            59.668629
          ],
          [
            18.933821,
            59.668174
          ],
          [
            18.93337,
            59.668412
          ],
          [
            18.934121,
            59.667946
          ],
          [
            18.934389,
            59.667522
          ],
          [
            18.934373,
            59.667555
          ],
          [
            18.934442,
            59.667464
          ],
          [
            18.934436,
            59.667373
          ],
          [
            18.934453,
            59.667342
          ],
          [
            18.934415,
            59.667222
          ],
          [
            18.934442,
            59.667164
          ],
          [
            18.934396,
            59.667085
          ],
          [
            18.934387,
            59.667023
          ],
          [
            18.934426,
            59.666958
          ],
          [
            18.934333,
            59.666841
          ],
          [
            18.934171,
            59.666762
          ],
          [
            18.934103,
            59.666583
          ],
          [
            18.934079,
            59.666557
          ],
          [
            18.934072,
            59.666395
          ],
          [
            18.934016,
            59.666379
          ],
          [
            18.933953,
            59.666331
          ],
          [
            18.93373,
            59.666285
          ],
          [
            18.933656,
            59.666288
          ],
          [
            18.933619,
            59.666268
          ],
          [
            18.933597,
            59.666211
          ],
          [
            18.933149,
            59.6661
          ],
          [
            18.933122,
            59.666077
          ],
          [
            18.933113,
            59.666044
          ],
          [
            18.932961,
            59.666008
          ],
          [
            18.932917,
            59.665956
          ],
          [
            18.932697,
            59.665917
          ],
          [
            18.932477,
            59.66585
          ],
          [
            18.932387,
            59.665732
          ],
          [
            18.932302,
            59.665703
          ],
          [
            18.932116,
            59.665587
          ],
          [
            18.93199,
            59.665544
          ],
          [
            18.932118,
            59.665517
          ],
          [
            18.932071,
            59.665519
          ],
          [
            18.932047,
            59.665548
          ],
          [
            18.931967,
            59.665531
          ],
          [
            18.931734,
            59.665558
          ],
          [
            18.931601,
            59.665591
          ],
          [
            18.931587,
            59.665618
          ],
          [
            18.931543,
            59.665635
          ],
          [
            18.931526,
            59.665663
          ],
          [
            18.931478,
            59.665669
          ],
          [
            18.931275,
            59.665771
          ],
          [
            18.931106,
            59.665794
          ],
          [
            18.931058,
            59.665809
          ],
          [
            18.931032,
            59.66584
          ],
          [
            18.930769,
            59.665867
          ],
          [
            18.930498,
            59.665981
          ],
          [
            18.93044,
            59.665971
          ],
          [
            18.930095,
            59.666015
          ],
          [
            18.929759,
            59.666102
          ],
          [
            18.929549,
            59.666133
          ],
          [
            18.929459,
            59.666178
          ],
          [
            18.92929,
            59.666227
          ],
          [
            18.929156,
            59.666234
          ],
          [
            18.929082,
            59.666204
          ],
          [
            18.928687,
            59.666183
          ],
          [
            18.928401,
            59.66615
          ],
          [
            18.928227,
            59.666167
          ],
          [
            18.928122,
            59.666159
          ],
          [
            18.927986,
            59.666177
          ],
          [
            18.927883,
            59.666214
          ],
          [
            18.927737,
            59.666344
          ],
          [
            18.927653,
            59.666381
          ],
          [
            18.927587,
            59.666395
          ],
          [
            18.927403,
            59.666395
          ],
          [
            18.9273,
            59.666369
          ],
          [
            18.927192,
            59.666311
          ],
          [
            18.927111,
            59.666217
          ],
          [
            18.926438,
            59.665789
          ],
          [
            18.926202,
            59.665717
          ],
          [
            18.925646,
            59.665642
          ],
          [
            18.925373,
            59.665595
          ],
          [
            18.925267,
            59.665559
          ],
          [
            18.924876,
            59.66552
          ],
          [
            18.924631,
            59.66547
          ],
          [
            18.924268,
            59.665442
          ],
          [
            18.924045,
            59.665444
          ],
          [
            18.923797,
            59.665392
          ],
          [
            18.923696,
            59.665361
          ],
          [
            18.923547,
            59.665164
          ],
          [
            18.923293,
            59.664949
          ],
          [
            18.923119,
            59.664876
          ],
          [
            18.922886,
            59.664805
          ],
          [
            18.922727,
            59.66467
          ],
          [
            18.922479,
            59.664508
          ],
          [
            18.922382,
            59.664474
          ],
          [
            18.921717,
            59.664346
          ],
          [
            18.921413,
            59.664314
          ],
          [
            18.921187,
            59.664337
          ],
          [
            18.92112,
            59.664327
          ],
          [
            18.920947,
            59.664237
          ],
          [
            18.920928,
            59.664183
          ],
          [
            18.92096,
            59.664131
          ],
          [
            18.921005,
            59.663967
          ],
          [
            18.921,
            59.663913
          ],
          [
            18.921055,
            59.66386
          ],
          [
            18.921154,
            59.663555
          ],
          [
            18.921145,
            59.663416
          ],
          [
            18.921184,
            59.663331
          ],
          [
            18.921182,
            59.663164
          ],
          [
            18.921218,
            59.663111
          ],
          [
            18.921246,
            59.662996
          ],
          [
            18.92131,
            59.662838
          ],
          [
            18.921317,
            59.662771
          ],
          [
            18.921348,
            59.662718
          ],
          [
            18.921327,
            59.662661
          ],
          [
            18.921345,
            59.662517
          ],
          [
            18.921334,
            59.662353
          ],
          [
            18.921268,
            59.66227
          ],
          [
            18.921191,
            59.662225
          ],
          [
            18.921078,
            59.662205
          ],
          [
            18.920894,
            59.662206
          ],
          [
            18.919796,
            59.662085
          ],
          [
            18.919253,
            59.662053
          ],
          [
            18.918591,
            59.6619
          ],
          [
            18.917165,
            59.661455
          ],
          [
            18.916914,
            59.66139
          ],
          [
            18.916924,
            59.66136
          ],
          [
            18.916506,
            59.661266
          ],
          [
            18.916104,
            59.661131
          ],
          [
            18.916002,
            59.661067
          ],
          [
            18.915959,
            59.661012
          ],
          [
            18.915989,
            59.660701
          ],
          [
            18.91598,
            59.66065
          ],
          [
            18.916031,
            59.660482
          ],
          [
            18.916002,
            59.660287
          ],
          [
            18.915999,
            59.660132
          ],
          [
            18.915986,
            59.660107
          ]
        ]
      }
    }
  ]
}
