{
  "type": "FeatureCollection",
  "features": [
    {
      "type": "Feature",
      "properties": {
        "name": "SAT Ålö H25",
        "sectionId": "sat-alo",
        "sourceUrl": "https://stockholmarchipelagotrail.com/app/uploads/2025/11/t330711114_sat-aloe-h25-1.gpx"
      },
      "geometry": {
        "type": "LineString",
        "coordinates": [
          [
            18.191825,
            58.919988
          ],
          [
            18.192014,
            58.920014
          ],
          [
            18.192292,
            58.919999
          ],
          [
            18.192656,
            58.920074
          ],
          [
            18.193182,
            58.920152
          ],
          [
            18.19388,
            58.920423
          ],
          [
            18.194084,
            58.920368
          ],
          [
            18.194551,
            58.920214
          ],
          [
            18.194666,
            58.920195
          ],
          [
            18.19527,
            58.920294
          ],
          [
            18.195868,
            58.919644
          ],
          [
            18.195843,
            58.919572
          ],
          [
            18.196036,
            58.919346
          ],
          [
            18.196103,
            58.919209
          ],
          [
            18.196299,
            58.918941
          ],
          [
            18.196107,
            58.91879
          ],
          [
            18.194865,
            58.918361
          ],
          [
            18.1944,
            58.918079
          ],
          [
            18.1936,
            58.917751
          ],
          [
            18.192841,
            58.917371
          ],
          [
            18.191963,
            58.917048
          ],
          [
            18.191544,
            58.916855
          ],
          [
            18.191586,
            58.916828
          ],
          [
            18.19062,
            58.916447
          ],
          [
            18.190556,
            58.916474
          ],
          [
            18.190726,
            58.916474
          ],
          [
            18.190664,
            58.916448
          ],
          [
            18.190142,
            58.916275
          ],
          [
            18.189782,
            58.915795
          ],
          [
            18.190118,
            58.915626
          ],
          [
            18.190003,
            58.915433
          ],
          [
            18.190156,
            58.915262
          ],
          [
            18.190669,
            58.915088
          ],
          [
            18.19076,
            58.914974
          ],
          [
            18.191021,
            58.914896
          ],
          [
            18.191559,
            58.91483
          ],
          [
            18.192083,
            58.91461
          ],
          [
            18.19216,
            58.914631
          ],
          [
            18.19245,
            58.914566
          ],
          [
            18.192503,
            58.914498
          ],
          [
            18.192787,
            58.91443
          ],
          [
            18.192868,
            58.91435
          ],
          [
            18.193059,
            58.914335
          ],
          [
            18.193259,
            58.914384
          ],
          [
            18.193612,
            58.914278
          ],
          [
            18.193876,
            58.914256
          ],
          [
            18.194134,
            58.914037
          ],
          [
            18.194122,
            58.913923
          ],
          [
            18.194333,
            58.913788
          ],
          [
            18.194766,
            58.913677
          ],
          [
            18.195033,
            58.913488
          ],
          [
            18.195193,
            58.913468
          ],
          [
            18.195433,
            58.913325
          ],
          [
            18.195593,
            58.913289
          ],
          [
            18.195692,
            58.913022
          ],
          [
            18.195944,
            58.912859
          ],
          [
            18.196063,
            58.912722
          ],
          [
            18.196048,
            58.912624
          ],
          [
            18.19622,
            58.912544
          ],
          [
            18.196249,
            58.912327
          ],
          [
            18.196572,
            58.91223
          ],
          [
            18.196553,
            58.912167
          ],
          [
            18.196721,
            58.912041
          ],
          [
            18.196808,
            58.912066
          ],
          [
            18.196995,
            58.912026
          ],
          [
            18.197014,
            58.91197
          ],
          [
            18.197199,
            58.911891
          ],
          [
            18.197728,
            58.911836
          ],
          [
            18.197673,
            58.911785
          ],
          [
            18.198058,
            58.911761
          ],
          [
            18.198358,
            58.911763
          ],
          [
            18.198736,
            58.911939
          ],
          [
            18.198962,
            58.911967
          ],
          [
            18.199179,
            58.911941
          ],
          [
            18.199395,
            58.911782
          ],
          [
            18.199708,
            58.911839
          ],
          [
            18.200006,
            58.911753
          ],
          [
            18.199935,
            58.911742
          ],
          [
            18.200081,
            58.911731
          ],
          [
            18.200282,
            58.911793
          ],
          [
            18.200671,
            58.911652
          ],
          [
            18.200735,
            58.911683
          ],
          [
            18.200889,
            58.911642
          ],
          [
            18.201025,
            58.911665
          ],
          [
            18.201012,
            58.911706
          ],
          [
            18.201277,
            58.911779
          ],
          [
            18.201619,
            58.911738
          ],
          [
            18.201904,
            58.911677
          ],
          [
            18.202048,
            58.911502
          ],
          [
            18.202601,
            58.911274
          ],
          [
            18.202797,
            58.911222
          ],
          [
            18.202932,
            58.911245
          ],
          [
            18.203301,
            58.911107
          ],
          [
            18.203551,
            58.910889
          ],
          [
            18.203506,
            58.910817
          ],
          [
            18.20347,
            58.910839
          ],
          [
            18.204118,
            58.910696
          ],
          [
            18.204486,
            58.910519
          ],
          [
            18.204515,
            58.910435
          ],
          [
            18.204377,
            58.910328
          ],
          [
            18.204359,
            58.910181
          ],
          [
            18.204958,
            58.909865
          ],
          [
            18.204931,
            58.909603
          ],
          [
            18.205138,
            58.909529
          ],
          [
            18.205163,
            58.909379
          ],
          [
            18.205329,
            58.909301
          ],
          [
            18.205342,
            58.909074
          ],
          [
            18.205105,
            58.908987
          ],
          [
            18.20482,
            58.90902
          ],
          [
            18.204361,
            58.908869
          ],
          [
            18.20429,
            58.90879
          ],
          [
            18.203752,
            58.908698
          ],
          [
            18.203996,
            58.908553
          ],
          [
            18.204011,
            58.908352
          ],
          [
            18.203439,
            58.908295
          ],
          [
            18.203123,
            58.908215
          ],
          [
            18.203,
            58.907997
          ],
          [
            18.202309,
            58.907942
          ],
          [
            18.201935,
            58.907812
          ],
          [
            18.20149,
            58.907799
          ],
          [
            18.201308,
            58.907668
          ],
          [
            18.200896,
            58.907561
          ],
          [
            18.200758,
            58.907541
          ],
          [
            18.200802,
            58.907539
          ],
          [
            18.200935,
            58.907579
          ],
          [
            18.200658,
            58.907517
          ],
          [
            18.200539,
            58.907576
          ],
          [
            18.200579,
            58.907619
          ],
          [
            18.20033,
            58.907629
          ],
          [
            18.200036,
            58.907369
          ],
          [
            18.200054,
            58.907333
          ],
          [
            18.200024,
            58.907237
          ],
          [
            18.200076,
            58.907236
          ],
          [
            18.200013,
            58.907242
          ],
          [
            18.200099,
            58.907151
          ],
          [
            18.200356,
            58.907062
          ],
          [
            18.200641,
            58.907072
          ],
          [
            18.200599,
            58.907017
          ],
          [
            18.20092,
            58.906998
          ],
          [
            18.201068,
            58.906938
          ],
          [
            18.201125,
            58.906977
          ],
          [
            18.201577,
            58.907
          ],
          [
            18.20197,
            58.906873
          ],
          [
            18.201887,
            58.906888
          ],
          [
            18.202044,
            58.906636
          ],
          [
            18.202191,
            58.90661
          ],
          [
            18.202369,
            58.906472
          ],
          [
            18.202363,
            58.906381
          ],
          [
            18.202186,
            58.906249
          ],
          [
            18.202306,
            58.906232
          ],
          [
            18.202283,
            58.906138
          ],
          [
            18.202482,
            58.905997
          ],
          [
            18.202441,
            58.905943
          ],
          [
            18.202571,
            58.905786
          ],
          [
            18.20246,
            58.905636
          ],
          [
            18.202469,
            58.905518
          ],
          [
            18.202842,
            58.905266
          ],
          [
            18.203433,
            58.905193
          ],
          [
            18.20395,
            58.905019
          ],
          [
            18.204002,
            58.904907
          ],
          [
            18.204175,
            58.904878
          ],
          [
            18.204236,
            58.904816
          ],
          [
            18.204551,
            58.904811
          ],
          [
            18.205044,
            58.904959
          ],
          [
            18.20552,
            58.904849
          ],
          [
            18.206269,
            58.90488
          ],
          [
            18.206385,
            58.904838
          ],
          [
            18.206545,
            58.904888
          ],
          [
            18.206707,
            58.904825
          ],
          [
            18.206856,
            58.904842
          ],
          [
            18.207085,
            58.904963
          ],
          [
            18.207414,
            58.904924
          ],
          [
            18.207848,
            58.905053
          ],
          [
            18.208116,
            58.905286
          ],
          [
            18.20812,
            58.905412
          ],
          [
            18.208774,
            58.905772
          ],
          [
            18.20911,
            58.905842
          ],
          [
            18.20947,
            58.90583
          ],
          [
            18.209643,
            58.905878
          ],
          [
            18.210053,
            58.905841
          ],
          [
            18.210441,
            58.905691
          ],
          [
            18.21064,
            58.905674
          ],
          [
            18.210905,
            58.905563
          ],
          [
            18.211268,
            58.90553
          ],
          [
            18.211344,
            58.905473
          ],
          [
            18.211849,
            58.90549
          ],
          [
            18.212249,
            58.905392
          ],
          [
            18.212585,
            58.905411
          ],
          [
            18.212675,
            58.905332
          ],
          [
            18.212862,
            58.90534
          ],
          [
            18.212933,
            58.905299
          ],
          [
            18.213503,
            58.905227
          ],
          [
            18.214339,
            58.905534
          ],
          [
            18.215223,
            58.90558
          ],
          [
            18.215397,
            58.905681
          ],
          [
            18.216838,
            58.905367
          ],
          [
            18.217264,
            58.905362
          ],
          [
            18.217342,
            58.905396
          ],
          [
            18.217597,
            58.905347
          ],
          [
            18.217804,
            58.9054
          ],
          [
            18.218069,
            58.90537
          ],
          [
            18.218214,
            58.905455
          ],
          [
            18.218704,
            58.905549
          ],
          [
            18.219332,
            58.905501
          ],
          [
            18.21951,
            58.905648
          ],
          [
            18.219795,
            58.905724
          ],
          [
            18.220007,
            58.905728
          ],
          [
            18.220333,
            58.905845
          ],
          [
            18.220414,
            58.905989
          ],
          [
            18.220508,
            58.906021
          ],
          [
            18.220435,
            58.906112
          ],
          [
            18.220508,
            58.906083
          ],
          [
            18.220373,
            58.906164
          ],
          [
            18.22039,
            58.90624
          ],
          [
            18.220125,
            58.906411
          ],
          [
            18.219636,
            58.906486
          ],
          [
            18.219421,
            58.906381
          ],
          [
            18.219208,
            58.906406
          ],
          [
            18.218692,
            58.906359
          ],
          [
            18.218334,
            58.906483
          ],
          [
            18.217783,
            58.906705
          ],
          [
            18.217491,
            58.906939
          ],
          [
            18.217456,
            58.907042
          ],
          [
            18.217792,
            58.9073
          ],
          [
            18.217835,
            58.907807
          ],
          [
            18.217573,
            58.907986
          ],
          [
            18.217304,
            58.908054
          ],
          [
            18.217149,
            58.908225
          ],
          [
            18.21718,
            58.908347
          ],
          [
            18.217328,
            58.908454
          ],
          [
            18.21708,
            58.908691
          ],
          [
            18.217112,
            58.908925
          ],
          [
            18.217606,
            58.909365
          ],
          [
            18.217758,
            58.90941
          ],
          [
            18.218,
            58.909592
          ],
          [
            18.218065,
            58.909693
          ],
          [
            18.218029,
            58.909816
          ],
          [
            18.218242,
            58.909997
          ],
          [
            18.218368,
            58.90995
          ],
          [
            18.218938,
            58.90999
          ],
          [
            18.219369,
            58.909926
          ],
          [
            18.219923,
            58.909919
          ],
          [
            18.220724,
            58.909579
          ],
          [
            18.221224,
            58.909585
          ],
          [
            18.221379,
            58.909631
          ],
          [
            18.221682,
            58.909561
          ],
          [
            18.221974,
            58.909593
          ],
          [
            18.222159,
            58.909561
          ],
          [
            18.22255,
            58.909279
          ],
          [
            18.222586,
            58.909194
          ],
          [
            18.222746,
            58.909127
          ],
          [
            18.222708,
            58.909095
          ],
          [
            18.222829,
            58.909108
          ],
          [
            18.223015,
            58.908961
          ],
          [
            18.223229,
            58.908904
          ],
          [
            18.223117,
            58.908856
          ],
          [
            18.223267,
            58.908878
          ],
          [
            18.223471,
            58.90878
          ],
          [
            18.223448,
            58.908734
          ],
          [
            18.22372,
            58.908618
          ],
          [
            18.223899,
            58.908618
          ],
          [
            18.224036,
            58.908677
          ],
          [
            18.224314,
            58.908675
          ],
          [
            18.224406,
            58.908619
          ],
          [
            18.224356,
            58.908634
          ],
          [
            18.224511,
            58.908601
          ],
          [
            18.224816,
            58.908552
          ],
          [
            18.22509,
            58.908407
          ],
          [
            18.22584,
            58.908489
          ],
          [
            18.22621,
            58.908482
          ],
          [
            18.226432,
            58.908686
          ],
          [
            18.227283,
            58.90904
          ],
          [
            18.22761,
            58.90937
          ],
          [
            18.227787,
            58.909436
          ],
          [
            18.22771,
            58.909527
          ],
          [
            18.2278,
            58.909645
          ],
          [
            18.228032,
            58.909772
          ],
          [
            18.228211,
            58.909998
          ],
          [
            18.227975,
            58.910302
          ],
          [
            18.228046,
            58.910441
          ],
          [
            18.228013,
            58.910611
          ],
          [
            18.227899,
            58.910741
          ],
          [
            18.227742,
            58.910749
          ],
          [
            18.227624,
            58.910846
          ],
          [
            18.227683,
            58.910929
          ],
          [
            18.227598,
            58.91105
          ],
          [
            18.227732,
            58.911354
          ],
          [
            18.227765,
            58.911575
          ],
          [
            18.227674,
            58.911639
          ],
          [
            18.227727,
            58.911815
          ],
          [
            18.228037,
            58.911936
          ],
          [
            18.228157,
            58.912076
          ],
          [
            18.228043,
            58.912264
          ],
          [
            18.227897,
            58.912291
          ],
          [
            18.227896,
            58.912343
          ],
          [
            18.228323,
            58.91259
          ],
          [
            18.22842,
            58.912789
          ],
          [
            18.228327,
            58.912898
          ],
          [
            18.228041,
            58.912974
          ],
          [
            18.228006,
            58.913047
          ],
          [
            18.227642,
            58.913087
          ],
          [
            18.227415,
            58.91319
          ],
          [
            18.227392,
            58.913274
          ],
          [
            18.226758,
            58.913476
          ],
          [
            18.226658,
            58.913553
          ],
          [
            18.226664,
            58.913633
          ],
          [
            18.226504,
            58.913731
          ],
          [
            18.226174,
            58.913797
          ],
          [
            18.226035,
            58.913847
          ],
          [
            18.225943,
            58.913954
          ],
          [
            18.225597,
            58.914041
          ],
          [
            18.225607,
            58.914175
          ],
          [
            18.225226,
            58.914431
          ],
          [
            18.225266,
            58.914956
          ],
          [
            18.225593,
            58.915115
          ],
          [
            18.225955,
            58.915122
          ],
          [
            18.226199,
            58.915286
          ],
          [
            18.226526,
            58.915373
          ],
          [
            18.22688,
            58.915573
          ],
          [
            18.226977,
            58.915803
          ],
          [
            18.226901,
            58.915979
          ],
          [
            18.226952,
            58.9161
          ],
          [
            18.227386,
            58.916294
          ],
          [
            18.227701,
            58.91635
          ],
          [
            18.227738,
            58.916521
          ],
          [
            18.227633,
            58.916757
          ],
          [
            18.227428,
            58.916974
          ],
          [
            18.22743,
            58.917089
          ],
          [
            18.227243,
            58.917254
          ],
          [
            18.227013,
            58.917345
          ],
          [
            18.226517,
            58.917413
          ],
          [
            18.225967,
            58.917796
          ],
          [
            18.225817,
            58.917844
          ],
          [
            18.225768,
            58.917935
          ],
          [
            18.225914,
            58.918008
          ],
          [
            18.226228,
            58.918487
          ],
          [
            18.226031,
            58.918683
          ],
          [
            18.225886,
            58.918727
          ],
          [
            18.225839,
            58.918887
          ],
          [
            18.225653,
            58.919042
          ],
          [
            18.225714,
            58.918984
          ],
          [
            18.224891,
            58.919451
          ],
          [
            18.224798,
            58.919595
          ],
          [
            18.22488,
            58.919674
          ],
          [
            18.224638,
            58.919835
          ],
          [
            18.224411,
            58.920129
          ],
          [
            18.2244,
            58.920242
          ],
          [
            18.22423,
            58.92039
          ],
          [
            18.224372,
            58.920871
          ],
          [
            18.224146,
            58.921168
          ],
          [
            18.224226,
            58.921486
          ],
          [
            18.223976,
            58.921586
          ],
          [
            18.223904,
            58.922035
          ],
          [
            18.223516,
            58.922244
          ],
          [
            18.223327,
            58.922433
          ],
          [
            18.223195,
            58.922457
          ],
          [
            18.223001,
            58.922583
          ],
          [
            18.222364,
            58.922778
          ],
          [
            18.222477,
            58.922742
          ],
          [
            18.222071,
            58.922794
          ],
          [
            18.221778,
            58.922955
          ],
          [
            18.220988,
            58.923132
          ],
          [
            18.220857,
            58.923221
          ],
          [
            18.220452,
            58.923375
          ],
          [
            18.220099,
            58.923571
          ],
          [
            18.220021,
            58.923714
          ],
          [
            18.218906,
            58.923963
          ],
          [
            18.218502,
            58.924026
          ],
          [
            18.218001,
            58.924194
          ],
          [
            18.217433,
            58.924329
          ],
          [
            18.216631,
            58.92428
          ],
          [
            18.216314,
            58.924315
          ],
          [
            18.214899,
            58.924806
          ],
          [
            18.21412,
            58.924807
          ],
          [
            18.213766,
            58.924939
          ],
          [
            18.212945,
            58.92528
          ],
          [
            18.212592,
            58.925543
          ],
          [
            18.212382,
            58.925589
          ],
          [
            18.211881,
            58.925551
          ],
          [
            18.21149,
            58.925456
          ],
          [
            18.211117,
            58.92532
          ],
          [
            18.210945,
            58.925168
          ],
          [
            18.210927,
            58.925198
          ],
          [
            18.210762,
            58.925098
          ],
          [
            18.210117,
            58.924915
          ],
          [
            18.209468,
            58.924875
          ],
          [
            18.209112,
            58.924953
          ],
          [
            18.20901,
            58.925041
          ],
          [
            18.209135,
            58.925586
          ],
          [
            18.209089,
            58.925737
          ],
          [
            18.208605,
            58.926208
          ],
          [
            18.208541,
            58.926266
          ],
          [
            18.208492,
            58.926327
          ],
          [
            18.208407,
            58.926388
          ],
          [
            18.208844,
            58.926955
          ],
          [
            18.208933,
            58.927062
          ],
          [
            18.209025,
            58.927199
          ],
          [
            18.209431,
            58.927434
          ],
          [
            18.210398,
            58.92757
          ],
          [
            18.211578,
            58.927766
          ],
          [
            18.212092,
            58.927863
          ],
          [
            18.21317,
            58.928256
          ],
          [
            18.2142,
            58.928674
          ],
          [
            18.21537,
            58.928949
          ],
          [
            18.216485,
            58.929452
          ],
          [
            18.216732,
            58.929691
          ],
          [
            18.217279,
            58.929848
          ],
          [
            18.217553,
            58.929859
          ],
          [
            18.219189,
            58.929912
          ],
          [
            18.219811,
            58.929956
          ],
          [
            18.220353,
            58.930156
          ],
          [
            18.221228,
            58.930585
          ],
          [
            18.221684,
            58.930765
          ],
          [
            18.221844,
            58.930886
          ],
          [
            18.221924,
            58.931067
          ],
          [
            18.221874,
            58.931425
          ],
          [
            18.222064,
            58.931844
          ],
          [
            18.222574,
            58.932099
          ],
          [
            18.22268,
            58.932306
          ],
          [
            18.222842,
            58.932548
          ],
          [
            18.222778,
            58.932772
          ],
          [
            18.222349,
            58.932977
          ],
          [
            18.222145,
            58.933134
          ],
          [
            18.222086,
            58.933389
          ],
          [
            18.222306,
            58.933611
          ],
          [
            18.223019,
            58.934214
          ],
          [
            18.223026,
            58.934481
          ],
          [
            18.223027,
            58.934492
          ],
          [
            18.223035,
            58.934607
          ],
          [
            18.223048,
            58.93456
          ],
          [
            18.223058,
            58.934622
          ],
          [
            18.222906,
            58.934741
          ],
          [
            18.222376,
            58.934768
          ],
          [
            18.222268,
            58.934743
          ],
          [
            18.222024,
            58.934671
          ],
          [
            18.221588,
            58.934486
          ],
          [
            18.221269,
            58.934426
          ],
          [
            18.221125,
            58.934358
          ],
          [
            18.221062,
            58.934255
          ],
          [
            18.220922,
            58.934228
          ],
          [
            18.220755,
            58.934117
          ],
          [
            18.22043,
            58.934078
          ],
          [
            18.220237,
            58.933957
          ],
          [
            18.220006,
            58.933912
          ],
          [
            18.219779,
            58.933764
          ],
          [
            18.219722,
            58.93361
          ],
          [
            18.219426,
            58.93346
          ],
          [
            18.219339,
            58.933392
          ],
          [
            18.218837,
            58.93331
          ],
          [
            18.218524,
            58.933066
          ],
          [
            18.217721,
            58.932762
          ],
          [
            18.217629,
            58.932688
          ],
          [
            18.216988,
            58.932715
          ],
          [
            18.216581,
            58.932864
          ],
          [
            18.216271,
            58.932838
          ],
          [
            18.215729,
            58.932675
          ],
          [
            18.21556,
            58.932689
          ],
          [
            18.21548,
            58.932577
          ],
          [
            18.21476,
            58.932317
          ],
          [
            18.214479,
            58.932388
          ],
          [
            18.21381,
            58.932422
          ],
          [
            18.213122,
            58.93239
          ],
          [
            18.212808,
            58.932255
          ],
          [
            18.212468,
            58.932233
          ],
          [
            18.212219,
            58.932167
          ],
          [
            18.211929,
            58.931994
          ],
          [
            18.211574,
            58.931897
          ],
          [
            18.211483,
            58.931787
          ],
          [
            18.211177,
            58.931741
          ],
          [
            18.211055,
            58.931658
          ],
          [
            18.210309,
            58.931581
          ],
          [
            18.210116,
            58.931355
          ],
          [
            18.2099,
            58.931316
          ],
          [
            18.209811,
            58.931229
          ],
          [
            18.209696,
            58.931138
          ],
          [
            18.209294,
            58.930873
          ],
          [
            18.208552,
            58.930774
          ],
          [
            18.208418,
            58.930708
          ],
          [
            18.208193,
            58.930698
          ],
          [
            18.208043,
            58.930628
          ],
          [
            18.207862,
            58.930609
          ],
          [
            18.207888,
            58.930561
          ],
          [
            18.207617,
            58.930489
          ],
          [
            18.207117,
            58.930416
          ],
          [
            18.206962,
            58.930341
          ],
          [
            18.206985,
            58.930259
          ],
          [
            18.206749,
            58.930258
          ],
          [
            18.206329,
            58.930123
          ],
          [
            18.206156,
            58.93011
          ],
          [
            18.206009,
            58.930068
          ],
          [
            18.205867,
            58.929918
          ],
          [
            18.205354,
            58.929794
          ],
          [
            18.204908,
            58.929357
          ],
          [
            18.204589,
            58.929262
          ],
          [
            18.204397,
            58.929264
          ],
          [
            18.20407,
            58.929092
          ],
          [
            18.20409,
            58.928976
          ],
          [
            18.203651,
            58.928718
          ],
          [
            18.203511,
            58.928497
          ],
          [
            18.202962,
            58.928257
          ],
          [
            18.202391,
            58.928145
          ],
          [
            18.202262,
            58.928074
          ],
          [
            18.202047,
            58.927768
          ],
          [
            18.201753,
            58.927568
          ],
          [
            18.201604,
            58.927284
          ],
          [
            18.200592,
            58.927094
          ],
          [
            18.19999,
            58.926767
          ],
          [
            18.199556,
            58.926724
          ],
          [
            18.19943,
            58.926489
          ],
          [
            18.199505,
            58.926423
          ],
          [
            18.199394,
            58.926325
          ],
          [
            18.198724,
            58.926316
          ],
          [
            18.198609,
            58.926217
          ],
          [
            18.198529,
            58.92599
          ],
          [
            18.198083,
            58.925751
          ],
          [
            18.197903,
            58.925595
          ],
          [
            18.197824,
            58.925279
          ],
          [
            18.197369,
            58.92499
          ],
          [
            18.197066,
            58.924649
          ],
          [
            18.196722,
            58.924613
          ],
          [
            18.196373,
            58.924556
          ],
          [
            18.196403,
            58.92447
          ],
          [
            18.196276,
            58.92436
          ],
          [
            18.196268,
            58.924149
          ],
          [
            18.195658,
            58.92393
          ],
          [
            18.195505,
            58.923793
          ],
          [
            18.195117,
            58.923535
          ],
          [
            18.194687,
            58.923142
          ],
          [
            18.194289,
            58.923055
          ],
          [
            18.194153,
            58.922979
          ],
          [
            18.194104,
            58.923027
          ],
          [
            18.193955,
            58.92299
          ],
          [
            18.193637,
            58.923075
          ],
          [
            18.193518,
            58.923037
          ],
          [
            18.193574,
            58.922922
          ],
          [
            18.193391,
            58.922934
          ],
          [
            18.193384,
            58.922867
          ],
          [
            18.193176,
            58.922785
          ],
          [
            18.192914,
            58.922546
          ],
          [
            18.19294,
            58.922363
          ],
          [
            18.193013,
            58.922268
          ],
          [
            18.192945,
            58.922201
          ],
          [
            18.193021,
            58.922261
          ],
          [
            18.193015,
            58.922167
          ],
          [
            18.192974,
            58.922009
          ],
          [
            18.192814,
            58.921891
          ],
          [
            18.192818,
            58.921727
          ],
          [
            18.193177,
            58.921622
          ],
          [
            18.193415,
            58.921643
          ],
          [
            18.193725,
            58.921556
          ],
          [
            18.193842,
            58.921409
          ],
          [
            18.194009,
            58.921398
          ],
          [
            18.194102,
            58.921296
          ],
          [
            18.193987,
            58.921193
          ],
          [
            18.194144,
            58.921129
          ],
          [
            18.19422,
            58.921018
          ],
          [
            18.194387,
            58.92097
          ],
          [
            18.194486,
            58.920852
          ],
          [
            18.194754,
            58.920639
          ],
          [
            18.194978,
            58.920555
          ],
          [
            18.195119,
            58.920487
          ],
          [
            18.195249,
            58.920434
          ],
          [
            18.195415,
            58.920344
          ],
          [
            18.195064,
            58.920237
          ],
          [
            18.194607,
            58.920183
          ],
          [
            18.194379,
            58.92024
          ],
          [
            18.193979,
            58.920401
          ],
          [
            18.193824,
            58.92041
          ],
          [
            18.193267,
            58.920148
          ],
          [
            18.192512,
            58.92001
          ],
          [
            18.191745,
            58.919974
          ]
        ]
      }
    }
  ]
}
