{
  "type": "FeatureCollection",
  "features": [
    {
      "type": "Feature",
      "properties": {
        "name": "SAT Fjärdlång Final",
        "sectionId": "sat-fjardlang",
        "sourceUrl": "https://drive.google.com/file/d/1rdm5opfy7dsBXnVjaC4welfROp2aleRj/view?usp=drive_link"
      },
      "geometry": {
        "type": "LineString",
        "coordinates": [
          [
            18.510628,
            59.035485
          ],
          [
            18.510699,
            59.035509
          ],
          [
            18.510664,
            59.035525
          ],
          [
            18.510757,
            59.035557
          ],
          [
            18.510753,
            59.035567
          ],
          [
            18.51122,
            59.035691
          ],
          [
            18.511252,
            59.035699
          ],
          [
            18.511808,
            59.035763
          ],
          [
            18.512195,
            59.035807
          ],
          [
            18.512324,
            59.035927
          ],
          [
            18.512544,
            59.036044
          ],
          [
            18.512759,
            59.036108
          ],
          [
            18.51297,
            59.036218
          ],
          [
            18.513185,
            59.036295
          ],
          [
            18.513304,
            59.03632
          ],
          [
            18.513471,
            59.036301
          ],
          [
            18.513623,
            59.03625
          ],
          [
            18.513812,
            59.036246
          ],
          [
            18.513967,
            59.036298
          ],
          [
            18.514124,
            59.036393
          ],
          [
            18.514239,
            59.036566
          ],
          [
            18.514314,
            59.036662
          ],
          [
            18.51445,
            59.036706
          ],
          [
            18.514575,
            59.036685
          ],
          [
            18.514765,
            59.03663
          ],
          [
            18.51483,
            59.036595
          ],
          [
            18.514903,
            59.036555
          ],
          [
            18.514983,
            59.036435
          ],
          [
            18.515042,
            59.036328
          ],
          [
            18.515095,
            59.036193
          ],
          [
            18.515156,
            59.035998
          ],
          [
            18.515275,
            59.035928
          ],
          [
            18.515333,
            59.035895
          ],
          [
            18.51537,
            59.035804
          ],
          [
            18.515276,
            59.035696
          ],
          [
            18.51522,
            59.035493
          ],
          [
            18.515381,
            59.035349
          ],
          [
            18.515415,
            59.035236
          ],
          [
            18.515466,
            59.035156
          ],
          [
            18.515627,
            59.03502
          ],
          [
            18.515318,
            59.034867
          ],
          [
            18.514874,
            59.034802
          ],
          [
            18.514493,
            59.034688
          ],
          [
            18.514388,
            59.034606
          ],
          [
            18.514344,
            59.034531
          ],
          [
            18.513921,
            59.034514
          ],
          [
            18.513783,
            59.034495
          ],
          [
            18.513645,
            59.034358
          ],
          [
            18.513428,
            59.034268
          ],
          [
            18.513318,
            59.034114
          ],
          [
            18.513176,
            59.033967
          ],
          [
            18.513042,
            59.03379
          ],
          [
            18.512927,
            59.033641
          ],
          [
            18.512936,
            59.033591
          ],
          [
            18.512858,
            59.033544
          ],
          [
            18.512706,
            59.033501
          ],
          [
            18.512564,
            59.03348
          ],
          [
            18.512251,
            59.03347
          ],
          [
            18.51215,
            59.033449
          ],
          [
            18.511842,
            59.033229
          ],
          [
            18.511534,
            59.033009
          ],
          [
            18.511506,
            59.032919
          ],
          [
            18.511498,
            59.032781
          ],
          [
            18.511497,
            59.032763
          ],
          [
            18.511478,
            59.032708
          ],
          [
            18.511313,
            59.032576
          ],
          [
            18.511184,
            59.032486
          ],
          [
            18.511055,
            59.032438
          ],
          [
            18.51088,
            59.032405
          ],
          [
            18.510788,
            59.032384
          ],
          [
            18.510692,
            59.032261
          ],
          [
            18.510683,
            59.03219
          ],
          [
            18.510535,
            59.032093
          ],
          [
            18.510356,
            59.032015
          ],
          [
            18.510181,
            59.031923
          ],
          [
            18.510209,
            59.031778
          ],
          [
            18.510163,
            59.031627
          ],
          [
            18.510144,
            59.031544
          ],
          [
            18.510034,
            59.031352
          ],
          [
            18.50989,
            59.031194
          ],
          [
            18.509922,
            59.031165
          ],
          [
            18.510009,
            59.031158
          ],
          [
            18.510227,
            59.031076
          ],
          [
            18.510502,
            59.031164
          ],
          [
            18.510968,
            59.031095
          ],
          [
            18.511185,
            59.031072
          ],
          [
            18.511551,
            59.031065
          ],
          [
            18.511849,
            59.031012
          ],
          [
            18.511896,
            59.030858
          ],
          [
            18.51196,
            59.030769
          ],
          [
            18.511954,
            59.030604
          ],
          [
            18.512036,
            59.030549
          ],
          [
            18.512153,
            59.030398
          ],
          [
            18.512088,
            59.030295
          ],
          [
            18.512043,
            59.030156
          ],
          [
            18.511697,
            59.029971
          ],
          [
            18.511702,
            59.02993
          ],
          [
            18.511867,
            59.029888
          ],
          [
            18.512135,
            59.029894
          ],
          [
            18.512365,
            59.029891
          ],
          [
            18.512583,
            59.030062
          ],
          [
            18.512672,
            59.03019
          ],
          [
            18.512634,
            59.030327
          ],
          [
            18.51272,
            59.030387
          ],
          [
            18.512796,
            59.0304
          ],
          [
            18.513067,
            59.030549
          ],
          [
            18.513188,
            59.030572
          ],
          [
            18.513291,
            59.030645
          ],
          [
            18.513792,
            59.030718
          ],
          [
            18.51402,
            59.030791
          ],
          [
            18.514225,
            59.03084
          ],
          [
            18.514468,
            59.030863
          ],
          [
            18.514649,
            59.03086
          ],
          [
            18.514679,
            59.030867
          ],
          [
            18.514768,
            59.030889
          ],
          [
            18.514909,
            59.030991
          ],
          [
            18.515029,
            59.031025
          ],
          [
            18.515153,
            59.030999
          ],
          [
            18.515286,
            59.030943
          ],
          [
            18.515381,
            59.030972
          ],
          [
            18.515596,
            59.030989
          ],
          [
            18.515755,
            59.030969
          ],
          [
            18.516261,
            59.031038
          ],
          [
            18.516362,
            59.03111
          ],
          [
            18.516395,
            59.031184
          ],
          [
            18.516511,
            59.031263
          ],
          [
            18.516634,
            59.03139
          ],
          [
            18.516775,
            59.031452
          ],
          [
            18.517019,
            59.031498
          ],
          [
            18.517131,
            59.031532
          ],
          [
            18.517389,
            59.031446
          ],
          [
            18.517487,
            59.031346
          ],
          [
            18.517833,
            59.031237
          ],
          [
            18.518049,
            59.031241
          ],
          [
            18.518159,
            59.031287
          ],
          [
            18.518339,
            59.031293
          ],
          [
            18.518518,
            59.031336
          ],
          [
            18.518602,
            59.03134
          ],
          [
            18.518883,
            59.031482
          ],
          [
            18.519438,
            59.031631
          ],
          [
            18.519618,
            59.031601
          ],
          [
            18.519964,
            59.031641
          ],
          [
            18.520169,
            59.031724
          ],
          [
            18.520123,
            59.031748
          ],
          [
            18.520169,
            59.031724
          ],
          [
            18.520173,
            59.031722
          ],
          [
            18.520606,
            59.031579
          ],
          [
            18.521039,
            59.031436
          ],
          [
            18.521247,
            59.031115
          ],
          [
            18.52179,
            59.030773
          ],
          [
            18.522245,
            59.03074
          ],
          [
            18.5227,
            59.030707
          ],
          [
            18.523057,
            59.030551
          ],
          [
            18.523536,
            59.030473
          ],
          [
            18.523826,
            59.030354
          ],
          [
            18.523951,
            59.030166
          ],
          [
            18.524038,
            59.029978
          ],
          [
            18.524297,
            59.029879
          ],
          [
            18.524634,
            59.029716
          ],
          [
            18.524889,
            59.029579
          ],
          [
            18.525202,
            59.029587
          ],
          [
            18.525477,
            59.029647
          ],
          [
            18.525692,
            59.029652
          ],
          [
            18.525477,
            59.029647
          ],
          [
            18.525202,
            59.029587
          ],
          [
            18.524889,
            59.029579
          ],
          [
            18.524634,
            59.029716
          ],
          [
            18.524296,
            59.029879
          ],
          [
            18.524038,
            59.029978
          ],
          [
            18.523951,
            59.030166
          ],
          [
            18.523826,
            59.030354
          ],
          [
            18.523536,
            59.030473
          ],
          [
            18.523057,
            59.030551
          ],
          [
            18.5227,
            59.030707
          ],
          [
            18.522245,
            59.03074
          ],
          [
            18.52179,
            59.030773
          ],
          [
            18.521247,
            59.031115
          ],
          [
            18.52104,
            59.031436
          ],
          [
            18.520606,
            59.031579
          ],
          [
            18.520173,
            59.031722
          ],
          [
            18.52017,
            59.031724
          ],
          [
            18.519644,
            59.031991
          ],
          [
            18.519509,
            59.032268
          ],
          [
            18.519375,
            59.032544
          ],
          [
            18.519452,
            59.032794
          ],
          [
            18.519535,
            59.033105
          ],
          [
            18.519618,
            59.033417
          ],
          [
            18.519701,
            59.033728
          ],
          [
            18.519766,
            59.033993
          ],
          [
            18.519831,
            59.034258
          ],
          [
            18.519821,
            59.03447
          ],
          [
            18.519592,
            59.034673
          ],
          [
            18.519364,
            59.034875
          ],
          [
            18.519111,
            59.034971
          ],
          [
            18.519006,
            59.035011
          ],
          [
            18.518647,
            59.035146
          ],
          [
            18.517892,
            59.035227
          ],
          [
            18.51717,
            59.035338
          ],
          [
            18.517336,
            59.035413
          ],
          [
            18.517517,
            59.035538
          ],
          [
            18.517626,
            59.035652
          ],
          [
            18.517688,
            59.035736
          ],
          [
            18.517765,
            59.035799
          ],
          [
            18.517965,
            59.035896
          ],
          [
            18.518179,
            59.036009
          ],
          [
            18.518355,
            59.036096
          ],
          [
            18.51859,
            59.036162
          ],
          [
            18.5188,
            59.036234
          ],
          [
            18.518998,
            59.036363
          ],
          [
            18.51916,
            59.036475
          ],
          [
            18.519275,
            59.03656
          ],
          [
            18.519237,
            59.036854
          ],
          [
            18.519221,
            59.036897
          ],
          [
            18.519031,
            59.037188
          ],
          [
            18.518772,
            59.03737
          ],
          [
            18.518366,
            59.037558
          ],
          [
            18.518958,
            59.037654
          ],
          [
            18.519373,
            59.037808
          ],
          [
            18.519726,
            59.037965
          ],
          [
            18.519916,
            59.03811
          ],
          [
            18.520005,
            59.038178
          ],
          [
            18.520284,
            59.03839
          ],
          [
            18.520427,
            59.038531
          ],
          [
            18.520385,
            59.038833
          ],
          [
            18.521111,
            59.038888
          ],
          [
            18.521534,
            59.039042
          ],
          [
            18.521956,
            59.039196
          ],
          [
            18.522424,
            59.039365
          ],
          [
            18.523029,
            59.039588
          ],
          [
            18.523446,
            59.039891
          ],
          [
            18.523544,
            59.040261
          ],
          [
            18.523946,
            59.040581
          ],
          [
            18.524348,
            59.040901
          ],
          [
            18.52475,
            59.041221
          ],
          [
            18.524996,
            59.041581
          ],
          [
            18.525243,
            59.04194
          ],
          [
            18.525838,
            59.042248
          ],
          [
            18.526433,
            59.042556
          ],
          [
            18.527029,
            59.042864
          ],
          [
            18.5271,
            59.042901
          ],
          [
            18.527624,
            59.043172
          ],
          [
            18.528274,
            59.043188
          ],
          [
            18.528924,
            59.043204
          ],
          [
            18.52939,
            59.043321
          ],
          [
            18.529857,
            59.043439
          ],
          [
            18.529555,
            59.043846
          ],
          [
            18.52953,
            59.044182
          ],
          [
            18.529505,
            59.044518
          ],
          [
            18.52948,
            59.044854
          ],
          [
            18.529569,
            59.044948
          ],
          [
            18.529847,
            59.045082
          ],
          [
            18.529871,
            59.045444
          ],
          [
            18.529894,
            59.045807
          ],
          [
            18.529918,
            59.04617
          ],
          [
            18.529796,
            59.046264
          ],
          [
            18.529772,
            59.046431
          ],
          [
            18.529901,
            59.046843
          ],
          [
            18.530031,
            59.047255
          ],
          [
            18.530191,
            59.047508
          ],
          [
            18.530351,
            59.047761
          ],
          [
            18.530248,
            59.04789
          ],
          [
            18.530192,
            59.048102
          ],
          [
            18.530284,
            59.048225
          ],
          [
            18.53013,
            59.048406
          ],
          [
            18.530012,
            59.048597
          ],
          [
            18.529937,
            59.048755
          ],
          [
            18.529748,
            59.048847
          ],
          [
            18.529499,
            59.049002
          ],
          [
            18.529192,
            59.049225
          ],
          [
            18.528761,
            59.049159
          ],
          [
            18.528537,
            59.049125
          ],
          [
            18.52833,
            59.049094
          ],
          [
            18.527972,
            59.049065
          ],
          [
            18.52752,
            59.0492
          ],
          [
            18.527278,
            59.04945
          ],
          [
            18.527035,
            59.0497
          ],
          [
            18.526908,
            59.049823
          ],
          [
            18.52688,
            59.049961
          ],
          [
            18.526602,
            59.05006
          ],
          [
            18.526408,
            59.050179
          ],
          [
            18.526211,
            59.050237
          ],
          [
            18.526168,
            59.05014
          ],
          [
            18.52581,
            59.050206
          ],
          [
            18.525603,
            59.050153
          ],
          [
            18.525,
            59.049998
          ],
          [
            18.524911,
            59.049862
          ],
          [
            18.525014,
            59.04969
          ],
          [
            18.525033,
            59.049525
          ],
          [
            18.524826,
            59.049283
          ],
          [
            18.524471,
            59.049041
          ],
          [
            18.524116,
            59.0488
          ],
          [
            18.523761,
            59.048559
          ],
          [
            18.523159,
            59.048523
          ],
          [
            18.522927,
            59.04851
          ],
          [
            18.52289,
            59.048301
          ],
          [
            18.522597,
            59.048178
          ],
          [
            18.522574,
            59.047852
          ],
          [
            18.522551,
            59.047526
          ],
          [
            18.522494,
            59.047382
          ],
          [
            18.522275,
            59.047241
          ],
          [
            18.522007,
            59.047007
          ],
          [
            18.52174,
            59.046773
          ],
          [
            18.52154,
            59.046709
          ],
          [
            18.521268,
            59.046635
          ],
          [
            18.521102,
            59.046664
          ],
          [
            18.521038,
            59.046674
          ],
          [
            18.520959,
            59.046762
          ],
          [
            18.520949,
            59.046868
          ],
          [
            18.520945,
            59.046961
          ],
          [
            18.520976,
            59.047027
          ],
          [
            18.520947,
            59.047046
          ],
          [
            18.520953,
            59.047118
          ],
          [
            18.521027,
            59.047265
          ],
          [
            18.521051,
            59.047331
          ],
          [
            18.521102,
            59.047431
          ],
          [
            18.521119,
            59.047623
          ],
          [
            18.521132,
            59.04773
          ],
          [
            18.521113,
            59.047919
          ],
          [
            18.521092,
            59.047995
          ],
          [
            18.521045,
            59.048074
          ],
          [
            18.521021,
            59.048137
          ],
          [
            18.520961,
            59.048216
          ],
          [
            18.520906,
            59.048289
          ],
          [
            18.520767,
            59.048321
          ],
          [
            18.520729,
            59.048433
          ],
          [
            18.520618,
            59.048621
          ],
          [
            18.520034,
            59.048662
          ],
          [
            18.519864,
            59.04869
          ],
          [
            18.519744,
            59.048769
          ],
          [
            18.519519,
            59.04879
          ],
          [
            18.519366,
            59.048841
          ],
          [
            18.519234,
            59.048919
          ],
          [
            18.519214,
            59.049186
          ],
          [
            18.519167,
            59.049335
          ],
          [
            18.519101,
            59.049564
          ],
          [
            18.51932,
            59.049638
          ],
          [
            18.519463,
            59.049733
          ],
          [
            18.519591,
            59.049793
          ],
          [
            18.519697,
            59.049856
          ],
          [
            18.519747,
            59.049869
          ],
          [
            18.519723,
            59.04989
          ],
          [
            18.519666,
            59.0499
          ],
          [
            18.519653,
            59.049955
          ],
          [
            18.519274,
            59.050059
          ],
          [
            18.51875,
            59.050177
          ],
          [
            18.518226,
            59.050294
          ],
          [
            18.517936,
            59.050457
          ],
          [
            18.517608,
            59.050554
          ],
          [
            18.516882,
            59.050596
          ],
          [
            18.516756,
            59.050483
          ],
          [
            18.516598,
            59.050577
          ],
          [
            18.516833,
            59.050879
          ],
          [
            18.517068,
            59.05118
          ],
          [
            18.51713,
            59.051409
          ],
          [
            18.517191,
            59.051637
          ],
          [
            18.51757,
            59.051652
          ],
          [
            18.517909,
            59.051825
          ],
          [
            18.518007,
            59.051962
          ],
          [
            18.518329,
            59.052052
          ],
          [
            18.518574,
            59.05205
          ],
          [
            18.518613,
            59.052109
          ],
          [
            18.518837,
            59.052137
          ],
          [
            18.518708,
            59.05217
          ],
          [
            18.518713,
            59.052299
          ],
          [
            18.518842,
            59.052401
          ],
          [
            18.518518,
            59.05238
          ],
          [
            18.518312,
            59.052406
          ],
          [
            18.518352,
            59.052473
          ],
          [
            18.51828,
            59.052526
          ],
          [
            18.518153,
            59.05254
          ],
          [
            18.518065,
            59.052579
          ],
          [
            18.517939,
            59.052583
          ],
          [
            18.517866,
            59.052604
          ],
          [
            18.517692,
            59.052627
          ],
          [
            18.517536,
            59.052648
          ],
          [
            18.517397,
            59.052593
          ],
          [
            18.517387,
            59.05259
          ],
          [
            18.517283,
            59.052562
          ],
          [
            18.517196,
            59.052338
          ],
          [
            18.517108,
            59.052115
          ],
          [
            18.517161,
            59.051925
          ],
          [
            18.517191,
            59.051637
          ],
          [
            18.51713,
            59.051409
          ],
          [
            18.517068,
            59.05118
          ],
          [
            18.516833,
            59.050879
          ],
          [
            18.516598,
            59.050577
          ],
          [
            18.516756,
            59.050483
          ],
          [
            18.516882,
            59.050596
          ],
          [
            18.517608,
            59.050554
          ],
          [
            18.517936,
            59.050457
          ],
          [
            18.518226,
            59.050294
          ],
          [
            18.51875,
            59.050177
          ],
          [
            18.519274,
            59.050059
          ],
          [
            18.519653,
            59.049955
          ],
          [
            18.519666,
            59.0499
          ],
          [
            18.519723,
            59.04989
          ],
          [
            18.519747,
            59.049869
          ],
          [
            18.519697,
            59.049856
          ],
          [
            18.519591,
            59.049793
          ],
          [
            18.519463,
            59.049733
          ],
          [
            18.51932,
            59.049638
          ],
          [
            18.519101,
            59.049564
          ],
          [
            18.519167,
            59.049335
          ],
          [
            18.519214,
            59.049186
          ],
          [
            18.519234,
            59.048919
          ],
          [
            18.519366,
            59.048841
          ],
          [
            18.519519,
            59.04879
          ],
          [
            18.51924,
            59.048513
          ],
          [
            18.519098,
            59.048274
          ],
          [
            18.518955,
            59.048035
          ],
          [
            18.518775,
            59.047806
          ],
          [
            18.518595,
            59.047576
          ],
          [
            18.518257,
            59.047381
          ],
          [
            18.517918,
            59.047186
          ],
          [
            18.517352,
            59.046909
          ],
          [
            18.516787,
            59.046632
          ],
          [
            18.516278,
            59.04638
          ],
          [
            18.515769,
            59.046127
          ],
          [
            18.515316,
            59.046023
          ],
          [
            18.514863,
            59.045918
          ],
          [
            18.514851,
            59.045849
          ],
          [
            18.514894,
            59.045772
          ],
          [
            18.515044,
            59.045634
          ],
          [
            18.515162,
            59.045485
          ],
          [
            18.51527,
            59.045391
          ],
          [
            18.51543,
            59.045242
          ],
          [
            18.515527,
            59.045143
          ],
          [
            18.515624,
            59.045027
          ],
          [
            18.515699,
            59.044889
          ],
          [
            18.515838,
            59.044652
          ],
          [
            18.515978,
            59.044519
          ],
          [
            18.516128,
            59.044376
          ],
          [
            18.516407,
            59.044277
          ],
          [
            18.516707,
            59.044045
          ],
          [
            18.516868,
            59.04389
          ],
          [
            18.516879,
            59.043697
          ],
          [
            18.517104,
            59.043548
          ],
          [
            18.517244,
            59.043388
          ],
          [
            18.517297,
            59.043195
          ],
          [
            18.51748,
            59.04309
          ],
          [
            18.517769,
            59.042925
          ],
          [
            18.51793,
            59.042853
          ],
          [
            18.518306,
            59.042869
          ],
          [
            18.518756,
            59.042836
          ],
          [
            18.519207,
            59.042765
          ],
          [
            18.519266,
            59.042721
          ],
          [
            18.519207,
            59.042765
          ],
          [
            18.518756,
            59.042836
          ],
          [
            18.518306,
            59.042869
          ],
          [
            18.51793,
            59.042853
          ],
          [
            18.517769,
            59.042925
          ],
          [
            18.51748,
            59.04309
          ],
          [
            18.517297,
            59.043195
          ],
          [
            18.517244,
            59.043388
          ],
          [
            18.517104,
            59.043548
          ],
          [
            18.516879,
            59.043697
          ],
          [
            18.516868,
            59.04389
          ],
          [
            18.516707,
            59.044045
          ],
          [
            18.516407,
            59.044277
          ],
          [
            18.516128,
            59.044376
          ],
          [
            18.515978,
            59.044519
          ],
          [
            18.515838,
            59.044652
          ],
          [
            18.515699,
            59.044889
          ],
          [
            18.515624,
            59.045027
          ],
          [
            18.515527,
            59.045143
          ],
          [
            18.51543,
            59.045242
          ],
          [
            18.51527,
            59.045391
          ],
          [
            18.515162,
            59.045485
          ],
          [
            18.515044,
            59.045634
          ],
          [
            18.514894,
            59.045772
          ],
          [
            18.514851,
            59.045849
          ],
          [
            18.514863,
            59.045918
          ],
          [
            18.515316,
            59.046023
          ],
          [
            18.515769,
            59.046127
          ],
          [
            18.516278,
            59.04638
          ],
          [
            18.516787,
            59.046632
          ],
          [
            18.517352,
            59.046909
          ],
          [
            18.517918,
            59.047186
          ],
          [
            18.518257,
            59.047381
          ],
          [
            18.518595,
            59.047576
          ],
          [
            18.518775,
            59.047806
          ],
          [
            18.518955,
            59.048035
          ],
          [
            18.519098,
            59.048274
          ],
          [
            18.51924,
            59.048513
          ],
          [
            18.519519,
            59.04879
          ],
          [
            18.519744,
            59.048769
          ],
          [
            18.519864,
            59.04869
          ],
          [
            18.520034,
            59.048662
          ],
          [
            18.520618,
            59.048621
          ],
          [
            18.520729,
            59.048433
          ],
          [
            18.520767,
            59.048321
          ],
          [
            18.520906,
            59.048289
          ],
          [
            18.520961,
            59.048216
          ],
          [
            18.521021,
            59.048137
          ],
          [
            18.521045,
            59.048074
          ],
          [
            18.521092,
            59.047995
          ],
          [
            18.521113,
            59.047919
          ],
          [
            18.521132,
            59.04773
          ],
          [
            18.521119,
            59.047623
          ],
          [
            18.521102,
            59.047431
          ],
          [
            18.521051,
            59.047331
          ],
          [
            18.521027,
            59.047265
          ],
          [
            18.520953,
            59.047118
          ],
          [
            18.520947,
            59.047046
          ],
          [
            18.520976,
            59.047027
          ],
          [
            18.520945,
            59.046961
          ],
          [
            18.520949,
            59.046868
          ],
          [
            18.520959,
            59.046762
          ],
          [
            18.521038,
            59.046674
          ],
          [
            18.521102,
            59.046664
          ],
          [
            18.521268,
            59.046635
          ],
          [
            18.521061,
            59.046382
          ],
          [
            18.520854,
            59.046128
          ],
          [
            18.520693,
            59.045818
          ],
          [
            18.520541,
            59.045642
          ],
          [
            18.520528,
            59.04546
          ],
          [
            18.520561,
            59.045036
          ],
          [
            18.520483,
            59.044762
          ],
          [
            18.520405,
            59.044487
          ],
          [
            18.520306,
            59.044219
          ],
          [
            18.520208,
            59.043952
          ],
          [
            18.519987,
            59.043572
          ],
          [
            18.519766,
            59.043193
          ],
          [
            18.519643,
            59.042836
          ],
          [
            18.519483,
            59.042454
          ],
          [
            18.519323,
            59.042073
          ],
          [
            18.519378,
            59.041705
          ],
          [
            18.519432,
            59.041338
          ],
          [
            18.519452,
            59.041207
          ],
          [
            18.519091,
            59.040822
          ],
          [
            18.518911,
            59.040632
          ],
          [
            18.518832,
            59.040475
          ],
          [
            18.518623,
            59.040234
          ],
          [
            18.518459,
            59.03996
          ],
          [
            18.5183,
            59.039569
          ],
          [
            18.518045,
            59.039384
          ],
          [
            18.517791,
            59.039198
          ],
          [
            18.517473,
            59.038794
          ],
          [
            18.51449,
            59.036699
          ],
          [
            18.51445,
            59.036706
          ],
          [
            18.514314,
            59.036662
          ],
          [
            18.514239,
            59.036566
          ],
          [
            18.514124,
            59.036393
          ],
          [
            18.513967,
            59.036298
          ],
          [
            18.513812,
            59.036246
          ],
          [
            18.513623,
            59.03625
          ],
          [
            18.513471,
            59.036301
          ],
          [
            18.513304,
            59.03632
          ],
          [
            18.513185,
            59.036295
          ],
          [
            18.51297,
            59.036218
          ],
          [
            18.512759,
            59.036108
          ],
          [
            18.512544,
            59.036044
          ],
          [
            18.512324,
            59.035927
          ],
          [
            18.512195,
            59.035807
          ],
          [
            18.511808,
            59.035763
          ],
          [
            18.511252,
            59.035699
          ],
          [
            18.51122,
            59.035691
          ],
          [
            18.510753,
            59.035567
          ],
          [
            18.510728,
            59.035584
          ],
          [
            18.510607,
            59.035568
          ]
        ]
      }
    }
  ]
}
