{
  "type": "FeatureCollection",
  "features": [
    {
      "type": "Feature",
      "properties": {
        "name": "SAT Ingmarsö V26",
        "sectionId": "sat-ingmarso",
        "sourceUrl": "https://drive.google.com/file/d/1Mi4EsaO4rm8ECpT2Zyb3y4WCuKol_Nwk/view?usp=drive_link"
      },
      "geometry": {
        "type": "LineString",
        "coordinates": [
          [
            18.798356,
            59.481025
          ],
          [
            18.798295,
            59.481014
          ],
          [
            18.79818,
            59.480963
          ],
          [
            18.797949,
            59.480719
          ],
          [
            18.79765,
            59.480595
          ],
          [
            18.79812,
            59.480537
          ],
          [
            18.798589,
            59.480479
          ],
          [
            18.799265,
            59.480465
          ],
          [
            18.799861,
            59.480402
          ],
          [
            18.800402,
            59.480051
          ],
          [
            18.800612,
            59.479823
          ],
          [
            18.800821,
            59.479596
          ],
          [
            18.800912,
            59.479338
          ],
          [
            18.801003,
            59.479081
          ],
          [
            18.801293,
            59.478988
          ],
          [
            18.80184,
            59.478986
          ],
          [
            18.802162,
            59.479103
          ],
          [
            18.802187,
            59.479092
          ],
          [
            18.802602,
            59.479106
          ],
          [
            18.802881,
            59.478997
          ],
          [
            18.803176,
            59.47877
          ],
          [
            18.803165,
            59.47861
          ],
          [
            18.803101,
            59.478419
          ],
          [
            18.803009,
            59.478264
          ],
          [
            18.80267,
            59.477997
          ],
          [
            18.802677,
            59.477978
          ],
          [
            18.802341,
            59.477708
          ],
          [
            18.802006,
            59.477438
          ],
          [
            18.801692,
            59.477239
          ],
          [
            18.801379,
            59.47704
          ],
          [
            18.801057,
            59.476825
          ],
          [
            18.800735,
            59.47661
          ],
          [
            18.800708,
            59.476397
          ],
          [
            18.800766,
            59.476357
          ],
          [
            18.801137,
            59.476098
          ],
          [
            18.801754,
            59.476005
          ],
          [
            18.802156,
            59.475908
          ],
          [
            18.802559,
            59.475812
          ],
          [
            18.80258,
            59.47581
          ],
          [
            18.802725,
            59.47567
          ],
          [
            18.802843,
            59.475526
          ],
          [
            18.802897,
            59.47537
          ],
          [
            18.802853,
            59.475314
          ],
          [
            18.802543,
            59.475261
          ],
          [
            18.802178,
            59.475223
          ],
          [
            18.801593,
            59.475096
          ],
          [
            18.801164,
            59.475003
          ],
          [
            18.801009,
            59.47497
          ],
          [
            18.800429,
            59.47506
          ],
          [
            18.800129,
            59.474883
          ],
          [
            18.799565,
            59.474776
          ],
          [
            18.798957,
            59.474686
          ],
          [
            18.798947,
            59.474685
          ],
          [
            18.798349,
            59.474596
          ],
          [
            18.797742,
            59.474506
          ],
          [
            18.797194,
            59.474392
          ],
          [
            18.796647,
            59.474278
          ],
          [
            18.796332,
            59.474212
          ],
          [
            18.7961,
            59.474163
          ],
          [
            18.795515,
            59.474057
          ],
          [
            18.794931,
            59.473951
          ],
          [
            18.794343,
            59.473824
          ],
          [
            18.793756,
            59.473697
          ],
          [
            18.793436,
            59.473404
          ],
          [
            18.793188,
            59.473177
          ],
          [
            18.793116,
            59.473111
          ],
          [
            18.792669,
            59.473081
          ],
          [
            18.792223,
            59.473052
          ],
          [
            18.791444,
            59.472951
          ],
          [
            18.791444,
            59.472967
          ],
          [
            18.791444,
            59.472951
          ],
          [
            18.791064,
            59.472711
          ],
          [
            18.790478,
            59.472724
          ],
          [
            18.790065,
            59.472841
          ],
          [
            18.789294,
            59.47265
          ],
          [
            18.788952,
            59.47253
          ],
          [
            18.788938,
            59.472531
          ],
          [
            18.788519,
            59.472556
          ],
          [
            18.78784,
            59.472358
          ],
          [
            18.787162,
            59.472159
          ],
          [
            18.786483,
            59.471961
          ],
          [
            18.786254,
            59.471819
          ],
          [
            18.786025,
            59.471496
          ],
          [
            18.785618,
            59.471431
          ],
          [
            18.785338,
            59.47147
          ],
          [
            18.784803,
            59.471315
          ],
          [
            18.784269,
            59.47116
          ],
          [
            18.784065,
            59.470992
          ],
          [
            18.783472,
            59.470832
          ],
          [
            18.782878,
            59.470673
          ],
          [
            18.782284,
            59.470513
          ],
          [
            18.781911,
            59.470486
          ],
          [
            18.78142,
            59.470451
          ],
          [
            18.781037,
            59.470423
          ],
          [
            18.780554,
            59.4705
          ],
          [
            18.78007,
            59.470578
          ],
          [
            18.779765,
            59.470837
          ],
          [
            18.779281,
            59.470914
          ],
          [
            18.7791,
            59.470943
          ],
          [
            18.778798,
            59.470992
          ],
          [
            18.778457,
            59.471394
          ],
          [
            18.778144,
            59.471587
          ],
          [
            18.777831,
            59.47178
          ],
          [
            18.777144,
            59.471767
          ],
          [
            18.776736,
            59.471974
          ],
          [
            18.775998,
            59.471987
          ],
          [
            18.775617,
            59.471767
          ],
          [
            18.775082,
            59.47156
          ],
          [
            18.774624,
            59.471535
          ],
          [
            18.774166,
            59.471509
          ],
          [
            18.773664,
            59.471694
          ],
          [
            18.773377,
            59.472065
          ],
          [
            18.773065,
            59.472051
          ],
          [
            18.772741,
            59.471819
          ],
          [
            18.772232,
            59.471651
          ],
          [
            18.772027,
            59.471442
          ],
          [
            18.771822,
            59.471233
          ],
          [
            18.771345,
            59.471037
          ],
          [
            18.771135,
            59.470937
          ],
          [
            18.770476,
            59.470824
          ],
          [
            18.77012,
            59.470656
          ],
          [
            18.770091,
            59.47053
          ],
          [
            18.770087,
            59.470513
          ],
          [
            18.770069,
            59.470436
          ],
          [
            18.769636,
            59.47039
          ],
          [
            18.769204,
            59.470345
          ],
          [
            18.768766,
            59.470386
          ],
          [
            18.768328,
            59.470427
          ],
          [
            18.767919,
            59.470532
          ],
          [
            18.767509,
            59.470637
          ],
          [
            18.767188,
            59.470818
          ],
          [
            18.767187,
            59.470818
          ],
          [
            18.76701,
            59.470917
          ],
          [
            18.766511,
            59.471198
          ],
          [
            18.766012,
            59.471479
          ],
          [
            18.765478,
            59.471626
          ],
          [
            18.764865,
            59.471478
          ],
          [
            18.764251,
            59.47133
          ],
          [
            18.763873,
            59.471447
          ],
          [
            18.763772,
            59.47151
          ],
          [
            18.763472,
            59.471698
          ],
          [
            18.763848,
            59.471866
          ],
          [
            18.764225,
            59.472034
          ],
          [
            18.764231,
            59.472046
          ],
          [
            18.764379,
            59.47233
          ],
          [
            18.764534,
            59.472625
          ],
          [
            18.764689,
            59.472839
          ],
          [
            18.765199,
            59.472891
          ],
          [
            18.765643,
            59.472935
          ],
          [
            18.766088,
            59.47298
          ],
          [
            18.766561,
            59.473204
          ],
          [
            18.766618,
            59.473442
          ],
          [
            18.766675,
            59.473681
          ],
          [
            18.766703,
            59.473799
          ],
          [
            18.767013,
            59.473889
          ],
          [
            18.766974,
            59.473953
          ],
          [
            18.76689,
            59.474088
          ],
          [
            18.766938,
            59.474214
          ],
          [
            18.767093,
            59.474364
          ],
          [
            18.767254,
            59.474554
          ],
          [
            18.76734,
            59.474739
          ],
          [
            18.767244,
            59.474919
          ],
          [
            18.767271,
            59.475012
          ],
          [
            18.766959,
            59.475132
          ],
          [
            18.766772,
            59.475287
          ],
          [
            18.766273,
            59.475303
          ],
          [
            18.765945,
            59.475372
          ],
          [
            18.765928,
            59.475421
          ],
          [
            18.765873,
            59.475573
          ],
          [
            18.765774,
            59.475711
          ],
          [
            18.765683,
            59.475854
          ],
          [
            18.765548,
            59.475946
          ],
          [
            18.765406,
            59.475984
          ],
          [
            18.765264,
            59.476069
          ],
          [
            18.76513,
            59.476256
          ],
          [
            18.765098,
            59.476329
          ],
          [
            18.765051,
            59.476402
          ],
          [
            18.765008,
            59.476479
          ],
          [
            18.764941,
            59.476555
          ],
          [
            18.764884,
            59.476578
          ],
          [
            18.764813,
            59.476594
          ],
          [
            18.764735,
            59.476593
          ],
          [
            18.76466,
            59.476587
          ],
          [
            18.76447,
            59.476555
          ],
          [
            18.764326,
            59.476501
          ],
          [
            18.764175,
            59.476434
          ],
          [
            18.764002,
            59.476393
          ],
          [
            18.76387,
            59.4764
          ],
          [
            18.76372,
            59.476399
          ],
          [
            18.763574,
            59.476374
          ],
          [
            18.763424,
            59.476361
          ],
          [
            18.763225,
            59.476401
          ],
          [
            18.763062,
            59.476451
          ],
          [
            18.762978,
            59.476497
          ],
          [
            18.762905,
            59.476553
          ],
          [
            18.762795,
            59.476654
          ],
          [
            18.762744,
            59.476733
          ],
          [
            18.762631,
            59.476801
          ],
          [
            18.762484,
            59.476834
          ],
          [
            18.762338,
            59.476852
          ],
          [
            18.762055,
            59.4769
          ],
          [
            18.761791,
            59.476877
          ],
          [
            18.761669,
            59.47688
          ],
          [
            18.761544,
            59.476898
          ],
          [
            18.76119,
            59.47672
          ],
          [
            18.761143,
            59.476694
          ],
          [
            18.760804,
            59.476506
          ],
          [
            18.760426,
            59.476276
          ],
          [
            18.760219,
            59.476145
          ],
          [
            18.759701,
            59.476013
          ],
          [
            18.759413,
            59.475876
          ],
          [
            18.759258,
            59.475601
          ],
          [
            18.759033,
            59.475483
          ],
          [
            18.758768,
            59.475437
          ],
          [
            18.758735,
            59.475427
          ],
          [
            18.758469,
            59.475343
          ],
          [
            18.75844,
            59.475334
          ],
          [
            18.757974,
            59.475183
          ],
          [
            18.75779,
            59.474975
          ],
          [
            18.757703,
            59.474788
          ],
          [
            18.757576,
            59.474656
          ],
          [
            18.757657,
            59.474589
          ],
          [
            18.757772,
            59.474454
          ],
          [
            18.757835,
            59.474346
          ],
          [
            18.757905,
            59.474191
          ],
          [
            18.757879,
            59.474086
          ],
          [
            18.757907,
            59.474022
          ],
          [
            18.757951,
            59.473947
          ],
          [
            18.758038,
            59.473885
          ],
          [
            18.758184,
            59.473757
          ],
          [
            18.758367,
            59.473624
          ],
          [
            18.758382,
            59.473615
          ],
          [
            18.758383,
            59.473615
          ],
          [
            18.758414,
            59.473599
          ],
          [
            18.758435,
            59.473559
          ],
          [
            18.758418,
            59.473529
          ],
          [
            18.758379,
            59.473505
          ],
          [
            18.758157,
            59.473373
          ],
          [
            18.757957,
            59.473275
          ],
          [
            18.757414,
            59.473204
          ],
          [
            18.756871,
            59.473132
          ],
          [
            18.756794,
            59.473117
          ],
          [
            18.756738,
            59.473089
          ],
          [
            18.756706,
            59.473058
          ],
          [
            18.756709,
            59.473025
          ],
          [
            18.756764,
            59.472918
          ],
          [
            18.756815,
            59.472838
          ],
          [
            18.756836,
            59.472802
          ],
          [
            18.756817,
            59.472775
          ],
          [
            18.756561,
            59.472719
          ],
          [
            18.75621,
            59.472659
          ],
          [
            18.756136,
            59.472765
          ],
          [
            18.756069,
            59.472856
          ],
          [
            18.756043,
            59.472892
          ],
          [
            18.755994,
            59.472929
          ],
          [
            18.75594,
            59.472941
          ],
          [
            18.755856,
            59.472944
          ],
          [
            18.755659,
            59.472941
          ],
          [
            18.755534,
            59.473056
          ],
          [
            18.755509,
            59.473079
          ],
          [
            18.755456,
            59.473261
          ],
          [
            18.75545,
            59.473457
          ],
          [
            18.75544,
            59.473536
          ],
          [
            18.755349,
            59.473632
          ],
          [
            18.754994,
            59.473716
          ],
          [
            18.754442,
            59.473817
          ],
          [
            18.753983,
            59.473867
          ],
          [
            18.753525,
            59.473918
          ],
          [
            18.753437,
            59.474157
          ],
          [
            18.753427,
            59.474177
          ],
          [
            18.753356,
            59.474317
          ],
          [
            18.753074,
            59.474425
          ],
          [
            18.752755,
            59.474712
          ],
          [
            18.752478,
            59.47487
          ],
          [
            18.752426,
            59.474914
          ],
          [
            18.752361,
            59.475073
          ],
          [
            18.752213,
            59.475263
          ],
          [
            18.751795,
            59.475378
          ],
          [
            18.751357,
            59.475295
          ],
          [
            18.750771,
            59.475362
          ],
          [
            18.750471,
            59.47556
          ],
          [
            18.750172,
            59.475758
          ],
          [
            18.749858,
            59.476034
          ],
          [
            18.749543,
            59.47631
          ],
          [
            18.749152,
            59.476633
          ],
          [
            18.749046,
            59.47677
          ],
          [
            18.749056,
            59.477046
          ],
          [
            18.749046,
            59.47677
          ],
          [
            18.749152,
            59.476633
          ],
          [
            18.749543,
            59.47631
          ],
          [
            18.749858,
            59.476034
          ],
          [
            18.750172,
            59.475758
          ],
          [
            18.750471,
            59.47556
          ],
          [
            18.750771,
            59.475362
          ],
          [
            18.751357,
            59.475295
          ],
          [
            18.751246,
            59.47508
          ],
          [
            18.751167,
            59.474981
          ],
          [
            18.751104,
            59.47487
          ],
          [
            18.751097,
            59.474777
          ],
          [
            18.751096,
            59.47476
          ],
          [
            18.751156,
            59.474603
          ],
          [
            18.751184,
            59.474548
          ],
          [
            18.751468,
            59.474208
          ],
          [
            18.751544,
            59.473864
          ],
          [
            18.751664,
            59.473751
          ],
          [
            18.751805,
            59.473324
          ],
          [
            18.751914,
            59.473106
          ],
          [
            18.752024,
            59.472888
          ],
          [
            18.752038,
            59.47284
          ],
          [
            18.752105,
            59.472622
          ],
          [
            18.752186,
            59.472356
          ],
          [
            18.752344,
            59.472099
          ],
          [
            18.752502,
            59.471843
          ],
          [
            18.752642,
            59.471519
          ],
          [
            18.752782,
            59.471195
          ],
          [
            18.752932,
            59.470893
          ],
          [
            18.752993,
            59.470772
          ],
          [
            18.753083,
            59.470591
          ],
          [
            18.753303,
            59.470288
          ],
          [
            18.753497,
            59.469985
          ],
          [
            18.753496,
            59.469903
          ],
          [
            18.75346,
            59.469826
          ],
          [
            18.753382,
            59.469737
          ],
          [
            18.753246,
            59.469697
          ],
          [
            18.753161,
            59.469674
          ],
          [
            18.753075,
            59.469641
          ],
          [
            18.752747,
            59.469402
          ],
          [
            18.75242,
            59.469163
          ],
          [
            18.752286,
            59.469075
          ],
          [
            18.752221,
            59.468978
          ],
          [
            18.752217,
            59.468894
          ],
          [
            18.752298,
            59.4688
          ],
          [
            18.752388,
            59.468717
          ],
          [
            18.752505,
            59.468566
          ],
          [
            18.752571,
            59.468417
          ],
          [
            18.752557,
            59.468271
          ],
          [
            18.752445,
            59.468134
          ],
          [
            18.752431,
            59.467913
          ],
          [
            18.752425,
            59.467689
          ],
          [
            18.752482,
            59.467598
          ],
          [
            18.752551,
            59.467523
          ],
          [
            18.752846,
            59.467367
          ],
          [
            18.752951,
            59.467276
          ],
          [
            18.75298,
            59.466861
          ],
          [
            18.753045,
            59.466459
          ],
          [
            18.753002,
            59.466354
          ],
          [
            18.752957,
            59.466305
          ],
          [
            18.752915,
            59.466265
          ],
          [
            18.75264,
            59.466208
          ],
          [
            18.752321,
            59.466156
          ],
          [
            18.751795,
            59.466062
          ],
          [
            18.751637,
            59.465996
          ],
          [
            18.751438,
            59.465869
          ],
          [
            18.751311,
            59.465752
          ],
          [
            18.751267,
            59.46571
          ],
          [
            18.751311,
            59.465752
          ],
          [
            18.751438,
            59.465869
          ],
          [
            18.751637,
            59.465996
          ],
          [
            18.751795,
            59.466062
          ],
          [
            18.752321,
            59.466156
          ],
          [
            18.75264,
            59.466208
          ],
          [
            18.752915,
            59.466265
          ],
          [
            18.752957,
            59.466305
          ],
          [
            18.753002,
            59.466354
          ],
          [
            18.753045,
            59.466459
          ],
          [
            18.75298,
            59.466861
          ],
          [
            18.752951,
            59.467276
          ],
          [
            18.752846,
            59.467367
          ],
          [
            18.752551,
            59.467523
          ],
          [
            18.752482,
            59.467598
          ],
          [
            18.752425,
            59.467689
          ],
          [
            18.752431,
            59.467913
          ],
          [
            18.752445,
            59.468134
          ],
          [
            18.752557,
            59.468271
          ],
          [
            18.752571,
            59.468417
          ],
          [
            18.752505,
            59.468566
          ],
          [
            18.752388,
            59.468717
          ],
          [
            18.752298,
            59.4688
          ],
          [
            18.752217,
            59.468894
          ],
          [
            18.752221,
            59.468978
          ],
          [
            18.752286,
            59.469075
          ],
          [
            18.75242,
            59.469163
          ],
          [
            18.752747,
            59.469402
          ],
          [
            18.753075,
            59.469641
          ],
          [
            18.753161,
            59.469674
          ],
          [
            18.753246,
            59.469697
          ],
          [
            18.753382,
            59.469737
          ],
          [
            18.753674,
            59.469492
          ],
          [
            18.753967,
            59.469247
          ],
          [
            18.754306,
            59.469055
          ],
          [
            18.754466,
            59.469023
          ],
          [
            18.754931,
            59.46893
          ],
          [
            18.755498,
            59.468856
          ],
          [
            18.756065,
            59.468782
          ],
          [
            18.756643,
            59.468535
          ],
          [
            18.757024,
            59.468438
          ],
          [
            18.757372,
            59.468354
          ],
          [
            18.757789,
            59.468314
          ],
          [
            18.758074,
            59.468223
          ],
          [
            18.758244,
            59.467822
          ],
          [
            18.758088,
            59.467702
          ],
          [
            18.757863,
            59.467569
          ],
          [
            18.757595,
            59.467487
          ],
          [
            18.757542,
            59.467455
          ],
          [
            18.757595,
            59.467487
          ],
          [
            18.757863,
            59.467569
          ],
          [
            18.758088,
            59.467702
          ],
          [
            18.758244,
            59.467822
          ],
          [
            18.758074,
            59.468223
          ],
          [
            18.758517,
            59.468538
          ],
          [
            18.758762,
            59.468737
          ],
          [
            18.759006,
            59.468937
          ],
          [
            18.759149,
            59.469089
          ],
          [
            18.759183,
            59.469126
          ],
          [
            18.759547,
            59.469286
          ],
          [
            18.759835,
            59.469353
          ],
          [
            18.760198,
            59.469209
          ],
          [
            18.760251,
            59.469188
          ],
          [
            18.760668,
            59.469023
          ],
          [
            18.760873,
            59.469002
          ],
          [
            18.761368,
            59.469115
          ],
          [
            18.761863,
            59.469227
          ],
          [
            18.762358,
            59.469181
          ],
          [
            18.762957,
            59.46932
          ],
          [
            18.763674,
            59.469287
          ],
          [
            18.763995,
            59.469366
          ],
          [
            18.764612,
            59.469519
          ],
          [
            18.765381,
            59.469539
          ],
          [
            18.765785,
            59.469386
          ],
          [
            18.766048,
            59.469277
          ],
          [
            18.766402,
            59.4693
          ],
          [
            18.766579,
            59.469398
          ],
          [
            18.766912,
            59.469581
          ],
          [
            18.767244,
            59.469764
          ],
          [
            18.767713,
            59.469922
          ],
          [
            18.768178,
            59.469916
          ],
          [
            18.768644,
            59.46991
          ],
          [
            18.768924,
            59.470128
          ],
          [
            18.769204,
            59.470345
          ],
          [
            18.769287,
            59.470354
          ],
          [
            18.769204,
            59.470345
          ],
          [
            18.769094,
            59.47026
          ]
        ]
      }
    }
  ]
}
