<?xml version="1.0" encoding="UTF-8"?>
<gpx xmlns="http://www.topografix.com/GPX/1/1" xmlns:xsi="http://www.w3.org/2001/XMLSchema-instance" version="1.1" creator="GPX RubyGem 1.0.0 -- http://dougfales.github.io/gpx/" xsi:schemaLocation="http://www.topografix.com/GPX/1/1 http://www.topografix.com/GPX/1/1/gpx.xsd">
  <metadata>
    <name>Vikingaleden etapp 5, Sanda till Harg by Naturkartan</name>
    <time>2026-04-30T20:31:59+00:00</time>
  </metadata>
  <trk>
    <name>Vikingaleden etapp 5, Sanda till Harg by Naturkartan</name>
    <trkseg>
      <trkpt lat="60.104864" lon="18.460031"/>
      <trkpt lat="60.104942" lon="18.46007"/>
      <trkpt lat="60.105317" lon="18.460185"/>
      <trkpt lat="60.105848" lon="18.460202"/>
      <trkpt lat="60.106045" lon="18.46075"/>
      <trkpt lat="60.106161" lon="18.46123"/>
      <trkpt lat="60.106288" lon="18.46154"/>
      <trkpt lat="60.106444" lon="18.461779"/>
      <trkpt lat="60.106744" lon="18.46201"/>
      <trkpt lat="60.10736" lon="18.462887"/>
      <trkpt lat="60.107811" lon="18.462995"/>
      <trkpt lat="60.108014" lon="18.463111"/>
      <trkpt lat="60.108144" lon="18.463351"/>
      <trkpt lat="60.111614" lon="18.463774"/>
      <trkpt lat="60.113223" lon="18.462784"/>
      <trkpt lat="60.113335" lon="18.462639"/>
      <trkpt lat="60.11372" lon="18.462517"/>
      <trkpt lat="60.113967" lon="18.462319"/>
      <trkpt lat="60.114137" lon="18.46208"/>
      <trkpt lat="60.114291" lon="18.461484"/>
      <trkpt lat="60.114291" lon="18.461484"/>
      <trkpt lat="60.114341" lon="18.461415"/>
      <trkpt lat="60.114495" lon="18.461349"/>
      <trkpt lat="60.114783" lon="18.461426"/>
      <trkpt lat="60.114926" lon="18.461345"/>
      <trkpt lat="60.115229" lon="18.460696"/>
      <trkpt lat="60.115874" lon="18.459822"/>
      <trkpt lat="60.117023" lon="18.461466"/>
      <trkpt lat="60.117515" lon="18.462255"/>
      <trkpt lat="60.117571" lon="18.462404"/>
      <trkpt lat="60.117786" lon="18.464262"/>
      <trkpt lat="60.118187" lon="18.465489"/>
      <trkpt lat="60.118334" lon="18.46577"/>
      <trkpt lat="60.118402" lon="18.467231"/>
      <trkpt lat="60.118526" lon="18.467564"/>
      <trkpt lat="60.118849" lon="18.46801"/>
      <trkpt lat="60.11892" lon="18.468198"/>
      <trkpt lat="60.119117" lon="18.469115"/>
      <trkpt lat="60.1197" lon="18.470535"/>
      <trkpt lat="60.119749" lon="18.470741"/>
      <trkpt lat="60.11981" lon="18.472306"/>
      <trkpt lat="60.119876" lon="18.473014"/>
      <trkpt lat="60.119876" lon="18.473014"/>
      <trkpt lat="60.119972" lon="18.473739"/>
      <trkpt lat="60.120142" lon="18.474576"/>
      <trkpt lat="60.120217" lon="18.474745"/>
      <trkpt lat="60.121207" lon="18.475639"/>
      <trkpt lat="60.121395" lon="18.475618"/>
      <trkpt lat="60.12148" lon="18.475506"/>
      <trkpt lat="60.122739" lon="18.473345"/>
      <trkpt lat="60.123157" lon="18.472804"/>
      <trkpt lat="60.124968" lon="18.472136"/>
      <trkpt lat="60.125916" lon="18.472083"/>
      <trkpt lat="60.126483" lon="18.471896"/>
      <trkpt lat="60.128794" lon="18.470682"/>
      <trkpt lat="60.130174" lon="18.470492"/>
      <trkpt lat="60.131097" lon="18.470185"/>
      <trkpt lat="60.131706" lon="18.470159"/>
      <trkpt lat="60.132816" lon="18.469723"/>
      <trkpt lat="60.134134" lon="18.469333"/>
      <trkpt lat="60.134134" lon="18.469333"/>
      <trkpt lat="60.134349" lon="18.469186"/>
      <trkpt lat="60.135425" lon="18.467864"/>
      <trkpt lat="60.135491" lon="18.467714"/>
      <trkpt lat="60.13566" lon="18.466769"/>
      <trkpt lat="60.135831" lon="18.46606"/>
      <trkpt lat="60.135988" lon="18.465653"/>
      <trkpt lat="60.136228" lon="18.465273"/>
      <trkpt lat="60.136199" lon="18.463584"/>
      <trkpt lat="60.135911" lon="18.462329"/>
      <trkpt lat="60.135911" lon="18.462329"/>
      <trkpt lat="60.135668" lon="18.461663"/>
      <trkpt lat="60.135621" lon="18.461307"/>
      <trkpt lat="60.135608" lon="18.460888"/>
      <trkpt lat="60.135735" lon="18.459881"/>
      <trkpt lat="60.135722" lon="18.459457"/>
      <trkpt lat="60.1358" lon="18.459407"/>
      <trkpt lat="60.136" lon="18.458937"/>
      <trkpt lat="60.136436" lon="18.458444"/>
      <trkpt lat="60.136923" lon="18.457594"/>
      <trkpt lat="60.137279" lon="18.457161"/>
      <trkpt lat="60.138144" lon="18.456464"/>
      <trkpt lat="60.138685" lon="18.456569"/>
      <trkpt lat="60.138932" lon="18.456273"/>
      <trkpt lat="60.13942" lon="18.455531"/>
      <trkpt lat="60.139529" lon="18.455111"/>
      <trkpt lat="60.139627" lon="18.453984"/>
      <trkpt lat="60.139701" lon="18.453753"/>
      <trkpt lat="60.139913" lon="18.453408"/>
      <trkpt lat="60.140041" lon="18.452928"/>
      <trkpt lat="60.140082" lon="18.452054"/>
      <trkpt lat="60.140129" lon="18.451674"/>
      <trkpt lat="60.140353" lon="18.450655"/>
      <trkpt lat="60.140515" lon="18.45011"/>
      <trkpt lat="60.140618" lon="18.449926"/>
      <trkpt lat="60.141059" lon="18.449445"/>
      <trkpt lat="60.141407" lon="18.449155"/>
      <trkpt lat="60.141565" lon="18.448935"/>
      <trkpt lat="60.141791" lon="18.448168"/>
      <trkpt lat="60.141992" lon="18.447688"/>
      <trkpt lat="60.142285" lon="18.44738"/>
      <trkpt lat="60.142961" lon="18.446873"/>
      <trkpt lat="60.143189" lon="18.446622"/>
      <trkpt lat="60.143258" lon="18.446486"/>
      <trkpt lat="60.143397" lon="18.445977"/>
      <trkpt lat="60.143654" lon="18.445609"/>
      <trkpt lat="60.143946" lon="18.44503"/>
      <trkpt lat="60.144335" lon="18.444408"/>
      <trkpt lat="60.144598" lon="18.44378"/>
      <trkpt lat="60.1453" lon="18.441555"/>
      <trkpt lat="60.145752" lon="18.440466"/>
      <trkpt lat="60.145898" lon="18.440211"/>
      <trkpt lat="60.146884" lon="18.439363"/>
      <trkpt lat="60.14697" lon="18.439173"/>
      <trkpt lat="60.147013" lon="18.439053"/>
      <trkpt lat="60.147011" lon="18.437258"/>
      <trkpt lat="60.147055" lon="18.43684"/>
      <trkpt lat="60.147388" lon="18.435959"/>
      <trkpt lat="60.147478" lon="18.435138"/>
      <trkpt lat="60.147528" lon="18.43496"/>
      <trkpt lat="60.148751" lon="18.431498"/>
      <trkpt lat="60.149223" lon="18.429377"/>
      <trkpt lat="60.149252" lon="18.429078"/>
      <trkpt lat="60.149255" lon="18.42829"/>
      <trkpt lat="60.149441" lon="18.427261"/>
      <trkpt lat="60.150097" lon="18.426579"/>
      <trkpt lat="60.1544" lon="18.420652"/>
      <trkpt lat="60.1544" lon="18.420652"/>
      <trkpt lat="60.154795" lon="18.420313"/>
      <trkpt lat="60.155152" lon="18.433935"/>
      <trkpt lat="60.155156" lon="18.434816"/>
      <trkpt lat="60.155102" lon="18.435875"/>
      <trkpt lat="60.155153" lon="18.436266"/>
      <trkpt lat="60.155446" lon="18.437562"/>
      <trkpt lat="60.155446" lon="18.437562"/>
      <trkpt lat="60.155858" lon="18.437818"/>
      <trkpt lat="60.15597" lon="18.437821"/>
      <trkpt lat="60.159116" lon="18.437364"/>
      <trkpt lat="60.159797" lon="18.437608"/>
      <trkpt lat="60.160003" lon="18.437434"/>
      <trkpt lat="60.160464" lon="18.437195"/>
      <trkpt lat="60.160464" lon="18.437195"/>
      <trkpt lat="60.160865" lon="18.437331"/>
      <trkpt lat="60.160666" lon="18.438648"/>
      <trkpt lat="60.160652" lon="18.438953"/>
      <trkpt lat="60.160686" lon="18.439215"/>
      <trkpt lat="60.16047" lon="18.440403"/>
      <trkpt lat="60.160187" lon="18.44158"/>
      <trkpt lat="60.16014" lon="18.442047"/>
      <trkpt lat="60.160157" lon="18.442727"/>
      <trkpt lat="60.160464" lon="18.445255"/>
      <trkpt lat="60.16039" lon="18.445341"/>
      <trkpt lat="60.160283" lon="18.445858"/>
      <trkpt lat="60.159761" lon="18.449227"/>
      <trkpt lat="60.161652" lon="18.451548"/>
      <trkpt lat="60.16165" lon="18.451785"/>
      <trkpt lat="60.161494" lon="18.452324"/>
      <trkpt lat="60.161245" lon="18.452692"/>
      <trkpt lat="60.161244" lon="18.453151"/>
      <trkpt lat="60.161097" lon="18.453766"/>
      <trkpt lat="60.161097" lon="18.453766"/>
      <trkpt lat="60.161086" lon="18.453931"/>
      <trkpt lat="60.161104" lon="18.454161"/>
      <trkpt lat="60.161156" lon="18.454337"/>
      <trkpt lat="60.161548" lon="18.454625"/>
      <trkpt lat="60.161681" lon="18.454795"/>
      <trkpt lat="60.161972" lon="18.455636"/>
      <trkpt lat="60.162074" lon="18.455538"/>
      <trkpt lat="60.163583" lon="18.454918"/>
      <trkpt lat="60.164191" lon="18.454506"/>
      <trkpt lat="60.16479" lon="18.453994"/>
      <trkpt lat="60.165151" lon="18.453855"/>
      <trkpt lat="60.165528" lon="18.453814"/>
      <trkpt lat="60.165787" lon="18.454008"/>
      <trkpt lat="60.165984" lon="18.453751"/>
      <trkpt lat="60.166112" lon="18.453708"/>
      <trkpt lat="60.166768" lon="18.454083"/>
      <trkpt lat="60.167361" lon="18.454116"/>
      <trkpt lat="60.16774" lon="18.454692"/>
      <trkpt lat="60.167981" lon="18.45535"/>
      <trkpt lat="60.168347" lon="18.455838"/>
      <trkpt lat="60.168735" lon="18.45631"/>
      <trkpt lat="60.169089" lon="18.456645"/>
      <trkpt lat="60.169305" lon="18.456948"/>
      <trkpt lat="60.169585" lon="18.457212"/>
      <trkpt lat="60.169585" lon="18.457212"/>
      <trkpt lat="60.169959" lon="18.457737"/>
      <trkpt lat="60.170099" lon="18.457702"/>
      <trkpt lat="60.17044" lon="18.456488"/>
      <trkpt lat="60.170468" lon="18.455982"/>
      <trkpt lat="60.170361" lon="18.455474"/>
      <trkpt lat="60.170213" lon="18.455317"/>
      <trkpt lat="60.170415" lon="18.454828"/>
      <trkpt lat="60.17118" lon="18.454857"/>
      <trkpt lat="60.171531" lon="18.454027"/>
      <trkpt lat="60.171825" lon="18.452864"/>
      <trkpt lat="60.171778" lon="18.452061"/>
      <trkpt lat="60.171522" lon="18.449444"/>
      <trkpt lat="60.171261" lon="18.445052"/>
      <trkpt lat="60.172281" lon="18.444399"/>
      <trkpt lat="60.173049" lon="18.443102"/>
      <trkpt lat="60.1735" lon="18.44314"/>
      <trkpt lat="60.173706" lon="18.44272"/>
      <trkpt lat="60.174472" lon="18.443041"/>
      <trkpt lat="60.175262" lon="18.443008"/>
      <trkpt lat="60.175893" lon="18.442125"/>
      <trkpt lat="60.176329" lon="18.440767"/>
      <trkpt lat="60.176432" lon="18.438775"/>
      <trkpt lat="60.176298" lon="18.438061"/>
      <trkpt lat="60.176002" lon="18.437481"/>
      <trkpt lat="60.175897" lon="18.436583"/>
      <trkpt lat="60.176766" lon="18.434474"/>
      <trkpt lat="60.176933" lon="18.433912"/>
      <trkpt lat="60.177031" lon="18.43288"/>
      <trkpt lat="60.177068" lon="18.428136"/>
      <trkpt lat="60.177169" lon="18.427434"/>
      <trkpt lat="60.177286" lon="18.426936"/>
      <trkpt lat="60.177475" lon="18.426462"/>
      <trkpt lat="60.177891" lon="18.425694"/>
      <trkpt lat="60.1782" lon="18.424996"/>
      <trkpt lat="60.178458" lon="18.423999"/>
      <trkpt lat="60.178708" lon="18.421633"/>
      <trkpt lat="60.17868" lon="18.420939"/>
      <trkpt lat="60.179212" lon="18.420761"/>
      <trkpt lat="60.179451" lon="18.42055"/>
      <trkpt lat="60.179504" lon="18.420405"/>
      <trkpt lat="60.179651" lon="18.418928"/>
      <trkpt lat="60.179729" lon="18.418621"/>
      <trkpt lat="60.180079" lon="18.418708"/>
      <trkpt lat="60.180079" lon="18.418708"/>
      <trkpt lat="60.180538" lon="18.418343"/>
      <trkpt lat="60.18232" lon="18.417463"/>
      <trkpt lat="60.18232" lon="18.417463"/>
      <trkpt lat="60.182662" lon="18.416734"/>
      <trkpt lat="60.183035" lon="18.413837"/>
      <trkpt lat="60.18344" lon="18.411219"/>
      <trkpt lat="60.183611" lon="18.40976"/>
      <trkpt lat="60.183151" lon="18.408054"/>
      <trkpt lat="60.183876" lon="18.402962"/>
      <trkpt lat="60.183797" lon="18.402702"/>
      <trkpt lat="60.183233" lon="18.402347"/>
      <trkpt lat="60.183178" lon="18.401966"/>
      <trkpt lat="60.183363" lon="18.400739"/>
      <trkpt lat="60.183354" lon="18.400454"/>
      <trkpt lat="60.183287" lon="18.40029"/>
      <trkpt lat="60.182919" lon="18.400037"/>
      <trkpt lat="60.182854" lon="18.399224"/>
      <trkpt lat="60.182672" lon="18.399031"/>
      <trkpt lat="60.182672" lon="18.399031"/>
      <trkpt lat="60.182566" lon="18.398563"/>
      <trkpt lat="60.183531" lon="18.397226"/>
      <trkpt lat="60.184862" lon="18.395218"/>
      <trkpt lat="60.185476" lon="18.394267"/>
      <trkpt lat="60.185798" lon="18.393665"/>
      <trkpt lat="60.185904" lon="18.393634"/>
      <trkpt lat="60.186412" lon="18.39317"/>
      <trkpt lat="60.187196" lon="18.392572"/>
      <trkpt lat="60.187569" lon="18.39268"/>
      <trkpt lat="60.188171" lon="18.392169"/>
    </trkseg>
  </trk>
</gpx>
