<?xml version="1.0" encoding="UTF-8" standalone="yes"?>
<gpx version="1.1" creator="outdooractive - http://www.outdooractive.com" xmlns="http://www.topografix.com/GPX/1/1" xmlns:oa="http://www.outdooractive.com/GPX/Extensions/1" xmlns:xsi="http://www.w3.org/2001/XMLSchema-instance" xsi:schemaLocation="http://www.topografix.com/GPX/1/1 http://www.topografix.com/GPX/1/1/gpx.xsd http://www.outdooractive.com/GPX/Extensions/1 https://www.outdooractive.com/schema/gpx_extensions.xsd">
  <metadata>
    <name>Vikingaleden etapp 11, Västland till Marma (motsvarar Upplandsleden etapp 15)</name>
    <author>
      <name>Ulf Sighede - Paxwalk, ekonomisk förening</name>
    </author>
    <link href="https://www.outdooractive.com/r/25622815"/>
    <time>2026-03-19T09:37:58.741Z</time>
    <extensions>
      <oa:oaCategory>pilgrimTrack</oa:oaCategory>
    </extensions>
  </metadata>
  <trk>
    <name>Vikingaleden etapp 11, Västland till Marma (motsvarar Upplandsleden etapp 15)</name>
    <desc>För fullständig etappbeskrivning se Upplandsleden</desc>
    <type>pilgrimTrack</type>
    <trkseg>
      <trkpt lat="60.447812" lon="17.613426">
        <ele>15.87963</ele>
        <name>60.447812,17.613426</name>
        <extensions>
          <oa:Extension>
            <oa:mapZoom>19</oa:mapZoom>
          </oa:Extension>
        </extensions>
      </trkpt>
      <trkpt lat="60.448448" lon="17.610846">
        <ele>18.24093</ele>
      </trkpt>
      <trkpt lat="60.448574" lon="17.608857">
        <ele>20.57261</ele>
      </trkpt>
      <trkpt lat="60.448439" lon="17.608349">
        <ele>20.89221</ele>
      </trkpt>
      <trkpt lat="60.44837" lon="17.607629">
        <ele>20.99499</ele>
      </trkpt>
      <trkpt lat="60.448381" lon="17.606859">
        <ele>20.94902</ele>
      </trkpt>
      <trkpt lat="60.448258" lon="17.606336">
        <ele>21.20174</ele>
      </trkpt>
      <trkpt lat="60.448269" lon="17.606126">
        <ele>21.15425</ele>
      </trkpt>
      <trkpt lat="60.448443" lon="17.605733">
        <ele>20.76476</ele>
      </trkpt>
      <trkpt lat="60.449226" lon="17.605452">
        <ele>19.26795</ele>
      </trkpt>
      <trkpt lat="60.448644" lon="17.603393">
        <ele>19.45357</ele>
      </trkpt>
      <trkpt lat="60.448381" lon="17.602057">
        <ele>19.79668</ele>
      </trkpt>
      <trkpt lat="60.448394" lon="17.601383">
        <ele>19.83919</ele>
      </trkpt>
      <trkpt lat="60.448507" lon="17.600648">
        <ele>19.6216</ele>
      </trkpt>
      <trkpt lat="60.448927" lon="17.598507">
        <ele>18.91784</ele>
      </trkpt>
      <trkpt lat="60.44898" lon="17.595647">
        <ele>20.3946</ele>
      </trkpt>
      <trkpt lat="60.449175" lon="17.595233">
        <ele>20.37564</ele>
      </trkpt>
      <trkpt lat="60.449358" lon="17.594572">
        <ele>20.38439</ele>
      </trkpt>
      <trkpt lat="60.449029" lon="17.592428">
        <ele>20.81823</ele>
      </trkpt>
      <trkpt lat="60.448398" lon="17.592215">
        <ele>21.69543</ele>
      </trkpt>
      <trkpt lat="60.447195" lon="17.591128">
        <ele>22.85224</ele>
      </trkpt>
      <trkpt lat="60.447208" lon="17.590377">
        <ele>23.03537</ele>
      </trkpt>
      <trkpt lat="60.447311" lon="17.590034">
        <ele>23.2414</ele>
      </trkpt>
      <trkpt lat="60.447585" lon="17.589721">
        <ele>23.58826</ele>
      </trkpt>
      <trkpt lat="60.447645" lon="17.589465">
        <ele>23.82805</ele>
      </trkpt>
      <trkpt lat="60.447683" lon="17.587722">
        <ele>25.13526</ele>
      </trkpt>
      <trkpt lat="60.447849" lon="17.585906">
        <ele>25.75473</ele>
      </trkpt>
      <trkpt lat="60.447621" lon="17.585389">
        <ele>25.24853</ele>
      </trkpt>
      <trkpt lat="60.44729" lon="17.585083">
        <ele>24.75599</ele>
      </trkpt>
      <trkpt lat="60.446714" lon="17.585022">
        <ele>24.38537</ele>
      </trkpt>
      <trkpt lat="60.44632" lon="17.584669">
        <ele>24.09714</ele>
      </trkpt>
      <trkpt lat="60.446047" lon="17.583976">
        <ele>23.92493</ele>
      </trkpt>
      <trkpt lat="60.44615" lon="17.583068">
        <ele>23.84352</ele>
      </trkpt>
      <trkpt lat="60.446067" lon="17.582506">
        <ele>23.89049</ele>
      </trkpt>
      <trkpt lat="60.446301" lon="17.580954">
        <ele>24.37917</ele>
      </trkpt>
      <trkpt lat="60.446305" lon="17.580118">
        <ele>24.97122</ele>
      </trkpt>
      <trkpt lat="60.446211" lon="17.579161">
        <ele>26.21353</ele>
      </trkpt>
      <trkpt lat="60.446368" lon="17.578087">
        <ele>27.83426</ele>
      </trkpt>
      <trkpt lat="60.446389" lon="17.577555">
        <ele>28.44889</ele>
      </trkpt>
      <trkpt lat="60.446722" lon="17.575385">
        <ele>30.18472</ele>
      </trkpt>
      <trkpt lat="60.447022" lon="17.574416">
        <ele>30.16726</ele>
      </trkpt>
      <trkpt lat="60.447316" lon="17.572673">
        <ele>29.24361</ele>
      </trkpt>
      <trkpt lat="60.447493" lon="17.572264">
        <ele>29.11289</ele>
      </trkpt>
      <trkpt lat="60.447434" lon="17.569693">
        <ele>27.75786</ele>
      </trkpt>
      <trkpt lat="60.446988" lon="17.567333">
        <ele>27.18781</ele>
      </trkpt>
      <trkpt lat="60.446919" lon="17.566083">
        <ele>27.66983</ele>
      </trkpt>
      <trkpt lat="60.446997" lon="17.565004">
        <ele>28.43669</ele>
      </trkpt>
      <trkpt lat="60.447167" lon="17.564032">
        <ele>29.32364</ele>
      </trkpt>
      <trkpt lat="60.44747" lon="17.563183">
        <ele>29.82983</ele>
      </trkpt>
      <trkpt lat="60.447593" lon="17.561459">
        <ele>30.9336</ele>
      </trkpt>
      <trkpt lat="60.447969" lon="17.55922">
        <ele>33.21266</ele>
      </trkpt>
      <trkpt lat="60.447887" lon="17.558554">
        <ele>34.14392</ele>
      </trkpt>
      <trkpt lat="60.447577" lon="17.557773">
        <ele>34.82687</ele>
        <name>60.447577,17.557773</name>
      </trkpt>
      <trkpt lat="60.447424" lon="17.556971">
        <ele>35.36113</ele>
      </trkpt>
      <trkpt lat="60.447398" lon="17.556205">
        <ele>36.23266</ele>
      </trkpt>
      <trkpt lat="60.447793" lon="17.554388">
        <ele>37.70457</ele>
      </trkpt>
      <trkpt lat="60.449248" lon="17.544113">
        <ele>41.8614</ele>
      </trkpt>
      <trkpt lat="60.448945" lon="17.541699">
        <ele>39.37481</ele>
      </trkpt>
      <trkpt lat="60.449032" lon="17.54118">
        <ele>38.3394</ele>
      </trkpt>
      <trkpt lat="60.449595" lon="17.540046">
        <ele>37.07617</ele>
      </trkpt>
      <trkpt lat="60.45006" lon="17.536522">
        <ele>34.64942</ele>
      </trkpt>
      <trkpt lat="60.450298" lon="17.53414">
        <ele>33.94009</ele>
      </trkpt>
      <trkpt lat="60.450862" lon="17.530182">
        <ele>32.04353</ele>
      </trkpt>
      <trkpt lat="60.451214" lon="17.52606">
        <ele>29.42919</ele>
      </trkpt>
      <trkpt lat="60.451257" lon="17.524447">
        <ele>27.80748</ele>
      </trkpt>
      <trkpt lat="60.451378" lon="17.523905">
        <ele>27.62457</ele>
      </trkpt>
      <trkpt lat="60.45184" lon="17.523648">
        <ele>28.17114</ele>
      </trkpt>
      <trkpt lat="60.453359" lon="17.520856">
        <ele>27.54236</ele>
      </trkpt>
      <trkpt lat="60.453929" lon="17.519149">
        <ele>26.85973</ele>
      </trkpt>
      <trkpt lat="60.456065" lon="17.511766">
        <ele>32.20496</ele>
      </trkpt>
      <trkpt lat="60.45618" lon="17.511122">
        <ele>32.20947</ele>
      </trkpt>
      <trkpt lat="60.455961" lon="17.510485">
        <ele>32.5055</ele>
      </trkpt>
      <trkpt lat="60.45505" lon="17.510269">
        <ele>33.70927</ele>
      </trkpt>
      <trkpt lat="60.455013" lon="17.509945">
        <ele>33.90141</ele>
      </trkpt>
      <trkpt lat="60.45529" lon="17.509188">
        <ele>33.69483</ele>
      </trkpt>
      <trkpt lat="60.456073" lon="17.508957">
        <ele>32.25648</ele>
      </trkpt>
      <trkpt lat="60.456335" lon="17.5081">
        <ele>31.62075</ele>
      </trkpt>
      <trkpt lat="60.456559" lon="17.5054">
        <ele>30.94998</ele>
      </trkpt>
      <trkpt lat="60.456812" lon="17.504952">
        <ele>30.40257</ele>
      </trkpt>
      <trkpt lat="60.457081" lon="17.501908">
        <ele>29.42327</ele>
      </trkpt>
      <trkpt lat="60.456511" lon="17.499078">
        <ele>31.57117</ele>
      </trkpt>
      <trkpt lat="60.456373" lon="17.498071">
        <ele>32.17103</ele>
      </trkpt>
      <trkpt lat="60.456394" lon="17.497293">
        <ele>32.27231</ele>
      </trkpt>
      <trkpt lat="60.456653" lon="17.493762">
        <ele>33.74079</ele>
      </trkpt>
      <trkpt lat="60.457184" lon="17.492056">
        <ele>34.06973</ele>
      </trkpt>
      <trkpt lat="60.458146" lon="17.4839">
        <ele>35.05299</ele>
      </trkpt>
      <trkpt lat="60.458985" lon="17.478673">
        <ele>41.57108</ele>
      </trkpt>
      <trkpt lat="60.458744" lon="17.469522">
        <ele>43.47235</ele>
        <name>60.458744,17.469522</name>
      </trkpt>
      <trkpt lat="60.458868" lon="17.468912">
        <ele>43.73207</ele>
      </trkpt>
      <trkpt lat="60.459105" lon="17.46843">
        <ele>43.82235</ele>
      </trkpt>
      <trkpt lat="60.459596" lon="17.467943">
        <ele>43.63119</ele>
      </trkpt>
      <trkpt lat="60.460449" lon="17.467407">
        <ele>42.87229</ele>
      </trkpt>
      <trkpt lat="60.460553" lon="17.467169">
        <ele>42.80131</ele>
      </trkpt>
      <trkpt lat="60.460626" lon="17.466684">
        <ele>42.71682</ele>
      </trkpt>
      <trkpt lat="60.460578" lon="17.465785">
        <ele>42.55678</ele>
      </trkpt>
      <trkpt lat="60.46048" lon="17.464911">
        <ele>42.39979</ele>
      </trkpt>
      <trkpt lat="60.460241" lon="17.464036">
        <ele>42.12106</ele>
      </trkpt>
      <trkpt lat="60.460509" lon="17.462888">
        <ele>42.06468</ele>
      </trkpt>
      <trkpt lat="60.461002" lon="17.461823">
        <ele>42.0363</ele>
      </trkpt>
      <trkpt lat="60.461518" lon="17.459974">
        <ele>41.40932</ele>
      </trkpt>
      <trkpt lat="60.46168" lon="17.459717">
        <ele>41.27137</ele>
      </trkpt>
      <trkpt lat="60.462578" lon="17.458868">
        <ele>40.56901</ele>
      </trkpt>
      <trkpt lat="60.4628" lon="17.458759">
        <ele>40.61061</ele>
      </trkpt>
      <trkpt lat="60.463437" lon="17.458822">
        <ele>41.79261</ele>
      </trkpt>
      <trkpt lat="60.463722" lon="17.458482">
        <ele>42.78791</ele>
      </trkpt>
      <trkpt lat="60.464035" lon="17.4571">
        <ele>43.84007</ele>
      </trkpt>
      <trkpt lat="60.464042" lon="17.456638">
        <ele>43.29413</ele>
      </trkpt>
      <trkpt lat="60.463948" lon="17.455848">
        <ele>41.57159</ele>
      </trkpt>
      <trkpt lat="60.464194" lon="17.455068">
        <ele>41.82072</ele>
      </trkpt>
      <trkpt lat="60.464707" lon="17.452471">
        <ele>43.28147</ele>
      </trkpt>
      <trkpt lat="60.464917" lon="17.451918">
        <ele>43.83695</ele>
      </trkpt>
      <trkpt lat="60.465206" lon="17.451575">
        <ele>44.45476</ele>
        <name>60.465206,17.451575</name>
      </trkpt>
      <trkpt lat="60.465001" lon="17.451213">
        <ele>44.11961</ele>
      </trkpt>
      <trkpt lat="60.46475" lon="17.450374">
        <ele>44.54878</ele>
      </trkpt>
      <trkpt lat="60.464055" lon="17.449962">
        <ele>44.73926</ele>
      </trkpt>
      <trkpt lat="60.463721" lon="17.44944">
        <ele>45.41813</ele>
      </trkpt>
      <trkpt lat="60.463663" lon="17.448988">
        <ele>45.94099</ele>
      </trkpt>
      <trkpt lat="60.463634" lon="17.446183">
        <ele>46.32199</ele>
      </trkpt>
      <trkpt lat="60.463454" lon="17.444656">
        <ele>47.05791</ele>
      </trkpt>
      <trkpt lat="60.463437" lon="17.443588">
        <ele>48.13561</ele>
      </trkpt>
      <trkpt lat="60.463498" lon="17.442947">
        <ele>48.87315</ele>
      </trkpt>
      <trkpt lat="60.463665" lon="17.442488">
        <ele>49.32929</ele>
      </trkpt>
      <trkpt lat="60.463682" lon="17.442241">
        <ele>49.41441</ele>
      </trkpt>
      <trkpt lat="60.463578" lon="17.440558">
        <ele>49.14029</ele>
      </trkpt>
      <trkpt lat="60.463438" lon="17.439506">
        <ele>48.68291</ele>
      </trkpt>
      <trkpt lat="60.463086" lon="17.437981">
        <ele>47.39936</ele>
      </trkpt>
      <trkpt lat="60.463475" lon="17.434794">
        <ele>44.49081</ele>
      </trkpt>
      <trkpt lat="60.463506" lon="17.433803">
        <ele>43.50063</ele>
      </trkpt>
      <trkpt lat="60.461578" lon="17.422396">
        <ele>42.69539</ele>
        <name>60.461578,17.422396</name>
      </trkpt>
      <trkpt lat="60.461479" lon="17.421147">
        <ele>41.10089</ele>
      </trkpt>
      <trkpt lat="60.461731" lon="17.421275">
        <ele>41.58631</ele>
      </trkpt>
      <trkpt lat="60.463276" lon="17.423457">
        <ele>42.20901</ele>
      </trkpt>
      <trkpt lat="60.463738" lon="17.422557">
        <ele>42.83061</ele>
      </trkpt>
      <trkpt lat="60.464443" lon="17.42179">
        <ele>44.08502</ele>
      </trkpt>
      <trkpt lat="60.464844" lon="17.420762">
        <ele>45.15098</ele>
        <name>60.464844,17.420762</name>
      </trkpt>
      <trkpt lat="60.465459" lon="17.42051">
        <ele>45.8167</ele>
      </trkpt>
      <trkpt lat="60.465786" lon="17.419924">
        <ele>46.11746</ele>
      </trkpt>
      <trkpt lat="60.467029" lon="17.418836">
        <ele>44.77314</ele>
      </trkpt>
      <trkpt lat="60.468532" lon="17.416173">
        <ele>36.83587</ele>
      </trkpt>
      <trkpt lat="60.46937" lon="17.414969">
        <ele>35.81496</ele>
      </trkpt>
      <trkpt lat="60.469818" lon="17.4146">
        <ele>35.58188</ele>
      </trkpt>
      <trkpt lat="60.470814" lon="17.414361">
        <ele>35.50129</ele>
      </trkpt>
      <trkpt lat="60.471254" lon="17.414498">
        <ele>35.57656</ele>
      </trkpt>
      <trkpt lat="60.471543" lon="17.414242">
        <ele>35.38546</ele>
      </trkpt>
      <trkpt lat="60.471809" lon="17.413526">
        <ele>35.0136</ele>
      </trkpt>
      <trkpt lat="60.471996" lon="17.413763">
        <ele>35.02642</ele>
      </trkpt>
      <trkpt lat="60.472152" lon="17.41528">
        <ele>35.63065</ele>
      </trkpt>
      <trkpt lat="60.472749" lon="17.415429">
        <ele>35.13284</ele>
      </trkpt>
      <trkpt lat="60.473477" lon="17.41584">
        <ele>34.50491</ele>
      </trkpt>
      <trkpt lat="60.474193" lon="17.415342">
        <ele>33.59603</ele>
      </trkpt>
      <trkpt lat="60.47439" lon="17.41415">
        <ele>33.54942</ele>
      </trkpt>
      <trkpt lat="60.474377" lon="17.41324">
        <ele>33.68978</ele>
      </trkpt>
      <trkpt lat="60.474882" lon="17.409336">
        <ele>32.52412</ele>
      </trkpt>
      <trkpt lat="60.475795" lon="17.409717">
        <ele>31.63427</ele>
      </trkpt>
      <trkpt lat="60.476606" lon="17.410209">
        <ele>32.18775</ele>
        <name>60.476606,17.410209</name>
        <extensions>
          <oa:Extension>
            <oa:mapZoom>19</oa:mapZoom>
          </oa:Extension>
        </extensions>
      </trkpt>
      <trkpt lat="60.476991" lon="17.410863">
        <ele>33.11241</ele>
      </trkpt>
      <trkpt lat="60.477181" lon="17.411354">
        <ele>33.61679</ele>
      </trkpt>
      <trkpt lat="60.477323" lon="17.412052">
        <ele>33.9632</ele>
      </trkpt>
      <trkpt lat="60.477607" lon="17.412593">
        <ele>34.12185</ele>
      </trkpt>
      <trkpt lat="60.47954" lon="17.414302">
        <ele>33.31207</ele>
      </trkpt>
      <trkpt lat="60.480267" lon="17.41212">
        <ele>34.20954</ele>
      </trkpt>
      <trkpt lat="60.479585" lon="17.407568">
        <ele>24.79541</ele>
      </trkpt>
      <trkpt lat="60.480135" lon="17.406022">
        <ele>19.25344</ele>
      </trkpt>
      <trkpt lat="60.480284" lon="17.405946">
        <ele>18.94028</ele>
      </trkpt>
      <trkpt lat="60.484911" lon="17.415476">
        <ele>24.12521</ele>
      </trkpt>
      <trkpt lat="60.48627" lon="17.416471">
        <ele>18.0334</ele>
      </trkpt>
      <trkpt lat="60.485893" lon="17.418952">
        <ele>21.01429</ele>
      </trkpt>
      <trkpt lat="60.485871" lon="17.419546">
        <ele>22.09592</ele>
        <name>60.485871,17.419546</name>
        <extensions>
          <oa:Extension>
            <oa:mapZoom>19</oa:mapZoom>
          </oa:Extension>
        </extensions>
      </trkpt>
    </trkseg>
  </trk>
</gpx>