<?xml version="1.0" encoding="UTF-8"?>
<gpx xmlns="http://www.topografix.com/GPX/1/1" xmlns:xsi="http://www.w3.org/2001/XMLSchema-instance" version="1.1" creator="GPX RubyGem 1.0.0 -- http://dougfales.github.io/gpx/" xsi:schemaLocation="http://www.topografix.com/GPX/1/1 http://www.topografix.com/GPX/1/1/gpx.xsd">
  <metadata>
    <name>Vikingaleden etapp 6, Harg till Gimo by Naturkartan</name>
    <time>2026-04-30T20:31:59+00:00</time>
  </metadata>
  <trk>
    <name>Vikingaleden etapp 6, Harg till Gimo by Naturkartan</name>
    <trkseg>
      <trkpt lat="60.188155" lon="18.39218"/>
      <trkpt lat="60.188011" lon="18.392278"/>
      <trkpt lat="60.187797" lon="18.392449"/>
      <trkpt lat="60.187584" lon="18.392621"/>
      <trkpt lat="60.187371" lon="18.392664"/>
      <trkpt lat="60.187157" lon="18.392578"/>
      <trkpt lat="60.187172" lon="18.392567"/>
      <trkpt lat="60.187172" lon="18.392565"/>
      <trkpt lat="60.18592" lon="18.393706"/>
      <trkpt lat="60.185838" lon="18.39357"/>
      <trkpt lat="60.185981" lon="18.393056"/>
      <trkpt lat="60.185909" lon="18.392886"/>
      <trkpt lat="60.184799" lon="18.391385"/>
      <trkpt lat="60.184482" lon="18.391021"/>
      <trkpt lat="60.184031" lon="18.390683"/>
      <trkpt lat="60.183559" lon="18.390124"/>
      <trkpt lat="60.182853" lon="18.387842"/>
      <trkpt lat="60.18279" lon="18.387256"/>
      <trkpt lat="60.182525" lon="18.386948"/>
      <trkpt lat="60.182395" lon="18.386615"/>
      <trkpt lat="60.182088" lon="18.385262"/>
      <trkpt lat="60.181997" lon="18.385159"/>
      <trkpt lat="60.181205" lon="18.385049"/>
      <trkpt lat="60.18052" lon="18.384624"/>
      <trkpt lat="60.179619" lon="18.383609"/>
      <trkpt lat="60.179504" lon="18.383291"/>
      <trkpt lat="60.179167" lon="18.382721"/>
      <trkpt lat="60.179167" lon="18.382721"/>
      <trkpt lat="60.179131" lon="18.381664"/>
      <trkpt lat="60.178973" lon="18.38135"/>
      <trkpt lat="60.178846" lon="18.380888"/>
      <trkpt lat="60.178694" lon="18.379548"/>
      <trkpt lat="60.178625" lon="18.377603"/>
      <trkpt lat="60.178648" lon="18.376528"/>
      <trkpt lat="60.178854" lon="18.375625"/>
      <trkpt lat="60.179395" lon="18.374859"/>
      <trkpt lat="60.179994" lon="18.373587"/>
      <trkpt lat="60.180024" lon="18.372687"/>
      <trkpt lat="60.180233" lon="18.372002"/>
      <trkpt lat="60.180274" lon="18.371007"/>
      <trkpt lat="60.180331" lon="18.370818"/>
      <trkpt lat="60.180584" lon="18.370558"/>
      <trkpt lat="60.181342" lon="18.370178"/>
      <trkpt lat="60.181801" lon="18.369798"/>
      <trkpt lat="60.18233" lon="18.369296"/>
      <trkpt lat="60.182793" lon="18.368492"/>
      <trkpt lat="60.182825" lon="18.366777"/>
      <trkpt lat="60.182916" lon="18.366471"/>
      <trkpt lat="60.18277" lon="18.364602"/>
      <trkpt lat="60.182827" lon="18.364252"/>
      <trkpt lat="60.182978" lon="18.364093"/>
      <trkpt lat="60.183962" lon="18.363704"/>
      <trkpt lat="60.184283" lon="18.363069"/>
      <trkpt lat="60.184609" lon="18.36271"/>
      <trkpt lat="60.184609" lon="18.36271"/>
      <trkpt lat="60.184775" lon="18.362299"/>
      <trkpt lat="60.184861" lon="18.361929"/>
      <trkpt lat="60.185021" lon="18.359973"/>
      <trkpt lat="60.184888" lon="18.357826"/>
      <trkpt lat="60.18476" lon="18.35701"/>
      <trkpt lat="60.18501" lon="18.355968"/>
      <trkpt lat="60.185265" lon="18.354213"/>
      <trkpt lat="60.185596" lon="18.352935"/>
      <trkpt lat="60.184753" lon="18.35147"/>
      <trkpt lat="60.184116" lon="18.350978"/>
      <trkpt lat="60.183837" lon="18.349944"/>
      <trkpt lat="60.183696" lon="18.349619"/>
      <trkpt lat="60.183578" lon="18.348962"/>
      <trkpt lat="60.183241" lon="18.348348"/>
      <trkpt lat="60.183198" lon="18.346951"/>
      <trkpt lat="60.183254" lon="18.344708"/>
      <trkpt lat="60.183139" lon="18.34414"/>
      <trkpt lat="60.183138" lon="18.342531"/>
      <trkpt lat="60.183041" lon="18.340826"/>
      <trkpt lat="60.183052" lon="18.340072"/>
      <trkpt lat="60.182957" lon="18.33947"/>
      <trkpt lat="60.182957" lon="18.33947"/>
      <trkpt lat="60.182851" lon="18.339247"/>
      <trkpt lat="60.18164" lon="18.340311"/>
      <trkpt lat="60.180231" lon="18.340674"/>
      <trkpt lat="60.17978" lon="18.340664"/>
      <trkpt lat="60.17978" lon="18.340664"/>
      <trkpt lat="60.17964" lon="18.340562"/>
      <trkpt lat="60.179389" lon="18.340126"/>
      <trkpt lat="60.178877" lon="18.338873"/>
      <trkpt lat="60.179347" lon="18.337736"/>
      <trkpt lat="60.179712" lon="18.33653"/>
      <trkpt lat="60.179756" lon="18.335446"/>
      <trkpt lat="60.179571" lon="18.334387"/>
      <trkpt lat="60.179387" lon="18.333971"/>
      <trkpt lat="60.178085" lon="18.33253"/>
      <trkpt lat="60.177305" lon="18.33187"/>
      <trkpt lat="60.176731" lon="18.330965"/>
      <trkpt lat="60.176439" lon="18.330362"/>
      <trkpt lat="60.175573" lon="18.329242"/>
      <trkpt lat="60.174561" lon="18.328265"/>
      <trkpt lat="60.175049" lon="18.325955"/>
      <trkpt lat="60.175066" lon="18.325626"/>
      <trkpt lat="60.174996" lon="18.32518"/>
      <trkpt lat="60.173755" lon="18.320947"/>
      <trkpt lat="60.173678" lon="18.320529"/>
      <trkpt lat="60.173542" lon="18.316432"/>
      <trkpt lat="60.173435" lon="18.315941"/>
      <trkpt lat="60.172692" lon="18.313892"/>
      <trkpt lat="60.172792" lon="18.308651"/>
      <trkpt lat="60.172792" lon="18.308651"/>
      <trkpt lat="60.172871" lon="18.308138"/>
      <trkpt lat="60.173007" lon="18.307942"/>
      <trkpt lat="60.173172" lon="18.307883"/>
      <trkpt lat="60.174326" lon="18.307883"/>
      <trkpt lat="60.175065" lon="18.307748"/>
      <trkpt lat="60.175333" lon="18.307387"/>
      <trkpt lat="60.17539" lon="18.30717"/>
      <trkpt lat="60.175217" lon="18.306438"/>
      <trkpt lat="60.17484" lon="18.304038"/>
      <trkpt lat="60.174808" lon="18.303158"/>
      <trkpt lat="60.174808" lon="18.303158"/>
      <trkpt lat="60.17468" lon="18.302064"/>
      <trkpt lat="60.174669" lon="18.300626"/>
      <trkpt lat="60.174306" lon="18.295498"/>
      <trkpt lat="60.173207" lon="18.29524"/>
      <trkpt lat="60.172833" lon="18.294897"/>
      <trkpt lat="60.171988" lon="18.293859"/>
      <trkpt lat="60.171477" lon="18.290137"/>
      <trkpt lat="60.171221" lon="18.289557"/>
      <trkpt lat="60.170917" lon="18.289266"/>
      <trkpt lat="60.170561" lon="18.289104"/>
      <trkpt lat="60.170227" lon="18.289241"/>
      <trkpt lat="60.169435" lon="18.286704"/>
      <trkpt lat="60.169435" lon="18.286704"/>
      <trkpt lat="60.169002" lon="18.28509"/>
      <trkpt lat="60.169678" lon="18.2831"/>
      <trkpt lat="60.169852" lon="18.282307"/>
      <trkpt lat="60.169887" lon="18.281911"/>
      <trkpt lat="60.169737" lon="18.280083"/>
      <trkpt lat="60.170026" lon="18.271353"/>
      <trkpt lat="60.170013" lon="18.27103"/>
      <trkpt lat="60.169793" lon="18.269745"/>
      <trkpt lat="60.169203" lon="18.264079"/>
      <trkpt lat="60.169043" lon="18.262346"/>
      <trkpt lat="60.169003" lon="18.261565"/>
      <trkpt lat="60.169038" lon="18.261159"/>
      <trkpt lat="60.169038" lon="18.261159"/>
      <trkpt lat="60.169444" lon="18.260399"/>
      <trkpt lat="60.169773" lon="18.259415"/>
      <trkpt lat="60.170312" lon="18.258453"/>
      <trkpt lat="60.170286" lon="18.257927"/>
      <trkpt lat="60.169895" lon="18.256185"/>
      <trkpt lat="60.169899" lon="18.255266"/>
      <trkpt lat="60.170133" lon="18.254622"/>
      <trkpt lat="60.170568" lon="18.254105"/>
      <trkpt lat="60.170987" lon="18.253017"/>
      <trkpt lat="60.171431" lon="18.244814"/>
      <trkpt lat="60.171738" lon="18.243388"/>
      <trkpt lat="60.172128" lon="18.241121"/>
      <trkpt lat="60.172449" lon="18.240151"/>
      <trkpt lat="60.172579" lon="18.239573"/>
      <trkpt lat="60.173644" lon="18.233611"/>
      <trkpt lat="60.173617" lon="18.23302"/>
      <trkpt lat="60.173165" lon="18.232123"/>
      <trkpt lat="60.172715" lon="18.230776"/>
      <trkpt lat="60.172677" lon="18.229975"/>
      <trkpt lat="60.173171" lon="18.228792"/>
      <trkpt lat="60.173536" lon="18.227298"/>
      <trkpt lat="60.173536" lon="18.227298"/>
      <trkpt lat="60.17354" lon="18.226442"/>
      <trkpt lat="60.173593" lon="18.226259"/>
      <trkpt lat="60.174277" lon="18.224813"/>
      <trkpt lat="60.174686" lon="18.223797"/>
      <trkpt lat="60.174698" lon="18.223593"/>
      <trkpt lat="60.174562" lon="18.220107"/>
      <trkpt lat="60.174408" lon="18.219358"/>
      <trkpt lat="60.173896" lon="18.218113"/>
      <trkpt lat="60.17349" lon="18.217312"/>
      <trkpt lat="60.172406" lon="18.215997"/>
      <trkpt lat="60.172032" lon="18.214633"/>
      <trkpt lat="60.171624" lon="18.213458"/>
      <trkpt lat="60.17077" lon="18.211215"/>
      <trkpt lat="60.170328" lon="18.210354"/>
      <trkpt lat="60.169974" lon="18.209111"/>
      <trkpt lat="60.169433" lon="18.20786"/>
      <trkpt lat="60.169144" lon="18.206919"/>
      <trkpt lat="60.169091" lon="18.206603"/>
      <trkpt lat="60.169136" lon="18.205095"/>
      <trkpt lat="60.168917" lon="18.203774"/>
      <trkpt lat="60.168839" lon="18.20113"/>
      <trkpt lat="60.169167" lon="18.2001"/>
      <trkpt lat="60.169214" lon="18.199739"/>
      <trkpt lat="60.169228" lon="18.198579"/>
    </trkseg>
  </trk>
</gpx>
