<?xml version="1.0" encoding="UTF-8"?>
<gpx xmlns="http://www.topografix.com/GPX/1/1" xmlns:xsi="http://www.w3.org/2001/XMLSchema-instance" version="1.1" creator="GPX RubyGem 1.0.0 -- http://dougfales.github.io/gpx/" xsi:schemaLocation="http://www.topografix.com/GPX/1/1 http://www.topografix.com/GPX/1/1/gpx.xsd">
  <metadata>
    <name>Vikingaleden etapp 3, Häverö kyrka till Häverödal by Naturkartan</name>
    <time>2026-04-30T20:31:59+00:00</time>
  </metadata>
  <trk>
    <name>Vikingaleden etapp 3, Häverö kyrka till Häverödal by Naturkartan</name>
    <trkseg>
      <trkpt lat="60.041252" lon="18.680045"/>
      <trkpt lat="60.041553" lon="18.67964"/>
      <trkpt lat="60.041609" lon="18.679479"/>
      <trkpt lat="60.041646" lon="18.679138"/>
      <trkpt lat="60.042196" lon="18.679121"/>
      <trkpt lat="60.042601" lon="18.678992"/>
      <trkpt lat="60.044541" lon="18.678098"/>
      <trkpt lat="60.046028" lon="18.676675"/>
      <trkpt lat="60.046448" lon="18.676182"/>
      <trkpt lat="60.048667" lon="18.672323"/>
      <trkpt lat="60.04907" lon="18.671824"/>
      <trkpt lat="60.049598" lon="18.671465"/>
      <trkpt lat="60.049914" lon="18.671158"/>
      <trkpt lat="60.050309" lon="18.670305"/>
      <trkpt lat="60.050889" lon="18.669278"/>
      <trkpt lat="60.05101" lon="18.669134"/>
      <trkpt lat="60.051199" lon="18.669072"/>
      <trkpt lat="60.052042" lon="18.669223"/>
      <trkpt lat="60.052569" lon="18.668946"/>
      <trkpt lat="60.052821" lon="18.668743"/>
      <trkpt lat="60.053322" lon="18.668293"/>
      <trkpt lat="60.05418" lon="18.66732"/>
      <trkpt lat="60.05469" lon="18.66656"/>
      <trkpt lat="60.055047" lon="18.665687"/>
      <trkpt lat="60.055047" lon="18.665687"/>
      <trkpt lat="60.055223" lon="18.665449"/>
      <trkpt lat="60.055389" lon="18.665319"/>
      <trkpt lat="60.055674" lon="18.665307"/>
      <trkpt lat="60.055852" lon="18.664863"/>
      <trkpt lat="60.055897" lon="18.664707"/>
      <trkpt lat="60.055897" lon="18.664707"/>
      <trkpt lat="60.055251" lon="18.659484"/>
      <trkpt lat="60.055251" lon="18.659484"/>
      <trkpt lat="60.055281" lon="18.659107"/>
      <trkpt lat="60.055365" lon="18.658687"/>
      <trkpt lat="60.055557" lon="18.658322"/>
      <trkpt lat="60.056021" lon="18.657517"/>
      <trkpt lat="60.056184" lon="18.657304"/>
      <trkpt lat="60.056427" lon="18.657114"/>
      <trkpt lat="60.056506" lon="18.656918"/>
      <trkpt lat="60.056613" lon="18.656516"/>
      <trkpt lat="60.056615" lon="18.656194"/>
      <trkpt lat="60.0567" lon="18.655375"/>
      <trkpt lat="60.056941" lon="18.654481"/>
      <trkpt lat="60.057104" lon="18.654181"/>
      <trkpt lat="60.057154" lon="18.653651"/>
      <trkpt lat="60.057304" lon="18.65327"/>
      <trkpt lat="60.057639" lon="18.65218"/>
      <trkpt lat="60.057907" lon="18.65101"/>
      <trkpt lat="60.057846" lon="18.650425"/>
      <trkpt lat="60.057804" lon="18.649395"/>
      <trkpt lat="60.058296" lon="18.64689"/>
      <trkpt lat="60.058613" lon="18.646097"/>
      <trkpt lat="60.058785" lon="18.645854"/>
      <trkpt lat="60.058928" lon="18.645358"/>
      <trkpt lat="60.058928" lon="18.645358"/>
      <trkpt lat="60.05917" lon="18.645338"/>
      <trkpt lat="60.058933" lon="18.642885"/>
      <trkpt lat="60.059055" lon="18.642393"/>
      <trkpt lat="60.059082" lon="18.641813"/>
      <trkpt lat="60.0589" lon="18.63986"/>
      <trkpt lat="60.058952" lon="18.638235"/>
      <trkpt lat="60.058865" lon="18.637403"/>
      <trkpt lat="60.058933" lon="18.635487"/>
      <trkpt lat="60.059082" lon="18.634691"/>
      <trkpt lat="60.05926" lon="18.634018"/>
      <trkpt lat="60.059296" lon="18.633165"/>
      <trkpt lat="60.059425" lon="18.63277"/>
      <trkpt lat="60.059425" lon="18.63277"/>
      <trkpt lat="60.059519" lon="18.631985"/>
      <trkpt lat="60.059476" lon="18.631878"/>
      <trkpt lat="60.059452" lon="18.631503"/>
      <trkpt lat="60.059502" lon="18.629699"/>
      <trkpt lat="60.059577" lon="18.628417"/>
      <trkpt lat="60.059597" lon="18.627624"/>
      <trkpt lat="60.059597" lon="18.627624"/>
      <trkpt lat="60.059575" lon="18.627421"/>
      <trkpt lat="60.058956" lon="18.625482"/>
      <trkpt lat="60.058847" lon="18.624933"/>
      <trkpt lat="60.058496" lon="18.625285"/>
      <trkpt lat="60.058239" lon="18.625223"/>
      <trkpt lat="60.058038" lon="18.624891"/>
      <trkpt lat="60.058038" lon="18.624891"/>
      <trkpt lat="60.057663" lon="18.624616"/>
      <trkpt lat="60.057418" lon="18.6247"/>
      <trkpt lat="60.05717" lon="18.625118"/>
      <trkpt lat="60.056994" lon="18.625199"/>
      <trkpt lat="60.05668" lon="18.625187"/>
      <trkpt lat="60.056243" lon="18.625615"/>
      <trkpt lat="60.055749" lon="18.625981"/>
      <trkpt lat="60.055409" lon="18.626467"/>
      <trkpt lat="60.055258" lon="18.626507"/>
      <trkpt lat="60.055109" lon="18.626407"/>
      <trkpt lat="60.054802" lon="18.625866"/>
      <trkpt lat="60.054451" lon="18.625408"/>
      <trkpt lat="60.054148" lon="18.625329"/>
      <trkpt lat="60.053606" lon="18.625407"/>
      <trkpt lat="60.053058" lon="18.626115"/>
      <trkpt lat="60.052425" lon="18.626639"/>
      <trkpt lat="60.051822" lon="18.627476"/>
      <trkpt lat="60.051121" lon="18.627821"/>
      <trkpt lat="60.050791" lon="18.6282"/>
      <trkpt lat="60.050791" lon="18.6282"/>
      <trkpt lat="60.050556" lon="18.628357"/>
      <trkpt lat="60.050313" lon="18.628419"/>
      <trkpt lat="60.050064" lon="18.62839"/>
      <trkpt lat="60.049806" lon="18.62821"/>
      <trkpt lat="60.049634" lon="18.628246"/>
      <trkpt lat="60.04917" lon="18.627632"/>
      <trkpt lat="60.048653" lon="18.627249"/>
      <trkpt lat="60.048325" lon="18.626812"/>
      <trkpt lat="60.047924" lon="18.626163"/>
      <trkpt lat="60.04763" lon="18.625446"/>
      <trkpt lat="60.047414" lon="18.625173"/>
      <trkpt lat="60.047077" lon="18.625359"/>
      <trkpt lat="60.046739" lon="18.625235"/>
      <trkpt lat="60.046276" lon="18.625435"/>
      <trkpt lat="60.046276" lon="18.625435"/>
      <trkpt lat="60.045951" lon="18.625483"/>
      <trkpt lat="60.04573" lon="18.625652"/>
      <trkpt lat="60.045544" lon="18.6259"/>
      <trkpt lat="60.04486" lon="18.625772"/>
      <trkpt lat="60.04486" lon="18.625772"/>
      <trkpt lat="60.04452" lon="18.624582"/>
      <trkpt lat="60.04442" lon="18.62355"/>
      <trkpt lat="60.044083" lon="18.623144"/>
      <trkpt lat="60.044014" lon="18.622623"/>
      <trkpt lat="60.04364" lon="18.622473"/>
      <trkpt lat="60.043097" lon="18.622095"/>
      <trkpt lat="60.042656" lon="18.621113"/>
      <trkpt lat="60.042656" lon="18.619421"/>
      <trkpt lat="60.042213" lon="18.618658"/>
      <trkpt lat="60.041203" lon="18.618088"/>
      <trkpt lat="60.041092" lon="18.617167"/>
      <trkpt lat="60.040512" lon="18.61697"/>
      <trkpt lat="60.03997" lon="18.615917"/>
      <trkpt lat="60.039677" lon="18.616009"/>
      <trkpt lat="60.039677" lon="18.616009"/>
      <trkpt lat="60.039398" lon="18.616189"/>
      <trkpt lat="60.039288" lon="18.61658"/>
      <trkpt lat="60.03901" lon="18.617025"/>
      <trkpt lat="60.03875" lon="18.617216"/>
      <trkpt lat="60.03875" lon="18.617216"/>
      <trkpt lat="60.038403" lon="18.61715"/>
      <trkpt lat="60.03819" lon="18.616013"/>
      <trkpt lat="60.037193" lon="18.614069"/>
      <trkpt lat="60.03705" lon="18.613531"/>
      <trkpt lat="60.037197" lon="18.612865"/>
      <trkpt lat="60.036755" lon="18.612682"/>
      <trkpt lat="60.036312" lon="18.612358"/>
      <trkpt lat="60.036312" lon="18.611855"/>
      <trkpt lat="60.03625" lon="18.611013"/>
      <trkpt lat="60.035957" lon="18.610842"/>
      <trkpt lat="60.035423" lon="18.610134"/>
      <trkpt lat="60.035122" lon="18.609518"/>
      <trkpt lat="60.035122" lon="18.609518"/>
      <trkpt lat="60.034454" lon="18.609888"/>
      <trkpt lat="60.034287" lon="18.609427"/>
      <trkpt lat="60.033403" lon="18.610256"/>
      <trkpt lat="60.033139" lon="18.610579"/>
      <trkpt lat="60.03286" lon="18.611345"/>
      <trkpt lat="60.032813" lon="18.611285"/>
      <trkpt lat="60.031719" lon="18.611267"/>
      <trkpt lat="60.030922" lon="18.611606"/>
      <trkpt lat="60.03082" lon="18.610459"/>
      <trkpt lat="60.03082" lon="18.610459"/>
      <trkpt lat="60.030694" lon="18.610033"/>
      <trkpt lat="60.030591" lon="18.60984"/>
      <trkpt lat="60.030445" lon="18.609605"/>
      <trkpt lat="60.030178" lon="18.609354"/>
      <trkpt lat="60.029461" lon="18.608959"/>
      <trkpt lat="60.029469" lon="18.608238"/>
      <trkpt lat="60.029291" lon="18.607138"/>
      <trkpt lat="60.028682" lon="18.606763"/>
      <trkpt lat="60.028221" lon="18.606677"/>
      <trkpt lat="60.027717" lon="18.606763"/>
      <trkpt lat="60.02731" lon="18.60672"/>
      <trkpt lat="60.027245" lon="18.606141"/>
      <trkpt lat="60.026709" lon="18.605969"/>
      <trkpt lat="60.026527" lon="18.605583"/>
      <trkpt lat="60.026458" lon="18.605187"/>
      <trkpt lat="60.02621" lon="18.605047"/>
      <trkpt lat="60.026234" lon="18.605296"/>
    </trkseg>
  </trk>
</gpx>
