<?xml version="1.0" encoding="UTF-8" standalone="yes"?>
<gpx version="1.1" creator="outdooractive - http://www.outdooractive.com" xmlns="http://www.topografix.com/GPX/1/1" xmlns:oa="http://www.outdooractive.com/GPX/Extensions/1" xmlns:xsi="http://www.w3.org/2001/XMLSchema-instance" xsi:schemaLocation="http://www.topografix.com/GPX/1/1 http://www.topografix.com/GPX/1/1/gpx.xsd http://www.outdooractive.com/GPX/Extensions/1 https://www.outdooractive.com/schema/gpx_extensions.xsd">
  <metadata>
    <name>Vikingaleden etapp 10, Lövstabruk till Västland (motsvarar Upplandsleden etapp 14)</name>
    <author>
      <name>Ulf Sighede - Paxwalk, ekonomisk förening</name>
    </author>
    <link href="https://www.outdooractive.com/r/25665979"/>
    <time>2026-03-19T09:38:00.576Z</time>
    <extensions>
      <oa:oaCategory>pilgrimTrack</oa:oaCategory>
    </extensions>
  </metadata>
  <trk>
    <name>Vikingaleden etapp 10, Lövstabruk till Västland (motsvarar Upplandsleden etapp 14)</name>
    <desc>För fullständig etappbeskrivning se Upplandsleden</desc>
    <type>pilgrimTrack</type>
    <trkseg>
      <trkpt lat="60.408125" lon="17.879245">
        <ele>25.69614</ele>
        <name>60.408125,17.879245</name>
      </trkpt>
      <trkpt lat="60.407815" lon="17.876629">
        <ele>27.00146</ele>
      </trkpt>
      <trkpt lat="60.407487" lon="17.872844">
        <ele>27.64127</ele>
      </trkpt>
      <trkpt lat="60.407782" lon="17.871969">
        <ele>28.14846</ele>
      </trkpt>
      <trkpt lat="60.407871" lon="17.870794">
        <ele>28.35445</ele>
      </trkpt>
      <trkpt lat="60.40777" lon="17.870332">
        <ele>28.35538</ele>
      </trkpt>
      <trkpt lat="60.408316" lon="17.869838">
        <ele>28.66649</ele>
      </trkpt>
      <trkpt lat="60.40798" lon="17.868142">
        <ele>29.25783</ele>
      </trkpt>
      <trkpt lat="60.408005" lon="17.866394">
        <ele>30.86005</ele>
      </trkpt>
      <trkpt lat="60.40771" lon="17.865242">
        <ele>31.64094</ele>
      </trkpt>
      <trkpt lat="60.407838" lon="17.864237">
        <ele>32.11735</ele>
      </trkpt>
      <trkpt lat="60.407749" lon="17.863459">
        <ele>32.21498</ele>
      </trkpt>
      <trkpt lat="60.407379" lon="17.862549">
        <ele>32.18651</ele>
      </trkpt>
      <trkpt lat="60.40736" lon="17.862125">
        <ele>32.14764</ele>
      </trkpt>
      <trkpt lat="60.407557" lon="17.860617">
        <ele>31.48525</ele>
      </trkpt>
      <trkpt lat="60.407895" lon="17.859828">
        <ele>30.62601</ele>
      </trkpt>
      <trkpt lat="60.407943" lon="17.859033">
        <ele>30.30303</ele>
      </trkpt>
      <trkpt lat="60.407783" lon="17.858196">
        <ele>30.58549</ele>
      </trkpt>
      <trkpt lat="60.407496" lon="17.857546">
        <ele>30.93242</ele>
      </trkpt>
      <trkpt lat="60.407203" lon="17.856073">
        <ele>30.95872</ele>
      </trkpt>
      <trkpt lat="60.407104" lon="17.855187">
        <ele>30.94215</ele>
      </trkpt>
      <trkpt lat="60.407304" lon="17.854078">
        <ele>31.55899</ele>
      </trkpt>
      <trkpt lat="60.407315" lon="17.853525">
        <ele>31.90911</ele>
      </trkpt>
      <trkpt lat="60.406748" lon="17.852033">
        <ele>31.75243</ele>
      </trkpt>
      <trkpt lat="60.406637" lon="17.851238">
        <ele>31.71755</ele>
      </trkpt>
      <trkpt lat="60.406208" lon="17.850277">
        <ele>30.348</ele>
      </trkpt>
      <trkpt lat="60.406081" lon="17.849574">
        <ele>29.6167</ele>
      </trkpt>
      <trkpt lat="60.406484" lon="17.848592">
        <ele>30.84483</ele>
        <name>60.406484,17.848592</name>
      </trkpt>
      <trkpt lat="60.406739" lon="17.847469">
        <ele>32.11953</ele>
      </trkpt>
      <trkpt lat="60.407587" lon="17.845143">
        <ele>36.53005</ele>
      </trkpt>
      <trkpt lat="60.407863" lon="17.844187">
        <ele>37.60915</ele>
      </trkpt>
      <trkpt lat="60.407871" lon="17.843567">
        <ele>37.64712</ele>
      </trkpt>
      <trkpt lat="60.407961" lon="17.843233">
        <ele>37.79546</ele>
      </trkpt>
      <trkpt lat="60.408359" lon="17.842861">
        <ele>38.58631</ele>
      </trkpt>
      <trkpt lat="60.409296" lon="17.84281">
        <ele>40.38204</ele>
      </trkpt>
      <trkpt lat="60.409555" lon="17.843152">
        <ele>40.93035</ele>
      </trkpt>
      <trkpt lat="60.409827" lon="17.84306">
        <ele>40.99468</ele>
        <name>60.409827,17.843060</name>
      </trkpt>
      <trkpt lat="60.410192" lon="17.842235">
        <ele>39.9241</ele>
      </trkpt>
      <trkpt lat="60.410723" lon="17.841762">
        <ele>38.66793</ele>
      </trkpt>
      <trkpt lat="60.412133" lon="17.839145">
        <ele>31.90823</ele>
      </trkpt>
      <trkpt lat="60.412673" lon="17.838839">
        <ele>31.85772</ele>
      </trkpt>
      <trkpt lat="60.413165" lon="17.838861">
        <ele>32.53976</ele>
      </trkpt>
      <trkpt lat="60.413631" lon="17.838361">
        <ele>32.29484</ele>
      </trkpt>
      <trkpt lat="60.414082" lon="17.836669">
        <ele>30.84696</ele>
      </trkpt>
      <trkpt lat="60.414916" lon="17.835596">
        <ele>31.3139</ele>
      </trkpt>
      <trkpt lat="60.415332" lon="17.835437">
        <ele>31.58765</ele>
      </trkpt>
      <trkpt lat="60.416395" lon="17.835587">
        <ele>31.75027</ele>
      </trkpt>
      <trkpt lat="60.416946" lon="17.836198">
        <ele>31.7674</ele>
      </trkpt>
      <trkpt lat="60.417771" lon="17.836704">
        <ele>30.90045</ele>
      </trkpt>
      <trkpt lat="60.41834" lon="17.83668">
        <ele>29.85647</ele>
      </trkpt>
      <trkpt lat="60.418508" lon="17.836146">
        <ele>29.49798</ele>
      </trkpt>
      <trkpt lat="60.418931" lon="17.835478">
        <ele>29.1784</ele>
      </trkpt>
      <trkpt lat="60.419012" lon="17.83495">
        <ele>29.49643</ele>
      </trkpt>
      <trkpt lat="60.419032" lon="17.833307">
        <ele>30.2668</ele>
      </trkpt>
      <trkpt lat="60.419167" lon="17.832504">
        <ele>30.52916</ele>
      </trkpt>
      <trkpt lat="60.418992" lon="17.830686">
        <ele>29.35016</ele>
      </trkpt>
      <trkpt lat="60.419189" lon="17.830229">
        <ele>29.03535</ele>
      </trkpt>
      <trkpt lat="60.419476" lon="17.830102">
        <ele>28.96032</ele>
      </trkpt>
      <trkpt lat="60.419714" lon="17.830244">
        <ele>29.14499</ele>
      </trkpt>
      <trkpt lat="60.419897" lon="17.830707">
        <ele>29.79658</ele>
      </trkpt>
      <trkpt lat="60.420318" lon="17.831061">
        <ele>30.85005</ele>
      </trkpt>
      <trkpt lat="60.420581" lon="17.831099">
        <ele>31.32638</ele>
      </trkpt>
      <trkpt lat="60.420736" lon="17.830824">
        <ele>31.30714</ele>
        <name>60.420736,17.830824</name>
      </trkpt>
      <trkpt lat="60.42075" lon="17.830493">
        <ele>30.99329</ele>
      </trkpt>
      <trkpt lat="60.420581" lon="17.83006">
        <ele>30.27572</ele>
      </trkpt>
      <trkpt lat="60.420546" lon="17.829725">
        <ele>29.96545</ele>
      </trkpt>
      <trkpt lat="60.420907" lon="17.82802">
        <ele>28.93193</ele>
      </trkpt>
      <trkpt lat="60.421478" lon="17.827609">
        <ele>28.55825</ele>
      </trkpt>
      <trkpt lat="60.422141" lon="17.8276">
        <ele>28.49123</ele>
      </trkpt>
      <trkpt lat="60.422827" lon="17.827911">
        <ele>28.90208</ele>
      </trkpt>
      <trkpt lat="60.423476" lon="17.827578">
        <ele>28.45359</ele>
      </trkpt>
      <trkpt lat="60.423884" lon="17.827186">
        <ele>27.87626</ele>
      </trkpt>
      <trkpt lat="60.424473" lon="17.82628">
        <ele>26.59634</ele>
      </trkpt>
      <trkpt lat="60.424944" lon="17.825961">
        <ele>26.46858</ele>
      </trkpt>
      <trkpt lat="60.424972" lon="17.825393">
        <ele>26.16939</ele>
      </trkpt>
      <trkpt lat="60.424754" lon="17.825165">
        <ele>25.80958</ele>
      </trkpt>
      <trkpt lat="60.424522" lon="17.824323">
        <ele>25.02799</ele>
        <name>60.424522,17.824323</name>
      </trkpt>
      <trkpt lat="60.424363" lon="17.823006">
        <ele>24.82613</ele>
      </trkpt>
      <trkpt lat="60.423638" lon="17.822638">
        <ele>24.52408</ele>
      </trkpt>
      <trkpt lat="60.423291" lon="17.822014">
        <ele>25.27341</ele>
      </trkpt>
      <trkpt lat="60.422494" lon="17.82176">
        <ele>27.04496</ele>
      </trkpt>
      <trkpt lat="60.421996" lon="17.821341">
        <ele>28.75445</ele>
      </trkpt>
      <trkpt lat="60.421903" lon="17.820587">
        <ele>30.05317</ele>
        <name>60.421903,17.820587</name>
      </trkpt>
      <trkpt lat="60.422068" lon="17.819455">
        <ele>31.08574</ele>
      </trkpt>
      <trkpt lat="60.422364" lon="17.818121">
        <ele>31.34745</ele>
      </trkpt>
      <trkpt lat="60.422638" lon="17.817322">
        <ele>30.37537</ele>
      </trkpt>
      <trkpt lat="60.422782" lon="17.816025">
        <ele>30.48784</ele>
      </trkpt>
      <trkpt lat="60.423257" lon="17.813821">
        <ele>31.97325</ele>
      </trkpt>
      <trkpt lat="60.42348" lon="17.812965">
        <ele>32.581</ele>
      </trkpt>
      <trkpt lat="60.423869" lon="17.81227">
        <ele>32.7243</ele>
      </trkpt>
      <trkpt lat="60.424153" lon="17.811394">
        <ele>33.29887</ele>
      </trkpt>
      <trkpt lat="60.424391" lon="17.810961">
        <ele>33.2377</ele>
      </trkpt>
      <trkpt lat="60.425499" lon="17.810691">
        <ele>32.20765</ele>
      </trkpt>
      <trkpt lat="60.425815" lon="17.810233">
        <ele>32.2899</ele>
      </trkpt>
      <trkpt lat="60.426316" lon="17.810202">
        <ele>31.46704</ele>
      </trkpt>
      <trkpt lat="60.426805" lon="17.809621">
        <ele>31.10223</ele>
      </trkpt>
      <trkpt lat="60.429063" lon="17.797436">
        <ele>28.19723</ele>
      </trkpt>
      <trkpt lat="60.429062" lon="17.796947">
        <ele>27.72057</ele>
      </trkpt>
      <trkpt lat="60.428689" lon="17.79647">
        <ele>26.98776</ele>
      </trkpt>
      <trkpt lat="60.428291" lon="17.796591">
        <ele>26.89324</ele>
      </trkpt>
      <trkpt lat="60.427979" lon="17.796521">
        <ele>26.85229</ele>
      </trkpt>
      <trkpt lat="60.427723" lon="17.795806">
        <ele>26.55285</ele>
        <name>60.427723,17.795806</name>
      </trkpt>
      <trkpt lat="60.427656" lon="17.795245">
        <ele>26.32131</ele>
      </trkpt>
      <trkpt lat="60.428361" lon="17.791886">
        <ele>26.12027</ele>
      </trkpt>
      <trkpt lat="60.429668" lon="17.788255">
        <ele>27.97158</ele>
      </trkpt>
      <trkpt lat="60.430079" lon="17.787699">
        <ele>27.80827</ele>
      </trkpt>
      <trkpt lat="60.433854" lon="17.788423">
        <ele>23.82857</ele>
      </trkpt>
      <trkpt lat="60.434213" lon="17.784634">
        <ele>14.91534</ele>
      </trkpt>
      <trkpt lat="60.434257" lon="17.783486">
        <ele>12.63928</ele>
      </trkpt>
      <trkpt lat="60.434447" lon="17.783039">
        <ele>11.57874</ele>
      </trkpt>
      <trkpt lat="60.434984" lon="17.780933">
        <ele>10.74642</ele>
      </trkpt>
      <trkpt lat="60.435889" lon="17.780428">
        <ele>12.30545</ele>
      </trkpt>
      <trkpt lat="60.436073" lon="17.779459">
        <ele>13.30608</ele>
        <name>60.436073,17.779459</name>
      </trkpt>
      <trkpt lat="60.436089" lon="17.778833">
        <ele>13.22517</ele>
      </trkpt>
      <trkpt lat="60.436006" lon="17.777953">
        <ele>12.51947</ele>
      </trkpt>
      <trkpt lat="60.436708" lon="17.776573">
        <ele>10.93318</ele>
      </trkpt>
      <trkpt lat="60.435262" lon="17.773691">
        <ele>10.45165</ele>
      </trkpt>
      <trkpt lat="60.435576" lon="17.77325">
        <ele>10.25757</ele>
      </trkpt>
      <trkpt lat="60.435654" lon="17.772981">
        <ele>10.03848</ele>
      </trkpt>
      <trkpt lat="60.435642" lon="17.771876">
        <ele>9.24226</ele>
      </trkpt>
      <trkpt lat="60.434212" lon="17.764939">
        <ele>10.70292</ele>
      </trkpt>
      <trkpt lat="60.434218" lon="17.764393">
        <ele>11.54282</ele>
      </trkpt>
      <trkpt lat="60.434546" lon="17.763419">
        <ele>12.63171</ele>
      </trkpt>
      <trkpt lat="60.434712" lon="17.762337">
        <ele>13.92308</ele>
      </trkpt>
      <trkpt lat="60.43477" lon="17.761339">
        <ele>14.62874</ele>
      </trkpt>
      <trkpt lat="60.434732" lon="17.760099">
        <ele>13.45227</ele>
      </trkpt>
      <trkpt lat="60.434845" lon="17.759429">
        <ele>12.63865</ele>
      </trkpt>
      <trkpt lat="60.434958" lon="17.759144">
        <ele>12.51378</ele>
      </trkpt>
      <trkpt lat="60.435597" lon="17.758382">
        <ele>12.58003</ele>
      </trkpt>
      <trkpt lat="60.435923" lon="17.757349">
        <ele>11.7989</ele>
      </trkpt>
      <trkpt lat="60.436001" lon="17.756871">
        <ele>11.7516</ele>
      </trkpt>
      <trkpt lat="60.436821" lon="17.754989">
        <ele>13.61894</ele>
      </trkpt>
      <trkpt lat="60.437006" lon="17.754332">
        <ele>14.47737</ele>
      </trkpt>
      <trkpt lat="60.437088" lon="17.753452">
        <ele>15.43152</ele>
      </trkpt>
      <trkpt lat="60.437038" lon="17.753074">
        <ele>15.6998</ele>
      </trkpt>
      <trkpt lat="60.436546" lon="17.751503">
        <ele>16.08799</ele>
      </trkpt>
      <trkpt lat="60.435914" lon="17.751567">
        <ele>15.42499</ele>
      </trkpt>
      <trkpt lat="60.435338" lon="17.750791">
        <ele>15.26032</ele>
      </trkpt>
      <trkpt lat="60.435233" lon="17.750333">
        <ele>15.37596</ele>
      </trkpt>
      <trkpt lat="60.435154" lon="17.74911">
        <ele>15.76273</ele>
      </trkpt>
      <trkpt lat="60.43457" lon="17.747916">
        <ele>15.98761</ele>
      </trkpt>
      <trkpt lat="60.434704" lon="17.746166">
        <ele>15.84719</ele>
      </trkpt>
      <trkpt lat="60.435205" lon="17.744562">
        <ele>15.91657</ele>
      </trkpt>
      <trkpt lat="60.435356" lon="17.743141">
        <ele>17.03961</ele>
      </trkpt>
      <trkpt lat="60.435282" lon="17.74278">
        <ele>17.35499</ele>
      </trkpt>
      <trkpt lat="60.434929" lon="17.741937">
        <ele>18.13412</ele>
      </trkpt>
      <trkpt lat="60.434756" lon="17.740373">
        <ele>19.38739</ele>
      </trkpt>
      <trkpt lat="60.434341" lon="17.739521">
        <ele>20.52664</ele>
      </trkpt>
      <trkpt lat="60.434205" lon="17.738613">
        <ele>21.01448</ele>
      </trkpt>
      <trkpt lat="60.434227" lon="17.738319">
        <ele>21.00467</ele>
      </trkpt>
      <trkpt lat="60.434062" lon="17.738275">
        <ele>21.12706</ele>
      </trkpt>
      <trkpt lat="60.433896" lon="17.738001">
        <ele>21.13168</ele>
      </trkpt>
      <trkpt lat="60.433462" lon="17.736912">
        <ele>20.64153</ele>
      </trkpt>
      <trkpt lat="60.433282" lon="17.735973">
        <ele>20.53262</ele>
      </trkpt>
      <trkpt lat="60.433287" lon="17.735021">
        <ele>20.74753</ele>
      </trkpt>
      <trkpt lat="60.433523" lon="17.733467">
        <ele>20.65938</ele>
      </trkpt>
      <trkpt lat="60.433487" lon="17.732454">
        <ele>20.62282</ele>
      </trkpt>
      <trkpt lat="60.433651" lon="17.730506">
        <ele>19.7903</ele>
      </trkpt>
      <trkpt lat="60.433647" lon="17.728919">
        <ele>19.05314</ele>
      </trkpt>
      <trkpt lat="60.433756" lon="17.728305">
        <ele>18.6267</ele>
      </trkpt>
      <trkpt lat="60.433917" lon="17.725445">
        <ele>19.74892</ele>
      </trkpt>
      <trkpt lat="60.433664" lon="17.724573">
        <ele>21.20635</ele>
      </trkpt>
      <trkpt lat="60.433679" lon="17.724113">
        <ele>21.71875</ele>
      </trkpt>
      <trkpt lat="60.433564" lon="17.723897">
        <ele>22.17646</ele>
      </trkpt>
      <trkpt lat="60.433435" lon="17.723027">
        <ele>23.25895</ele>
      </trkpt>
      <trkpt lat="60.433493" lon="17.72244">
        <ele>23.54997</ele>
        <name>60.433493,17.722440</name>
      </trkpt>
      <trkpt lat="60.433388" lon="17.722104">
        <ele>23.97016</ele>
      </trkpt>
      <trkpt lat="60.433343" lon="17.72128">
        <ele>24.03431</ele>
      </trkpt>
      <trkpt lat="60.433558" lon="17.720589">
        <ele>22.79562</ele>
      </trkpt>
      <trkpt lat="60.433942" lon="17.720823">
        <ele>21.91711</ele>
      </trkpt>
      <trkpt lat="60.434091" lon="17.720499">
        <ele>21.14578</ele>
      </trkpt>
      <trkpt lat="60.434339" lon="17.716731">
        <ele>20.16155</ele>
      </trkpt>
      <trkpt lat="60.434331" lon="17.715957">
        <ele>20.61887</ele>
      </trkpt>
      <trkpt lat="60.434694" lon="17.712076">
        <ele>21.42078</ele>
      </trkpt>
      <trkpt lat="60.434821" lon="17.70915">
        <ele>24.00032</ele>
      </trkpt>
      <trkpt lat="60.435078" lon="17.705622">
        <ele>23.32015</ele>
      </trkpt>
      <trkpt lat="60.435212" lon="17.705344">
        <ele>23.03422</ele>
      </trkpt>
      <trkpt lat="60.435261" lon="17.703525">
        <ele>23.80103</ele>
      </trkpt>
      <trkpt lat="60.435621" lon="17.700224">
        <ele>23.6467</ele>
      </trkpt>
      <trkpt lat="60.435792" lon="17.69932">
        <ele>23.58334</ele>
      </trkpt>
      <trkpt lat="60.435804" lon="17.698417">
        <ele>23.48704</ele>
      </trkpt>
      <trkpt lat="60.435964" lon="17.697924">
        <ele>23.07779</ele>
      </trkpt>
      <trkpt lat="60.43645" lon="17.697334">
        <ele>21.93323</ele>
        <name>60.436450,17.697334</name>
      </trkpt>
      <trkpt lat="60.436747" lon="17.696578">
        <ele>21.11187</ele>
      </trkpt>
      <trkpt lat="60.437038" lon="17.696286">
        <ele>20.48969</ele>
      </trkpt>
      <trkpt lat="60.437042" lon="17.695977">
        <ele>20.58692</ele>
      </trkpt>
      <trkpt lat="60.436041" lon="17.693682">
        <ele>23.52249</ele>
      </trkpt>
      <trkpt lat="60.43695" lon="17.683141">
        <ele>20.63927</ele>
      </trkpt>
      <trkpt lat="60.437272" lon="17.682422">
        <ele>19.959</ele>
      </trkpt>
      <trkpt lat="60.437419" lon="17.681464">
        <ele>19.08883</ele>
      </trkpt>
      <trkpt lat="60.437433" lon="17.680614">
        <ele>18.564</ele>
      </trkpt>
      <trkpt lat="60.437332" lon="17.679487">
        <ele>18.78362</ele>
      </trkpt>
      <trkpt lat="60.437516" lon="17.678717">
        <ele>19.05485</ele>
      </trkpt>
      <trkpt lat="60.43744" lon="17.67729">
        <ele>20.18306</ele>
      </trkpt>
      <trkpt lat="60.437837" lon="17.674839">
        <ele>20.91644</ele>
      </trkpt>
      <trkpt lat="60.437774" lon="17.673869">
        <ele>21.13342</ele>
      </trkpt>
      <trkpt lat="60.437915" lon="17.673336">
        <ele>21.13544</ele>
      </trkpt>
      <trkpt lat="60.437927" lon="17.672313">
        <ele>21.03058</ele>
      </trkpt>
      <trkpt lat="60.438052" lon="17.671782">
        <ele>20.96884</ele>
        <name>60.438052,17.671782</name>
      </trkpt>
      <trkpt lat="60.438345" lon="17.671616">
        <ele>20.96785</ele>
      </trkpt>
      <trkpt lat="60.438452" lon="17.67121">
        <ele>20.81217</ele>
      </trkpt>
      <trkpt lat="60.438416" lon="17.669633">
        <ele>19.98107</ele>
      </trkpt>
      <trkpt lat="60.438608" lon="17.668928">
        <ele>19.53289</ele>
      </trkpt>
      <trkpt lat="60.438747" lon="17.668751">
        <ele>19.3552</ele>
      </trkpt>
      <trkpt lat="60.439142" lon="17.668625">
        <ele>19.00699</ele>
      </trkpt>
      <trkpt lat="60.439618" lon="17.668706">
        <ele>18.63274</ele>
      </trkpt>
      <trkpt lat="60.439986" lon="17.668329">
        <ele>17.7725</ele>
      </trkpt>
      <trkpt lat="60.440232" lon="17.667827">
        <ele>16.82327</ele>
      </trkpt>
      <trkpt lat="60.440279" lon="17.667185">
        <ele>16.23003</ele>
      </trkpt>
      <trkpt lat="60.440535" lon="17.665818">
        <ele>14.99725</ele>
      </trkpt>
      <trkpt lat="60.441486" lon="17.663058">
        <ele>14.86835</ele>
      </trkpt>
      <trkpt lat="60.441575" lon="17.662597">
        <ele>15.0801</ele>
      </trkpt>
      <trkpt lat="60.441608" lon="17.659506">
        <ele>16.75684</ele>
      </trkpt>
      <trkpt lat="60.441909" lon="17.658991">
        <ele>17.10139</ele>
      </trkpt>
      <trkpt lat="60.442188" lon="17.658946">
        <ele>17.11283</ele>
      </trkpt>
      <trkpt lat="60.443138" lon="17.658346">
        <ele>18.43257</ele>
      </trkpt>
      <trkpt lat="60.443251" lon="17.658103">
        <ele>18.76161</ele>
      </trkpt>
      <trkpt lat="60.44429" lon="17.645764">
        <ele>21.20485</ele>
        <name>60.444290,17.645764</name>
      </trkpt>
      <trkpt lat="60.444299" lon="17.644801">
        <ele>21.80341</ele>
      </trkpt>
      <trkpt lat="60.4442" lon="17.644263">
        <ele>22.06445</ele>
      </trkpt>
      <trkpt lat="60.444291" lon="17.643964">
        <ele>22.22292</ele>
      </trkpt>
      <trkpt lat="60.444455" lon="17.643814">
        <ele>22.33125</ele>
      </trkpt>
      <trkpt lat="60.444866" lon="17.63915">
        <ele>24.64849</ele>
      </trkpt>
      <trkpt lat="60.444991" lon="17.638429">
        <ele>25.00233</ele>
      </trkpt>
      <trkpt lat="60.445376" lon="17.637649">
        <ele>25.21151</ele>
      </trkpt>
      <trkpt lat="60.445425" lon="17.637374">
        <ele>25.20787</ele>
      </trkpt>
      <trkpt lat="60.4454" lon="17.637148">
        <ele>25.26695</ele>
      </trkpt>
      <trkpt lat="60.445026" lon="17.636285">
        <ele>26.28061</ele>
      </trkpt>
      <trkpt lat="60.444877" lon="17.635407">
        <ele>26.97727</ele>
      </trkpt>
      <trkpt lat="60.444836" lon="17.633369">
        <ele>27.97113</ele>
      </trkpt>
      <trkpt lat="60.444607" lon="17.631749">
        <ele>29.28995</ele>
      </trkpt>
      <trkpt lat="60.444375" lon="17.630977">
        <ele>30.02387</ele>
      </trkpt>
      <trkpt lat="60.44436" lon="17.629489">
        <ele>30.34313</ele>
      </trkpt>
      <trkpt lat="60.444218" lon="17.629195">
        <ele>30.48631</ele>
      </trkpt>
      <trkpt lat="60.443904" lon="17.629076">
        <ele>30.81815</ele>
      </trkpt>
      <trkpt lat="60.443123" lon="17.628048">
        <ele>31.63213</ele>
      </trkpt>
      <trkpt lat="60.443101" lon="17.625327">
        <ele>29.89781</ele>
      </trkpt>
      <trkpt lat="60.443702" lon="17.623379">
        <ele>29.14294</ele>
        <name>60.443702,17.623379</name>
      </trkpt>
      <trkpt lat="60.443714" lon="17.622024">
        <ele>28.25852</ele>
      </trkpt>
      <trkpt lat="60.444029" lon="17.621067">
        <ele>26.17784</ele>
      </trkpt>
      <trkpt lat="60.444616" lon="17.619873">
        <ele>22.43599</ele>
      </trkpt>
      <trkpt lat="60.445028" lon="17.619416">
        <ele>20.64829</ele>
      </trkpt>
      <trkpt lat="60.445916" lon="17.616849">
        <ele>13.10617</ele>
      </trkpt>
      <trkpt lat="60.446807" lon="17.617262">
        <ele>10.19958</ele>
      </trkpt>
      <trkpt lat="60.44751" lon="17.614259">
        <ele>12.59854</ele>
      </trkpt>
      <trkpt lat="60.447818" lon="17.61343">
        <ele>15.88042</ele>
        <name>60.447818,17.613430</name>
      </trkpt>
    </trkseg>
  </trk>
</gpx>