<?xml version="1.0" encoding="UTF-8"?>
<gpx xmlns="http://www.topografix.com/GPX/1/1" xmlns:xsi="http://www.w3.org/2001/XMLSchema-instance" version="1.1" creator="GPX RubyGem 1.0.0 -- http://dougfales.github.io/gpx/" xsi:schemaLocation="http://www.topografix.com/GPX/1/1 http://www.topografix.com/GPX/1/1/gpx.xsd">
  <metadata>
    <name>Ostkustleden Etapp 2, Nynäs - Lönhult by Naturkartan</name>
    <time>2026-04-30T16:43:07+00:00</time>
  </metadata>
  <trk>
    <name>Ostkustleden Etapp 2, Nynäs - Lönhult by Naturkartan</name>
    <trkseg>
      <trkpt lat="57.3578725758206" lon="16.2658329902813"/>
      <trkpt lat="57.3578499999753" lon="16.265543"/>
      <trkpt lat="57.3578144852629" lon="16.2651396860617"/>
      <trkpt lat="57.3577213827323" lon="16.2649006997429"/>
      <trkpt lat="57.3576960757193" lon="16.2647074385273"/>
      <trkpt lat="57.3577217201932" lon="16.2644457136012"/>
      <trkpt lat="57.3577163554736" lon="16.26411824746"/>
      <trkpt lat="57.3577029343968" lon="16.2639293064791"/>
      <trkpt lat="57.3576752006152" lon="16.2637096857643"/>
      <trkpt lat="57.3575964037225" lon="16.2634991857228"/>
      <trkpt lat="57.3574946387761" lon="16.2632963115671"/>
      <trkpt lat="57.3575775974933" lon="16.2629739890338"/>
      <trkpt lat="57.3576364909797" lon="16.2627076532137"/>
      <trkpt lat="57.3577159999752" lon="16.26229"/>
      <trkpt lat="57.3576879999752" lon="16.261653"/>
      <trkpt lat="57.3576689999753" lon="16.261439"/>
      <trkpt lat="57.3576146338582" lon="16.2611999772005"/>
      <trkpt lat="57.3575928431086" lon="16.2609847163906"/>
      <trkpt lat="57.3575747743377" lon="16.260852954927"/>
      <trkpt lat="57.3575549999752" lon="16.260699"/>
      <trkpt lat="57.3575149999753" lon="16.260546"/>
      <trkpt lat="57.3574779999752" lon="16.260396"/>
      <trkpt lat="57.3574599999752" lon="16.26021"/>
      <trkpt lat="57.3574479999752" lon="16.260037"/>
      <trkpt lat="57.3574519999752" lon="16.259872"/>
      <trkpt lat="57.3574679999752" lon="16.259736"/>
      <trkpt lat="57.3575059999752" lon="16.259605"/>
      <trkpt lat="57.3575609999752" lon="16.259492"/>
      <trkpt lat="57.3576099999752" lon="16.259364"/>
      <trkpt lat="57.3576419999753" lon="16.259205"/>
      <trkpt lat="57.357647371216" lon="16.2590545301579"/>
      <trkpt lat="57.3577157300379" lon="16.2587727395045"/>
      <trkpt lat="57.3577805456418" lon="16.2585019610415"/>
      <trkpt lat="57.3578443879849" lon="16.2583432859193"/>
      <trkpt lat="57.3579082259052" lon="16.2581824122723"/>
      <trkpt lat="57.3579720889651" lon="16.2580347259343"/>
      <trkpt lat="57.3580395408776" lon="16.2579002035116"/>
      <trkpt lat="57.3582009999752" lon="16.257724"/>
      <trkpt lat="57.3582799999752" lon="16.257577"/>
      <trkpt lat="57.3583379999752" lon="16.257414"/>
      <trkpt lat="57.3583579999753" lon="16.25727"/>
      <trkpt lat="57.3583649999752" lon="16.257152"/>
      <trkpt lat="57.3583729999752" lon="16.256998"/>
      <trkpt lat="57.3583969999752" lon="16.256811"/>
      <trkpt lat="57.3584339999753" lon="16.256659"/>
      <trkpt lat="57.3584799999752" lon="16.256519"/>
      <trkpt lat="57.3585299999752" lon="16.256373"/>
      <trkpt lat="57.3586109999753" lon="16.256195"/>
      <trkpt lat="57.3586809999752" lon="16.256169"/>
      <trkpt lat="57.3587279999752" lon="16.256206"/>
      <trkpt lat="57.3587839999752" lon="16.256289"/>
      <trkpt lat="57.3588339999753" lon="16.256403"/>
      <trkpt lat="57.3590189999752" lon="16.256421"/>
      <trkpt lat="57.3590509999752" lon="16.256483"/>
      <trkpt lat="57.3590999999753" lon="16.256584"/>
      <trkpt lat="57.3591601036798" lon="16.256695328326"/>
      <trkpt lat="57.3591879999752" lon="16.256747"/>
      <trkpt lat="57.3592668535226" lon="16.2567754968097"/>
      <trkpt lat="57.3593406299809" lon="16.2568409514398"/>
      <trkpt lat="57.3594013141665" lon="16.2568933043378"/>
      <trkpt lat="57.359467314173" lon="16.2569383043181"/>
      <trkpt lat="57.3594923141761" lon="16.2569593043118"/>
      <trkpt lat="57.3595849999753" lon="16.25705"/>
      <trkpt lat="57.3597105045847" lon="16.2570671089251"/>
      <trkpt lat="57.3597651771402" lon="16.2570821345099"/>
      <trkpt lat="57.3599576193034" lon="16.2570830612953"/>
      <trkpt lat="57.3600870694488" lon="16.2570668191767"/>
      <trkpt lat="57.3601998085563" lon="16.2570089227176"/>
      <trkpt lat="57.360282871643" lon="16.2569622127804"/>
      <trkpt lat="57.3603801808828" lon="16.256911012151"/>
      <trkpt lat="57.3604656833747" lon="16.2568972579539"/>
      <trkpt lat="57.3605130375969" lon="16.2568134148803"/>
      <trkpt lat="57.3605661697839" lon="16.2566460032512"/>
      <trkpt lat="57.3607000866485" lon="16.2564824524419"/>
      <trkpt lat="57.3607949999752" lon="16.256285"/>
      <trkpt lat="57.3608659999752" lon="16.256157"/>
      <trkpt lat="57.3609279999753" lon="16.256007"/>
      <trkpt lat="57.3609849999753" lon="16.255864"/>
      <trkpt lat="57.3610397962232" lon="16.2557447376507"/>
      <trkpt lat="57.3610476775484" lon="16.2556294509758"/>
      <trkpt lat="57.3610804005431" lon="16.2553522613457"/>
      <trkpt lat="57.3610990863008" lon="16.2551872725576"/>
      <trkpt lat="57.3611210616997" lon="16.2548815772595"/>
      <trkpt lat="57.3611459911926" lon="16.254263718093"/>
      <trkpt lat="57.361104731295" lon="16.2538177606242"/>
      <trkpt lat="57.3611066168466" lon="16.2535671539584"/>
      <trkpt lat="57.3611203118643" lon="16.2532812969275"/>
      <trkpt lat="57.361126620094" lon="16.2528635976286"/>
      <trkpt lat="57.3611025645338" lon="16.2527120839868"/>
      <trkpt lat="57.3609654261182" lon="16.252442629554"/>
      <trkpt lat="57.3608353279091" lon="16.2521291661314"/>
      <trkpt lat="57.3606755750517" lon="16.2518378867614"/>
      <trkpt lat="57.3606131155243" lon="16.2514888002371"/>
      <trkpt lat="57.3605471261229" lon="16.2511573240657"/>
      <trkpt lat="57.3605313489463" lon="16.2509881725866"/>
      <trkpt lat="57.3604976531585" lon="16.2507685850688"/>
      <trkpt lat="57.3604223155876" lon="16.2505163081662"/>
      <trkpt lat="57.3602659999752" lon="16.250129"/>
      <trkpt lat="57.3602093182379" lon="16.249995589313"/>
      <trkpt lat="57.3601639999752" lon="16.249912"/>
      <trkpt lat="57.3600933794442" lon="16.2497941824512"/>
      <trkpt lat="57.3600450463546" lon="16.2497417562139"/>
      <trkpt lat="57.3600057411897" lon="16.2496892686574"/>
      <trkpt lat="57.3599679999752" lon="16.249638"/>
      <trkpt lat="57.3598622275284" lon="16.2495623150713"/>
      <trkpt lat="57.3598048467372" lon="16.2493836976512"/>
      <trkpt lat="57.3597819027866" lon="16.2493122771018"/>
      <trkpt lat="57.3597448886098" lon="16.2489788560099"/>
      <trkpt lat="57.3597653868393" lon="16.2485834456416"/>
      <trkpt lat="57.3597633868467" lon="16.2484604457736"/>
      <trkpt lat="57.3597859999752" lon="16.24803"/>
      <trkpt lat="57.3597779999752" lon="16.247807"/>
      <trkpt lat="57.3597904102431" lon="16.2475663290437"/>
      <trkpt lat="57.3598597943931" lon="16.2472163517535"/>
      <trkpt lat="57.3598779999753" lon="16.247121"/>
      <trkpt lat="57.3598049999752" lon="16.246985"/>
      <trkpt lat="57.3597299999752" lon="16.246918"/>
      <trkpt lat="57.3596579999752" lon="16.24686"/>
      <trkpt lat="57.3595779999753" lon="16.246824"/>
      <trkpt lat="57.3594889999753" lon="16.246809"/>
      <trkpt lat="57.3593659999753" lon="16.246828"/>
      <trkpt lat="57.3593439999752" lon="16.246794"/>
      <trkpt lat="57.3592919999753" lon="16.246767"/>
      <trkpt lat="57.3592239999753" lon="16.246728"/>
      <trkpt lat="57.3591559999752" lon="16.246728"/>
      <trkpt lat="57.3590599999752" lon="16.246787"/>
      <trkpt lat="57.3590219999752" lon="16.246723"/>
      <trkpt lat="57.3589649999752" lon="16.246655"/>
      <trkpt lat="57.3588969999753" lon="16.246571"/>
      <trkpt lat="57.3587909999753" lon="16.246492"/>
      <trkpt lat="57.3587119999752" lon="16.246432"/>
      <trkpt lat="57.3586789999752" lon="16.246428"/>
      <trkpt lat="57.3586199999752" lon="16.246431"/>
      <trkpt lat="57.3585609999752" lon="16.246434"/>
      <trkpt lat="57.3584969999752" lon="16.246414"/>
      <trkpt lat="57.3584329999752" lon="16.246385"/>
      <trkpt lat="57.3580514266362" lon="16.2463778600517"/>
      <trkpt lat="57.3578834560767" lon="16.2461956626031"/>
      <trkpt lat="57.3577344048531" lon="16.2460737116414"/>
      <trkpt lat="57.3576361068995" lon="16.24560707568"/>
      <trkpt lat="57.3574931675934" lon="16.2453344361711"/>
      <trkpt lat="57.357452167598" lon="16.2452004362784"/>
      <trkpt lat="57.3574171676033" lon="16.2450484364015"/>
      <trkpt lat="57.3573961676084" lon="16.2449034365204"/>
      <trkpt lat="57.3573696063673" lon="16.2446926155969"/>
      <trkpt lat="57.3573671395272" lon="16.2445733080652"/>
      <trkpt lat="57.3573451394402" lon="16.2443433083683"/>
      <trkpt lat="57.3573204267363" lon="16.2439977543286"/>
      <trkpt lat="57.35732842684" lon="16.243818754527"/>
      <trkpt lat="57.3573344269547" lon="16.2436207547409"/>
      <trkpt lat="57.3573334270455" lon="16.243463754899"/>
      <trkpt lat="57.3573174271321" lon="16.2433137550204"/>
      <trkpt lat="57.3572994272212" lon="16.2431597551418"/>
      <trkpt lat="57.3572804273102" lon="16.2430057552612"/>
      <trkpt lat="57.3571789999753" lon="16.241993"/>
      <trkpt lat="57.3571669999753" lon="16.241841"/>
      <trkpt lat="57.3570777293778" lon="16.2407932748909"/>
      <trkpt lat="57.3570411280145" lon="16.2403253692612"/>
      <trkpt lat="57.3570265650071" lon="16.2401760114673"/>
      <trkpt lat="57.3570179185661" lon="16.2400156222148"/>
      <trkpt lat="57.357028287202" lon="16.2398594944241"/>
      <trkpt lat="57.3570969999752" lon="16.239767"/>
      <trkpt lat="57.3570489999753" lon="16.239626"/>
      <trkpt lat="57.3570259999753" lon="16.23952"/>
      <trkpt lat="57.356974091495" lon="16.2395016123896"/>
      <trkpt lat="57.3569534788542" lon="16.2392995473615"/>
      <trkpt lat="57.3569375736753" lon="16.2391235042727"/>
      <trkpt lat="57.3569125737146" lon="16.2389755042917"/>
      <trkpt lat="57.3568675737718" lon="16.2387605043115"/>
      <trkpt lat="57.3568405738023" lon="16.2386455043194"/>
      <trkpt lat="57.3568085738401" lon="16.2385035043304"/>
      <trkpt lat="57.3567735738839" lon="16.2383385043451"/>
      <trkpt lat="57.3567315739435" lon="16.2381145043701"/>
      <trkpt lat="57.3566885739941" lon="16.2379245043846"/>
      <trkpt lat="57.3566439999752" lon="16.237702"/>
      <trkpt lat="57.3566059999753" lon="16.237576"/>
      <trkpt lat="57.3565599999752" lon="16.237422"/>
      <trkpt lat="57.3564999999752" lon="16.237218"/>
      <trkpt lat="57.3564889999752" lon="16.237041"/>
      <trkpt lat="57.3564749999753" lon="16.236989"/>
      <trkpt lat="57.3564359999753" lon="16.236832"/>
      <trkpt lat="57.3564039999753" lon="16.236656"/>
      <trkpt lat="57.3563929999752" lon="16.236496"/>
      <trkpt lat="57.3563899999753" lon="16.236324"/>
      <trkpt lat="57.3563889999753" lon="16.236073"/>
      <trkpt lat="57.3564139999753" lon="16.235896"/>
      <trkpt lat="57.3564549999752" lon="16.23576"/>
      <trkpt lat="57.3564454434555" lon="16.2355515483017"/>
      <trkpt lat="57.3565332691404" lon="16.2354093366411"/>
      <trkpt lat="57.3566007417008" lon="16.2351775686531"/>
      <trkpt lat="57.3566443883032" lon="16.2350321911034"/>
      <trkpt lat="57.3567349999753" lon="16.23448"/>
      <trkpt lat="57.3567399999753" lon="16.23431"/>
      <trkpt lat="57.3567449999753" lon="16.234145"/>
      <trkpt lat="57.3567529999752" lon="16.233975"/>
      <trkpt lat="57.3567739999753" lon="16.2338"/>
      <trkpt lat="57.3568009999753" lon="16.233634"/>
      <trkpt lat="57.3568219999752" lon="16.233455"/>
      <trkpt lat="57.3568379999753" lon="16.233273"/>
      <trkpt lat="57.3568109999752" lon="16.233112"/>
      <trkpt lat="57.3567449999752" lon="16.232992"/>
      <trkpt lat="57.3566859999752" lon="16.232889"/>
      <trkpt lat="57.3566399999752" lon="16.232784"/>
      <trkpt lat="57.3565959999753" lon="16.232688"/>
      <trkpt lat="57.3565549999752" lon="16.232551"/>
      <trkpt lat="57.3565039999752" lon="16.232403"/>
      <trkpt lat="57.3564229999753" lon="16.232141"/>
      <trkpt lat="57.3563739999752" lon="16.232038"/>
      <trkpt lat="57.3561659999753" lon="16.231822"/>
      <trkpt lat="57.3561359999752" lon="16.231661"/>
      <trkpt lat="57.3561279999752" lon="16.231547"/>
      <trkpt lat="57.3561299999752" lon="16.231421"/>
      <trkpt lat="57.3561349999752" lon="16.23129"/>
      <trkpt lat="57.3561449999752" lon="16.231131"/>
      <trkpt lat="57.3561479999752" lon="16.230963"/>
      <trkpt lat="57.3561429999752" lon="16.230787"/>
      <trkpt lat="57.3561389999752" lon="16.23061"/>
      <trkpt lat="57.3561419999752" lon="16.23038"/>
      <trkpt lat="57.3561499999752" lon="16.230165"/>
      <trkpt lat="57.3561549999752" lon="16.229952"/>
      <trkpt lat="57.3561339999752" lon="16.229772"/>
      <trkpt lat="57.3561239999752" lon="16.229619"/>
      <trkpt lat="57.3561429999752" lon="16.229449"/>
      <trkpt lat="57.3561479999752" lon="16.229391"/>
      <trkpt lat="57.3561589999753" lon="16.229317"/>
      <trkpt lat="57.3561739999752" lon="16.229225"/>
      <trkpt lat="57.3561939999752" lon="16.22911"/>
      <trkpt lat="57.3562519999753" lon="16.228754"/>
      <trkpt lat="57.3563049999752" lon="16.228474"/>
      <trkpt lat="57.3562979999753" lon="16.22823"/>
      <trkpt lat="57.3562869999753" lon="16.228161"/>
      <trkpt lat="57.3562799999752" lon="16.228065"/>
      <trkpt lat="57.3562739999753" lon="16.227958"/>
      <trkpt lat="57.3562649999752" lon="16.227813"/>
      <trkpt lat="57.3562509999752" lon="16.22766"/>
      <trkpt lat="57.3562309999752" lon="16.227521"/>
      <trkpt lat="57.3562139999752" lon="16.227383"/>
      <trkpt lat="57.3561949999752" lon="16.227238"/>
      <trkpt lat="57.3561789999753" lon="16.227083"/>
      <trkpt lat="57.3561569999752" lon="16.226885"/>
      <trkpt lat="57.3561349999752" lon="16.226677"/>
      <trkpt lat="57.3561329999753" lon="16.226485"/>
      <trkpt lat="57.3561709999753" lon="16.225977"/>
      <trkpt lat="57.3561999999753" lon="16.225667"/>
      <trkpt lat="57.3562139999752" lon="16.225499"/>
      <trkpt lat="57.3562389999753" lon="16.225316"/>
      <trkpt lat="57.3562949999752" lon="16.225168"/>
      <trkpt lat="57.3563349999753" lon="16.225059"/>
      <trkpt lat="57.3563689999753" lon="16.224947"/>
      <trkpt lat="57.3564089999752" lon="16.22483"/>
      <trkpt lat="57.3564479999753" lon="16.224671"/>
      <trkpt lat="57.3565099999753" lon="16.224475"/>
      <trkpt lat="57.3565299999752" lon="16.224416"/>
      <trkpt lat="57.3565559999752" lon="16.224323"/>
      <trkpt lat="57.3565859999753" lon="16.224217"/>
      <trkpt lat="57.3566229999753" lon="16.224078"/>
      <trkpt lat="57.3566609999753" lon="16.223937"/>
      <trkpt lat="57.3566939999752" lon="16.2238"/>
      <trkpt lat="57.3567249999752" lon="16.223669"/>
      <trkpt lat="57.3567609999753" lon="16.223524"/>
      <trkpt lat="57.3568029999753" lon="16.223379"/>
      <trkpt lat="57.3568489999753" lon="16.223217"/>
      <trkpt lat="57.3569019999753" lon="16.223037"/>
      <trkpt lat="57.3570349999752" lon="16.222601"/>
      <trkpt lat="57.3571049999752" lon="16.222392"/>
      <trkpt lat="57.3571489999752" lon="16.222236"/>
      <trkpt lat="57.3572009999753" lon="16.222073"/>
      <trkpt lat="57.3572389999752" lon="16.221915"/>
      <trkpt lat="57.3572689999752" lon="16.221733"/>
      <trkpt lat="57.3573179999752" lon="16.2216"/>
      <trkpt lat="57.3573629999752" lon="16.221474"/>
      <trkpt lat="57.3573769999752" lon="16.221432"/>
      <trkpt lat="57.3573929999753" lon="16.221372"/>
      <trkpt lat="57.3574139999752" lon="16.221299"/>
      <trkpt lat="57.3574399999753" lon="16.221211"/>
      <trkpt lat="57.3575509999752" lon="16.220772"/>
      <trkpt lat="57.3576109999752" lon="16.220509"/>
      <trkpt lat="57.3576549999753" lon="16.220311"/>
      <trkpt lat="57.3577119999752" lon="16.220125"/>
      <trkpt lat="57.3577799999752" lon="16.219978"/>
      <trkpt lat="57.3578239999753" lon="16.219896"/>
      <trkpt lat="57.3579378963321" lon="16.2196002289083"/>
      <trkpt lat="57.3579958962808" lon="16.2194482289739"/>
      <trkpt lat="57.3580438962322" lon="16.219304229044"/>
      <trkpt lat="57.3580828961816" lon="16.2191542291299"/>
      <trkpt lat="57.3580988503196" lon="16.2189773697276"/>
      <trkpt lat="57.3581317528532" lon="16.2188166629631"/>
      <trkpt lat="57.3581613440758" lon="16.2186906280966"/>
      <trkpt lat="57.3581890867131" lon="16.2183475245083"/>
      <trkpt lat="57.3582050866951" lon="16.2181655245966"/>
      <trkpt lat="57.3582260866771" lon="16.2179815246841"/>
      <trkpt lat="57.3582620866595" lon="16.2178025247641"/>
      <trkpt lat="57.3583649999752" lon="16.217489"/>
      <trkpt lat="57.3583949999753" lon="16.217318"/>
      <trkpt lat="57.3584081345052" lon="16.2170473297184"/>
      <trkpt lat="57.3583970778884" lon="16.2168847602732"/>
      <trkpt lat="57.35837199996" lon="16.2167914529198"/>
      <trkpt lat="57.3583569999753" lon="16.216691"/>
      <trkpt lat="57.3583889999752" lon="16.216548"/>
      <trkpt lat="57.3584059999752" lon="16.216484"/>
      <trkpt lat="57.3584299999752" lon="16.216405"/>
      <trkpt lat="57.3584589999752" lon="16.216301"/>
      <trkpt lat="57.3584949999752" lon="16.216163"/>
      <trkpt lat="57.3585269999753" lon="16.216023"/>
      <trkpt lat="57.3585579999752" lon="16.215883"/>
      <trkpt lat="57.3585839999752" lon="16.215745"/>
      <trkpt lat="57.3586079999752" lon="16.21561"/>
      <trkpt lat="57.3586289999752" lon="16.215473"/>
      <trkpt lat="57.3586499999752" lon="16.215331"/>
      <trkpt lat="57.3586669999752" lon="16.215186"/>
      <trkpt lat="57.3586789999752" lon="16.215033"/>
      <trkpt lat="57.358725328548" lon="16.2144270069013"/>
      <trkpt lat="57.3586893229725" lon="16.2142646306912"/>
      <trkpt lat="57.3585794466712" lon="16.2138235955242"/>
      <trkpt lat="57.3585247753339" lon="16.2136024583665"/>
      <trkpt lat="57.3584522399512" lon="16.2133967885049"/>
      <trkpt lat="57.3583938001836" lon="16.213277091465"/>
      <trkpt lat="57.3583477662002" lon="16.2131103150112"/>
      <trkpt lat="57.358323448377" lon="16.2128303198174"/>
      <trkpt lat="57.3583038925211" lon="16.212589568573"/>
      <trkpt lat="57.3582893407956" lon="16.2124595590499"/>
      <trkpt lat="57.3582536008675" lon="16.2122066259334"/>
      <trkpt lat="57.3582466270787" lon="16.2120660068816"/>
      <trkpt lat="57.3582653717837" lon="16.2119515627248"/>
      <trkpt lat="57.3583208291916" lon="16.2117582754032"/>
      <trkpt lat="57.3583589999753" lon="16.211616"/>
      <trkpt lat="57.3583519999752" lon="16.21144"/>
      <trkpt lat="57.3583549999752" lon="16.211306"/>
      <trkpt lat="57.3583007990892" lon="16.2111068844244"/>
      <trkpt lat="57.3582859541214" lon="16.2108498317824"/>
      <trkpt lat="57.3583389342276" lon="16.2106428002647"/>
      <trkpt lat="57.3583776796028" lon="16.2104446723737"/>
      <trkpt lat="57.3583950528676" lon="16.2102511085367"/>
      <trkpt lat="57.3583777696257" lon="16.2099676984008"/>
      <trkpt lat="57.3583962641693" lon="16.2097455510351"/>
      <trkpt lat="57.3584218450544" lon="16.2095057631775"/>
      <trkpt lat="57.3584669999753" lon="16.209281"/>
      <trkpt lat="57.3584659999752" lon="16.209187"/>
      <trkpt lat="57.3584814780992" lon="16.2090942586558"/>
      <trkpt lat="57.3584779999752" lon="16.208946"/>
      <trkpt lat="57.3584459999752" lon="16.208794"/>
      <trkpt lat="57.3583731908079" lon="16.2084994482843"/>
      <trkpt lat="57.3583394464223" lon="16.2082909028038"/>
      <trkpt lat="57.3583497043596" lon="16.2081039887131"/>
      <trkpt lat="57.3583623428862" lon="16.2079192536405"/>
      <trkpt lat="57.3583429286853" lon="16.2077435653189"/>
      <trkpt lat="57.3583223893401" lon="16.2075705955548"/>
      <trkpt lat="57.3582672342796" lon="16.2073748983625"/>
      <trkpt lat="57.3581919478818" lon="16.2071820714771"/>
      <trkpt lat="57.3581664602275" lon="16.2069492841961"/>
      <trkpt lat="57.3581623950123" lon="16.206733910547"/>
      <trkpt lat="57.3581429368186" lon="16.2065993136439"/>
      <trkpt lat="57.3580980574063" lon="16.2064123690852"/>
      <trkpt lat="57.3580603078444" lon="16.2062555574713"/>
      <trkpt lat="57.3580112865851" lon="16.2061196723179"/>
      <trkpt lat="57.3579395721847" lon="16.2059312167837"/>
      <trkpt lat="57.3578620465002" lon="16.2057977585597"/>
      <trkpt lat="57.3577228688915" lon="16.2057153482396"/>
      <trkpt lat="57.3576538585927" lon="16.2056675447107"/>
      <trkpt lat="57.3575626587104" lon="16.2055299234325"/>
      <trkpt lat="57.3575224699128" lon="16.2054488138563"/>
      <trkpt lat="57.3574901466574" lon="16.2052534366693"/>
      <trkpt lat="57.3574552244621" lon="16.2050515025307"/>
      <trkpt lat="57.3574060834057" lon="16.2048650687266"/>
      <trkpt lat="57.3573526482624" lon="16.2047136737942"/>
      <trkpt lat="57.3573558092296" lon="16.2045755229597"/>
      <trkpt lat="57.3573959083964" lon="16.2044521142073"/>
      <trkpt lat="57.3575035051461" lon="16.2042380452356"/>
      <trkpt lat="57.3575435574886" lon="16.2040948541373"/>
      <trkpt lat="57.3575717101571" lon="16.2039429665819"/>
      <trkpt lat="57.3575725154618" lon="16.2037803091448"/>
      <trkpt lat="57.3575578470231" lon="16.2036045885024"/>
      <trkpt lat="57.3575262579665" lon="16.203305917404"/>
      <trkpt lat="57.3575614696106" lon="16.2031253985214"/>
      <trkpt lat="57.3576691470773" lon="16.2029464919071"/>
      <trkpt lat="57.357720978195" lon="16.2027614416536"/>
      <trkpt lat="57.3577475367851" lon="16.2025137325836"/>
      <trkpt lat="57.3578235739009" lon="16.2023677536933"/>
      <trkpt lat="57.3579511211042" lon="16.2022026060195"/>
      <trkpt lat="57.3579812105894" lon="16.2020669649046"/>
      <trkpt lat="57.3579741297218" lon="16.2018859062474"/>
      <trkpt lat="57.3579075723522" lon="16.2015760838554"/>
      <trkpt lat="57.3579374766896" lon="16.2010267045334"/>
      <trkpt lat="57.3579299999753" lon="16.20067"/>
      <trkpt lat="57.3579029999752" lon="16.200541"/>
      <trkpt lat="57.3578809999753" lon="16.200435"/>
      <trkpt lat="57.3578569999752" lon="16.200327"/>
      <trkpt lat="57.3577977645775" lon="16.2001315739566"/>
      <trkpt lat="57.3577867645828" lon="16.2000685739829"/>
      <trkpt lat="57.3577707645916" lon="16.1999635740275"/>
      <trkpt lat="57.357750764602" lon="16.1998395740799"/>
      <trkpt lat="57.3577249999753" lon="16.199558"/>
      <trkpt lat="57.3577079999752" lon="16.19942"/>
      <trkpt lat="57.3576889999753" lon="16.199263"/>
      <trkpt lat="57.3576669999752" lon="16.199107"/>
      <trkpt lat="57.3576389999752" lon="16.19895"/>
      <trkpt lat="57.3576109999753" lon="16.198801"/>
      <trkpt lat="57.3575869999753" lon="16.19865"/>
      <trkpt lat="57.3575589999752" lon="16.198501"/>
      <trkpt lat="57.3575329999753" lon="16.198343"/>
      <trkpt lat="57.3575079999752" lon="16.198165"/>
      <trkpt lat="57.3574869999752" lon="16.197989"/>
      <trkpt lat="57.3574689999752" lon="16.19781"/>
      <trkpt lat="57.3574529999752" lon="16.197619"/>
      <trkpt lat="57.3574359999752" lon="16.197427"/>
      <trkpt lat="57.3574149999752" lon="16.19725"/>
      <trkpt lat="57.3573759999753" lon="16.197111"/>
      <trkpt lat="57.3573269999753" lon="16.196981"/>
      <trkpt lat="57.3572799999752" lon="16.196843"/>
      <trkpt lat="57.3572419999752" lon="16.1967"/>
      <trkpt lat="57.3571969999752" lon="16.196536"/>
      <trkpt lat="57.3571589999752" lon="16.196388"/>
      <trkpt lat="57.3571239999752" lon="16.196234"/>
      <trkpt lat="57.3570969999752" lon="16.196085"/>
      <trkpt lat="57.3570769999753" lon="16.195919"/>
      <trkpt lat="57.3570729999752" lon="16.195869"/>
      <trkpt lat="57.3570699999753" lon="16.195773"/>
      <trkpt lat="57.3570669999752" lon="16.195648"/>
      <trkpt lat="57.3570669999753" lon="16.195517"/>
      <trkpt lat="57.3570699999752" lon="16.195384"/>
      <trkpt lat="57.3570699999753" lon="16.195237"/>
      <trkpt lat="57.3570589999752" lon="16.195109"/>
      <trkpt lat="57.3570439999753" lon="16.194981"/>
      <trkpt lat="57.3570289999753" lon="16.194846"/>
      <trkpt lat="57.3570049999752" lon="16.194712"/>
      <trkpt lat="57.3569809999753" lon="16.194572"/>
      <trkpt lat="57.3569569999752" lon="16.194435"/>
      <trkpt lat="57.3569299999752" lon="16.194299"/>
      <trkpt lat="57.3569019999752" lon="16.194165"/>
      <trkpt lat="57.3568689999752" lon="16.194042"/>
      <trkpt lat="57.3568319999753" lon="16.193924"/>
      <trkpt lat="57.3567939999753" lon="16.193806"/>
      <trkpt lat="57.3567509999753" lon="16.193677"/>
      <trkpt lat="57.3567079999753" lon="16.193543"/>
      <trkpt lat="57.3566679999753" lon="16.193408"/>
      <trkpt lat="57.3566279999752" lon="16.193271"/>
      <trkpt lat="57.3565849999753" lon="16.193124"/>
      <trkpt lat="57.3565479999752" lon="16.192982"/>
      <trkpt lat="57.3565099999752" lon="16.192839"/>
      <trkpt lat="57.3564739999753" lon="16.19269"/>
      <trkpt lat="57.3564399999752" lon="16.192532"/>
      <trkpt lat="57.3564039999753" lon="16.192368"/>
      <trkpt lat="57.3563699999752" lon="16.192205"/>
      <trkpt lat="57.3563389999753" lon="16.192043"/>
      <trkpt lat="57.3563109999753" lon="16.191886"/>
      <trkpt lat="57.3562819999753" lon="16.191729"/>
      <trkpt lat="57.3562539999752" lon="16.191571"/>
      <trkpt lat="57.3562249999752" lon="16.191407"/>
      <trkpt lat="57.3561959999752" lon="16.191236"/>
      <trkpt lat="57.3561669999752" lon="16.191053"/>
      <trkpt lat="57.3561459999753" lon="16.190865"/>
      <trkpt lat="57.3561349999752" lon="16.19068"/>
      <trkpt lat="57.3561249999752" lon="16.190491"/>
      <trkpt lat="57.3561129999752" lon="16.190304"/>
      <trkpt lat="57.3560979999753" lon="16.190125"/>
      <trkpt lat="57.3560789999753" lon="16.189951"/>
      <trkpt lat="57.3560599999752" lon="16.189787"/>
      <trkpt lat="57.3560419999752" lon="16.18963"/>
      <trkpt lat="57.3560229999753" lon="16.189472"/>
      <trkpt lat="57.3560039999753" lon="16.189314"/>
      <trkpt lat="57.3559829999752" lon="16.189156"/>
      <trkpt lat="57.3559689999752" lon="16.188985"/>
      <trkpt lat="57.3559659999752" lon="16.188827"/>
      <trkpt lat="57.3559709999752" lon="16.188672"/>
      <trkpt lat="57.3559849999752" lon="16.188523"/>
      <trkpt lat="57.3560109999752" lon="16.18837"/>
      <trkpt lat="57.3560409999752" lon="16.188198"/>
      <trkpt lat="57.3560599999753" lon="16.18803"/>
      <trkpt lat="57.3560679999752" lon="16.187873"/>
      <trkpt lat="57.3560719999753" lon="16.187694"/>
      <trkpt lat="57.3560409999753" lon="16.187151"/>
      <trkpt lat="57.3559969999753" lon="16.186934"/>
      <trkpt lat="57.3559479999753" lon="16.186784"/>
      <trkpt lat="57.3559089999752" lon="16.186658"/>
      <trkpt lat="57.3558849999753" lon="16.1865"/>
      <trkpt lat="57.3558719999753" lon="16.18634"/>
      <trkpt lat="57.3558659999752" lon="16.186199"/>
      <trkpt lat="57.3558709999753" lon="16.186063"/>
      <trkpt lat="57.3558869999753" lon="16.185932"/>
      <trkpt lat="57.3559059999752" lon="16.185794"/>
      <trkpt lat="57.3559339999752" lon="16.185659"/>
      <trkpt lat="57.3559419999753" lon="16.185454"/>
      <trkpt lat="57.3559379999753" lon="16.185405"/>
      <trkpt lat="57.3559339999752" lon="16.185329"/>
      <trkpt lat="57.3559189999753" lon="16.185255"/>
      <trkpt lat="57.3558989999753" lon="16.185176"/>
      <trkpt lat="57.3558749999752" lon="16.18509"/>
      <trkpt lat="57.3558389999752" lon="16.184976"/>
      <trkpt lat="57.3558059999752" lon="16.184848"/>
      <trkpt lat="57.3557609999753" lon="16.184712"/>
      <trkpt lat="57.3556639999753" lon="16.184351"/>
      <trkpt lat="57.3556079999752" lon="16.184143"/>
      <trkpt lat="57.3555659999752" lon="16.183981"/>
      <trkpt lat="57.3555339999753" lon="16.183829"/>
      <trkpt lat="57.3555039999752" lon="16.18366"/>
      <trkpt lat="57.3554749999752" lon="16.183517"/>
      <trkpt lat="57.3554549999753" lon="16.183355"/>
      <trkpt lat="57.3554369999752" lon="16.183187"/>
      <trkpt lat="57.3554259999752" lon="16.183024"/>
      <trkpt lat="57.3554239999752" lon="16.182866"/>
      <trkpt lat="57.3554159999752" lon="16.182717"/>
      <trkpt lat="57.3554079999752" lon="16.182555"/>
      <trkpt lat="57.3553939999752" lon="16.182394"/>
      <trkpt lat="57.3553859999753" lon="16.182225"/>
      <trkpt lat="57.3553749999753" lon="16.182058"/>
      <trkpt lat="57.3553639999753" lon="16.181857"/>
      <trkpt lat="57.3553569999753" lon="16.181665"/>
      <trkpt lat="57.3553539999753" lon="16.181474"/>
      <trkpt lat="57.3553589999753" lon="16.1813"/>
      <trkpt lat="57.3553679999753" lon="16.181129"/>
      <trkpt lat="57.3553779999752" lon="16.180953"/>
      <trkpt lat="57.3553769999752" lon="16.180761"/>
      <trkpt lat="57.3553549999753" lon="16.180613"/>
      <trkpt lat="57.3553229999753" lon="16.180445"/>
      <trkpt lat="57.3552839999753" lon="16.180309"/>
      <trkpt lat="57.3552219999753" lon="16.180155"/>
      <trkpt lat="57.3551769999753" lon="16.180019"/>
      <trkpt lat="57.3551359999752" lon="16.179888"/>
      <trkpt lat="57.3550939999752" lon="16.179767"/>
      <trkpt lat="57.3550499999753" lon="16.179648"/>
      <trkpt lat="57.3550059999753" lon="16.179531"/>
      <trkpt lat="57.3549599999753" lon="16.179416"/>
      <trkpt lat="57.3548029999753" lon="16.179022"/>
      <trkpt lat="57.3547189999752" lon="16.178852"/>
      <trkpt lat="57.3546243031927" lon="16.1786486423148"/>
      <trkpt lat="57.3545658794752" lon="16.1785626474967"/>
      <trkpt lat="57.3544962318814" lon="16.1784860725989"/>
      <trkpt lat="57.3543948557683" lon="16.1784566410411"/>
      <trkpt lat="57.3542889999752" lon="16.178447"/>
      <trkpt lat="57.3540215130753" lon="16.1785232898762"/>
      <trkpt lat="57.3539229999753" lon="16.178543"/>
      <trkpt lat="57.3538319999753" lon="16.178592"/>
      <trkpt lat="57.3537578705882" lon="16.1786556327972"/>
      <trkpt lat="57.3536388201846" lon="16.1786993787759"/>
      <trkpt lat="57.3535886688729" lon="16.1786886440432"/>
      <trkpt lat="57.3535273302285" lon="16.1786403233686"/>
      <trkpt lat="57.3534349553399" lon="16.1784726611913"/>
      <trkpt lat="57.3534093407239" lon="16.178330228501"/>
      <trkpt lat="57.3533909999753" lon="16.178127"/>
      <trkpt lat="57.3533649999752" lon="16.177928"/>
      <trkpt lat="57.3533269999753" lon="16.177729"/>
      <trkpt lat="57.3532829999752" lon="16.177599"/>
      <trkpt lat="57.3532449999752" lon="16.177453"/>
      <trkpt lat="57.3532179999753" lon="16.177281"/>
      <trkpt lat="57.3531911624647" lon="16.1771681780013"/>
      <trkpt lat="57.3531758027941" lon="16.1769745595993"/>
      <trkpt lat="57.3531698869704" lon="16.1766660306028"/>
      <trkpt lat="57.3531674627242" lon="16.1764484452359"/>
      <trkpt lat="57.3531750384419" lon="16.1762962703343"/>
      <trkpt lat="57.3531966665976" lon="16.1759915967835"/>
      <trkpt lat="57.3532086738015" lon="16.1757658736105"/>
      <trkpt lat="57.3532010480008" lon="16.1754762113657"/>
      <trkpt lat="57.3533936893209" lon="16.175401023253"/>
      <trkpt lat="57.3536387864016" lon="16.1753672124736"/>
      <trkpt lat="57.3537797434541" lon="16.1753026727677"/>
      <trkpt lat="57.3540075240936" lon="16.1751872566206"/>
      <trkpt lat="57.3543323173888" lon="16.1751026301935"/>
      <trkpt lat="57.3544989529397" lon="16.175045773453"/>
      <trkpt lat="57.3547950599112" lon="16.1748928261003"/>
      <trkpt lat="57.3549999033608" lon="16.1747274964083"/>
      <trkpt lat="57.3551191305328" lon="16.1745286361514"/>
      <trkpt lat="57.3551756168145" lon="16.1743224179476"/>
      <trkpt lat="57.355230411007" lon="16.1740133547936"/>
      <trkpt lat="57.3552883287324" lon="16.1738097598956"/>
      <trkpt lat="57.3553664076271" lon="16.1736851082624"/>
      <trkpt lat="57.355475969532" lon="16.173607650491"/>
      <trkpt lat="57.3556326945566" lon="16.1735772476287"/>
      <trkpt lat="57.3557837450982" lon="16.1735574447073"/>
      <trkpt lat="57.3559061565465" lon="16.1734877839852"/>
      <trkpt lat="57.3562958624965" lon="16.1731493621441"/>
      <trkpt lat="57.3564352695969" lon="16.1730373479248"/>
      <trkpt lat="57.3566175567623" lon="16.1729697892822"/>
      <trkpt lat="57.3567628710977" lon="16.1729368466931"/>
      <trkpt lat="57.3570248055497" lon="16.1728000022102"/>
      <trkpt lat="57.3572252394712" lon="16.1725845763632"/>
      <trkpt lat="57.3574512694501" lon="16.1723451819184"/>
      <trkpt lat="57.3575693763557" lon="16.1722650019955"/>
      <trkpt lat="57.3576834746338" lon="16.1722877234684"/>
      <trkpt lat="57.3578076952506" lon="16.1723657445471"/>
      <trkpt lat="57.3579406606733" lon="16.1725175414129"/>
      <trkpt lat="57.3580738590337" lon="16.1727590164568"/>
      <trkpt lat="57.3582231136437" lon="16.1731454202766"/>
      <trkpt lat="57.3583491424621" lon="16.1733711372678"/>
      <trkpt lat="57.3586834994148" lon="16.1736767742413"/>
      <trkpt lat="57.3589708223951" lon="16.1739854714487"/>
      <trkpt lat="57.3591865305653" lon="16.17416292271"/>
      <trkpt lat="57.3594104977942" lon="16.1742268810292"/>
      <trkpt lat="57.3595003015189" lon="16.1742260854087"/>
      <trkpt lat="57.3596672709401" lon="16.174298462741"/>
      <trkpt lat="57.3599180624643" lon="16.1742619504888"/>
      <trkpt lat="57.3601003979635" lon="16.1742128554016"/>
      <trkpt lat="57.3602445327896" lon="16.1742748850078"/>
      <trkpt lat="57.3604261045982" lon="16.1744816620174"/>
      <trkpt lat="57.3605631188257" lon="16.1745463940485"/>
      <trkpt lat="57.3606970775712" lon="16.1745320192929"/>
      <trkpt lat="57.3608393230643" lon="16.1744146960785"/>
      <trkpt lat="57.3610683506277" lon="16.1742306573013"/>
      <trkpt lat="57.3611837374499" lon="16.1742006186748"/>
      <trkpt lat="57.3613205811811" lon="16.1741994061185"/>
      <trkpt lat="57.3616471333408" lon="16.1742439943455"/>
      <trkpt lat="57.3621192797852" lon="16.1743637930248"/>
      <trkpt lat="57.3623105704697" lon="16.1744702537712"/>
      <trkpt lat="57.3625549641749" lon="16.1747160566082"/>
      <trkpt lat="57.3629067635106" lon="16.1751534848767"/>
      <trkpt lat="57.3631156078898" lon="16.1754339038686"/>
      <trkpt lat="57.3632085412346" lon="16.1755412410572"/>
      <trkpt lat="57.3632838494992" lon="16.1755552621079"/>
      <trkpt lat="57.3633657499802" lon="16.1754439242973"/>
      <trkpt lat="57.3634810777325" lon="16.1747746047768"/>
      <trkpt lat="57.3635729929214" lon="16.1742022773009"/>
      <trkpt lat="57.3636179090547" lon="16.1737548069744"/>
      <trkpt lat="57.3636193300421" lon="16.1733422894907"/>
      <trkpt lat="57.3635901394054" lon="16.1726512004318"/>
      <trkpt lat="57.363609098041" lon="16.1722800077771"/>
      <trkpt lat="57.3637184411802" lon="16.1717098208906"/>
      <trkpt lat="57.3641441035477" lon="16.1697218198559"/>
      <trkpt lat="57.3641882607622" lon="16.1694656200482"/>
      <trkpt lat="57.364212366551" lon="16.1691612048217"/>
      <trkpt lat="57.3642015565457" lon="16.168838667419"/>
      <trkpt lat="57.3641265529191" lon="16.1682562972478"/>
      <trkpt lat="57.3638650477965" lon="16.1663712611847"/>
      <trkpt lat="57.3637965463797" lon="16.1658971540987"/>
      <trkpt lat="57.3636702172428" lon="16.1652184744839"/>
      <trkpt lat="57.3636456382327" lon="16.1648730234538"/>
      <trkpt lat="57.3636358782804" lon="16.1644813476913"/>
      <trkpt lat="57.3636397040171" lon="16.1640480670252"/>
      <trkpt lat="57.3636350886271" lon="16.1637185659243"/>
      <trkpt lat="57.3636192714286" lon="16.16339147196"/>
      <trkpt lat="57.3635923264368" lon="16.1630944386998"/>
      <trkpt lat="57.3635854464235" lon="16.1628502252332"/>
      <trkpt lat="57.3636045614615" lon="16.1625481608815"/>
      <trkpt lat="57.3636755922578" lon="16.1621027401985"/>
      <trkpt lat="57.3637716809499" lon="16.1617146998598"/>
      <trkpt lat="57.3638279829435" lon="16.1613500691053"/>
      <trkpt lat="57.3638665713524" lon="16.1608818974733"/>
      <trkpt lat="57.3639263704966" lon="16.160429660549"/>
      <trkpt lat="57.3639975866802" lon="16.1600556702839"/>
      <trkpt lat="57.3640890119577" lon="16.1597874997481"/>
      <trkpt lat="57.3643668165386" lon="16.1593678063577"/>
      <trkpt lat="57.3645341434215" lon="16.1590781865924"/>
      <trkpt lat="57.3646415235568" lon="16.1587245928285"/>
      <trkpt lat="57.3647871359463" lon="16.1582346720121"/>
      <trkpt lat="57.3649643281559" lon="16.157910383231"/>
      <trkpt lat="57.3651404748116" lon="16.1576598480439"/>
      <trkpt lat="57.3653115020732" lon="16.1573586568658"/>
      <trkpt lat="57.3655007425075" lon="16.1568867513848"/>
      <trkpt lat="57.3656963267998" lon="16.1564585696801"/>
      <trkpt lat="57.3659290525324" lon="16.1559516780216"/>
      <trkpt lat="57.3660593043667" lon="16.1557683915595"/>
      <trkpt lat="57.3663037768631" lon="16.155459581669"/>
      <trkpt lat="57.3665630335719" lon="16.1550930119001"/>
      <trkpt lat="57.366704251185" lon="16.1548220379915"/>
      <trkpt lat="57.3667907348896" lon="16.1545723186215"/>
      <trkpt lat="57.366907741329" lon="16.1541010594131"/>
      <trkpt lat="57.3670244860418" lon="16.1535353064699"/>
      <trkpt lat="57.3671025370856" lon="16.1529376491663"/>
      <trkpt lat="57.3671480769342" lon="16.1527436227497"/>
      <trkpt lat="57.3673412202094" lon="16.1523384701076"/>
      <trkpt lat="57.367426632018" lon="16.1521532833235"/>
      <trkpt lat="57.3675896583225" lon="16.1516654389041"/>
      <trkpt lat="57.3678082902972" lon="16.1510226434676"/>
      <trkpt lat="57.367987321098" lon="16.1504701031492"/>
      <trkpt lat="57.3680497012985" lon="16.1500638693154"/>
      <trkpt lat="57.3681944649162" lon="16.1492811688323"/>
      <trkpt lat="57.3682646467917" lon="16.148994705234"/>
      <trkpt lat="57.3683486262569" lon="16.1486831362047"/>
      <trkpt lat="57.3684247966206" lon="16.1483987794591"/>
      <trkpt lat="57.3685209628385" lon="16.1479746952277"/>
      <trkpt lat="57.3685793232646" lon="16.1477071581922"/>
      <trkpt lat="57.368667142191" lon="16.1474327070463"/>
      <trkpt lat="57.36874991499" lon="16.1472425177002"/>
      <trkpt lat="57.3688259367283" lon="16.1470493553494"/>
      <trkpt lat="57.3690219071485" lon="16.1465775826082"/>
      <trkpt lat="57.3691169004353" lon="16.1463200191382"/>
      <trkpt lat="57.3692139996145" lon="16.1460791670596"/>
      <trkpt lat="57.3692755159868" lon="16.1459265598992"/>
      <trkpt lat="57.3692794906918" lon="16.145916687929"/>
      <trkpt lat="57.3693480128676" lon="16.1457583793774"/>
      <trkpt lat="57.3694803982248" lon="16.1453827342712"/>
      <trkpt lat="57.3695872436185" lon="16.1450944077261"/>
      <trkpt lat="57.3696739778974" lon="16.1448548081095"/>
      <trkpt lat="57.3697546622841" lon="16.1445992358654"/>
      <trkpt lat="57.3698350192774" lon="16.1443224070847"/>
      <trkpt lat="57.3699005451612" lon="16.1440894072072"/>
      <trkpt lat="57.3699521503328" lon="16.143906614149"/>
      <trkpt lat="57.3699994102414" lon="16.1437367735365"/>
      <trkpt lat="57.3700627150816" lon="16.1435130969533"/>
      <trkpt lat="57.370111373517" lon="16.1433591438872"/>
      <trkpt lat="57.3701501150032" lon="16.1431887544499"/>
      <trkpt lat="57.3701647166104" lon="16.1430678892969"/>
      <trkpt lat="57.3701763890829" lon="16.1429045590534"/>
      <trkpt lat="57.3701807366502" lon="16.1427849138563"/>
      <trkpt lat="57.3701830845375" lon="16.1426626222462"/>
      <trkpt lat="57.3701817920923" lon="16.1424820101994"/>
      <trkpt lat="57.3701576735773" lon="16.142246884739"/>
      <trkpt lat="57.3701439696382" lon="16.1419663594507"/>
      <trkpt lat="57.3701456144422" lon="16.1418276091795"/>
      <trkpt lat="57.3701485079173" lon="16.1417557790634"/>
      <trkpt lat="57.3701501831789" lon="16.1417142948253"/>
      <trkpt lat="57.3701580001017" lon="16.1415917313461"/>
      <trkpt lat="57.3701794389274" lon="16.1414870986498"/>
      <trkpt lat="57.370194428002" lon="16.1414350625476"/>
      <trkpt lat="57.3702217901956" lon="16.1413775478365"/>
      <trkpt lat="57.3702748826462" lon="16.1413122492531"/>
      <trkpt lat="57.3703466890587" lon="16.1412488105369"/>
      <trkpt lat="57.3704411117615" lon="16.1411799192081"/>
      <trkpt lat="57.3705441630131" lon="16.1411052867567"/>
      <trkpt lat="57.370642082938" lon="16.1410315591701"/>
      <trkpt lat="57.3707015661774" lon="16.1409711044754"/>
      <trkpt lat="57.3707699142922" lon="16.1408923066159"/>
      <trkpt lat="57.3708831560407" lon="16.1407665705114"/>
      <trkpt lat="57.3709446280401" lon="16.1407264341068"/>
      <trkpt lat="57.3710192653705" lon="16.14069347044"/>
      <trkpt lat="57.371078791673" lon="16.1406658399847"/>
      <trkpt lat="57.3712136504423" lon="16.1406217179479"/>
      <trkpt lat="57.3712718741792" lon="16.1405908304088"/>
      <trkpt lat="57.3713274030861" lon="16.1405408372519"/>
      <trkpt lat="57.3713632162488" lon="16.1404870173941"/>
      <trkpt lat="57.3713878546911" lon="16.1404293144798"/>
      <trkpt lat="57.3714070804315" lon="16.140369363201"/>
      <trkpt lat="57.3714260529205" lon="16.140251938427"/>
      <trkpt lat="57.3714459763675" lon="16.1401200672222"/>
      <trkpt lat="57.3714590652597" lon="16.1399183128986"/>
      <trkpt lat="57.3714724614082" lon="16.1397891578349"/>
      <trkpt lat="57.3714889897241" lon="16.1396917703348"/>
      <trkpt lat="57.3715098453201" lon="16.1396180353616"/>
      <trkpt lat="57.371548614298" lon="16.1395530445642"/>
      <trkpt lat="57.3715968825416" lon="16.1394899633969"/>
      <trkpt lat="57.3716861528589" lon="16.139404940968"/>
      <trkpt lat="57.3718057340176" lon="16.1392865626087"/>
      <trkpt lat="57.3719026598957" lon="16.1391938446267"/>
      <trkpt lat="57.3720062185895" lon="16.1391103983808"/>
      <trkpt lat="57.3721320780819" lon="16.1390202209864"/>
      <trkpt lat="57.3722330587851" lon="16.1389473437678"/>
      <trkpt lat="57.3722889833141" lon="16.1389118727369"/>
      <trkpt lat="57.3724652759671" lon="16.1388767803064"/>
      <trkpt lat="57.3726577630464" lon="16.1388155917358"/>
      <trkpt lat="57.3727480177983" lon="16.1387855531567"/>
      <trkpt lat="57.3728037691645" lon="16.1387772341342"/>
      <trkpt lat="57.3728498531321" lon="16.1387922541107"/>
      <trkpt lat="57.3728858806491" lon="16.1388160870786"/>
      <trkpt lat="57.3729099975884" lon="16.138856815649"/>
      <trkpt lat="57.3729353856331" lon="16.1389373956596"/>
      <trkpt lat="57.372975940182" lon="16.1390985036696"/>
      <trkpt lat="57.3730202301923" lon="16.1392604906904"/>
      <trkpt lat="57.3730485982907" lon="16.1393810321051"/>
      <trkpt lat="57.3730582984887" lon="16.1394795065005"/>
      <trkpt lat="57.3730552270881" lon="16.139550630151"/>
      <trkpt lat="57.3730412249705" lon="16.1396406158465"/>
      <trkpt lat="57.372979752371" lon="16.1397987474343"/>
      <trkpt lat="57.3729666689042" lon="16.1398782414758"/>
      <trkpt lat="57.3729244984742" lon="16.1400102648737"/>
      <trkpt lat="57.3729520703772" lon="16.1401903915559"/>
      <trkpt lat="57.3729833835185" lon="16.1403473539069"/>
      <trkpt lat="57.3730253353185" lon="16.1405244874879"/>
      <trkpt lat="57.3730672474726" lon="16.1407082722933"/>
      <trkpt lat="57.3731165099804" lon="16.140865626974"/>
      <trkpt lat="57.3731460652154" lon="16.1410159099911"/>
      <trkpt lat="57.3731612093354" lon="16.1411724985616"/>
      <trkpt lat="57.373188662886" lon="16.1413692542099"/>
      <trkpt lat="57.3732098919582" lon="16.1414196000254"/>
      <trkpt lat="57.3732396421608" lon="16.1415399417947"/>
      <trkpt lat="57.3732690477243" lon="16.1417134769331"/>
      <trkpt lat="57.3732659753099" lon="16.1419095524686"/>
      <trkpt lat="57.373286249124" lon="16.1421061631624"/>
      <trkpt lat="57.373285215028" lon="16.1422657025128"/>
      <trkpt lat="57.3733160873353" lon="16.1424891360562"/>
      <trkpt lat="57.3733649398332" lon="16.1427096503503"/>
      <trkpt lat="57.3733909935293" lon="16.1428465342814"/>
      <trkpt lat="57.3734124673406" lon="16.1431329221193"/>
      <trkpt lat="57.3734360498542" lon="16.1433728245537"/>
      <trkpt lat="57.3734709446897" lon="16.143529864807"/>
      <trkpt lat="57.373502449758" lon="16.1436569033409"/>
      <trkpt lat="57.3735226740341" lon="16.1438601670865"/>
      <trkpt lat="57.3735700102323" lon="16.1440374238452"/>
      <trkpt lat="57.3736246740513" lon="16.1441915896538"/>
      <trkpt lat="57.3736668238991" lon="16.1443388151783"/>
      <trkpt lat="57.373715829821" lon="16.1445360693352"/>
      <trkpt lat="57.3737418976363" lon="16.1446696571783"/>
      <trkpt lat="57.3737726954145" lon="16.1449030584077"/>
      <trkpt lat="57.3737536141075" lon="16.1450754812471"/>
      <trkpt lat="57.373743138027" lon="16.1453046400509"/>
      <trkpt lat="57.373749105338" lon="16.1454909450273"/>
      <trkpt lat="57.3737678133113" lon="16.1456509502491"/>
      <trkpt lat="57.3737831085988" lon="16.1457842652217"/>
      <trkpt lat="57.3737730244506" lon="16.1459535926811"/>
      <trkpt lat="57.3737397036333" lon="16.1461057550564"/>
      <trkpt lat="57.3737367975938" lon="16.1462752425139"/>
      <trkpt lat="57.3737683864888" lon="16.1463889959065"/>
      <trkpt lat="57.373803600649" lon="16.1464961719758"/>
      <trkpt lat="57.3738623110678" lon="16.1465806080602"/>
      <trkpt lat="57.3739711809415" lon="16.1466861603991"/>
      <trkpt lat="57.3740315475677" lon="16.1468317887506"/>
      <trkpt lat="57.3740891770619" lon="16.1470493736277"/>
      <trkpt lat="57.3741069133277" lon="16.1472743788218"/>
      <trkpt lat="57.3741401099952" lon="16.1475907135791"/>
      <trkpt lat="57.3741880482199" lon="16.1477415440242"/>
      <trkpt lat="57.3742886281639" lon="16.1478774356176"/>
      <trkpt lat="57.374377821815" lon="16.1479772165454"/>
      <trkpt lat="57.374535901239" lon="16.1480086873864"/>
      <trkpt lat="57.3746191691809" lon="16.1480496710301"/>
      <trkpt lat="57.3746979620896" lon="16.148189653391"/>
      <trkpt lat="57.3747741580075" lon="16.1482504964953"/>
      <trkpt lat="57.3748333735657" lon="16.1481861580313"/>
      <trkpt lat="57.3748852652116" lon="16.148051520645"/>
      <trkpt lat="57.3750251269963" lon="16.147940229434"/>
      <trkpt lat="57.3751257457988" lon="16.1478139201633"/>
      <trkpt lat="57.375199067984" lon="16.1476966680755"/>
      <trkpt lat="57.3752978710464" lon="16.1475907288783"/>
      <trkpt lat="57.3753947533539" lon="16.1475826401537"/>
      <trkpt lat="57.3755661086453" lon="16.1476887511271"/>
      <trkpt lat="57.3757767119629" lon="16.147740966333"/>
      <trkpt lat="57.3759119450052" lon="16.1476736973659"/>
      <trkpt lat="57.376" lon="16.147615"/>
      <trkpt lat="57.3761528018404" lon="16.1475283364709"/>
      <trkpt lat="57.3762605019131" lon="16.147656090067"/>
      <trkpt lat="57.3763793764281" lon="16.1477157194628"/>
      <trkpt lat="57.376465321288" lon="16.1477504342268"/>
      <trkpt lat="57.3766016261935" lon="16.1477910084199"/>
      <trkpt lat="57.3766756319905" lon="16.1477378110588"/>
      <trkpt lat="57.3767809183651" lon="16.1477245872721"/>
      <trkpt lat="57.3768864960386" lon="16.1477669012071"/>
      <trkpt lat="57.3770090289299" lon="16.1478318231355"/>
      <trkpt lat="57.3770804120157" lon="16.1478081321444"/>
      <trkpt lat="57.3771296742816" lon="16.1477646820395"/>
      <trkpt lat="57.3771744625581" lon="16.147688091552"/>
      <trkpt lat="57.3772333291008" lon="16.1476237955876"/>
      <trkpt lat="57.3773215494648" lon="16.1475406074813"/>
      <trkpt lat="57.377410613254" lon="16.147466948778"/>
      <trkpt lat="57.3774612488632" lon="16.1474406233252"/>
      <trkpt lat="57.3775151064379" lon="16.1474416598685"/>
      <trkpt lat="57.3775936717451" lon="16.147470217818"/>
      <trkpt lat="57.3776336461706" lon="16.1475018910213"/>
      <trkpt lat="57.3776743399934" lon="16.1475487794133"/>
      <trkpt lat="57.3777131171018" lon="16.1475892126628"/>
      <trkpt lat="57.3777458734819" lon="16.1476058922109"/>
      <trkpt lat="57.3777822754327" lon="16.1475925239772"/>
      <trkpt lat="57.3778668294666" lon="16.1475229801262"/>
      <trkpt lat="57.3779366484114" lon="16.1474562630495"/>
      <trkpt lat="57.3779859150039" lon="16.1473951218236"/>
      <trkpt lat="57.3780235958072" lon="16.1473508920139"/>
      <trkpt lat="57.3780682134563" lon="16.147318488356"/>
      <trkpt lat="57.3781103609934" lon="16.1472726502136"/>
      <trkpt lat="57.3781353960624" lon="16.1472301267403"/>
      <trkpt lat="57.378170171774" lon="16.1471591807386"/>
      <trkpt lat="57.3781943839017" lon="16.1470888071892"/>
      <trkpt lat="57.3782134116915" lon="16.1470389184997"/>
      <trkpt lat="57.3782567534582" lon="16.1469666567997"/>
      <trkpt lat="57.3783140507023" lon="16.1468422997184"/>
      <trkpt lat="57.3783598197438" lon="16.1467323065133"/>
      <trkpt lat="57.3784002544861" lon="16.146633958523"/>
      <trkpt lat="57.3784578624018" lon="16.1465285539164"/>
      <trkpt lat="57.3785130280707" lon="16.1464797904906"/>
      <trkpt lat="57.3786063657566" lon="16.1464139988181"/>
      <trkpt lat="57.3786749170673" lon="16.1463604368416"/>
      <trkpt lat="57.3787456339665" lon="16.1463714050392"/>
      <trkpt lat="57.3788145835114" lon="16.1464037486382"/>
      <trkpt lat="57.3788860744984" lon="16.1464097349528"/>
      <trkpt lat="57.3789441189151" lon="16.1463706405029"/>
      <trkpt lat="57.3789913309897" lon="16.1463270331852"/>
      <trkpt lat="57.3790432994177" lon="16.1462496719878"/>
      <trkpt lat="57.3790903129016" lon="16.1461454276459"/>
      <trkpt lat="57.3791341219157" lon="16.1460662603914"/>
      <trkpt lat="57.3791709851121" lon="16.14602954434"/>
      <trkpt lat="57.3792001079959" lon="16.1460183062684"/>
      <trkpt lat="57.379212900024" lon="16.1460133682817"/>
      <trkpt lat="57.379223650944" lon="16.1460185239788"/>
      <trkpt lat="57.3792831789666" lon="16.1460470516964"/>
      <trkpt lat="57.3793805620105" lon="16.1460901060508"/>
      <trkpt lat="57.3794786628728" lon="16.1460953320832"/>
      <trkpt lat="57.3796027025198" lon="16.14602901692"/>
      <trkpt lat="57.3796091322962" lon="16.1460220887157"/>
      <trkpt lat="57.3797176244321" lon="16.1459052938392"/>
      <trkpt lat="57.3798067093232" lon="16.1458126887084"/>
      <trkpt lat="57.3799010179767" lon="16.1456257099818"/>
      <trkpt lat="57.3799661283473" lon="16.1454671225209"/>
      <trkpt lat="57.380059983756" lon="16.1451980419014"/>
      <trkpt lat="57.3800553211341" lon="16.1451566893464"/>
      <trkpt lat="57.3800558101164" lon="16.1450961110005"/>
      <trkpt lat="57.3800686455671" lon="16.1450319313215"/>
      <trkpt lat="57.3800835947907" lon="16.1449817734204"/>
      <trkpt lat="57.3801030787747" lon="16.1449262521615"/>
      <trkpt lat="57.3801226592295" lon="16.1448833392133"/>
      <trkpt lat="57.3801498130614" lon="16.144836525995"/>
      <trkpt lat="57.3802023060111" lon="16.1446606790015"/>
      <trkpt lat="57.3802473266491" lon="16.1445184408976"/>
      <trkpt lat="57.3803150589822" lon="16.1442596307165"/>
      <trkpt lat="57.3803303149701" lon="16.1441760247413"/>
      <trkpt lat="57.3803451980776" lon="16.144093676024"/>
      <trkpt lat="57.3803566162252" lon="16.1439959383053"/>
      <trkpt lat="57.3803692051369" lon="16.1438559759455"/>
      <trkpt lat="57.3803857533392" lon="16.1437225816514"/>
      <trkpt lat="57.380397666134" lon="16.1435996331055"/>
      <trkpt lat="57.380408602282" lon="16.143492381339"/>
      <trkpt lat="57.3804235445532" lon="16.1433715259385"/>
      <trkpt lat="57.3804503459978" lon="16.1432369108674"/>
      <trkpt lat="57.3804853959982" lon="16.143116735848"/>
      <trkpt lat="57.3805351789976" lon="16.1429754504547"/>
      <trkpt lat="57.3805775081775" lon="16.1428664738738"/>
      <trkpt lat="57.3806235925148" lon="16.1427754369833"/>
      <trkpt lat="57.380694193913" lon="16.1426860326754"/>
      <trkpt lat="57.3807908749265" lon="16.1425882291571"/>
      <trkpt lat="57.3808484020281" lon="16.1425579339228"/>
      <trkpt lat="57.3809173957598" lon="16.1425523823133"/>
      <trkpt lat="57.3809885108092" lon="16.1425608527799"/>
      <trkpt lat="57.3810359535608" lon="16.1424960193312"/>
      <trkpt lat="57.3811296341217" lon="16.1423524618446"/>
      <trkpt lat="57.381189" lon="16.142247"/>
      <trkpt lat="57.381275" lon="16.142131"/>
      <trkpt lat="57.381345" lon="16.142018"/>
      <trkpt lat="57.381390429777" lon="16.1419090112696"/>
      <trkpt lat="57.381448" lon="16.141717"/>
      <trkpt lat="57.3815857437121" lon="16.1412245620656"/>
      <trkpt lat="57.3816646962039" lon="16.1409176300177"/>
      <trkpt lat="57.3817360656498" lon="16.1406178090228"/>
      <trkpt lat="57.3818754595128" lon="16.1402303817021"/>
      <trkpt lat="57.3819501251663" lon="16.1398894456295"/>
      <trkpt lat="57.382076" lon="16.139646"/>
      <trkpt lat="57.382301" lon="16.13927"/>
      <trkpt lat="57.3824393848373" lon="16.1393158756193"/>
      <trkpt lat="57.3825118687966" lon="16.1392517739098"/>
      <trkpt lat="57.3826070363395" lon="16.1390787220745"/>
      <trkpt lat="57.3826538585263" lon="16.1390199406971"/>
      <trkpt lat="57.3827350966554" lon="16.1389450933866"/>
      <trkpt lat="57.3828158471239" lon="16.1388601277834"/>
      <trkpt lat="57.3828570956119" lon="16.1388079080519"/>
      <trkpt lat="57.3828814737478" lon="16.1387634224816"/>
      <trkpt lat="57.3829336534943" lon="16.1386563608611"/>
      <trkpt lat="57.3829860675816" lon="16.1385373230206"/>
      <trkpt lat="57.3830496254882" lon="16.1384063807185"/>
      <trkpt lat="57.383112620464" lon="16.1382690883853"/>
      <trkpt lat="57.383194957307" lon="16.138101508645"/>
      <trkpt lat="57.3832640293382" lon="16.1379671405801"/>
      <trkpt lat="57.3833344748617" lon="16.1378145556228"/>
      <trkpt lat="57.3833657025988" lon="16.1377436928339"/>
      <trkpt lat="57.3834082845402" lon="16.1376470444809"/>
      <trkpt lat="57.3834402869988" lon="16.1375652832848"/>
      <trkpt lat="57.3834839438093" lon="16.1374537687206"/>
      <trkpt lat="57.3835275899885" lon="16.1373297256324"/>
      <trkpt lat="57.3835998489255" lon="16.1371538823155"/>
      <trkpt lat="57.3836914803445" lon="16.1369635383352"/>
      <trkpt lat="57.3837434050527" lon="16.1368343774306"/>
      <trkpt lat="57.3837813239373" lon="16.1367421517948"/>
      <trkpt lat="57.3838032241295" lon="16.1366671792742"/>
      <trkpt lat="57.3838497545309" lon="16.1364788957026"/>
      <trkpt lat="57.3839196748407" lon="16.1360891886476"/>
      <trkpt lat="57.384011049218" lon="16.1357528307252"/>
      <trkpt lat="57.3841587307818" lon="16.1352642609182"/>
      <trkpt lat="57.3843539714265" lon="16.1347078365255"/>
      <trkpt lat="57.3845018151678" lon="16.1340774889192"/>
      <trkpt lat="57.3846097106707" lon="16.1335310998636"/>
      <trkpt lat="57.3846722569708" lon="16.1331516154198"/>
      <trkpt lat="57.3846728635481" lon="16.1331495684961"/>
      <trkpt lat="57.3847374895972" lon="16.132931416696"/>
      <trkpt lat="57.3849187255942" lon="16.1324443848231"/>
      <trkpt lat="57.3850124870994" lon="16.1322735451583"/>
      <trkpt lat="57.3851687488019" lon="16.1319999038016"/>
      <trkpt lat="57.3852576022137" lon="16.1318078777528"/>
      <trkpt lat="57.3852996299069" lon="16.1316491992989"/>
      <trkpt lat="57.3853248234136" lon="16.1314226302037"/>
      <trkpt lat="57.3853476890656" lon="16.1311603586674"/>
      <trkpt lat="57.3853853098842" lon="16.1308393023695"/>
      <trkpt lat="57.3854532897106" lon="16.1305437320204"/>
      <trkpt lat="57.3855318283664" lon="16.1302547461764"/>
      <trkpt lat="57.3856013798154" lon="16.1301053217727"/>
      <trkpt lat="57.3858415783111" lon="16.1296215603958"/>
      <trkpt lat="57.3859213270918" lon="16.1294530273747"/>
      <trkpt lat="57.3859357924013" lon="16.1294224626726"/>
      <trkpt lat="57.3860002289622" lon="16.1293095710105"/>
      <trkpt lat="57.3860556869817" lon="16.129257152483"/>
      <trkpt lat="57.386201293838" lon="16.1291669733439"/>
      <trkpt lat="57.3863261161909" lon="16.1290234626977"/>
      <trkpt lat="57.3864315541556" lon="16.128910620771"/>
      <trkpt lat="57.3866268742902" lon="16.1287707188048"/>
      <trkpt lat="57.3867070598306" lon="16.1287169461492"/>
      <trkpt lat="57.3868417111038" lon="16.1285737731354"/>
      <trkpt lat="57.3869524900156" lon="16.1284118371563"/>
      <trkpt lat="57.3869962948525" lon="16.128372393076"/>
      <trkpt lat="57.3871461663351" lon="16.1282374670309"/>
      <trkpt lat="57.3873378477545" lon="16.1280669142371"/>
      <trkpt lat="57.3874483017722" lon="16.1279865475802"/>
      <trkpt lat="57.3875813348569" lon="16.1278923461582"/>
      <trkpt lat="57.3876721862921" lon="16.1278175752648"/>
      <trkpt lat="57.3877203617622" lon="16.1277458915308"/>
      <trkpt lat="57.3877720984424" lon="16.1275731165311"/>
      <trkpt lat="57.3878065961282" lon="16.1273255492076"/>
      <trkpt lat="57.387807122481" lon="16.1272270339833"/>
      <trkpt lat="57.3878087671292" lon="16.1271416484053"/>
      <trkpt lat="57.3878224455496" lon="16.126956184598"/>
      <trkpt lat="57.3878541665531" lon="16.1268598733824"/>
      <trkpt lat="57.3879114470169" lon="16.1267427770759"/>
      <trkpt lat="57.3879513674309" lon="16.1266951933949"/>
      <trkpt lat="57.3880453055487" lon="16.1265846104932"/>
      <trkpt lat="57.3881570228925" lon="16.1264426860492"/>
      <trkpt lat="57.3882354954205" lon="16.1263063785664"/>
      <trkpt lat="57.388317554822" lon="16.1260978794808"/>
      <trkpt lat="57.3884702481286" lon="16.1256739554517"/>
      <trkpt lat="57.3885741580199" lon="16.1254634709219"/>
      <trkpt lat="57.3886796475227" lon="16.1253216414917"/>
      <trkpt lat="57.3887683623178" lon="16.1252397640757"/>
      <trkpt lat="57.3888335650156" lon="16.1251334859704"/>
      <trkpt lat="57.3888996508476" lon="16.1249867402681"/>
      <trkpt lat="57.3889779215547" lon="16.1247699659037"/>
      <trkpt lat="57.389101099839" lon="16.1243423185138"/>
      <trkpt lat="57.3892896832365" lon="16.1239772617392"/>
      <trkpt lat="57.3893656828163" lon="16.1237498007418"/>
      <trkpt lat="57.3894598099493" lon="16.1234233003769"/>
      <trkpt lat="57.3894950877875" lon="16.1231474444254"/>
      <trkpt lat="57.3895199647146" lon="16.1228850883182"/>
      <trkpt lat="57.3895711602637" lon="16.1224895533384"/>
      <trkpt lat="57.3896042748804" lon="16.1222550912049"/>
      <trkpt lat="57.389745701071" lon="16.1222960185636"/>
      <trkpt lat="57.3898409504785" lon="16.1222773451247"/>
      <trkpt lat="57.3899578857154" lon="16.1222223806429"/>
      <trkpt lat="57.3900784690187" lon="16.1221541520993"/>
      <trkpt lat="57.3901866026014" lon="16.122055831565"/>
      <trkpt lat="57.3902930426232" lon="16.1219308384741"/>
      <trkpt lat="57.3903977493807" lon="16.1217892074033"/>
      <trkpt lat="57.3904964072145" lon="16.1216388568514"/>
      <trkpt lat="57.3905254414678" lon="16.1216360741697"/>
      <trkpt lat="57.3907025691687" lon="16.1214677613175"/>
      <trkpt lat="57.3907888758546" lon="16.1213780239447"/>
      <trkpt lat="57.3908393892374" lon="16.1213056347162"/>
      <trkpt lat="57.3909959974575" lon="16.1211619494024"/>
      <trkpt lat="57.391144508215" lon="16.1209944064978"/>
      <trkpt lat="57.3912624734227" lon="16.1208806815714"/>
      <trkpt lat="57.3913444687308" lon="16.1208521365134"/>
      <trkpt lat="57.3915525148843" lon="16.1207412480344"/>
      <trkpt lat="57.3916738456484" lon="16.1206576428728"/>
      <trkpt lat="57.3918399850563" lon="16.1204738373403"/>
      <trkpt lat="57.3919776242052" lon="16.1203313240058"/>
      <trkpt lat="57.39202243367" lon="16.120233645711"/>
      <trkpt lat="57.3920992364677" lon="16.1199805278871"/>
      <trkpt lat="57.3921827700396" lon="16.1197675686889"/>
      <trkpt lat="57.392256708708" lon="16.1196549501428"/>
      <trkpt lat="57.3924064433501" lon="16.1196090683574"/>
      <trkpt lat="57.3925649081988" lon="16.1196384883602"/>
      <trkpt lat="57.3926415329042" lon="16.1195584806354"/>
      <trkpt lat="57.3928307519452" lon="16.1193158011751"/>
      <trkpt lat="57.3930166761408" lon="16.1189965745294"/>
      <trkpt lat="57.3932846152219" lon="16.1186023839368"/>
      <trkpt lat="57.3934230162092" lon="16.1183883515825"/>
      <trkpt lat="57.3934589407034" lon="16.1183558656261"/>
      <trkpt lat="57.393593732273" lon="16.1183500745954"/>
      <trkpt lat="57.3937413716995" lon="16.118363136506"/>
      <trkpt lat="57.3938673990322" lon="16.1183159325227"/>
      <trkpt lat="57.3939798675257" lon="16.1182824596195"/>
      <trkpt lat="57.3940977307475" lon="16.1182791005223"/>
      <trkpt lat="57.3941728859058" lon="16.1183006970063"/>
      <trkpt lat="57.3943001164059" lon="16.1184052798395"/>
      <trkpt lat="57.3943793386079" lon="16.118425623207"/>
      <trkpt lat="57.3945073465522" lon="16.1184298511362"/>
      <trkpt lat="57.3945500317551" lon="16.1184199764978"/>
      <trkpt lat="57.3947147364804" lon="16.1183051406617"/>
      <trkpt lat="57.3947811865418" lon="16.1182351156281"/>
      <trkpt lat="57.3948735145337" lon="16.1180209235233"/>
      <trkpt lat="57.3950079052719" lon="16.1177466676266"/>
      <trkpt lat="57.3951008628915" lon="16.1175939446528"/>
      <trkpt lat="57.395219525479" lon="16.1174576205126"/>
      <trkpt lat="57.3953198854043" lon="16.1173463121361"/>
      <trkpt lat="57.3954514091515" lon="16.1172263442533"/>
      <trkpt lat="57.3955470362969" lon="16.1171012277826"/>
      <trkpt lat="57.395611533257" lon="16.1169534259944"/>
      <trkpt lat="57.3956638229354" lon="16.1168206155509"/>
      <trkpt lat="57.3957255775364" lon="16.1167066698054"/>
      <trkpt lat="57.3958055873856" lon="16.1166191368487"/>
      <trkpt lat="57.3958808656339" lon="16.1165202924479"/>
      <trkpt lat="57.3959894722101" lon="16.1162986056803"/>
      <trkpt lat="57.3960423827631" lon="16.1162134857959"/>
      <trkpt lat="57.3961860819202" lon="16.1161086022282"/>
      <trkpt lat="57.3964064326591" lon="16.1158822996194"/>
      <trkpt lat="57.396533894188" lon="16.1157610408289"/>
      <trkpt lat="57.3966192783588" lon="16.1157237064982"/>
      <trkpt lat="57.3967032427468" lon="16.115745319832"/>
      <trkpt lat="57.3969584435373" lon="16.1158879878875"/>
      <trkpt lat="57.3971310467296" lon="16.1159952207931"/>
      <trkpt lat="57.3972130070811" lon="16.1159892432534"/>
      <trkpt lat="57.3972794558047" lon="16.1159192226935"/>
      <trkpt lat="57.3974733343897" lon="16.1157555415103"/>
      <trkpt lat="57.3976983145338" lon="16.1156409106713"/>
      <trkpt lat="57.3980282332651" lon="16.1155793209934"/>
      <trkpt lat="57.3980721984733" lon="16.1155672924578"/>
      <trkpt lat="57.3981917419909" lon="16.1156790583048"/>
      <trkpt lat="57.3983098846268" lon="16.1157771661091"/>
      <trkpt lat="57.398431565719" lon="16.11588862934"/>
      <trkpt lat="57.3985460362302" lon="16.1160099759067"/>
      <trkpt lat="57.3986190457727" lon="16.1161706934114"/>
      <trkpt lat="57.3986472119564" lon="16.1163174931015"/>
      <trkpt lat="57.3986680193231" lon="16.1165107946796"/>
      <trkpt lat="57.3986690023358" lon="16.1167204610282"/>
      <trkpt lat="57.3986789519552" lon="16.1169335848447"/>
      <trkpt lat="57.398690924213" lon="16.1170901648973"/>
      <trkpt lat="57.3987300494" lon="16.1171871934196"/>
      <trkpt lat="57.3987961691132" lon="16.1172712867711"/>
      <trkpt lat="57.3988785909938" lon="16.1173189919047"/>
      <trkpt lat="57.3989238573107" lon="16.1172230801927"/>
      <trkpt lat="57.3990031639659" lon="16.1171476253712"/>
      <trkpt lat="57.3990574444307" lon="16.117041859284"/>
      <trkpt lat="57.3990992976067" lon="16.1168993266595"/>
      <trkpt lat="57.3991288251953" lon="16.1166934048001"/>
      <trkpt lat="57.3991078690554" lon="16.1165400347753"/>
      <trkpt lat="57.3990368836603" lon="16.1163194151718"/>
      <trkpt lat="57.3989567582555" lon="16.1161419689797"/>
      <trkpt lat="57.3989179609354" lon="16.1159584041969"/>
      <trkpt lat="57.3989185472084" lon="16.1158053378757"/>
      <trkpt lat="57.3989244447714" lon="16.1156722972984"/>
      <trkpt lat="57.3989105953256" lon="16.115538996399"/>
      <trkpt lat="57.3988356244264" lon="16.1154214984894"/>
      <trkpt lat="57.3987623401619" lon="16.1153339933193"/>
      <trkpt lat="57.3987096490229" lon="16.1151911340373"/>
      <trkpt lat="57.3988231707753" lon="16.1151354341108"/>
      <trkpt lat="57.398947907074" lon="16.1150292248407"/>
      <trkpt lat="57.3991377214287" lon="16.1148592440167"/>
      <trkpt lat="57.3992089486145" lon="16.1147515902704"/>
      <trkpt lat="57.3992360535214" lon="16.1147378754927"/>
      <trkpt lat="57.3994357526253" lon="16.1148502354055"/>
      <trkpt lat="57.3995900875589" lon="16.1149335648794"/>
      <trkpt lat="57.3996903118629" lon="16.1149565091918"/>
      <trkpt lat="57.3999077534166" lon="16.1149321696323"/>
      <trkpt lat="57.4001388090178" lon="16.114838860607"/>
      <trkpt lat="57.4002133768291" lon="16.114775127267"/>
      <trkpt lat="57.4003175085292" lon="16.114859042671"/>
      <trkpt lat="57.4004086021048" lon="16.1149867444654"/>
      <trkpt lat="57.4005031481041" lon="16.115151084726"/>
      <trkpt lat="57.4005938280232" lon="16.1153852695439"/>
      <trkpt lat="57.4006828352839" lon="16.1155894752164"/>
      <trkpt lat="57.4007448558794" lon="16.1158033178486"/>
      <trkpt lat="57.4008178502254" lon="16.115967372554"/>
      <trkpt lat="57.4009338910051" lon="16.1161453318336"/>
      <trkpt lat="57.4009948480477" lon="16.1161727799618"/>
      <trkpt lat="57.4011308861322" lon="16.1162844410316"/>
      <trkpt lat="57.4012920430932" lon="16.1164064203444"/>
      <trkpt lat="57.401410317786" lon="16.1164712449694"/>
      <trkpt lat="57.4015500575849" lon="16.1165563412141"/>
      <trkpt lat="57.4016811348242" lon="16.1165614349049"/>
      <trkpt lat="57.4018138295225" lon="16.1166098222025"/>
      <trkpt lat="57.4019230043955" lon="16.1167044850076"/>
      <trkpt lat="57.4020138924131" lon="16.1168854197488"/>
      <trkpt lat="57.4021069296164" lon="16.1169732103448"/>
      <trkpt lat="57.4021893670159" lon="16.1170175910438"/>
      <trkpt lat="57.4022843488707" lon="16.1170688017179"/>
      <trkpt lat="57.4024002706517" lon="16.117276724798"/>
      <trkpt lat="57.4025659391931" lon="16.1176217711294"/>
      <trkpt lat="57.4026584099893" lon="16.1178593187189"/>
      <trkpt lat="57.4025609256281" lon="16.1179911384467"/>
      <trkpt lat="57.4024311344473" lon="16.1181191668846"/>
      <trkpt lat="57.4023536628972" lon="16.1181846843451"/>
      <trkpt lat="57.4022297871206" lon="16.118176371399"/>
      <trkpt lat="57.402130882671" lon="16.1182116180548"/>
      <trkpt lat="57.4020408821159" lon="16.1182669899819"/>
      <trkpt lat="57.4019758217354" lon="16.1183726175103"/>
      <trkpt lat="57.4018708835283" lon="16.1185742084676"/>
      <trkpt lat="57.4018020801917" lon="16.1187197145471"/>
      <trkpt lat="57.4017457022892" lon="16.1189053177861"/>
      <trkpt lat="57.4017558053105" lon="16.1190785231581"/>
      <trkpt lat="57.4018000505749" lon="16.1192455378042"/>
      <trkpt lat="57.4017701494536" lon="16.119544672075"/>
      <trkpt lat="57.4017637830989" lon="16.1197975196492"/>
      <trkpt lat="57.401747140572" lon="16.1199237680139"/>
      <trkpt lat="57.4017426735355" lon="16.1201466913683"/>
      <trkpt lat="57.4017636169666" lon="16.1203034025646"/>
      <trkpt lat="57.4018205386356" lon="16.1204439553776"/>
      <trkpt lat="57.4018917387096" lon="16.1206046805929"/>
      <trkpt lat="57.4019687376974" lon="16.1206622951761"/>
      <trkpt lat="57.4020781459338" lon="16.1206970779987"/>
      <trkpt lat="57.4021461863063" lon="16.1207479196182"/>
      <trkpt lat="57.4022262175343" lon="16.1207922211307"/>
      <trkpt lat="57.4022472170088" lon="16.120763708489"/>
      <trkpt lat="57.402462877197" lon="16.12050726783"/>
      <trkpt lat="57.4026642443528" lon="16.1203059806856"/>
      <trkpt lat="57.4028737850964" lon="16.120074591907"/>
      <trkpt lat="57.4029612219465" lon="16.1200134304118"/>
      <trkpt lat="57.402994530025" lon="16.1199728763459"/>
      <trkpt lat="57.403233287961" lon="16.120217696232"/>
      <trkpt lat="57.403400349647" lon="16.1204366210205"/>
      <trkpt lat="57.4035289529014" lon="16.1205186622655"/>
      <trkpt lat="57.4036562161635" lon="16.1205919019894"/>
      <trkpt lat="57.4037645853951" lon="16.1205872737394"/>
      <trkpt lat="57.4039969859423" lon="16.1205053025011"/>
      <trkpt lat="57.4042022323557" lon="16.1204884715096"/>
      <trkpt lat="57.4045177987836" lon="16.120273223558"/>
      <trkpt lat="57.4048342747129" lon="16.120437212189"/>
      <trkpt lat="57.4051152602678" lon="16.1206499889455"/>
      <trkpt lat="57.4053392544518" lon="16.1208721610306"/>
      <trkpt lat="57.4054465065577" lon="16.1209854979427"/>
      <trkpt lat="57.4055550262493" lon="16.1210905579632"/>
      <trkpt lat="57.4056874180548" lon="16.121218835795"/>
      <trkpt lat="57.4057711529815" lon="16.1213897398495"/>
      <trkpt lat="57.4058315240314" lon="16.1215669668805"/>
      <trkpt lat="57.4058666567467" lon="16.1217671566838"/>
      <trkpt lat="57.4059091414301" lon="16.1219241790603"/>
      <trkpt lat="57.4059712458445" lon="16.1221147502512"/>
      <trkpt lat="57.406033309294" lon="16.1223186494532"/>
      <trkpt lat="57.4061117324061" lon="16.1224695001222"/>
      <trkpt lat="57.4062259122188" lon="16.1226607906318"/>
      <trkpt lat="57.4062987860415" lon="16.122854839898"/>
      <trkpt lat="57.4063718742624" lon="16.1229923055082"/>
      <trkpt lat="57.4064612182068" lon="16.1231067056684"/>
      <trkpt lat="57.4065399415815" lon="16.1231810175449"/>
      <trkpt lat="57.4066132599145" lon="16.1232585579986"/>
      <trkpt lat="57.4066849713294" lon="16.1232895108617"/>
      <trkpt lat="57.4067854036029" lon="16.1233241748115"/>
      <trkpt lat="57.4068640872549" lon="16.1234084599967"/>
      <trkpt lat="57.4069570238203" lon="16.123522893765"/>
      <trkpt lat="57.4070679585884" lon="16.1236242764529"/>
      <trkpt lat="57.4071629220295" lon="16.123678839606"/>
      <trkpt lat="57.4072472567601" lon="16.1236966418917"/>
      <trkpt lat="57.4073242866255" lon="16.1237442990312"/>
      <trkpt lat="57.407394249515" lon="16.1237618966877"/>
      <trkpt lat="57.4074498946784" lon="16.1237693173281"/>
      <trkpt lat="57.4075233868615" lon="16.1238036025949"/>
      <trkpt lat="57.4076868495088" lon="16.123792520721"/>
      <trkpt lat="57.4078051838928" lon="16.123840750799"/>
      <trkpt lat="57.4079487182049" lon="16.1238726763403"/>
      <trkpt lat="57.4081100514044" lon="16.1239447952852"/>
      <trkpt lat="57.4082479174205" lon="16.1240498652147"/>
      <trkpt lat="57.4083605447979" lon="16.124177911442"/>
      <trkpt lat="57.4084641572421" lon="16.1243157996059"/>
      <trkpt lat="57.4085426488917" lon="16.1244500345727"/>
      <trkpt lat="57.4086427631466" lon="16.1245645787521"/>
      <trkpt lat="57.4087235131658" lon="16.1245790104711"/>
      <trkpt lat="57.4088366082822" lon="16.124590541631"/>
      <trkpt lat="57.4089206407375" lon="16.1246849074448"/>
      <trkpt lat="57.4089378988058" lon="16.1248615661119"/>
      <trkpt lat="57.4089533264352" lon="16.1250515244035"/>
      <trkpt lat="57.4089742492185" lon="16.1252082690532"/>
      <trkpt lat="57.4090511182469" lon="16.1252991918266"/>
      <trkpt lat="57.4091424879524" lon="16.1253537176151"/>
      <trkpt lat="57.4092533090785" lon="16.125485070714"/>
      <trkpt lat="57.4092973696959" lon="16.1256987164322"/>
      <trkpt lat="57.4093090691687" lon="16.1259185774709"/>
      <trkpt lat="57.4093134929723" lon="16.1261649793658"/>
      <trkpt lat="57.4094516436096" lon="16.1263984611167"/>
      <trkpt lat="57.4096064705237" lon="16.1265333537211"/>
      <trkpt lat="57.4097490664379" lon="16.1265495115564"/>
      <trkpt lat="57.4098703329727" lon="16.1265834955472"/>
      <trkpt lat="57.4099821878895" lon="16.1266483913516"/>
      <trkpt lat="57.410113361545" lon="16.1268187457186"/>
      <trkpt lat="57.4101919300657" lon="16.1268751765127"/>
      <trkpt lat="57.4103144002218" lon="16.1268485844351"/>
      <trkpt lat="57.4103808991276" lon="16.1268124124659"/>
      <trkpt lat="57.4104473968328" lon="16.1267795559071"/>
      <trkpt lat="57.4105730537688" lon="16.1267936471752"/>
      <trkpt lat="57.4106358229687" lon="16.1268339554007"/>
      <trkpt lat="57.4107129461103" lon="16.1268843358958"/>
      <trkpt lat="57.4107954442844" lon="16.1269347501484"/>
      <trkpt lat="57.4108977513133" lon="16.1269553497634"/>
      <trkpt lat="57.4109585410157" lon="16.126925208363"/>
      <trkpt lat="57.410958857598" lon="16.1269260568081"/>
      <trkpt lat="57.4109755300423" lon="16.1269701375396"/>
      <trkpt lat="57.4110523669519" lon="16.1270361815209"/>
      <trkpt lat="57.4111508399593" lon="16.1271115697993"/>
      <trkpt lat="57.41128876217" lon="16.1272646233778"/>
      <trkpt lat="57.4113575678995" lon="16.1273153893157"/>
      <trkpt lat="57.4114173174427" lon="16.1273068510983"/>
      <trkpt lat="57.4115233273962" lon="16.1271876231889"/>
      <trkpt lat="57.4117084741006" lon="16.1268227875149"/>
      <trkpt lat="57.4118615560786" lon="16.1265752743182"/>
      <trkpt lat="57.4119103379183" lon="16.1264898011001"/>
      <trkpt lat="57.4119478570679" lon="16.1264605692293"/>
      <trkpt lat="57.4120355706379" lon="16.1264313725278"/>
      <trkpt lat="57.4121391013089" lon="16.126372405221"/>
      <trkpt lat="57.412239349437" lon="16.1262995420219"/>
      <trkpt lat="57.4123786601464" lon="16.1262628476664"/>
      <trkpt lat="57.4125247236802" lon="16.126231339901"/>
      <trkpt lat="57.4126152434264" lon="16.1261896419998"/>
      <trkpt lat="57.4127078916938" lon="16.1261341624618"/>
      <trkpt lat="57.4127817099201" lon="16.1260568519689"/>
      <trkpt lat="57.4128438582736" lon="16.1259993475187"/>
      <trkpt lat="57.4129110895797" lon="16.125988469083"/>
      <trkpt lat="57.4129712671989" lon="16.126013881906"/>
      <trkpt lat="57.4131000817742" lon="16.1261139277284"/>
      <trkpt lat="57.4131611064099" lon="16.1261167149405"/>
      <trkpt lat="57.4133621778795" lon="16.1260753083577"/>
      <trkpt lat="57.4135254129194" lon="16.1260140659249"/>
      <trkpt lat="57.413612048585" lon="16.1259471214143"/>
      <trkpt lat="57.413679919966" lon="16.1258495396009"/>
      <trkpt lat="57.4137430417734" lon="16.1258423300166"/>
      <trkpt lat="57.4137928383582" lon="16.1258963946333"/>
      <trkpt lat="57.413917643642" lon="16.1260805524655"/>
      <trkpt lat="57.4139488305246" lon="16.1261743532438"/>
      <trkpt lat="57.4140095666584" lon="16.1263078667519"/>
      <trkpt lat="57.4140575177783" lon="16.1263354832469"/>
      <trkpt lat="57.4141158468475" lon="16.1263357101376"/>
      <trkpt lat="57.4142178106162" lon="16.1263973461847"/>
      <trkpt lat="57.4143029750853" lon="16.1264961029322"/>
      <trkpt lat="57.4143080413636" lon="16.1264209419919"/>
      <trkpt lat="57.414652" lon="16.126145"/>
      <trkpt lat="57.4148539180159" lon="16.1262994283182"/>
      <trkpt lat="57.4150192454861" lon="16.1265384808926"/>
      <trkpt lat="57.4150711365453" lon="16.1266319555102"/>
      <trkpt lat="57.4150835499134" lon="16.1266417030338"/>
      <trkpt lat="57.415126718486" lon="16.1266755484891"/>
      <trkpt lat="57.4151984520915" lon="16.1267259012037"/>
      <trkpt lat="57.4152827201697" lon="16.1267896409892"/>
      <trkpt lat="57.4154207807493" lon="16.1268969859488"/>
      <trkpt lat="57.4154429396725" lon="16.1269684803674"/>
      <trkpt lat="57.4155583549352" lon="16.1269079214257"/>
      <trkpt lat="57.4156633848396" lon="16.1267836359438"/>
      <trkpt lat="57.4157849850526" lon="16.1266666635286"/>
      <trkpt lat="57.4159396921414" lon="16.1265662508041"/>
      <trkpt lat="57.416091965564" lon="16.1265198261809"/>
      <trkpt lat="57.4161966605859" lon="16.1264872705468"/>
      <trkpt lat="57.4162425358264" lon="16.1264280889924"/>
      <trkpt lat="57.4164331516775" lon="16.125965298064"/>
      <trkpt lat="57.4165634006053" lon="16.1255939956059"/>
      <trkpt lat="57.4166654392843" lon="16.1252772886812"/>
      <trkpt lat="57.4167552469164" lon="16.1251475728097"/>
      <trkpt lat="57.4168731424503" lon="16.1249795956121"/>
      <trkpt lat="57.4169712399806" lon="16.1247369463921"/>
      <trkpt lat="57.4170369331207" lon="16.1246581573552"/>
      <trkpt lat="57.4171589959499" lon="16.1245694655899"/>
      <trkpt lat="57.4172969648259" lon="16.124346693574"/>
      <trkpt lat="57.4173951583601" lon="16.1241832396482"/>
      <trkpt lat="57.4174661345781" lon="16.1240316592367"/>
      <trkpt lat="57.4175727112594" lon="16.123835745357"/>
      <trkpt lat="57.4176978587431" lon="16.1236955877969"/>
      <trkpt lat="57.4178256272277" lon="16.1235645413413"/>
      <trkpt lat="57.4179136939327" lon="16.1235184999235"/>
      <trkpt lat="57.4180395193083" lon="16.1234427372344"/>
      <trkpt lat="57.4181420698562" lon="16.1233235676652"/>
      <trkpt lat="57.4182680284694" lon="16.1231746190748"/>
      <trkpt lat="57.4183830661881" lon="16.1231021178616"/>
      <trkpt lat="57.4185178465522" lon="16.1230430383568"/>
      <trkpt lat="57.4186399999416" lon="16.1230071977108"/>
      <trkpt lat="57.4187243936873" lon="16.1230043818104"/>
      <trkpt lat="57.4188016265005" lon="16.1229915283012"/>
      <trkpt lat="57.4188985980326" lon="16.1229821480347"/>
      <trkpt lat="57.4190045437661" lon="16.122976148092"/>
      <trkpt lat="57.4191373251461" lon="16.123023535155"/>
      <trkpt lat="57.419284504783" lon="16.1230577143723"/>
      <trkpt lat="57.4193635089851" lon="16.1230548654296"/>
      <trkpt lat="57.4194300333884" lon="16.1230628245093"/>
      <trkpt lat="57.4194324393969" lon="16.1230768492003"/>
      <trkpt lat="57.4194410998631" lon="16.123127219939"/>
      <trkpt lat="57.4194929258362" lon="16.1231813202476"/>
      <trkpt lat="57.4195675657492" lon="16.123176916646"/>
      <trkpt lat="57.4196508337465" lon="16.1231061122138"/>
      <trkpt lat="57.4197282899667" lon="16.1230879569922"/>
      <trkpt lat="57.4199493203383" lon="16.1230080432421"/>
      <trkpt lat="57.4199934906517" lon="16.1229953335165"/>
      <trkpt lat="57.420093175745" lon="16.1230908800829"/>
      <trkpt lat="57.4202774686516" lon="16.1233029515372"/>
      <trkpt lat="57.4204585534774" lon="16.1234885597249"/>
      <trkpt lat="57.4205612202396" lon="16.1235477072328"/>
      <trkpt lat="57.4207193811526" lon="16.1235303444869"/>
      <trkpt lat="57.4209225526711" lon="16.1234801521774"/>
      <trkpt lat="57.4212199609422" lon="16.1233443296325"/>
      <trkpt lat="57.4213870020335" lon="16.123226592934"/>
      <trkpt lat="57.4214796389965" lon="16.1230799479856"/>
      <trkpt lat="57.4215901299998" lon="16.1229054738095"/>
      <trkpt lat="57.4217208458621" lon="16.1226994441059"/>
      <trkpt lat="57.4217856018363" lon="16.1226558130454"/>
      <trkpt lat="57.4218380970791" lon="16.1226194209088"/>
      <trkpt lat="57.4218597104317" lon="16.1225860118074"/>
      <trkpt lat="57.4219224332485" lon="16.1224952055352"/>
      <trkpt lat="57.4219830407281" lon="16.1224621458451"/>
      <trkpt lat="57.4220859964118" lon="16.1224351980436"/>
      <trkpt lat="57.4221242633488" lon="16.1224424430739"/>
      <trkpt lat="57.4221924643238" lon="16.12248378365"/>
      <trkpt lat="57.4222861481931" lon="16.1225200938946"/>
      <trkpt lat="57.4224605094546" lon="16.1226055604875"/>
      <trkpt lat="57.4225610203369" lon="16.122681031704"/>
      <trkpt lat="57.4226436261819" lon="16.122700717692"/>
      <trkpt lat="57.4227797445992" lon="16.1226827573596"/>
      <trkpt lat="57.4230059491314" lon="16.1225904047113"/>
      <trkpt lat="57.4231077007509" lon="16.1227780433807"/>
      <trkpt lat="57.4231735298065" lon="16.122964634131"/>
      <trkpt lat="57.4231865484419" lon="16.1230907163605"/>
      <trkpt lat="57.4231014295097" lon="16.1234135535792"/>
      <trkpt lat="57.4230654205002" lon="16.123559754058"/>
      <trkpt lat="57.4230117956725" lon="16.1238431690247"/>
      <trkpt lat="57.4229740746131" lon="16.1240389832969"/>
      <trkpt lat="57.4229220872223" lon="16.1241897976257"/>
      <trkpt lat="57.4228826512036" lon="16.1242956699841"/>
      <trkpt lat="57.4228605505716" lon="16.1244415865426"/>
      <trkpt lat="57.4228222236273" lon="16.1248108680498"/>
      <trkpt lat="57.4230161923336" lon="16.1251747705978"/>
      <trkpt lat="57.4231785752875" lon="16.1258535054961"/>
      <trkpt lat="57.4233863216494" lon="16.1262080999899"/>
      <trkpt lat="57.4237370604993" lon="16.1267131776783"/>
      <trkpt lat="57.4238133426339" lon="16.1272012367077"/>
      <trkpt lat="57.4239072589194" lon="16.1278578868439"/>
      <trkpt lat="57.4240722759305" lon="16.128015464217"/>
      <trkpt lat="57.4243799461018" lon="16.1282344944717"/>
      <trkpt lat="57.4245354629996" lon="16.1283930932762"/>
      <trkpt lat="57.4246794690554" lon="16.1286394012097"/>
      <trkpt lat="57.4247767708296" lon="16.1288719657316"/>
      <trkpt lat="57.4249089768817" lon="16.1290639218446"/>
      <trkpt lat="57.4250503314233" lon="16.1292108531386"/>
      <trkpt lat="57.4253323832834" lon="16.129500913009"/>
      <trkpt lat="57.4254756900372" lon="16.1298015036552"/>
      <trkpt lat="57.4255180572173" lon="16.1298903732008"/>
      <trkpt lat="57.4257042211297" lon="16.1301794809314"/>
      <trkpt lat="57.425935234805" lon="16.1305330089927"/>
      <trkpt lat="57.426028" lon="16.130673"/>
      <trkpt lat="57.4262420484613" lon="16.1309703201138"/>
      <trkpt lat="57.4264062671549" lon="16.1310708653702"/>
      <trkpt lat="57.4265339359076" lon="16.1311823298713"/>
      <trkpt lat="57.426637" lon="16.13138"/>
      <trkpt lat="57.4267391808094" lon="16.1315706058291"/>
      <trkpt lat="57.4268303747405" lon="16.1318042919394"/>
      <trkpt lat="57.4269199260658" lon="16.1319838579061"/>
      <trkpt lat="57.426967733358" lon="16.1320610042892"/>
      <trkpt lat="57.4271988870562" lon="16.1324441175292"/>
      <trkpt lat="57.4273701417197" lon="16.1326748147934"/>
      <trkpt lat="57.4276170426046" lon="16.1330382275383"/>
      <trkpt lat="57.4277335941945" lon="16.133236090505"/>
      <trkpt lat="57.4277690738245" lon="16.1333904043858"/>
      <trkpt lat="57.4278000536617" lon="16.1336036882477"/>
      <trkpt lat="57.4278156603084" lon="16.1336946253858"/>
      <trkpt lat="57.427983" lon="16.134016"/>
      <trkpt lat="57.428205" lon="16.134246"/>
      <trkpt lat="57.428382040926" lon="16.1345123625165"/>
      <trkpt lat="57.428619" lon="16.134935"/>
      <trkpt lat="57.428748" lon="16.135301"/>
      <trkpt lat="57.428809" lon="16.135774"/>
      <trkpt lat="57.428789" lon="16.136152"/>
      <trkpt lat="57.42888" lon="16.136455"/>
      <trkpt lat="57.428902" lon="16.136656"/>
      <trkpt lat="57.429045" lon="16.136914"/>
      <trkpt lat="57.42904" lon="16.13711"/>
      <trkpt lat="57.429101" lon="16.137293"/>
      <trkpt lat="57.429323" lon="16.137535"/>
      <trkpt lat="57.4294195210371" lon="16.1377796642303"/>
      <trkpt lat="57.42951" lon="16.138033"/>
      <trkpt lat="57.42952" lon="16.138491"/>
      <trkpt lat="57.4296238662642" lon="16.1389227304949"/>
      <trkpt lat="57.4297855206228" lon="16.1392859287969"/>
      <trkpt lat="57.4300569827175" lon="16.1400151865478"/>
      <trkpt lat="57.4302410639084" lon="16.1402085135888"/>
      <trkpt lat="57.4305768466777" lon="16.1405538097066"/>
      <trkpt lat="57.4306712108955" lon="16.1406094282114"/>
      <trkpt lat="57.4307951383443" lon="16.1406543649132"/>
      <trkpt lat="57.4309545140816" lon="16.1406968872872"/>
      <trkpt lat="57.43110804108" lon="16.1407174531216"/>
      <trkpt lat="57.4312704501268" lon="16.1407298862758"/>
      <trkpt lat="57.4314860570538" lon="16.1407291149306"/>
      <trkpt lat="57.4315378000219" lon="16.1407076830776"/>
      <trkpt lat="57.4317169540065" lon="16.1405313476908"/>
      <trkpt lat="57.4318221561266" lon="16.140398144755"/>
      <trkpt lat="57.431980621234" lon="16.1402270940349"/>
      <trkpt lat="57.4322841588969" lon="16.1399231987669"/>
      <trkpt lat="57.4324248521235" lon="16.1397711485274"/>
      <trkpt lat="57.4328587588411" lon="16.1393096220907"/>
      <trkpt lat="57.4329312840064" lon="16.1392473049299"/>
      <trkpt lat="57.4332980793211" lon="16.139034325094"/>
      <trkpt lat="57.4334711796072" lon="16.1389126805145"/>
      <trkpt lat="57.4336279637307" lon="16.1388182681473"/>
      <trkpt lat="57.4337329979338" lon="16.1387480290559"/>
      <trkpt lat="57.4339534248453" lon="16.1385994290829"/>
      <trkpt lat="57.4340304086492" lon="16.1385261964228"/>
      <trkpt lat="57.4341460249494" lon="16.1383629538226"/>
      <trkpt lat="57.4342111588738" lon="16.1383033038624"/>
      <trkpt lat="57.4342599696354" lon="16.1382736258742"/>
      <trkpt lat="57.4343205652253" lon="16.1382550072285"/>
      <trkpt lat="57.434400321987" lon="16.1382502529314"/>
      <trkpt lat="57.4344608382508" lon="16.1382617535833"/>
      <trkpt lat="57.4345272325057" lon="16.1382842602859"/>
      <trkpt lat="57.434584744859" lon="16.138314901252"/>
      <trkpt lat="57.4346585010132" lon="16.13834568942"/>
      <trkpt lat="57.4350245591365" lon="16.1384119839293"/>
      <trkpt lat="57.4351352835117" lon="16.1384239398523"/>
      <trkpt lat="57.4351855637906" lon="16.1383970128388"/>
      <trkpt lat="57.43522555759" lon="16.1383508248354"/>
      <trkpt lat="57.4352832935263" lon="16.1382965826262"/>
      <trkpt lat="57.4353586345721" lon="16.1382863117984"/>
      <trkpt lat="57.4354265271594" lon="16.1383006178747"/>
      <trkpt lat="57.4354736881056" lon="16.1383366424188"/>
      <trkpt lat="57.4355105481417" lon="16.1383588824013"/>
      <trkpt lat="57.4355828492061" lon="16.1383814434317"/>
      <trkpt lat="57.4356390146706" lon="16.1383627841772"/>
      <trkpt lat="57.4356804707395" lon="16.1383220853775"/>
      <trkpt lat="57.4357457416389" lon="16.1382104066053"/>
      <trkpt lat="57.4358184680638" lon="16.1380714119618"/>
      <trkpt lat="57.4358333216443" lon="16.1380386868245"/>
      <trkpt lat="57.4358629495189" lon="16.1380033570296"/>
      <trkpt lat="57.4359220827559" lon="16.1379792472993"/>
      <trkpt lat="57.4360461623922" lon="16.137966678238"/>
    </trkseg>
  </trk>
</gpx>
