<?xml version="1.0" encoding="UTF-8"?>
<gpx xmlns="http://www.topografix.com/GPX/1/1" xmlns:xsi="http://www.w3.org/2001/XMLSchema-instance" version="1.1" creator="GPX RubyGem 1.0.0 -- http://dougfales.github.io/gpx/" xsi:schemaLocation="http://www.topografix.com/GPX/1/1 http://www.topografix.com/GPX/1/1/gpx.xsd">
  <metadata>
    <name>Ostkustleden Etapp 7, Lilla Laxemar – Hällveberg by Naturkartan</name>
    <time>2026-04-30T16:43:07+00:00</time>
  </metadata>
  <trk>
    <name>Ostkustleden Etapp 7, Lilla Laxemar – Hällveberg by Naturkartan</name>
    <trkseg>
      <trkpt lat="57.41701328186738" lon="16.64038912388307"/>
      <trkpt lat="57.41702359231806" lon="16.64030640069049"/>
      <trkpt lat="57.41713318878323" lon="16.63984690048429"/>
      <trkpt lat="57.41719515427184" lon="16.6396569811757"/>
      <trkpt lat="57.41725219648237" lon="16.63949239702532"/>
      <trkpt lat="57.41726233657099" lon="16.63935971386559"/>
      <trkpt lat="57.41727006235368" lon="16.63908533882238"/>
      <trkpt lat="57.4173144115268" lon="16.63879137495786"/>
      <trkpt lat="57.41773440779909" lon="16.63861333215388"/>
      <trkpt lat="57.41766613115607" lon="16.63832648170964"/>
      <trkpt lat="57.4175685220597" lon="16.63824763485454"/>
      <trkpt lat="57.41749433897246" lon="16.63805550228213"/>
      <trkpt lat="57.41743389411693" lon="16.63786051366321"/>
      <trkpt lat="57.41734132280206" lon="16.6377178326417"/>
      <trkpt lat="57.41727704641707" lon="16.63753276021595"/>
      <trkpt lat="57.41724155487373" lon="16.63730597172335"/>
      <trkpt lat="57.41701355609146" lon="16.63685196281918"/>
      <trkpt lat="57.4169795085065" lon="16.63646317614584"/>
      <trkpt lat="57.41697734186752" lon="16.63617617978323"/>
      <trkpt lat="57.41689950769538" lon="16.63595849864248"/>
      <trkpt lat="57.41675509295652" lon="16.63569002169717"/>
      <trkpt lat="57.41661711282319" lon="16.63544526201912"/>
      <trkpt lat="57.41653026173427" lon="16.63521415526594"/>
      <trkpt lat="57.41648803735035" lon="16.63486402731107"/>
      <trkpt lat="57.41639384127561" lon="16.63448524267406"/>
      <trkpt lat="57.4162448431631" lon="16.63421236883585"/>
      <trkpt lat="57.41610567619668" lon="16.63386549878581"/>
      <trkpt lat="57.41592707521252" lon="16.63353697065176"/>
      <trkpt lat="57.41580370167409" lon="16.6333858142381"/>
      <trkpt lat="57.41555237235761" lon="16.63323029244444"/>
      <trkpt lat="57.41538875534994" lon="16.63319710267692"/>
      <trkpt lat="57.4151866784606" lon="16.63322655509597"/>
      <trkpt lat="57.41508040012724" lon="16.63317310887894"/>
      <trkpt lat="57.41500160484861" lon="16.63294350834227"/>
      <trkpt lat="57.41491285230143" lon="16.63244960088198"/>
      <trkpt lat="57.41494165658477" lon="16.6319771522183"/>
      <trkpt lat="57.41490525554173" lon="16.63172440888752"/>
      <trkpt lat="57.41478043669392" lon="16.63146589924062"/>
      <trkpt lat="57.41458120572807" lon="16.63123413197152"/>
      <trkpt lat="57.41459703562279" lon="16.63096028872422"/>
      <trkpt lat="57.41459138812465" lon="16.63038518949588"/>
      <trkpt lat="57.4146041289076" lon="16.63005533922507"/>
      <trkpt lat="57.41455117946802" lon="16.62977659856585"/>
      <trkpt lat="57.41441430665017" lon="16.62964817325431"/>
      <trkpt lat="57.41425991604504" lon="16.6295800504073"/>
      <trkpt lat="57.41409173580536" lon="16.6295692356432"/>
      <trkpt lat="57.4139983046401" lon="16.62951546715243"/>
      <trkpt lat="57.41390506852383" lon="16.62929924896326"/>
      <trkpt lat="57.41379347221422" lon="16.62885456494152"/>
      <trkpt lat="57.41371238910972" lon="16.62859351762862"/>
      <trkpt lat="57.41362636602361" lon="16.62842544616495"/>
      <trkpt lat="57.41363765101278" lon="16.62825376179978"/>
      <trkpt lat="57.41369626009455" lon="16.62793952651555"/>
      <trkpt lat="57.4136394668293" lon="16.62745468454031"/>
      <trkpt lat="57.41354196051668" lon="16.62746951799977"/>
      <trkpt lat="57.41341014402755" lon="16.62744068423413"/>
      <trkpt lat="57.4133241565774" lon="16.62715203535851"/>
      <trkpt lat="57.41323666668356" lon="16.6268815899999"/>
      <trkpt lat="57.41315027181903" lon="16.62667115376019"/>
      <trkpt lat="57.4130184" lon="16.6264761"/>
      <trkpt lat="57.41285275744559" lon="16.62637754760354"/>
      <trkpt lat="57.41264984563594" lon="16.62636651616509"/>
      <trkpt lat="57.41264117805312" lon="16.62634572904523"/>
      <trkpt lat="57.41257259218446" lon="16.62625174288087"/>
      <trkpt lat="57.41250758512791" lon="16.62619608704418"/>
      <trkpt lat="57.41243280628967" lon="16.62617327309195"/>
      <trkpt lat="57.41234418398813" lon="16.62617659724319"/>
      <trkpt lat="57.41229215637901" lon="16.62620544864222"/>
      <trkpt lat="57.41225903958133" lon="16.62645631439773"/>
      <trkpt lat="57.41220713066429" lon="16.62653499139375"/>
      <trkpt lat="57.4121181156643" lon="16.62654366702935"/>
      <trkpt lat="57.41207730518593" lon="16.62643369645915"/>
      <trkpt lat="57.4119678162867" lon="16.62626408052324"/>
      <trkpt lat="57.41188141791829" lon="16.62618554439362"/>
      <trkpt lat="57.41180851913731" lon="16.62613792142062"/>
      <trkpt lat="57.41173280655661" lon="16.6261181965466"/>
      <trkpt lat="57.4116517364817" lon="16.62616080719005"/>
      <trkpt lat="57.41152764223455" lon="16.62627189355189"/>
      <trkpt lat="57.41138471173269" lon="16.62635417974559"/>
      <trkpt lat="57.41123867674395" lon="16.62647937475234"/>
      <trkpt lat="57.41109887720839" lon="16.62654509283377"/>
      <trkpt lat="57.41099744771466" lon="16.62661809725995"/>
      <trkpt lat="57.41091846087298" lon="16.62672114826776"/>
      <trkpt lat="57.41083306950128" lon="16.62695103128274"/>
      <trkpt lat="57.41076583866698" lon="16.62709314312283"/>
      <trkpt lat="57.4106117083594" lon="16.62736158956349"/>
      <trkpt lat="57.41044876989972" lon="16.62762458531705"/>
      <trkpt lat="57.41012593041128" lon="16.62814866179977"/>
      <trkpt lat="57.41002591364895" lon="16.62793444331831"/>
      <trkpt lat="57.40971969385865" lon="16.62738273483461"/>
      <trkpt lat="57.40969468200959" lon="16.62727687163272"/>
      <trkpt lat="57.40969504318764" lon="16.62711929185338"/>
      <trkpt lat="57.40973366835641" lon="16.6268276792099"/>
      <trkpt lat="57.40973402953804" lon="16.62663925403024"/>
      <trkpt lat="57.40968246148745" lon="16.62649880717674"/>
      <trkpt lat="57.40959735406457" lon="16.62637901064414"/>
      <trkpt lat="57.40944214334232" lon="16.62629742910084"/>
      <trkpt lat="57.40931650319908" lon="16.62612699194486"/>
      <trkpt lat="57.40924288731534" lon="16.62610747000909"/>
      <trkpt lat="57.40914799812251" lon="16.62597988018234"/>
      <trkpt lat="57.40911570971602" lon="16.62587011130699"/>
      <trkpt lat="57.40909090412509" lon="16.62573618360764"/>
      <trkpt lat="57.40904643598449" lon="16.62545866313604"/>
      <trkpt lat="57.40905330253423" lon="16.62518843431636"/>
      <trkpt lat="57.40890421039995" lon="16.62493906503497"/>
      <trkpt lat="57.40880246935791" lon="16.62489064943941"/>
      <trkpt lat="57.40869615733078" lon="16.62471808944639"/>
      <trkpt lat="57.40861117002481" lon="16.62452879324383"/>
      <trkpt lat="57.40856385422899" lon="16.62435042634905"/>
      <trkpt lat="57.4085258366645" lon="16.62426803175987"/>
      <trkpt lat="57.40843568750989" lon="16.6242353550403"/>
      <trkpt lat="57.40833744518241" lon="16.62422593691861"/>
      <trkpt lat="57.40821577962956" lon="16.62431824947294"/>
      <trkpt lat="57.40807377462698" lon="16.62420131135246"/>
      <trkpt lat="57.40789043935615" lon="16.62413169659291"/>
      <trkpt lat="57.40772987189879" lon="16.62415713447203"/>
      <trkpt lat="57.40765344951453" lon="16.62412304074135"/>
      <trkpt lat="57.40751238350157" lon="16.62402215684375"/>
      <trkpt lat="57.40736385129026" lon="16.62361609273333"/>
      <trkpt lat="57.40727139977668" lon="16.62333178605525"/>
      <trkpt lat="57.40723653528636" lon="16.62312857730262"/>
      <trkpt lat="57.40720460606227" lon="16.62286822557382"/>
      <trkpt lat="57.40715931755781" lon="16.62258373971471"/>
      <trkpt lat="57.40713061241746" lon="16.62208360298277"/>
      <trkpt lat="57.40704353625941" lon="16.62187447337084"/>
      <trkpt lat="57.40699668868544" lon="16.62164783151556"/>
      <trkpt lat="57.40684684643671" lon="16.62147764233421"/>
      <trkpt lat="57.40680006567322" lon="16.62135300218071"/>
      <trkpt lat="57.40671000497181" lon="16.62115682676239"/>
      <trkpt lat="57.40656867164176" lon="16.62107140566133"/>
      <trkpt lat="57.40646738261248" lon="16.62087818398203"/>
      <trkpt lat="57.40643356506843" lon="16.62067572165932"/>
      <trkpt lat="57.40631502419237" lon="16.62024852500238"/>
      <trkpt lat="57.40623194709787" lon="16.62008712791814"/>
      <trkpt lat="57.40615144547175" lon="16.6198641218102"/>
      <trkpt lat="57.40601278501225" lon="16.61967457293292"/>
      <trkpt lat="57.40582518156182" lon="16.6196417912191"/>
      <trkpt lat="57.40568192125048" lon="16.61970444655182"/>
      <trkpt lat="57.40559414518688" lon="16.619843250868"/>
      <trkpt lat="57.40549372622033" lon="16.61985800301753"/>
      <trkpt lat="57.40543747953583" lon="16.61974336262409"/>
      <trkpt lat="57.40536283412217" lon="16.619699618954"/>
      <trkpt lat="57.4052138778417" lon="16.61971370054835"/>
      <trkpt lat="57.40508015838637" lon="16.61981136149927"/>
      <trkpt lat="57.40495842573822" lon="16.62006818301413"/>
      <trkpt lat="57.4048789175344" lon="16.62026130206712"/>
      <trkpt lat="57.40474218362283" lon="16.6203850993563"/>
      <trkpt lat="57.40462789504272" lon="16.62041500538794"/>
      <trkpt lat="57.40455263336116" lon="16.62037168831174"/>
      <trkpt lat="57.40449029817333" lon="16.62023336506303"/>
      <trkpt lat="57.40444793697884" lon="16.62011846853159"/>
      <trkpt lat="57.40437424596888" lon="16.62002861451845"/>
      <trkpt lat="57.40425323343959" lon="16.62003666114376"/>
      <trkpt lat="57.40410839837767" lon="16.62017940645831"/>
      <trkpt lat="57.40392296758895" lon="16.62023353003951"/>
      <trkpt lat="57.40373023001453" lon="16.62029719932835"/>
      <trkpt lat="57.40355578381383" lon="16.61999243813298"/>
      <trkpt lat="57.40334952875" lon="16.61957250888213"/>
      <trkpt lat="57.40310565563317" lon="16.61954166750641"/>
      <trkpt lat="57.4029859497291" lon="16.61967751660066"/>
      <trkpt lat="57.40288360981316" lon="16.61995149417433"/>
      <trkpt lat="57.4026092725594" lon="16.62037415441489"/>
      <trkpt lat="57.40206882215935" lon="16.62107179842502"/>
      <trkpt lat="57.40178857951415" lon="16.6212203111624"/>
      <trkpt lat="57.40160152328025" lon="16.62112868801017"/>
      <trkpt lat="57.40139687429939" lon="16.6208794274182"/>
      <trkpt lat="57.40117613065365" lon="16.62036510220216"/>
      <trkpt lat="57.40099740429096" lon="16.62025511573006"/>
      <trkpt lat="57.40077891527275" lon="16.62027032356434"/>
      <trkpt lat="57.40068326509675" lon="16.62034351874121"/>
      <trkpt lat="57.4005622691397" lon="16.62051311018993"/>
      <trkpt lat="57.400400605698" lon="16.62056172386266"/>
      <trkpt lat="57.40023489202898" lon="16.62051824315029"/>
      <trkpt lat="57.40008036326643" lon="16.62038181023789"/>
      <trkpt lat="57.39992741840999" lon="16.62019180052906"/>
      <trkpt lat="57.39905361468834" lon="16.62045761159862"/>
      <trkpt lat="57.39887157200968" lon="16.62060219802137"/>
      <trkpt lat="57.39885189166583" lon="16.62080461901343"/>
      <trkpt lat="57.39886044271603" lon="16.62114376285714"/>
      <trkpt lat="57.3988990344304" lon="16.62161291970145"/>
      <trkpt lat="57.39891157672906" lon="16.62184033542638"/>
      <trkpt lat="57.39896150780166" lon="16.62195716055294"/>
      <trkpt lat="57.39896764963197" lon="16.62217844279681"/>
      <trkpt lat="57.39893405019154" lon="16.62233401092263"/>
      <trkpt lat="57.39888339860642" lon="16.62246383485927"/>
      <trkpt lat="57.39872505836712" lon="16.62255232052863"/>
      <trkpt lat="57.39858457910856" lon="16.62266125751285"/>
      <trkpt lat="57.39845653491975" lon="16.62284906762864"/>
      <trkpt lat="57.39827856959374" lon="16.6230862577365"/>
      <trkpt lat="57.39811249216561" lon="16.62339784541157"/>
      <trkpt lat="57.39802728687769" lon="16.62372317688889"/>
      <trkpt lat="57.39798576730703" lon="16.62402973897704"/>
      <trkpt lat="57.39794063728576" lon="16.62438990755223"/>
      <trkpt lat="57.39784135104304" lon="16.62469311923681"/>
      <trkpt lat="57.39768971335388" lon="16.62498963012104"/>
      <trkpt lat="57.39742073543175" lon="16.62539335396627"/>
      <trkpt lat="57.39728994174732" lon="16.62569646815754"/>
      <trkpt lat="57.39725200040738" lon="16.62591777809911"/>
      <trkpt lat="57.39735010579147" lon="16.6263292133994"/>
      <trkpt lat="57.39739862709826" lon="16.62658698049347"/>
      <trkpt lat="57.39738138774283" lon="16.62677069538563"/>
      <trkpt lat="57.39731910355258" lon="16.62713296463772"/>
      <trkpt lat="57.39720695241482" lon="16.62762218488893"/>
      <trkpt lat="57.39706736828444" lon="16.62818571483706"/>
      <trkpt lat="57.39697060482291" lon="16.62853915243443"/>
      <trkpt lat="57.39699372826081" lon="16.62876445799193"/>
      <trkpt lat="57.39704756245922" lon="16.62894148378109"/>
      <trkpt lat="57.3971176602912" lon="16.62904963639099"/>
      <trkpt lat="57.39726507136444" lon="16.62913412596856"/>
      <trkpt lat="57.3973824939778" lon="16.6291663124729"/>
      <trkpt lat="57.39749196764507" lon="16.62923001493692"/>
      <trkpt lat="57.397520871529" lon="16.62933730329732"/>
      <trkpt lat="57.39750051059329" lon="16.62948412042641"/>
      <trkpt lat="57.39752496892069" lon="16.6296751954082"/>
      <trkpt lat="57.39755170498887" lon="16.62986160893522"/>
      <trkpt lat="57.39761818377957" lon="16.63009697277596"/>
      <trkpt lat="57.39763767728491" lon="16.63025458324449"/>
      <trkpt lat="57.39762394798677" lon="16.63043026793568"/>
      <trkpt lat="57.39759648937476" lon="16.6306595968064"/>
      <trkpt lat="57.39762087429779" lon="16.63093804477873"/>
      <trkpt lat="57.39767454809294" lon="16.63109577455589"/>
      <trkpt lat="57.39768899996554" lon="16.63123994329055"/>
      <trkpt lat="57.39768502570089" lon="16.63133784392065"/>
      <trkpt lat="57.39760087329677" lon="16.63151485164212"/>
      <trkpt lat="57.39745806877986" lon="16.6316928059247"/>
      <trkpt lat="57.397335338993" lon="16.63179009115117"/>
      <trkpt lat="57.39720477393928" lon="16.63178630489196"/>
      <trkpt lat="57.39699371684048" lon="16.63170035129559"/>
      <trkpt lat="57.39680345168478" lon="16.6315656572323"/>
      <trkpt lat="57.39660730100545" lon="16.63151105153062"/>
      <trkpt lat="57.39648372553827" lon="16.63155837647238"/>
      <trkpt lat="57.3962853" lon="16.6318212"/>
      <trkpt lat="57.39585410019467" lon="16.6322412297105"/>
      <trkpt lat="57.39576410997358" lon="16.63226426552674"/>
      <trkpt lat="57.39562757266475" lon="16.63221243494053"/>
      <trkpt lat="57.39540414688017" lon="16.63200511259132"/>
      <trkpt lat="57.39519229747418" lon="16.63192531504293"/>
      <trkpt lat="57.39486274924593" lon="16.63169597109672"/>
      <trkpt lat="57.39466475353754" lon="16.63127823786175"/>
      <trkpt lat="57.3943970439164" lon="16.63088246959103"/>
      <trkpt lat="57.39399218745936" lon="16.63088958643195"/>
      <trkpt lat="57.39352979806685" lon="16.63084351481086"/>
      <trkpt lat="57.39313877967243" lon="16.63085503270818"/>
      <trkpt lat="57.39302085266684" lon="16.63071681782088"/>
      <trkpt lat="57.39279703912732" lon="16.63022868928346"/>
      <trkpt lat="57.39269675569568" lon="16.63014893345857"/>
      <trkpt lat="57.39223831365732" lon="16.63003816148054"/>
      <trkpt lat="57.39211" lon="16.6296547"/>
      <trkpt lat="57.39201332429437" lon="16.62944324789677"/>
      <trkpt lat="57.39185029617261" lon="16.62915916849258"/>
      <trkpt lat="57.3915392043007" lon="16.62843621942363"/>
      <trkpt lat="57.39136038444258" lon="16.6282055344665"/>
      <trkpt lat="57.39112334824139" lon="16.62763798312869"/>
      <trkpt lat="57.39104744267593" lon="16.62720768795836"/>
      <trkpt lat="57.39092805190842" lon="16.62675130740755"/>
      <trkpt lat="57.39079778831191" lon="16.62644722575843"/>
      <trkpt lat="57.39017260976291" lon="16.62570222138783"/>
      <trkpt lat="57.3900379" lon="16.6253413"/>
      <trkpt lat="57.3898802" lon="16.6248924"/>
      <trkpt lat="57.3894279" lon="16.6250485"/>
      <trkpt lat="57.3888809" lon="16.6256536"/>
      <trkpt lat="57.38862011732138" lon="16.6258990114882"/>
      <trkpt lat="57.38829447705629" lon="16.62637865245992"/>
      <trkpt lat="57.38798226253945" lon="16.62632881963165"/>
      <trkpt lat="57.38759911542141" lon="16.62621218391968"/>
      <trkpt lat="57.38699376655944" lon="16.6264003932408"/>
      <trkpt lat="57.38714755883908" lon="16.6269832350097"/>
      <trkpt lat="57.38716391968168" lon="16.62740822379922"/>
      <trkpt lat="57.38711483713152" lon="16.62782714131924"/>
      <trkpt lat="57.3869545003418" lon="16.62820963123087"/>
      <trkpt lat="57.3867106" lon="16.6284778"/>
      <trkpt lat="57.38634729196463" lon="16.62873041728116"/>
      <trkpt lat="57.38604704964922" lon="16.62872561501425"/>
      <trkpt lat="57.3859383406182" lon="16.62869680141051"/>
      <trkpt lat="57.38581410133094" lon="16.62860555833333"/>
      <trkpt lat="57.38568727329167" lon="16.62855273339608"/>
      <trkpt lat="57.38554981097408" lon="16.62860723979878"/>
      <trkpt lat="57.38546724837789" lon="16.62858475437503"/>
      <trkpt lat="57.38543543521794" lon="16.62849762335767"/>
      <trkpt lat="57.3854778527585" lon="16.62827276912162"/>
      <trkpt lat="57.38537483864627" lon="16.62817158471515"/>
      <trkpt lat="57.38508502918" lon="16.62773241811101"/>
      <trkpt lat="57.38469843774081" lon="16.62755315280401"/>
      <trkpt lat="57.38461966059424" lon="16.62738451212491"/>
      <trkpt lat="57.38459239154281" lon="16.62717371127601"/>
      <trkpt lat="57.3846232" lon="16.6268744"/>
      <trkpt lat="57.38467116874762" lon="16.62672400280005"/>
      <trkpt lat="57.38477266989671" lon="16.62662843974792"/>
      <trkpt lat="57.38526542109233" lon="16.62667544703544"/>
      <trkpt lat="57.38540377195037" lon="16.62672339331417"/>
      <trkpt lat="57.38546381972282" lon="16.62689050681215"/>
      <trkpt lat="57.3855893738386" lon="16.62701204390092"/>
      <trkpt lat="57.3857006" lon="16.6269577"/>
      <trkpt lat="57.38589506901789" lon="16.62683986635787"/>
      <trkpt lat="57.38593601014313" lon="16.62605493932458"/>
      <trkpt lat="57.38572584521563" lon="16.62576628873774"/>
      <trkpt lat="57.3856093" lon="16.6251296"/>
      <trkpt lat="57.385479" lon="16.624928"/>
      <trkpt lat="57.3851639" lon="16.6249885"/>
      <trkpt lat="57.38522112277334" lon="16.62476817871695"/>
      <trkpt lat="57.38506393945488" lon="16.62415159784754"/>
      <trkpt lat="57.38524806841738" lon="16.62360167436938"/>
      <trkpt lat="57.38524357747809" lon="16.62330171610813"/>
      <trkpt lat="57.38510884904312" lon="16.62252682393427"/>
      <trkpt lat="57.3850721" lon="16.6218979"/>
      <trkpt lat="57.3849823" lon="16.6213565"/>
      <trkpt lat="57.3849038" lon="16.6210858"/>
      <trkpt lat="57.385016" lon="16.6205236"/>
      <trkpt lat="57.3849487" lon="16.6197115"/>
      <trkpt lat="57.3848701" lon="16.6187953"/>
      <trkpt lat="57.3849711" lon="16.6182956"/>
      <trkpt lat="57.3849374" lon="16.6179208"/>
      <trkpt lat="57.3847803" lon="16.6176084"/>
      <trkpt lat="57.384264" lon="16.6171712"/>
      <trkpt lat="57.3837478" lon="16.6169629"/>
      <trkpt lat="57.3836243" lon="16.6169629"/>
      <trkpt lat="57.3833998" lon="16.6166506"/>
      <trkpt lat="57.38348715470087" lon="16.61589618170083"/>
      <trkpt lat="57.3835233" lon="16.6145059"/>
      <trkpt lat="57.3837365" lon="16.6137979"/>
      <trkpt lat="57.3841712" lon="16.6133404"/>
      <trkpt lat="57.3841394" lon="16.612528"/>
      <trkpt lat="57.3839231" lon="16.6121742"/>
      <trkpt lat="57.3837577" lon="16.6115911"/>
      <trkpt lat="57.3836419" lon="16.6111307"/>
      <trkpt lat="57.3833552" lon="16.6107113"/>
      <trkpt lat="57.3832118" lon="16.6105681"/>
      <trkpt lat="57.3831398" lon="16.6101272"/>
      <trkpt lat="57.3829471" lon="16.6096781"/>
      <trkpt lat="57.3827155" lon="16.6093405"/>
      <trkpt lat="57.38256240909845" lon="16.60949022383494"/>
      <trkpt lat="57.38214261412122" lon="16.61031986190662"/>
      <trkpt lat="57.38211142823977" lon="16.6109128774612"/>
      <trkpt lat="57.38193990541888" lon="16.61130339989933"/>
      <trkpt lat="57.38144092537769" lon="16.61178070510098"/>
      <trkpt lat="57.38104329579602" lon="16.61198319821739"/>
      <trkpt lat="57.38062227153932" lon="16.61225801030375"/>
      <trkpt lat="57.38028030220309" lon="16.61272937684231"/>
      <trkpt lat="57.37983681539245" lon="16.6136108389195"/>
      <trkpt lat="57.37953904266729" lon="16.61317598429511"/>
      <trkpt lat="57.37924760319029" lon="16.61279989380969"/>
      <trkpt lat="57.3791272253394" lon="16.61225926373564"/>
      <trkpt lat="57.3791018825836" lon="16.61153058841882"/>
      <trkpt lat="57.37905753271843" lon="16.61033179999399"/>
      <trkpt lat="57.37895760914171" lon="16.60943768990481"/>
      <trkpt lat="57.37845743001981" lon="16.60761689676826"/>
      <trkpt lat="57.37800124940324" lon="16.60655914227681"/>
      <trkpt lat="57.37741834369072" lon="16.60583046696004"/>
      <trkpt lat="57.37692413376416" lon="16.60545437647468"/>
      <trkpt lat="57.37658832065881" lon="16.60537210666519"/>
      <trkpt lat="57.37635388326942" lon="16.60510179162816"/>
      <trkpt lat="57.37616379779948" lon="16.60467868983213"/>
      <trkpt lat="57.37597371134436" lon="16.60429084651838"/>
      <trkpt lat="57.37572659747991" lon="16.60365619382299"/>
      <trkpt lat="57.37550482720957" lon="16.60265720346911"/>
      <trkpt lat="57.37566578457128" lon="16.60231070703443"/>
      <trkpt lat="57.37584105512033" lon="16.60226426410196"/>
      <trkpt lat="57.37596562565324" lon="16.60219753899244"/>
      <trkpt lat="57.37603867893239" lon="16.60197985766953"/>
      <trkpt lat="57.37636835044336" lon="16.60157735226295"/>
      <trkpt lat="57.37644135416366" lon="16.60141574964385"/>
      <trkpt lat="57.37663331304293" lon="16.6013306042689"/>
      <trkpt lat="57.37683542871321" lon="16.60137614526641"/>
      <trkpt lat="57.3768763816729" lon="16.60108194877705"/>
      <trkpt lat="57.37691393847825" lon="16.60047819066634"/>
      <trkpt lat="57.37674137744446" lon="16.60027550279946"/>
      <trkpt lat="57.37674555044038" lon="16.59959433980285"/>
      <trkpt lat="57.3768151187468" lon="16.59919698827176"/>
      <trkpt lat="57.37693063037952" lon="16.59883720708314"/>
      <trkpt lat="57.37695566821714" lon="16.59858177095927"/>
      <trkpt lat="57.37684849845095" lon="16.59852107022675"/>
      <trkpt lat="57.37633110958171" lon="16.59847463310689"/>
      <trkpt lat="57.37623397296701" lon="16.5982383193508"/>
      <trkpt lat="57.37621728283779" lon="16.59793905791676"/>
      <trkpt lat="57.37615330393862" lon="16.59772751104046"/>
      <trkpt lat="57.37602256410207" lon="16.59749016576512"/>
      <trkpt lat="57.37588069694368" lon="16.59713930753276"/>
      <trkpt lat="57.37576086070581" lon="16.59693704849877"/>
      <trkpt lat="57.37578543140353" lon="16.5964421751454"/>
      <trkpt lat="57.37579099484628" lon="16.59603972011365"/>
      <trkpt lat="57.37598015139827" lon="16.59569918124046"/>
      <trkpt lat="57.37608099841384" lon="16.59534241535371"/>
      <trkpt lat="57.37617001267932" lon="16.59526502015507"/>
      <trkpt lat="57.37629518862482" lon="16.59522890239558"/>
      <trkpt lat="57.37641480079614" lon="16.59523922175481"/>
      <trkpt lat="57.37663455237251" lon="16.59508959103835"/>
      <trkpt lat="57.37676807167483" lon="16.59511538943744"/>
      <trkpt lat="57.37699847381856" lon="16.5950134179372"/>
      <trkpt lat="57.37703487794656" lon="16.59465558465988"/>
      <trkpt lat="57.37715170608712" lon="16.5943769619453"/>
      <trkpt lat="57.37719899356219" lon="16.59417573442946"/>
      <trkpt lat="57.37723398284476" lon="16.59388844687103"/>
      <trkpt lat="57.37732256918954" lon="16.59358386805042"/>
      <trkpt lat="57.37732168179608" lon="16.59318183553086"/>
      <trkpt lat="57.37723793613776" lon="16.59241628358808"/>
      <trkpt lat="57.37720177517124" lon="16.59221505607218"/>
      <trkpt lat="57.37720207258278" lon="16.59201058819386"/>
      <trkpt lat="57.37714644025769" lon="16.59185063811708"/>
      <trkpt lat="57.37714087702059" lon="16.59147398148559"/>
      <trkpt lat="57.37707120268718" lon="16.59130910458919"/>
      <trkpt lat="57.37685979864824" lon="16.59107175931382"/>
      <trkpt lat="57.37679025757956" lon="16.59109755771414"/>
      <trkpt lat="57.37656635871133" lon="16.59091871884826"/>
      <trkpt lat="57.37634938840512" lon="16.59064525581331"/>
      <trkpt lat="57.37619361406024" lon="16.59057817997507"/>
      <trkpt lat="57.37610181815441" lon="16.5905730202943"/>
      <trkpt lat="57.37599333178761" lon="16.59048014605693"/>
      <trkpt lat="57.37593491591869" lon="16.59046466701699"/>
      <trkpt lat="57.37584033764782" lon="16.59062977677334"/>
      <trkpt lat="57.37575547089915" lon="16.59071058172111"/>
      <trkpt lat="57.37567201908803" lon="16.59092728827693"/>
      <trkpt lat="57.37552878396534" lon="16.59078972686498"/>
      <trkpt lat="57.37551487525755" lon="16.59031503631425"/>
      <trkpt lat="57.37544254989137" lon="16.58997449744112"/>
      <trkpt lat="57.37548149433701" lon="16.58965459728745"/>
      <trkpt lat="57.37545089513304" lon="16.58942241169288"/>
      <trkpt lat="57.37548705782586" lon="16.58919022609703"/>
      <trkpt lat="57.37548983956987" lon="16.58883420818398"/>
      <trkpt lat="57.37554547440817" lon="16.58873101458627"/>
      <trkpt lat="57.37556772831971" lon="16.58849366931079"/>
      <trkpt lat="57.37550374828743" lon="16.58827180307537"/>
      <trkpt lat="57.37556494658136" lon="16.5880292981204"/>
      <trkpt lat="57.37559832742593" lon="16.58773519636597"/>
      <trkpt lat="57.37559832742593" lon="16.58727082517552"/>
      <trkpt lat="57.37569846977766" lon="16.58699736214177"/>
      <trkpt lat="57.37569846977766" lon="16.58686837014375"/>
      <trkpt lat="57.37572072359634" lon="16.58672905878646"/>
      <trkpt lat="57.37580695701658" lon="16.58664134422872"/>
      <trkpt lat="57.3759015353732" lon="16.58631112471474"/>
      <trkpt lat="57.37581530217167" lon="16.58601702299009"/>
      <trkpt lat="57.37587093651629" lon="16.58582095515379"/>
      <trkpt lat="57.37586259136989" lon="16.58567132443741"/>
      <trkpt lat="57.37589319023036" lon="16.58531014684471"/>
      <trkpt lat="57.37594604274705" lon="16.58515535644747"/>
      <trkpt lat="57.3759822049517" lon="16.58491801117208"/>
      <trkpt lat="57.37606287435645" lon="16.58461874973807"/>
      <trkpt lat="57.37619361404933" lon="16.58455167389985"/>
      <trkpt lat="57.37624924782006" lon="16.58439688350262"/>
      <trkpt lat="57.37626037456585" lon="16.58422661409023"/>
      <trkpt lat="57.37619361405146" lon="16.58403570593347"/>
      <trkpt lat="57.37614354358593" lon="16.58383447841757"/>
      <trkpt lat="57.37599889519007" lon="16.58359713314218"/>
      <trkpt lat="57.3759710781255" lon="16.5834320233858"/>
      <trkpt lat="57.37587371823329" lon="16.58314308131213"/>
      <trkpt lat="57.37583477420375" lon="16.58295733283504"/>
      <trkpt lat="57.37574019567501" lon="16.58280254243897"/>
      <trkpt lat="57.37563448997156" lon="16.58246716324544"/>
      <trkpt lat="57.3755927639524" lon="16.58224013733039"/>
      <trkpt lat="57.37559554568836" lon="16.58204406949409"/>
      <trkpt lat="57.37569012459045" lon="16.58193571621558"/>
      <trkpt lat="57.37577357636007" lon="16.58193055653598"/>
      <trkpt lat="57.37583477420375" lon="16.58186348069776"/>
      <trkpt lat="57.37597664154009" lon="16.58178608549917"/>
      <trkpt lat="57.37611294493428" lon="16.5818118838983"/>
      <trkpt lat="57.3762770646768" lon="16.58190475809545"/>
      <trkpt lat="57.37636886013973" lon="16.58171900968694"/>
      <trkpt lat="57.37645787370693" lon="16.58160549672886"/>
      <trkpt lat="57.37657470368586" lon="16.58151778217109"/>
      <trkpt lat="57.37688346683836" lon="16.5809966545016"/>
      <trkpt lat="57.37700029546124" lon="16.580831544744"/>
      <trkpt lat="57.37715606637985" lon="16.58068191402759"/>
      <trkpt lat="57.37723116997921" lon="16.58072835114626"/>
      <trkpt lat="57.3773563423029" lon="16.58096053674208"/>
      <trkpt lat="57.37742866389542" lon="16.58095021738171"/>
      <trkpt lat="57.37760051938804" lon="16.58074383020829"/>
      <trkpt lat="57.37798159440641" lon="16.58054776237202"/>
      <trkpt lat="57.37822966704675" lon="16.57996293832909"/>
      <trkpt lat="57.37838543274373" lon="16.5800867706464"/>
      <trkpt lat="57.37847722293387" lon="16.58001453512861"/>
      <trkpt lat="57.37858013893444" lon="16.58003001416739"/>
      <trkpt lat="57.37865194304052" lon="16.57998019758384"/>
      <trkpt lat="57.37856901289339" lon="16.57956564298746"/>
      <trkpt lat="57.37851894567083" lon="16.57904967499758"/>
      <trkpt lat="57.37853841626426" lon="16.57870397645158"/>
      <trkpt lat="57.37866358412725" lon="16.57819832781536"/>
      <trkpt lat="57.3788490599816" lon="16.57793946405329"/>
      <trkpt lat="57.37901038600208" lon="16.57777951397648"/>
      <trkpt lat="57.37917449277737" lon="16.57769179941755"/>
      <trkpt lat="57.37934416172234" lon="16.57757312678103"/>
      <trkpt lat="57.37949714124539" lon="16.57750605094159"/>
      <trkpt lat="57.37966775291613" lon="16.57735028573666"/>
      <trkpt lat="57.37973079065333" lon="16.57719895406962"/>
      <trkpt lat="57.37969556369589" lon="16.57703042561999"/>
      <trkpt lat="57.37947678499273" lon="16.576315039554"/>
      <trkpt lat="57.3795327398723" lon="16.57612243558862"/>
      <trkpt lat="57.37960690217801" lon="16.5756306076664"/>
      <trkpt lat="57.37955684263832" lon="16.57534858046773"/>
      <trkpt lat="57.37940666360919" lon="16.5749496151609"/>
      <trkpt lat="57.37926760840435" lon="16.57434772784396"/>
      <trkpt lat="57.37930654391474" lon="16.57395220189304"/>
      <trkpt lat="57.37926019211153" lon="16.57347069204013"/>
      <trkpt lat="57.37911527372461" lon="16.57319707609486"/>
      <trkpt lat="57.37900960671078" lon="16.57234228402109"/>
      <trkpt lat="57.37886469601389" lon="16.57183091759083"/>
      <trkpt lat="57.37873981517407" lon="16.57102656188712"/>
      <trkpt lat="57.37872593949893" lon="16.57060829692071"/>
      <trkpt lat="57.3791283319463" lon="16.56817592527096"/>
      <trkpt lat="57.37918383400682" lon="16.56760965885658"/>
      <trkpt lat="57.3792809624095" lon="16.56630338519355"/>
      <trkpt lat="57.37931218219884" lon="16.56580146723442"/>
      <trkpt lat="57.37942166988105" lon="16.56471272283926"/>
      <trkpt lat="57.37947370264868" lon="16.56392767167284"/>
      <trkpt lat="57.37946431787003" lon="16.56368239889571"/>
      <trkpt lat="57.37938453424243" lon="16.56339283084165"/>
      <trkpt lat="57.3791417134386" lon="16.56292952195304"/>
      <trkpt lat="57.37897173791868" lon="16.56265282359493"/>
      <trkpt lat="57.37879517402015" lon="16.56228918990925"/>
      <trkpt lat="57.37892893091359" lon="16.56221569696083"/>
      <trkpt lat="57.37909772920813" lon="16.56200980767218"/>
      <trkpt lat="57.3791681" lon="16.5619882"/>
      <trkpt lat="57.37922259320018" lon="16.56198836087157"/>
      <trkpt lat="57.37928964961304" lon="16.56203983319369"/>
      <trkpt lat="57.37942376207087" lon="16.56188970558713"/>
      <trkpt lat="57.37953" lon="16.5615902"/>
      <trkpt lat="57.37958330901128" lon="16.56145219084826"/>
      <trkpt lat="57.37966655061749" lon="16.56123343347778"/>
      <trkpt lat="57.37980066169698" lon="16.56092888890473"/>
      <trkpt lat="57.37977753913208" lon="16.56084310170115"/>
      <trkpt lat="57.37977985138912" lon="16.56059002945028"/>
      <trkpt lat="57.37994633352051" lon="16.5602726167964"/>
      <trkpt lat="57.38042294972726" lon="16.5597745355424"/>
      <trkpt lat="57.3805021274537" lon="16.55965966656834"/>
      <trkpt lat="57.38051735391943" lon="16.55959940743458"/>
      <trkpt lat="57.38052739115241" lon="16.55949555835952"/>
      <trkpt lat="57.38052231566562" lon="16.55937504009199"/>
      <trkpt lat="57.38045340271907" lon="16.55926233290458"/>
      <trkpt lat="57.38043005542764" lon="16.55912110055931"/>
      <trkpt lat="57.38039351181155" lon="16.55902882876086"/>
      <trkpt lat="57.38035897559229" lon="16.55881633467493"/>
      <trkpt lat="57.38041215662659" lon="16.55845602841978"/>
      <trkpt lat="57.38038441000967" lon="16.55828445401156"/>
      <trkpt lat="57.38038903444726" lon="16.55815577320666"/>
      <trkpt lat="57.38033962337084" lon="16.55793892757274"/>
      <trkpt lat="57.38022632432873" lon="16.55762151491894"/>
      <trkpt lat="57.38012689835034" lon="16.55772874892415"/>
      <trkpt lat="57.3798794883503" lon="16.55781024676787"/>
      <trkpt lat="57.37980344160164" lon="16.55789666405894"/>
      <trkpt lat="57.37966482347815" lon="16.55798760512087"/>
      <trkpt lat="57.37958294208855" lon="16.55797586523957"/>
      <trkpt lat="57.37948151363503" lon="16.55791628316547"/>
      <trkpt lat="57.37933687119605" lon="16.55776809221265"/>
      <trkpt lat="57.37916951297416" lon="16.55713777657914"/>
      <trkpt lat="57.3791454" lon="16.5569714"/>
      <trkpt lat="57.3790876" lon="16.5564135"/>
      <trkpt lat="57.37903353460837" lon="16.55628561585516"/>
      <trkpt lat="57.37902001062812" lon="16.55580268745919"/>
      <trkpt lat="57.37912725067588" lon="16.55577679655462"/>
      <trkpt lat="57.37952958577864" lon="16.55565449650641"/>
      <trkpt lat="57.37941220403471" lon="16.55498421790367"/>
      <trkpt lat="57.37940037067438" lon="16.55480233578132"/>
      <trkpt lat="57.37940206115456" lon="16.55461731775901"/>
      <trkpt lat="57.37939360875254" lon="16.55440407664881"/>
      <trkpt lat="57.3793597" lon="16.5542587"/>
      <trkpt lat="57.3792357" lon="16.5532324"/>
      <trkpt lat="57.37916032168178" lon="16.55267619648927"/>
      <trkpt lat="57.37914679775187" lon="16.55240337329533"/>
      <trkpt lat="57.37916032168533" lon="16.55214622960492"/>
      <trkpt lat="57.3792461" lon="16.5519462"/>
      <trkpt lat="57.37928659439774" lon="16.55178337693161"/>
      <trkpt lat="57.3792375702842" lon="16.55168616407272"/>
      <trkpt lat="57.37909556903293" lon="16.55105898433766"/>
      <trkpt lat="57.37907359259981" lon="16.55084260732897"/>
      <trkpt lat="57.37919868904609" lon="16.55027187376729"/>
      <trkpt lat="57.37926123710827" lon="16.55012448652971"/>
      <trkpt lat="57.37928321342889" lon="16.55000218648149"/>
      <trkpt lat="57.3792832134267" lon="16.54984852745065"/>
      <trkpt lat="57.37922911784645" lon="16.54983284795301"/>
      <trkpt lat="57.37913952186221" lon="16.54987361463625"/>
      <trkpt lat="57.37907359260197" lon="16.54985479924389"/>
      <trkpt lat="57.37904485416959" lon="16.54980148896669"/>
      <trkpt lat="57.37903640168986" lon="16.54966309127772"/>
      <trkpt lat="57.3790482351676" lon="16.54943730657214"/>
      <trkpt lat="57.37907528310222" lon="16.54916134748936"/>
      <trkpt lat="57.37903640168986" lon="16.54899200896097"/>
      <trkpt lat="57.37897385324578" lon="16.54885402942432"/>
      <trkpt lat="57.37891975720697" lon="16.54869723449124"/>
      <trkpt lat="57.37888932814863" lon="16.54839932411213"/>
      <trkpt lat="57.37877268319636" lon="16.54772196999835"/>
      <trkpt lat="57.37875070656972" lon="16.54720768261606"/>
      <trkpt lat="57.37880458408043" lon="16.54691515935946"/>
      <trkpt lat="57.37884346573856" lon="16.54662665668124"/>
      <trkpt lat="57.37893982445291" lon="16.54631306681367"/>
      <trkpt lat="57.3789905394637" lon="16.54607473851422"/>
      <trkpt lat="57.3790283927882" lon="16.54600481159869"/>
      <trkpt lat="57.37901148780958" lon="16.5457476679068"/>
      <trkpt lat="57.37895739182628" lon="16.54557519347989"/>
      <trkpt lat="57.37895683019019" lon="16.54552500877074"/>
      <trkpt lat="57.37884018545262" lon="16.54547797029198"/>
      <trkpt lat="57.37872184983254" lon="16.54550305748131"/>
      <trkpt lat="57.37876411259805" lon="16.5453054958636"/>
      <trkpt lat="57.37873537392272" lon="16.5447943443798"/>
      <trkpt lat="57.37888244808175" lon="16.543960195333"/>
      <trkpt lat="57.37907910767646" lon="16.54334556952378"/>
      <trkpt lat="57.37901229556712" lon="16.5423680433064"/>
      <trkpt lat="57.37904948650871" lon="16.54210776371605"/>
      <trkpt lat="57.37897677107867" lon="16.54192283478068"/>
      <trkpt lat="57.37889396050244" lon="16.54179103794999"/>
      <trkpt lat="57.37866067025669" lon="16.54163737891545"/>
      <trkpt lat="57.37863531253177" lon="16.54160601992913"/>
      <trkpt lat="57.37861840737199" lon="16.54141786600832"/>
      <trkpt lat="57.3787604104709" lon="16.54082204526105"/>
      <trkpt lat="57.37881788775945" lon="16.54044887331793"/>
      <trkpt lat="57.37878193571856" lon="16.54010194314804"/>
      <trkpt lat="57.37878869775321" lon="16.53948417110988"/>
      <trkpt lat="57.37883772246687" lon="16.53897929142306"/>
      <trkpt lat="57.37873967297358" lon="16.53869078874487"/>
      <trkpt lat="57.37866316947816" lon="16.5387818973345"/>
      <trkpt lat="57.37852475802626" lon="16.5388470732465"/>
      <trkpt lat="57.37846897080149" lon="16.53896937329472"/>
      <trkpt lat="57.37839120664978" lon="16.53920770159419"/>
      <trkpt lat="57.37834556239702" lon="16.53927982726378"/>
      <trkpt lat="57.37827963170943" lon="16.539320593947"/>
      <trkpt lat="57.37796926653371" lon="16.53943855315447"/>
      <trkpt lat="57.37766089178859" lon="16.53961850432063"/>
      <trkpt lat="57.37755398366187" lon="16.53970570452555"/>
      <trkpt lat="57.37751002893444" lon="16.53978096609356"/>
      <trkpt lat="57.37728349219699" lon="16.54017922522462"/>
      <trkpt lat="57.37723615598557" lon="16.54021999190786"/>
      <trkpt lat="57.37721079727567" lon="16.54004124568391"/>
      <trkpt lat="57.37709921874401" lon="16.53997539181137"/>
      <trkpt lat="57.37699440223835" lon="16.53995971231745"/>
      <trkpt lat="57.37693015971576" lon="16.53975587890423"/>
      <trkpt lat="57.37688282304734" lon="16.53948932751069"/>
      <trkpt lat="57.37686929827495" lon="16.5392008248387"/>
      <trkpt lat="57.37690818198402" lon="16.5388935067634"/>
      <trkpt lat="57.37699271164618" lon="16.5386363630715"/>
      <trkpt lat="57.37713641162475" lon="16.53841371426591"/>
      <trkpt lat="57.37723772914919" lon="16.53806884989865"/>
      <trkpt lat="57.3773006" lon="16.5377396"/>
      <trkpt lat="57.37734887351263" lon="16.53743126633626"/>
      <trkpt lat="57.37735710641562" lon="16.53720983012877"/>
      <trkpt lat="57.3774003291233" lon="16.53699221178758"/>
      <trkpt lat="57.37754028801805" lon="16.53615609921073"/>
      <trkpt lat="57.37750529834454" lon="16.53576667691522"/>
      <trkpt lat="57.37750118191042" lon="16.53553760497684"/>
      <trkpt lat="57.37743266110783" lon="16.53537234563549"/>
      <trkpt lat="57.37734415749131" lon="16.5351967238166"/>
      <trkpt lat="57.37692427695873" lon="16.53461640823861"/>
      <trkpt lat="57.37688401209277" lon="16.53444890063287"/>
      <trkpt lat="57.37688517019376" lon="16.5341544464948"/>
      <trkpt lat="57.3768253" lon="16.53369"/>
      <trkpt lat="57.37678933239209" lon="16.53348285200579"/>
      <trkpt lat="57.37678933239209" lon="16.53319651208182"/>
      <trkpt lat="57.37688607035574" lon="16.53278036472651"/>
      <trkpt lat="57.37698396615087" lon="16.5326273002367"/>
      <trkpt lat="57.37695613178843" lon="16.53239994547906"/>
      <trkpt lat="57.37685223814887" lon="16.53209279904641"/>
      <trkpt lat="57.37676677249308" lon="16.53131185377052"/>
      <trkpt lat="57.3767858436525" lon="16.53093485152181"/>
      <trkpt lat="57.37675908629592" lon="16.53069050812093"/>
      <trkpt lat="57.37671380457073" lon="16.53051106843571"/>
      <trkpt lat="57.37665974289317" lon="16.53042610894059"/>
      <trkpt lat="57.37642304170816" lon="16.53040701961262"/>
      <trkpt lat="57.3762856576889" lon="16.53005397896871"/>
      <trkpt lat="57.37617245181016" lon="16.52982490703042"/>
      <trkpt lat="57.37602013789311" lon="16.5297829105215"/>
      <trkpt lat="57.37582665714348" lon="16.52938203461542"/>
      <trkpt lat="57.37582665714348" lon="16.5290956946923"/>
      <trkpt lat="57.37597439916098" lon="16.52862639194356"/>
      <trkpt lat="57.37603300468888" lon="16.52820461582144"/>
      <trkpt lat="57.37606901801843" lon="16.52781172358479"/>
      <trkpt lat="57.37609653316031" lon="16.52713039100664"/>
      <trkpt lat="57.37613256678134" lon="16.52682586397361"/>
      <trkpt lat="57.37623015317985" lon="16.52646044940644"/>
      <trkpt lat="57.37632898953453" lon="16.52602753200586"/>
      <trkpt lat="57.37631688872301" lon="16.52562124537042"/>
      <trkpt lat="57.37631220032051" lon="16.52503423736525"/>
      <trkpt lat="57.37634632090339" lon="16.524789849558"/>
      <trkpt lat="57.3763029924657" lon="16.52464518537573"/>
      <trkpt lat="57.37593478195396" lon="16.52442114012061"/>
      <trkpt lat="57.37584101281311" lon="16.52427330106724"/>
      <trkpt lat="57.37569332593051" lon="16.5239471855092"/>
      <trkpt lat="57.37570947298246" lon="16.52363435814442"/>
      <trkpt lat="57.37564617844993" lon="16.52350826012798"/>
      <trkpt lat="57.37556908094928" lon="16.52343409703121"/>
      <trkpt lat="57.37551985168966" lon="16.52297318704143"/>
      <trkpt lat="57.37541878607641" lon="16.52293864496136"/>
      <trkpt lat="57.3750999655345" lon="16.52293429675416"/>
      <trkpt lat="57.37495930853223" lon="16.52284733260549"/>
      <trkpt lat="57.37490070128862" lon="16.5228560290208"/>
      <trkpt lat="57.37470612456832" lon="16.52235598516435"/>
      <trkpt lat="57.37461704090603" lon="16.52222553894077"/>
      <trkpt lat="57.37450254319648" lon="16.52221745705017"/>
      <trkpt lat="57.37430093137488" lon="16.52235659968915"/>
      <trkpt lat="57.37412745054829" lon="16.52236094789629"/>
      <trkpt lat="57.37408290804143" lon="16.52220876063583"/>
      <trkpt lat="57.37401961070188" lon="16.52211310007166"/>
      <trkpt lat="57.37388598262646" lon="16.52216093035372"/>
      <trkpt lat="57.37353432746994" lon="16.52220876063583"/>
      <trkpt lat="57.37350581539189" lon="16.52206784977153"/>
      <trkpt lat="57.3735151929138" lon="16.52188957326584"/>
      <trkpt lat="57.37350347101119" lon="16.52163302902684"/>
      <trkpt lat="57.37347064966369" lon="16.52139387761761"/>
      <trkpt lat="57.37340031810555" lon="16.5211851636596"/>
      <trkpt lat="57.37327840975217" lon="16.52103732460728"/>
      <trkpt lat="57.37288118919065" lon="16.52087439243596"/>
      <trkpt lat="57.37271004608061" lon="16.52089178526575"/>
      <trkpt lat="57.37264205750049" lon="16.52096135658473"/>
      <trkpt lat="57.37249435773634" lon="16.52118746337243"/>
      <trkpt lat="57.37240526870244" lon="16.52123529365451"/>
      <trkpt lat="57.37228859299353" lon="16.52118768563935"/>
      <trkpt lat="57.37219012560135" lon="16.52107028403836"/>
      <trkpt lat="57.37189941080626" lon="16.52096157885265"/>
      <trkpt lat="57.37169334254565" lon="16.52097027527"/>
      <trkpt lat="57.37099702044222" lon="16.52117464101977"/>
      <trkpt lat="57.37077806983012" lon="16.52113787003327"/>
      <trkpt lat="57.37054830270961" lon="16.52099003097987"/>
      <trkpt lat="57.37040528367297" lon="16.52095959352764"/>
      <trkpt lat="57.37023178442124" lon="16.52086393296349"/>
      <trkpt lat="57.370079385753" lon="16.52072479032552"/>
      <trkpt lat="57.36991995262233" lon="16.52053781740548"/>
      <trkpt lat="57.36972774124231" lon="16.5201817100918"/>
      <trkpt lat="57.3696339562326" lon="16.52008170132049"/>
      <trkpt lat="57.36946514261118" lon="16.51999908537894"/>
      <trkpt lat="57.36930570681099" lon="16.51987298736358"/>
      <trkpt lat="57.36914158099876" lon="16.51972514831021"/>
      <trkpt lat="57.36900293564995" lon="16.51957125493306"/>
      <trkpt lat="57.36886459994378" lon="16.51946254974638"/>
      <trkpt lat="57.36850117314543" lon="16.5193625409751"/>
      <trkpt lat="57.36831828603908" lon="16.51939732664002"/>
      <trkpt lat="57.3681822924722" lon="16.51935819277236"/>
      <trkpt lat="57.36810022714491" lon="16.51920600551179"/>
      <trkpt lat="57.36799236957827" lon="16.51889728278354"/>
      <trkpt lat="57.36778368773409" lon="16.51843202458662"/>
      <trkpt lat="57.36771803477373" lon="16.51836245326757"/>
      <trkpt lat="57.36766410546824" lon="16.51834940864603"/>
      <trkpt lat="57.3676101760835" lon="16.51825374808197"/>
      <trkpt lat="57.3675116961297" lon="16.51734497272335"/>
      <trkpt lat="57.36747417988835" lon="16.51704059820224"/>
      <trkpt lat="57.36739914729105" lon="16.51665795594781"/>
      <trkpt lat="57.36732411454003" lon="16.5162840101078"/>
      <trkpt lat="57.36722094425721" lon="16.51594484992722"/>
      <trkpt lat="57.36714617725116" lon="16.51556710442534"/>
      <trkpt lat="57.36706175424743" lon="16.51531596401395"/>
      <trkpt lat="57.36694918994078" lon="16.5148723913388"/>
      <trkpt lat="57.3668457771459" lon="16.51422295977932"/>
      <trkpt lat="57.36682232907413" lon="16.51390119242851"/>
      <trkpt lat="57.3668715700077" lon="16.51359246969923"/>
      <trkpt lat="57.36702398200202" lon="16.51331418442331"/>
      <trkpt lat="57.36712849350945" lon="16.51307708001133"/>
      <trkpt lat="57.36713800133759" lon="16.51264070166923"/>
      <trkpt lat="57.36712849350945" lon="16.51218228401609"/>
      <trkpt lat="57.36705480775927" lon="16.51165721116135"/>
      <trkpt lat="57.36685038844533" lon="16.51137564526164"/>
      <trkpt lat="57.36680522588577" lon="16.51097452981477"/>
      <trkpt lat="57.36695735218115" lon="16.51083347822956"/>
      <trkpt lat="57.36742823323888" lon="16.51011091560227"/>
      <trkpt lat="57.36779190293976" lon="16.50976269449987"/>
      <trkpt lat="57.36798680940021" lon="16.5094629598812"/>
      <trkpt lat="57.36805811638325" lon="16.50906625229717"/>
      <trkpt lat="57.36813417701219" lon="16.50873125478111"/>
      <trkpt lat="57.36803197050554" lon="16.50807007547479"/>
      <trkpt lat="57.36806762397052" lon="16.50776152513151"/>
      <trkpt lat="57.36804734227351" lon="16.50731071829796"/>
      <trkpt lat="57.36794164823925" lon="16.50703422789323"/>
      <trkpt lat="57.36784419501851" lon="16.5066595596191"/>
      <trkpt lat="57.36767543395089" lon="16.50631574637956"/>
      <trkpt lat="57.36759298980317" lon="16.50581763567706"/>
      <trkpt lat="57.3674408661434" lon="16.50552230892018"/>
      <trkpt lat="57.36735054242186" lon="16.50544737526477"/>
      <trkpt lat="57.367048" lon="16.5054501"/>
      <trkpt lat="57.36686468205858" lon="16.50532747214885"/>
      <trkpt lat="57.36666263867471" lon="16.5052437227699"/>
      <trkpt lat="57.3665319041277" lon="16.50513352621917"/>
      <trkpt lat="57.36637977606824" lon="16.50490431739209"/>
      <trkpt lat="57.36625854856936" lon="16.50465747711792"/>
      <trkpt lat="57.36626048738702" lon="16.50418779355033"/>
      <trkpt lat="57.36619868498158" lon="16.50395417686144"/>
      <trkpt lat="57.36614044800379" lon="16.50381092134796"/>
      <trkpt lat="57.36601921971385" lon="16.503766842727"/>
      <trkpt lat="57.36581642135525" lon="16.50379794401894"/>
      <trkpt lat="57.36549027289939" lon="16.50363183073677"/>
      <trkpt lat="57.36525586627343" lon="16.5033309080946"/>
      <trkpt lat="57.36510259959158" lon="16.50281265243567"/>
      <trkpt lat="57.36506653674996" lon="16.50261203733996"/>
      <trkpt lat="57.36499741620526" lon="16.50241699488677"/>
      <trkpt lat="57.3649643585091" lon="16.50221637978984"/>
      <trkpt lat="57.36459771658886" lon="16.50173713261921"/>
      <trkpt lat="57.36439035191353" lon="16.50136933827886"/>
      <trkpt lat="57.36435765910107" lon="16.50105727036643"/>
      <trkpt lat="57.36439936779351" lon="16.50075634771201"/>
      <trkpt lat="57.36443543129053" lon="16.49999289582405"/>
      <trkpt lat="57.36434827777853" lon="16.49925173450214"/>
      <trkpt lat="57.36433926188599" lon="16.49898424770831"/>
      <trkpt lat="57.36444442655306" lon="16.49820918443044"/>
      <trkpt lat="57.36462313291329" lon="16.49758409620688"/>
      <trkpt lat="57.3647084242784" lon="16.49663516709671"/>
      <trkpt lat="57.36501303467756" lon="16.49627367029353"/>
      <trkpt lat="57.36500897322244" lon="16.49592723585624"/>
      <trkpt lat="57.36489525228959" lon="16.49531720999948"/>
      <trkpt lat="57.36494805133799" lon="16.49470718414366"/>
      <trkpt lat="57.36475310062826" lon="16.49397665935254"/>
      <trkpt lat="57.36443895410389" lon="16.49404443999424"/>
      <trkpt lat="57.36399218432948" lon="16.49426284431328"/>
      <trkpt lat="57.36347636155068" lon="16.49475237123556"/>
      <trkpt lat="57.36334638931336" lon="16.49467705940069"/>
      <trkpt lat="57.36327734137478" lon="16.49402937762744"/>
      <trkpt lat="57.36339277383871" lon="16.49379427334679"/>
      <trkpt lat="57.36402467686011" lon="16.49351725715533"/>
      <trkpt lat="57.36502928049447" lon="16.49289216894118"/>
      <trkpt lat="57.36524047546021" lon="16.49263610870472"/>
      <trkpt lat="57.36525623308802" lon="16.49205193483269"/>
      <trkpt lat="57.36528060164915" lon="16.4918259993307"/>
      <trkpt lat="57.36541056703572" lon="16.49129881649179"/>
      <trkpt lat="57.36546336534212" lon="16.49079422720268"/>
      <trkpt lat="57.36544305831032" lon="16.48988295400994"/>
      <trkpt lat="57.36523592594156" lon="16.48983776690955"/>
      <trkpt lat="57.36488664125903" lon="16.48961183140665"/>
      <trkpt lat="57.36472012064709" lon="16.48937836472086"/>
      <trkpt lat="57.36437083105483" lon="16.48858759046254"/>
      <trkpt lat="57.36448049209895" lon="16.48827881194268"/>
      <trkpt lat="57.36529684734757" lon="16.48470149982194"/>
      <trkpt lat="57.3654859" lon="16.4840873"/>
      <trkpt lat="57.36571570733599" lon="16.48347130334585"/>
      <trkpt lat="57.36592689835064" lon="16.48298930760737"/>
      <trkpt lat="57.3663046023263" lon="16.48227384518307"/>
      <trkpt lat="57.36672697636016" lon="16.48111404293772"/>
      <trkpt lat="57.36689348786416" lon="16.48063204719918"/>
      <trkpt lat="57.36707624352306" lon="16.47995424069146"/>
      <trkpt lat="57.36710467209943" lon="16.47936680838538"/>
      <trkpt lat="57.36718589648146" lon="16.47937433956923"/>
      <trkpt lat="57.36735646709886" lon="16.47926890300164"/>
      <trkpt lat="57.3674853" lon="16.4792455"/>
      <trkpt lat="57.3674646" lon="16.4788185"/>
      <trkpt lat="57.3674415" lon="16.4784751"/>
      <trkpt lat="57.3673952" lon="16.478164"/>
      <trkpt lat="57.367372" lon="16.4779226"/>
      <trkpt lat="57.36734834470653" lon="16.4775442619999"/>
      <trkpt lat="57.36723463102439" lon="16.47716770282906"/>
      <trkpt lat="57.36731991631891" lon="16.4762187737189"/>
      <trkpt lat="57.36725087585759" lon="16.47600036939986"/>
      <trkpt lat="57.36688542414547" lon="16.47527231866664"/>
      <trkpt lat="57.36685293414766" lon="16.4750915702642"/>
      <trkpt lat="57.36674328019456" lon="16.4750539143476"/>
      <trkpt lat="57.36638994855923" lon="16.47491082186258"/>
      <trkpt lat="57.3662661" lon="16.4748284"/>
      <trkpt lat="57.36606506629894" lon="16.4745482635783"/>
      <trkpt lat="57.36600041192992" lon="16.4741885864949"/>
      <trkpt lat="57.36597270287973" lon="16.47302391784518"/>
      <trkpt lat="57.36600964827534" lon="16.47230456367944"/>
      <trkpt lat="57.3659332" lon="16.4717036"/>
      <trkpt lat="57.3658413110287" lon="16.47093810148951"/>
      <trkpt lat="57.36565196461413" lon="16.47056129692609"/>
      <trkpt lat="57.36522246790554" lon="16.46993614390195"/>
      <trkpt lat="57.36494413753161" lon="16.46922297215764"/>
      <trkpt lat="57.36480210656399" lon="16.46867696539272"/>
      <trkpt lat="57.3644210451537" lon="16.46754641020959"/>
      <trkpt lat="57.36425292642744" lon="16.46726518250975"/>
      <trkpt lat="57.36409498172486" lon="16.4670846454554"/>
      <trkpt lat="57.3635718" lon="16.4667462"/>
      <trkpt lat="57.36331791376804" lon="16.46656325992419"/>
      <trkpt lat="57.36284295566017" lon="16.46636948608244"/>
      <trkpt lat="57.36282656888585" lon="16.46563592222708"/>
      <trkpt lat="57.3630021410888" lon="16.46566630652799"/>
      <trkpt lat="57.36312855255491" lon="16.46574443758993"/>
      <trkpt lat="57.36352103263368" lon="16.46572051381605"/>
      <trkpt lat="57.36375592153533" lon="16.46503691742112"/>
      <trkpt lat="57.36377165397224" lon="16.46447854558323"/>
      <trkpt lat="57.3637316603558" lon="16.46403269611125"/>
      <trkpt lat="57.36350994591234" lon="16.462921411754"/>
      <trkpt lat="57.36349782086484" lon="16.46247818273395"/>
      <trkpt lat="57.36343546341573" lon="16.46203495371273"/>
      <trkpt lat="57.3630794265128" lon="16.46110586326361"/>
      <trkpt lat="57.36300261063599" lon="16.46069837549584"/>
      <trkpt lat="57.36298856313272" lon="16.46020348350049"/>
      <trkpt lat="57.36278136183469" lon="16.45922346711603"/>
      <trkpt lat="57.36251076956034" lon="16.45823351691863"/>
      <trkpt lat="57.36243381999216" lon="16.45674637086285"/>
      <trkpt lat="57.36249906972881" lon="16.45616440468865"/>
      <trkpt lat="57.3624959715788" lon="16.45540739065038"/>
      <trkpt lat="57.36239534514738" lon="16.45490801688325"/>
      <trkpt lat="57.36230655689047" lon="16.45444705648183"/>
      <trkpt lat="57.3622443" lon="16.4542086"/>
    </trkseg>
  </trk>
</gpx>
