{
  "type": "FeatureCollection",
  "features": [
    {
      "type": "Feature",
      "properties": {
        "trailId": "vikingaleden",
        "sectionId": "vikingaleden-etapp-3-havero-kyrka-haverodal",
        "candidateGeometry": true,
        "runtimeImportApproved": false,
        "sourceUrl": "https://www.naturkartan.se/sv/stockholms-lan/vikingleden-etapp-3-havero-kyrka-till-haverodal.gpx",
        "source": "candidate-normalized-geojson",
        "classification": null,
        "sourceComputedDistanceKm": 9.049,
        "lineCount": 1,
        "pointCount": 183,
        "componentSelectionApplied": false,
        "selectedComponentIndexes": null,
        "reverseApplied": false,
        "densifyApplied": false,
        "buildPolicyNotes": null,
        "lastUpdated": "2026-04-30",
        "id": "vikingaleden-etapp-3-havero-kyrka-haverodal",
        "trailSystemId": "vikingaleden",
        "name": "Vikingaleden, etapp 3, Häverö kyrka-Häverödal",
        "part": 1
      },
      "geometry": {
        "type": "LineString",
        "coordinates": [
          [
            18.680045,
            60.041252
          ],
          [
            18.67964,
            60.041553
          ],
          [
            18.679479,
            60.041609
          ],
          [
            18.679138,
            60.041646
          ],
          [
            18.679121,
            60.042196
          ],
          [
            18.678992,
            60.042601
          ],
          [
            18.678098,
            60.044541
          ],
          [
            18.676675,
            60.046028
          ],
          [
            18.676182,
            60.046448
          ],
          [
            18.672323,
            60.048667
          ],
          [
            18.671824,
            60.04907
          ],
          [
            18.671465,
            60.049598
          ],
          [
            18.671158,
            60.049914
          ],
          [
            18.670305,
            60.050309
          ],
          [
            18.669278,
            60.050889
          ],
          [
            18.669134,
            60.05101
          ],
          [
            18.669072,
            60.051199
          ],
          [
            18.669223,
            60.052042
          ],
          [
            18.668946,
            60.052569
          ],
          [
            18.668743,
            60.052821
          ],
          [
            18.668293,
            60.053322
          ],
          [
            18.66732,
            60.05418
          ],
          [
            18.66656,
            60.05469
          ],
          [
            18.665687,
            60.055047
          ],
          [
            18.665687,
            60.055047
          ],
          [
            18.665449,
            60.055223
          ],
          [
            18.665319,
            60.055389
          ],
          [
            18.665307,
            60.055674
          ],
          [
            18.664863,
            60.055852
          ],
          [
            18.664707,
            60.055897
          ],
          [
            18.664707,
            60.055897
          ],
          [
            18.659484,
            60.055251
          ],
          [
            18.659484,
            60.055251
          ],
          [
            18.659107,
            60.055281
          ],
          [
            18.658687,
            60.055365
          ],
          [
            18.658322,
            60.055557
          ],
          [
            18.657517,
            60.056021
          ],
          [
            18.657304,
            60.056184
          ],
          [
            18.657114,
            60.056427
          ],
          [
            18.656918,
            60.056506
          ],
          [
            18.656516,
            60.056613
          ],
          [
            18.656194,
            60.056615
          ],
          [
            18.655375,
            60.0567
          ],
          [
            18.654481,
            60.056941
          ],
          [
            18.654181,
            60.057104
          ],
          [
            18.653651,
            60.057154
          ],
          [
            18.65327,
            60.057304
          ],
          [
            18.65218,
            60.057639
          ],
          [
            18.65101,
            60.057907
          ],
          [
            18.650425,
            60.057846
          ],
          [
            18.649395,
            60.057804
          ],
          [
            18.64689,
            60.058296
          ],
          [
            18.646097,
            60.058613
          ],
          [
            18.645854,
            60.058785
          ],
          [
            18.645358,
            60.058928
          ],
          [
            18.645358,
            60.058928
          ],
          [
            18.645338,
            60.05917
          ],
          [
            18.642885,
            60.058933
          ],
          [
            18.642393,
            60.059055
          ],
          [
            18.641813,
            60.059082
          ],
          [
            18.63986,
            60.0589
          ],
          [
            18.638235,
            60.058952
          ],
          [
            18.637403,
            60.058865
          ],
          [
            18.635487,
            60.058933
          ],
          [
            18.634691,
            60.059082
          ],
          [
            18.634018,
            60.05926
          ],
          [
            18.633165,
            60.059296
          ],
          [
            18.63277,
            60.059425
          ],
          [
            18.63277,
            60.059425
          ],
          [
            18.631985,
            60.059519
          ],
          [
            18.631878,
            60.059476
          ],
          [
            18.631503,
            60.059452
          ],
          [
            18.629699,
            60.059502
          ],
          [
            18.628417,
            60.059577
          ],
          [
            18.627624,
            60.059597
          ],
          [
            18.627624,
            60.059597
          ],
          [
            18.627421,
            60.059575
          ],
          [
            18.625482,
            60.058956
          ],
          [
            18.624933,
            60.058847
          ],
          [
            18.625285,
            60.058496
          ],
          [
            18.625223,
            60.058239
          ],
          [
            18.624891,
            60.058038
          ],
          [
            18.624891,
            60.058038
          ],
          [
            18.624616,
            60.057663
          ],
          [
            18.6247,
            60.057418
          ],
          [
            18.625118,
            60.05717
          ],
          [
            18.625199,
            60.056994
          ],
          [
            18.625187,
            60.05668
          ],
          [
            18.625615,
            60.056243
          ],
          [
            18.625981,
            60.055749
          ],
          [
            18.626467,
            60.055409
          ],
          [
            18.626507,
            60.055258
          ],
          [
            18.626407,
            60.055109
          ],
          [
            18.625866,
            60.054802
          ],
          [
            18.625408,
            60.054451
          ],
          [
            18.625329,
            60.054148
          ],
          [
            18.625407,
            60.053606
          ],
          [
            18.626115,
            60.053058
          ],
          [
            18.626639,
            60.052425
          ],
          [
            18.627476,
            60.051822
          ],
          [
            18.627821,
            60.051121
          ],
          [
            18.6282,
            60.050791
          ],
          [
            18.6282,
            60.050791
          ],
          [
            18.628357,
            60.050556
          ],
          [
            18.628419,
            60.050313
          ],
          [
            18.62839,
            60.050064
          ],
          [
            18.62821,
            60.049806
          ],
          [
            18.628246,
            60.049634
          ],
          [
            18.627632,
            60.04917
          ],
          [
            18.627249,
            60.048653
          ],
          [
            18.626812,
            60.048325
          ],
          [
            18.626163,
            60.047924
          ],
          [
            18.625446,
            60.04763
          ],
          [
            18.625173,
            60.047414
          ],
          [
            18.625359,
            60.047077
          ],
          [
            18.625235,
            60.046739
          ],
          [
            18.625435,
            60.046276
          ],
          [
            18.625435,
            60.046276
          ],
          [
            18.625483,
            60.045951
          ],
          [
            18.625652,
            60.04573
          ],
          [
            18.6259,
            60.045544
          ],
          [
            18.625772,
            60.04486
          ],
          [
            18.625772,
            60.04486
          ],
          [
            18.624582,
            60.04452
          ],
          [
            18.62355,
            60.04442
          ],
          [
            18.623144,
            60.044083
          ],
          [
            18.622623,
            60.044014
          ],
          [
            18.622473,
            60.04364
          ],
          [
            18.622095,
            60.043097
          ],
          [
            18.621113,
            60.042656
          ],
          [
            18.619421,
            60.042656
          ],
          [
            18.618658,
            60.042213
          ],
          [
            18.618088,
            60.041203
          ],
          [
            18.617167,
            60.041092
          ],
          [
            18.61697,
            60.040512
          ],
          [
            18.615917,
            60.03997
          ],
          [
            18.616009,
            60.039677
          ],
          [
            18.616009,
            60.039677
          ],
          [
            18.616189,
            60.039398
          ],
          [
            18.61658,
            60.039288
          ],
          [
            18.617025,
            60.03901
          ],
          [
            18.617216,
            60.03875
          ],
          [
            18.617216,
            60.03875
          ],
          [
            18.61715,
            60.038403
          ],
          [
            18.616013,
            60.03819
          ],
          [
            18.614069,
            60.037193
          ],
          [
            18.613531,
            60.03705
          ],
          [
            18.612865,
            60.037197
          ],
          [
            18.612682,
            60.036755
          ],
          [
            18.612358,
            60.036312
          ],
          [
            18.611855,
            60.036312
          ],
          [
            18.611013,
            60.03625
          ],
          [
            18.610842,
            60.035957
          ],
          [
            18.610134,
            60.035423
          ],
          [
            18.609518,
            60.035122
          ],
          [
            18.609518,
            60.035122
          ],
          [
            18.609888,
            60.034454
          ],
          [
            18.609427,
            60.034287
          ],
          [
            18.610256,
            60.033403
          ],
          [
            18.610579,
            60.033139
          ],
          [
            18.611345,
            60.03286
          ],
          [
            18.611285,
            60.032813
          ],
          [
            18.611267,
            60.031719
          ],
          [
            18.611606,
            60.030922
          ],
          [
            18.610459,
            60.03082
          ],
          [
            18.610459,
            60.03082
          ],
          [
            18.610033,
            60.030694
          ],
          [
            18.60984,
            60.030591
          ],
          [
            18.609605,
            60.030445
          ],
          [
            18.609354,
            60.030178
          ],
          [
            18.608959,
            60.029461
          ],
          [
            18.608238,
            60.029469
          ],
          [
            18.607138,
            60.029291
          ],
          [
            18.606763,
            60.028682
          ],
          [
            18.606677,
            60.028221
          ],
          [
            18.606763,
            60.027717
          ],
          [
            18.60672,
            60.02731
          ],
          [
            18.606141,
            60.027245
          ],
          [
            18.605969,
            60.026709
          ],
          [
            18.605583,
            60.026527
          ],
          [
            18.605187,
            60.026458
          ],
          [
            18.605047,
            60.02621
          ],
          [
            18.605296,
            60.026234
          ]
        ]
      }
    }
  ]
}
