{
  "type": "FeatureCollection",
  "features": [
    {
      "type": "Feature",
      "properties": {
        "trailId": "sjuharadsleden",
        "sectionId": "sjuharadsleden-etapp-6-karlsaflogarna-blackered",
        "candidateGeometry": true,
        "runtimeImportApproved": false,
        "sourceUrl": "https://www.naturkartan.se/sv/vastra-gotalands-lan/sjuharadsleden-etapp-6.gpx",
        "source": null,
        "classification": "B- / planning-grade until normalized",
        "sourceComputedDistanceKm": null,
        "lineCount": 8,
        "pointCount": 512,
        "reverseApplied": false,
        "densifyApplied": false,
        "buildPolicyNotes": "Section 7 is densified where official GPX sampling leaves simplified chords; section 6 still needs the separate Rölle cleanup decision before runtime import.",
        "lastUpdated": "2026-04-30"
      },
      "geometry": {
        "type": "MultiLineString",
        "coordinates": [
          [
            [
              13.106531,
              57.743822
            ],
            [
              13.106756,
              57.743804
            ],
            [
              13.1071,
              57.743817
            ],
            [
              13.107335,
              57.743862
            ],
            [
              13.10761,
              57.743911
            ],
            [
              13.107975,
              57.743955
            ],
            [
              13.108184,
              57.743989
            ],
            [
              13.10835,
              57.74389
            ],
            [
              13.108545,
              57.743842
            ],
            [
              13.108628,
              57.743766
            ],
            [
              13.108721,
              57.743675
            ],
            [
              13.108771,
              57.743584
            ],
            [
              13.108892,
              57.743419
            ],
            [
              13.109117,
              57.743321
            ],
            [
              13.109495,
              57.743085
            ],
            [
              13.109813,
              57.742887
            ],
            [
              13.11013,
              57.742695
            ],
            [
              13.110371,
              57.74254
            ],
            [
              13.110609,
              57.742372
            ],
            [
              13.110791,
              57.742269
            ],
            [
              13.110934,
              57.742156
            ],
            [
              13.111104,
              57.742028
            ],
            [
              13.111174,
              57.741869
            ],
            [
              13.111271,
              57.741696
            ],
            [
              13.111262,
              57.741583
            ],
            [
              13.111198,
              57.74143
            ],
            [
              13.111196,
              57.741344
            ],
            [
              13.111304,
              57.741284
            ],
            [
              13.111506,
              57.741161
            ],
            [
              13.111777,
              57.740932
            ],
            [
              13.111872,
              57.740639
            ],
            [
              13.112579,
              57.740621
            ],
            [
              13.113512,
              57.74058
            ],
            [
              13.113968,
              57.740692
            ],
            [
              13.11432,
              57.740824
            ],
            [
              13.114988,
              57.740858
            ],
            [
              13.115545,
              57.741037
            ],
            [
              13.116159,
              57.741379
            ],
            [
              13.116307,
              57.741394
            ],
            [
              13.115578,
              57.740718
            ],
            [
              13.114253,
              57.739489
            ],
            [
              13.112384,
              57.737724
            ],
            [
              13.110231,
              57.735707
            ],
            [
              13.113794,
              57.734775
            ],
            [
              13.115664,
              57.73428
            ],
            [
              13.116343,
              57.734114
            ],
            [
              13.118044,
              57.733649
            ],
            [
              13.119297,
              57.733346
            ],
            [
              13.119426,
              57.733318
            ],
            [
              13.119731,
              57.732927
            ],
            [
              13.120077,
              57.732653
            ],
            [
              13.120526,
              57.732446
            ],
            [
              13.121062,
              57.732379
            ],
            [
              13.121373,
              57.732382
            ],
            [
              13.12229,
              57.732609
            ],
            [
              13.122954,
              57.732843
            ],
            [
              13.12341,
              57.733097
            ],
            [
              13.123917,
              57.73327
            ],
            [
              13.124438,
              57.733288
            ],
            [
              13.125159,
              57.733227
            ],
            [
              13.125662,
              57.733101
            ],
            [
              13.125869,
              57.733025
            ],
            [
              13.126513,
              57.732687
            ],
            [
              13.127306,
              57.732453
            ],
            [
              13.128281,
              57.732108
            ],
            [
              13.129297,
              57.73169
            ],
            [
              13.130647,
              57.731186
            ],
            [
              13.131196,
              57.731008
            ],
            [
              13.132169,
              57.730819
            ],
            [
              13.132697,
              57.730751
            ],
            [
              13.133351,
              57.730583
            ],
            [
              13.134375,
              57.730195
            ],
            [
              13.134875,
              57.73005
            ],
            [
              13.135939,
              57.729917
            ],
            [
              13.137633,
              57.72928
            ],
            [
              13.138331,
              57.729036
            ],
            [
              13.138674,
              57.728915
            ],
            [
              13.139427,
              57.728591
            ],
            [
              13.140345,
              57.728254
            ],
            [
              13.141122,
              57.727907
            ],
            [
              13.143215,
              57.727127
            ],
            [
              13.145226,
              57.726334
            ],
            [
              13.146086,
              57.725968
            ],
            [
              13.146544,
              57.725852
            ],
            [
              13.147619,
              57.725285
            ],
            [
              13.148094,
              57.725283
            ],
            [
              13.148394,
              57.725211
            ],
            [
              13.148461,
              57.725154
            ],
            [
              13.148348,
              57.725
            ],
            [
              13.148472,
              57.724867
            ],
            [
              13.148506,
              57.724742
            ],
            [
              13.148384,
              57.724457
            ],
            [
              13.148966,
              57.724547
            ],
            [
              13.149483,
              57.724502
            ],
            [
              13.150324,
              57.724361
            ],
            [
              13.150803,
              57.724178
            ],
            [
              13.151548,
              57.723836
            ],
            [
              13.152092,
              57.72361
            ],
            [
              13.152316,
              57.723426
            ],
            [
              13.152397,
              57.723219
            ],
            [
              13.152504,
              57.722834
            ],
            [
              13.152963,
              57.722126
            ],
            [
              13.154452,
              57.722115
            ],
            [
              13.155739,
              57.722156
            ],
            [
              13.156863,
              57.722435
            ],
            [
              13.157749,
              57.722627
            ],
            [
              13.158773,
              57.722698
            ],
            [
              13.159762,
              57.722796
            ],
            [
              13.160801,
              57.722897
            ],
            [
              13.161626,
              57.722797
            ],
            [
              13.162912,
              57.722763
            ],
            [
              13.163335,
              57.722746
            ],
            [
              13.164657,
              57.722538
            ],
            [
              13.165193,
              57.722546
            ],
            [
              13.165557,
              57.722565
            ],
            [
              13.165782,
              57.722532
            ],
            [
              13.16617,
              57.722271
            ],
            [
              13.166549,
              57.722168
            ],
            [
              13.167164,
              57.722178
            ],
            [
              13.168103,
              57.722156
            ],
            [
              13.168437,
              57.722107
            ],
            [
              13.16923,
              57.722029
            ],
            [
              13.169903,
              57.721974
            ],
            [
              13.170631,
              57.721796
            ],
            [
              13.171735,
              57.72137
            ],
            [
              13.172144,
              57.720984
            ],
            [
              13.172583,
              57.720711
            ],
            [
              13.173684,
              57.720321
            ],
            [
              13.174038,
              57.720114
            ],
            [
              13.174601,
              57.720025
            ],
            [
              13.175446,
              57.720083
            ],
            [
              13.176166,
              57.719999
            ],
            [
              13.176708,
              57.719716
            ],
            [
              13.176929,
              57.719533
            ],
            [
              13.177047,
              57.719288
            ],
            [
              13.176993,
              57.718646
            ],
            [
              13.177195,
              57.718094
            ],
            [
              13.177632,
              57.717709
            ],
            [
              13.178284,
              57.71736
            ],
            [
              13.179107,
              57.716996
            ],
            [
              13.17985,
              57.716652
            ],
            [
              13.180172,
              57.716365
            ],
            [
              13.180538,
              57.716127
            ],
            [
              13.179931,
              57.715604
            ],
            [
              13.179913,
              57.715375
            ],
            [
              13.179707,
              57.714981
            ],
            [
              13.179484,
              57.71465
            ],
            [
              13.179269,
              57.714445
            ],
            [
              13.179298,
              57.714203
            ],
            [
              13.179021,
              57.713872
            ],
            [
              13.178732,
              57.713256
            ],
            [
              13.178684,
              57.713152
            ],
            [
              13.178882,
              57.71314
            ],
            [
              13.179668,
              57.713148
            ],
            [
              13.180069,
              57.713088
            ],
            [
              13.181137,
              57.713136
            ],
            [
              13.181659,
              57.713181
            ],
            [
              13.182182,
              57.713304
            ],
            [
              13.182564,
              57.713455
            ],
            [
              13.182951,
              57.713545
            ],
            [
              13.183434,
              57.713426
            ],
            [
              13.183809,
              57.713446
            ],
            [
              13.184352,
              57.71346
            ],
            [
              13.184533,
              57.713362
            ],
            [
              13.184646,
              57.713255
            ],
            [
              13.185306,
              57.712885
            ],
            [
              13.185973,
              57.713045
            ],
            [
              13.186227,
              57.713065
            ],
            [
              13.186807,
              57.712946
            ],
            [
              13.187144,
              57.713003
            ],
            [
              13.187737,
              57.713207
            ],
            [
              13.188037,
              57.71341
            ],
            [
              13.188259,
              57.713484
            ],
            [
              13.189265,
              57.712861
            ],
            [
              13.189705,
              57.712773
            ],
            [
              13.190589,
              57.712758
            ],
            [
              13.191285,
              57.712413
            ],
            [
              13.192827,
              57.711696
            ],
            [
              13.194013,
              57.710893
            ],
            [
              13.194749,
              57.710272
            ],
            [
              13.195765,
              57.709627
            ],
            [
              13.195926,
              57.7094
            ],
            [
              13.196349,
              57.708171
            ],
            [
              13.196494,
              57.7078
            ],
            [
              13.196978,
              57.707745
            ],
            [
              13.197312,
              57.707717
            ],
            [
              13.19774,
              57.70759
            ],
            [
              13.197913,
              57.707452
            ],
            [
              13.198081,
              57.707532
            ],
            [
              13.198299,
              57.707768
            ],
            [
              13.198409,
              57.70804
            ],
            [
              13.198627,
              57.708362
            ],
            [
              13.198804,
              57.708427
            ],
            [
              13.199135,
              57.708466
            ],
            [
              13.199732,
              57.708625
            ],
            [
              13.200566,
              57.708674
            ],
            [
              13.201066,
              57.708732
            ],
            [
              13.201416,
              57.708864
            ],
            [
              13.201988,
              57.70891
            ],
            [
              13.203056,
              57.709635
            ],
            [
              13.203407,
              57.709825
            ],
            [
              13.203528,
              57.709821
            ],
            [
              13.203797,
              57.710614
            ],
            [
              13.204486,
              57.712465
            ],
            [
              13.205074,
              57.714044
            ],
            [
              13.205235,
              57.714461
            ],
            [
              13.206055,
              57.714353
            ],
            [
              13.206332,
              57.714369
            ],
            [
              13.206529,
              57.714315
            ],
            [
              13.206853,
              57.714235
            ],
            [
              13.20727,
              57.714221
            ],
            [
              13.207572,
              57.714142
            ],
            [
              13.208049,
              57.713903
            ],
            [
              13.208498,
              57.713847
            ]
          ],
          [
            [
              13.20821,
              57.713961
            ],
            [
              13.208498,
              57.713847
            ]
          ],
          [
            [
              13.208498,
              57.713847
            ],
            [
              13.208764,
              57.713741
            ],
            [
              13.209059,
              57.713683
            ],
            [
              13.209379,
              57.713737
            ],
            [
              13.209657,
              57.713796
            ]
          ],
          [
            [
              13.208498,
              57.713847
            ],
            [
              13.209067,
              57.713776
            ],
            [
              13.209657,
              57.713796
            ]
          ],
          [
            [
              13.209657,
              57.713796
            ],
            [
              13.209778,
              57.7138
            ]
          ],
          [
            [
              13.209657,
              57.713796
            ],
            [
              13.209716,
              57.713809
            ],
            [
              13.209778,
              57.7138
            ]
          ],
          [
            [
              13.209778,
              57.7138
            ],
            [
              13.209835,
              57.713802
            ],
            [
              13.210302,
              57.713829
            ],
            [
              13.210933,
              57.713669
            ],
            [
              13.211425,
              57.713474
            ]
          ],
          [
            [
              13.209778,
              57.7138
            ],
            [
              13.210112,
              57.713755
            ],
            [
              13.21077,
              57.713607
            ],
            [
              13.211182,
              57.713499
            ],
            [
              13.211427,
              57.713449
            ],
            [
              13.211755,
              57.71353
            ],
            [
              13.212134,
              57.713607
            ],
            [
              13.212657,
              57.71362
            ],
            [
              13.212808,
              57.71362
            ],
            [
              13.213162,
              57.713822
            ],
            [
              13.213297,
              57.713867
            ],
            [
              13.213811,
              57.714096
            ],
            [
              13.214224,
              57.714128
            ],
            [
              13.214965,
              57.714137
            ],
            [
              13.215075,
              57.714154
            ],
            [
              13.215361,
              57.714123
            ],
            [
              13.215715,
              57.714132
            ],
            [
              13.216835,
              57.714145
            ],
            [
              13.21815,
              57.714096
            ],
            [
              13.218798,
              57.714087
            ],
            [
              13.219775,
              57.714477
            ],
            [
              13.220137,
              57.714589
            ],
            [
              13.220533,
              57.715065
            ],
            [
              13.220702,
              57.715164
            ],
            [
              13.221334,
              57.715281
            ],
            [
              13.221595,
              57.715366
            ],
            [
              13.221763,
              57.715479
            ],
            [
              13.221763,
              57.715663
            ],
            [
              13.22178,
              57.716094
            ],
            [
              13.221678,
              57.716241
            ],
            [
              13.22094,
              57.716541
            ],
            [
              13.220811,
              57.716745
            ],
            [
              13.220626,
              57.716799
            ],
            [
              13.220205,
              57.716808
            ],
            [
              13.219826,
              57.716871
            ],
            [
              13.219539,
              57.716992
            ],
            [
              13.219219,
              57.717284
            ],
            [
              13.218848,
              57.71772
            ],
            [
              13.218789,
              57.718122
            ],
            [
              13.21884,
              57.718329
            ],
            [
              13.218966,
              57.718733
            ],
            [
              13.218882,
              57.718926
            ],
            [
              13.219177,
              57.718984
            ],
            [
              13.219455,
              57.719097
            ],
            [
              13.219573,
              57.71924
            ],
            [
              13.219876,
              57.719308
            ],
            [
              13.22034,
              57.719483
            ],
            [
              13.220458,
              57.719555
            ],
            [
              13.220567,
              57.719744
            ],
            [
              13.22103,
              57.71982
            ],
            [
              13.22157,
              57.719887
            ],
            [
              13.222067,
              57.719986
            ],
            [
              13.222437,
              57.720035
            ],
            [
              13.223002,
              57.720224
            ],
            [
              13.223339,
              57.720318
            ],
            [
              13.223503,
              57.720357
            ],
            [
              13.223815,
              57.720559
            ],
            [
              13.224034,
              57.720806
            ],
            [
              13.224329,
              57.720914
            ],
            [
              13.224733,
              57.720954
            ],
            [
              13.224986,
              57.720887
            ],
            [
              13.225475,
              57.720904
            ],
            [
              13.225786,
              57.720923
            ],
            [
              13.226031,
              57.721026
            ],
            [
              13.226081,
              57.72117
            ],
            [
              13.226216,
              57.721286
            ],
            [
              13.226595,
              57.721448
            ],
            [
              13.22673,
              57.721542
            ],
            [
              13.226831,
              57.721785
            ],
            [
              13.226898,
              57.721974
            ],
            [
              13.227227,
              57.722009
            ],
            [
              13.227783,
              57.722027
            ],
            [
              13.227935,
              57.722059
            ],
            [
              13.228491,
              57.722027
            ],
            [
              13.228979,
              57.722072
            ],
            [
              13.229173,
              57.722229
            ],
            [
              13.229358,
              57.722355
            ],
            [
              13.229367,
              57.72249
            ],
            [
              13.229611,
              57.722616
            ],
            [
              13.229856,
              57.72276
            ],
            [
              13.229898,
              57.722957
            ],
            [
              13.230134,
              57.723164
            ],
            [
              13.230327,
              57.723402
            ],
            [
              13.230496,
              57.723595
            ],
            [
              13.230454,
              57.723923
            ],
            [
              13.231178,
              57.724053
            ],
            [
              13.23176,
              57.724161
            ],
            [
              13.232366,
              57.724401
            ],
            [
              13.23309,
              57.724572
            ],
            [
              13.233495,
              57.724572
            ],
            [
              13.233924,
              57.724648
            ],
            [
              13.235129,
              57.724985
            ],
            [
              13.235449,
              57.725115
            ],
            [
              13.235744,
              57.725286
            ],
            [
              13.235761,
              57.725605
            ],
            [
              13.236081,
              57.726068
            ],
            [
              13.236376,
              57.726503
            ],
            [
              13.236949,
              57.727083
            ],
            [
              13.237412,
              57.727244
            ],
            [
              13.237715,
              57.727303
            ],
            [
              13.238294,
              57.727699
            ],
            [
              13.238528,
              57.727912
            ],
            [
              13.238472,
              57.728222
            ],
            [
              13.239187,
              57.728516
            ],
            [
              13.239811,
              57.72866
            ],
            [
              13.240451,
              57.728741
            ],
            [
              13.2411,
              57.728795
            ],
            [
              13.241454,
              57.728847
            ],
            [
              13.241412,
              57.729096
            ],
            [
              13.241395,
              57.729374
            ],
            [
              13.240948,
              57.729666
            ],
            [
              13.240898,
              57.729819
            ],
            [
              13.241159,
              57.730309
            ],
            [
              13.241445,
              57.730434
            ],
            [
              13.242043,
              57.730601
            ],
            [
              13.242448,
              57.730803
            ],
            [
              13.242928,
              57.731117
            ],
            [
              13.243388,
              57.731289
            ],
            [
              13.243657,
              57.73146
            ],
            [
              13.243792,
              57.731703
            ],
            [
              13.243657,
              57.731851
            ],
            [
              13.242773,
              57.732066
            ],
            [
              13.242099,
              57.732493
            ],
            [
              13.241719,
              57.732763
            ],
            [
              13.24129,
              57.732893
            ],
            [
              13.240767,
              57.732987
            ],
            [
              13.240296,
              57.733126
            ],
            [
              13.239504,
              57.733149
            ],
            [
              13.239057,
              57.733216
            ],
            [
              13.23867,
              57.733346
            ],
            [
              13.238579,
              57.733412
            ],
            [
              13.238459,
              57.733845
            ],
            [
              13.238383,
              57.733984
            ],
            [
              13.238223,
              57.734119
            ],
            [
              13.237996,
              57.734303
            ],
            [
              13.237692,
              57.734937
            ],
            [
              13.237244,
              57.735211
            ],
            [
              13.236823,
              57.735396
            ],
            [
              13.23625,
              57.735773
            ],
            [
              13.235913,
              57.736092
            ],
            [
              13.235247,
              57.736442
            ],
            [
              13.234995,
              57.736613
            ],
            [
              13.234801,
              57.736779
            ],
            [
              13.234554,
              57.736904
            ],
            [
              13.234615,
              57.737035
            ],
            [
              13.234691,
              57.737385
            ],
            [
              13.234573,
              57.737799
            ],
            [
              13.234439,
              57.737888
            ],
            [
              13.234497,
              57.73832
            ],
            [
              13.234506,
              57.738636
            ],
            [
              13.234843,
              57.738793
            ],
            [
              13.234986,
              57.738946
            ],
            [
              13.235879,
              57.739507
            ],
            [
              13.236562,
              57.739934
            ],
            [
              13.236991,
              57.740163
            ],
            [
              13.237438,
              57.740347
            ],
            [
              13.237758,
              57.740387
            ],
            [
              13.238137,
              57.740378
            ],
            [
              13.238828,
              57.740513
            ],
            [
              13.239274,
              57.740648
            ],
            [
              13.240369,
              57.74116
            ],
            [
              13.241136,
              57.741699
            ],
            [
              13.241736,
              57.741982
            ],
            [
              13.242182,
              57.742148
            ],
            [
              13.242814,
              57.742373
            ],
            [
              13.243193,
              57.742458
            ],
            [
              13.243513,
              57.742705
            ],
            [
              13.244078,
              57.742858
            ],
            [
              13.244575,
              57.743002
            ],
            [
              13.245291,
              57.743069
            ],
            [
              13.245805,
              57.743164
            ],
            [
              13.246706,
              57.743514
            ],
            [
              13.247279,
              57.74368
            ],
            [
              13.247473,
              57.743738
            ],
            [
              13.247852,
              57.7439
            ],
            [
              13.247747,
              57.744051
            ],
            [
              13.247787,
              57.744347
            ],
            [
              13.247869,
              57.744677
            ],
            [
              13.247798,
              57.744991
            ],
            [
              13.248059,
              57.745325
            ],
            [
              13.248197,
              57.745649
            ],
            [
              13.248313,
              57.745819
            ],
            [
              13.248531,
              57.746282
            ],
            [
              13.24844,
              57.746484
            ],
            [
              13.248684,
              57.746654
            ],
            [
              13.248972,
              57.746853
            ],
            [
              13.249914,
              57.747243
            ],
            [
              13.250487,
              57.747463
            ],
            [
              13.251051,
              57.747499
            ],
            [
              13.251708,
              57.747427
            ],
            [
              13.252316,
              57.747341
            ],
            [
              13.252778,
              57.74736
            ],
            [
              13.25303,
              57.747349
            ],
            [
              13.253576,
              57.747658
            ],
            [
              13.25446,
              57.747755
            ],
            [
              13.255803,
              57.74784
            ],
            [
              13.256518,
              57.747903
            ],
            [
              13.257125,
              57.747957
            ],
            [
              13.257285,
              57.747953
            ],
            [
              13.258262,
              57.747693
            ],
            [
              13.258448,
              57.747845
            ],
            [
              13.258894,
              57.748047
            ],
            [
              13.259111,
              57.748165
            ],
            [
              13.259204,
              57.748534
            ],
            [
              13.259207,
              57.749355
            ],
            [
              13.259373,
              57.749535
            ],
            [
              13.259575,
              57.749814
            ],
            [
              13.258993,
              57.750393
            ],
            [
              13.258825,
              57.750595
            ],
            [
              13.259777,
              57.750429
            ],
            [
              13.260485,
              57.750326
            ],
            [
              13.260636,
              57.750564
            ],
            [
              13.261687,
              57.750953
            ],
            [
              13.262791,
              57.750931
            ],
            [
              13.263532,
              57.750787
            ],
            [
              13.264375,
              57.750693
            ],
            [
              13.265007,
              57.750778
            ],
            [
              13.265891,
              57.750958
            ],
            [
              13.266186,
              57.751119
            ],
            [
              13.266868,
              57.751564
            ],
            [
              13.267096,
              57.751775
            ],
            [
              13.267222,
              57.752076
            ],
            [
              13.267231,
              57.75239
            ],
            [
              13.267199,
              57.753019
            ],
            [
              13.268073,
              57.753232
            ],
            [
              13.268402,
              57.753386
            ],
            [
              13.268402,
              57.753435
            ],
            [
              13.268073,
              57.753548
            ],
            [
              13.267568,
              57.753629
            ],
            [
              13.266608,
              57.753929
            ],
            [
              13.266745,
              57.754306
            ],
            [
              13.266995,
              57.754423
            ],
            [
              13.267745,
              57.754531
            ],
            [
              13.268949,
              57.755156
            ],
            [
              13.269211,
              57.755524
            ],
            [
              13.269547,
              57.755834
            ],
            [
              13.269977,
              57.756117
            ],
            [
              13.270331,
              57.75631
            ],
            [
              13.270631,
              57.756526
            ],
            [
              13.270954,
              57.756656
            ],
            [
              13.271476,
              57.757131
            ],
            [
              13.271527,
              57.757228
            ],
            [
              13.271426,
              57.757474
            ],
            [
              13.271535,
              57.757712
            ],
            [
              13.271771,
              57.757891
            ],
            [
              13.272066,
              57.758224
            ],
            [
              13.272572,
              57.758588
            ],
            [
              13.272706,
              57.75874
            ],
            [
              13.272782,
              57.758848
            ],
            [
              13.272883,
              57.76024
            ],
            [
              13.273199,
              57.761416
            ],
            [
              13.273877,
              57.762798
            ],
            [
              13.274273,
              57.763522
            ],
            [
              13.27472,
              57.763984
            ],
            [
              13.274981,
              57.764146
            ],
            [
              13.27507,
              57.764237
            ],
            [
              13.275644,
              57.764413
            ],
            [
              13.275805,
              57.764529
            ],
            [
              13.275937,
              57.764866
            ],
            [
              13.276274,
              57.765086
            ],
            [
              13.276317,
              57.765163
            ],
            [
              13.276721,
              57.76532
            ],
            [
              13.276974,
              57.765517
            ],
            [
              13.277572,
              57.765782
            ],
            [
              13.27801,
              57.765895
            ],
            [
              13.278288,
              57.76598
            ],
            [
              13.278701,
              57.765908
            ],
            [
              13.279046,
              57.766047
            ],
            [
              13.279585,
              57.766083
            ],
            [
              13.280032,
              57.766303
            ],
            [
              13.280285,
              57.766447
            ],
            [
              13.280975,
              57.766591
            ],
            [
              13.281582,
              57.766667
            ],
            [
              13.281902,
              57.766613
            ],
            [
              13.281978,
              57.766532
            ],
            [
              13.282001,
              57.766454
            ],
            [
              13.28213,
              57.76633
            ],
            [
              13.282369,
              57.766163
            ]
          ]
        ]
      }
    }
  ]
}
